{"type":"FeatureCollection","features":[{"type":"Feature","properties":{},"geometry":{"type":"Polygon","coordinates":[[[-76.64999999999998,35.47500000000002],[-76.64999999999998,35.44327290000001],[-76.64999999999998,35.43856579999999],[-76.64999999999998,35.438330399999984],[-76.64999999999998,35.436961],[-76.64999999999998,35.4363012],[-76.64999999999998,35.43292810000003],[-76.64999999999998,35.43236510000003],[-76.64999999999998,35.43172290000001],[-76.64999999999998,35.430290000000014],[-76.64999999999998,35.4281891],[-76.64999999999998,35.42778700000002],[-76.64999999999998,35.427212499999996],[-76.64999999999998,35.42618090000002],[-76.64999999999998,35.416474100000016],[-76.64999999999998,35.4162384],[-76.64999999999998,35.41596559999999],[-76.64999999999998,35.4156534],[-76.64999999999998,35.41004779999997],[-76.64999999999998,35.40921309999999],[-76.64999999999998,35.40691129999999],[-76.64999999999998,35.406453399999975],[-76.64999999999998,35.40463199999999],[-76.64999999999998,35.39999999999998],[-76.6517159,35.39999999999998],[-76.65489889999998,35.39999999999998],[-76.705,35.39999999999998],[-76.705,35.47500000000002],[-76.64999999999998,35.47500000000002]]]}},{"type":"Feature","properties":{},"geometry":{"type":"Polygon","coordinates":[[[-76.646547,35.39999999999998],[-76.64999999999998,35.39999999999998],[-76.64999999999998,35.40463199999999],[-76.64999999999998,35.406453399999975],[-76.64999999999998,35.40691129999999],[-76.64999999999998,35.40921309999999],[-76.64999999999998,35.41004779999997],[-76.64999999999998,35.4156534],[-76.64999999999998,35.41596559999999],[-76.64999999999998,35.4162384],[-76.64999999999998,35.416474100000016],[-76.64999999999998,35.42618090000002],[-76.64999999999998,35.427212499999996],[-76.64999999999998,35.42778700000002],[-76.64999999999998,35.4281891],[-76.64999999999998,35.430290000000014],[-76.64999999999998,35.43172290000001],[-76.64999999999998,35.43236510000003],[-76.64999999999998,35.43292810000003],[-76.64999999999998,35.4363012],[-76.64999999999998,35.436961],[-76.64999999999998,35.438330399999984],[-76.64999999999998,35.43856579999999],[-76.64999999999998,35.44327290000001],[-76.64999999999998,35.47500000000002],[-76.60136899999998,35.47500000000002],[-76.59666800000002,35.47500000000002],[-76.58624270000001,35.47500000000002],[-76.58588559999998,35.47500000000002],[-76.58082839999997,35.47500000000002],[-76.57499999999999,35.47500000000002],[-76.57499999999999,35.4688797],[-76.57499999999999,35.46624700000001],[-76.57499999999999,35.46104389999999],[-76.57499999999999,35.448918900000024],[-76.57499999999999,35.44719889999999],[-76.57499999999999,35.441576999999995],[-76.57499999999999,35.43169169999999],[-76.57499999999999,35.42914939999997],[-76.57499999999999,35.42819650000001],[-76.57499999999999,35.42636540000001],[-76.57499999999999,35.41411950000003],[-76.57499999999999,35.41196389999999],[-76.57499999999999,35.40766869999999],[-76.57499999999999,35.39999999999998],[-76.57703850000001,35.39999999999998],[-76.58134009999998,35.39999999999998],[-76.58719000000002,35.39999999999998],[-76.59443199999998,35.39999999999998],[-76.59607269999998,35.39999999999998],[-76.59625729999999,35.39999999999998],[-76.59753799999999,35.39999999999998],[-76.59764899999999,35.39999999999998],[-76.59977409999999,35.39999999999998],[-76.62963079999997,35.39999999999998],[-76.64118250000001,35.39999999999998],[-76.646547,35.39999999999998]]]}},{"type":"Feature","properties":{},"geometry":{"type":"Polygon","coordinates":[[[-76.57039300000002,35.39999999999998],[-76.57499999999999,35.39999999999998],[-76.57499999999999,35.40766869999999],[-76.57499999999999,35.41196389999999],[-76.57499999999999,35.41411950000003],[-76.57499999999999,35.42636540000001],[-76.57499999999999,35.42819650000001],[-76.57499999999999,35.42914939999997],[-76.57499999999999,35.43169169999999],[-76.57499999999999,35.441576999999995],[-76.57499999999999,35.44719889999999],[-76.57499999999999,35.448918900000024],[-76.57499999999999,35.46104389999999],[-76.57499999999999,35.46624700000001],[-76.57499999999999,35.4688797],[-76.57499999999999,35.47500000000002],[-76.57486799999998,35.47500000000002],[-76.57137879999999,35.47500000000002],[-76.568285,35.47500000000002],[-76.5629859,35.47500000000002],[-76.56263869999998,35.47500000000002],[-76.56191360000003,35.47500000000002],[-76.55602340000002,35.47500000000002],[-76.54710310000002,35.47500000000002],[-76.5467425,35.47500000000002],[-76.5464374,35.47500000000002],[-76.54466489999999,35.47500000000002],[-76.54394339999999,35.47500000000002],[-76.54160250000001,35.47500000000002],[-76.5408615,35.47500000000002],[-76.5391419,35.47500000000002],[-76.53782369999999,35.47500000000002],[-76.52602940000003,35.47500000000002],[-76.52386369999999,35.47500000000002],[-76.52153019999997,35.47500000000002],[-76.52098960000001,35.47500000000002],[-76.5146767,35.47500000000002],[-76.51304720000002,35.47500000000002],[-76.5,35.47500000000002],[-76.5,35.464191400000004],[-76.5,35.46228289999999],[-76.5,35.460309300000006],[-76.5,35.453531699999985],[-76.5,35.42117059999998],[-76.5,35.420801900000015],[-76.5,35.419752200000005],[-76.5,35.41960940000001],[-76.5,35.419057399999986],[-76.5,35.41735110000002],[-76.5,35.4169321],[-76.5,35.40921730000002],[-76.5,35.4081807],[-76.5,35.406545900000026],[-76.5,35.40411289999997],[-76.5,35.40368289999998],[-76.5,35.39999999999998],[-76.50069350000001,35.39999999999998],[-76.50100759999998,35.39999999999998],[-76.50209310000002,35.39999999999998],[-76.50236999999998,35.39999999999998],[-76.5070177,35.39999999999998],[-76.5109673,35.39999999999998],[-76.51281949999998,35.39999999999998],[-76.5145402,35.39999999999998],[-76.5195976,35.39999999999998],[-76.51989259999999,35.39999999999998],[-76.5297124,35.39999999999998],[-76.53665339999998,35.39999999999998],[-76.54078700000002,35.39999999999998],[-76.56019500000002,35.39999999999998],[-76.5603878,35.39999999999998],[-76.57039300000002,35.39999999999998]]]}},{"type":"Feature","properties":{},"geometry":{"type":"Polygon","coordinates":[[[-76.6943331,35.55000000000001],[-76.68911450000002,35.55000000000001],[-76.6890209,35.55000000000001],[-76.68762029999999,35.55000000000001],[-76.68616279999998,35.55000000000001],[-76.66699319999998,35.55000000000001],[-76.6628283,35.55000000000001],[-76.6620231,35.55000000000001],[-76.65634770000003,35.55000000000001],[-76.65630199999998,35.55000000000001],[-76.6509011,35.55000000000001],[-76.64999999999998,35.55000000000001],[-76.64999999999998,35.54970370000001],[-76.64999999999998,35.54647619999997],[-76.64999999999998,35.54305049999999],[-76.64999999999998,35.538429199999996],[-76.64999999999998,35.53777889999998],[-76.64999999999998,35.530316500000026],[-76.64999999999998,35.529298100000005],[-76.64999999999998,35.52807100000001],[-76.64999999999998,35.51876279999999],[-76.64999999999998,35.518379100000004],[-76.64999999999998,35.51740080000002],[-76.64999999999998,35.51680379999999],[-76.64999999999998,35.51672669999999],[-76.64999999999998,35.515603399999975],[-76.64999999999998,35.51203079999999],[-76.64999999999998,35.507204],[-76.64999999999998,35.50570959999999],[-76.64999999999998,35.49158649999998],[-76.64999999999998,35.4849701],[-76.64999999999998,35.47500000000002],[-76.705,35.47500000000002],[-76.705,35.55000000000001],[-76.6943331,35.55000000000001]]]}},{"type":"Feature","properties":{},"geometry":{"type":"Polygon","coordinates":[[[-76.60136899999998,35.47500000000002],[-76.64999999999998,35.47500000000002],[-76.64999999999998,35.4849701],[-76.64999999999998,35.49158649999998],[-76.64999999999998,35.50570959999999],[-76.64999999999998,35.507204],[-76.64999999999998,35.51203079999999],[-76.64999999999998,35.515603399999975],[-76.64999999999998,35.51672669999999],[-76.64999999999998,35.51680379999999],[-76.64999999999998,35.51740080000002],[-76.64999999999998,35.518379100000004],[-76.64999999999998,35.51876279999999],[-76.64999999999998,35.52807100000001],[-76.64999999999998,35.529298100000005],[-76.64999999999998,35.530316500000026],[-76.64999999999998,35.53777889999998],[-76.64999999999998,35.538429199999996],[-76.64999999999998,35.54305049999999],[-76.64999999999998,35.54647619999997],[-76.64999999999998,35.54970370000001],[-76.64999999999998,35.55000000000001],[-76.64732500000002,35.55000000000001],[-76.64591439999998,35.55000000000001],[-76.63491320000003,35.55000000000001],[-76.63350580000002,35.55000000000001],[-76.6294886,35.55000000000001],[-76.59536029999998,35.55000000000001],[-76.59271059999998,35.55000000000001],[-76.59200659999999,35.55000000000001],[-76.58974119999999,35.55000000000001],[-76.58565420000002,35.55000000000001],[-76.5842778,35.55000000000001],[-76.58149500000002,35.55000000000001],[-76.5783348,35.55000000000001],[-76.57777049999999,35.55000000000001],[-76.57499999999999,35.55000000000001],[-76.57499999999999,35.5498508],[-76.57499999999999,35.53930350000002],[-76.57499999999999,35.53472900000003],[-76.57499999999999,35.52223520000001],[-76.57499999999999,35.52195069999999],[-76.57499999999999,35.5215],[-76.57499999999999,35.518974300000025],[-76.57499999999999,35.51612590000002],[-76.57499999999999,35.513326000000006],[-76.57499999999999,35.508801500000004],[-76.57499999999999,35.50591429999997],[-76.57499999999999,35.505492000000004],[-76.57499999999999,35.5046097],[-76.57499999999999,35.50323950000001],[-76.57499999999999,35.50159960000002],[-76.57499999999999,35.50127809999998],[-76.57499999999999,35.49877650000002],[-76.57499999999999,35.494122800000014],[-76.57499999999999,35.49335830000001],[-76.57499999999999,35.49027890000002],[-76.57499999999999,35.486080000000015],[-76.57499999999999,35.48440019999998],[-76.57499999999999,35.475186699999995],[-76.57499999999999,35.47500000000002],[-76.58082839999997,35.47500000000002],[-76.58588559999998,35.47500000000002],[-76.58624270000001,35.47500000000002],[-76.59666800000002,35.47500000000002],[-76.60136899999998,35.47500000000002]]]}},{"type":"Feature","properties":{},"geometry":{"type":"Polygon","coordinates":[[[-76.57486799999998,35.47500000000002],[-76.57499999999999,35.47500000000002],[-76.57499999999999,35.475186699999995],[-76.57499999999999,35.48440019999998],[-76.57499999999999,35.486080000000015],[-76.57499999999999,35.49027890000002],[-76.57499999999999,35.49335830000001],[-76.57499999999999,35.494122800000014],[-76.57499999999999,35.49877650000002],[-76.57499999999999,35.50127809999998],[-76.57499999999999,35.50159960000002],[-76.57499999999999,35.50323950000001],[-76.57499999999999,35.5046097],[-76.57499999999999,35.505492000000004],[-76.57499999999999,35.50591429999997],[-76.57499999999999,35.508801500000004],[-76.57499999999999,35.513326000000006],[-76.57499999999999,35.51612590000002],[-76.57499999999999,35.518974300000025],[-76.57499999999999,35.5215],[-76.57499999999999,35.52195069999999],[-76.57499999999999,35.52223520000001],[-76.57499999999999,35.53472900000003],[-76.57499999999999,35.53930350000002],[-76.57499999999999,35.5498508],[-76.57499999999999,35.55000000000001],[-76.5741519,35.55000000000001],[-76.53246669999999,35.55000000000001],[-76.52987000000002,35.55000000000001],[-76.5295903,35.55000000000001],[-76.52877430000001,35.55000000000001],[-76.52580849999998,35.55000000000001],[-76.52519660000002,35.55000000000001],[-76.52470890000001,35.55000000000001],[-76.5,35.55000000000001],[-76.5,35.53833700000001],[-76.5,35.536272499999995],[-76.5,35.53482539999999],[-76.5,35.53442150000001],[-76.5,35.53194000000002],[-76.5,35.51922910000002],[-76.5,35.51869199999999],[-76.5,35.5182805],[-76.5,35.5175241],[-76.5,35.51581199999998],[-76.5,35.5155067],[-76.5,35.51500470000002],[-76.5,35.50978629999997],[-76.5,35.5028906],[-76.5,35.47500000000002],[-76.51304720000002,35.47500000000002],[-76.5146767,35.47500000000002],[-76.52098960000001,35.47500000000002],[-76.52153019999997,35.47500000000002],[-76.52386369999999,35.47500000000002],[-76.52602940000003,35.47500000000002],[-76.53782369999999,35.47500000000002],[-76.5391419,35.47500000000002],[-76.5408615,35.47500000000002],[-76.54160250000001,35.47500000000002],[-76.54394339999999,35.47500000000002],[-76.54466489999999,35.47500000000002],[-76.5464374,35.47500000000002],[-76.5467425,35.47500000000002],[-76.54710310000002,35.47500000000002],[-76.55602340000002,35.47500000000002],[-76.56191360000003,35.47500000000002],[-76.56263869999998,35.47500000000002],[-76.5629859,35.47500000000002],[-76.568285,35.47500000000002],[-76.57137879999999,35.47500000000002],[-76.57486799999998,35.47500000000002]]]}},{"type":"Feature","properties":{},"geometry":{"type":"Polygon","coordinates":[[[-76.48268489999998,35.47500000000002],[-76.5,35.47500000000002],[-76.5,35.5028906],[-76.5,35.50978629999997],[-76.5,35.51500470000002],[-76.5,35.5155067],[-76.5,35.51581199999998],[-76.5,35.5175241],[-76.5,35.5182805],[-76.5,35.51869199999999],[-76.5,35.51922910000002],[-76.5,35.53194000000002],[-76.5,35.53442150000001],[-76.5,35.53482539999999],[-76.5,35.536272499999995],[-76.5,35.53833700000001],[-76.5,35.55000000000001],[-76.48748490000003,35.55000000000001],[-76.48656440000002,35.55000000000001],[-76.4807083,35.55000000000001],[-76.47947470000003,35.55000000000001],[-76.47755699999999,35.55000000000001],[-76.4748897,35.55000000000001],[-76.46797020000002,35.55000000000001],[-76.46670189999998,35.55000000000001],[-76.46554229999998,35.55000000000001],[-76.46219070000001,35.55000000000001],[-76.46193169999998,35.55000000000001],[-76.45740619999998,35.55000000000001],[-76.45503780000001,35.55000000000001],[-76.44919449999998,35.55000000000001],[-76.4480724,35.55000000000001],[-76.44776569999999,35.55000000000001],[-76.44697769999999,35.55000000000001],[-76.4440826,35.55000000000001],[-76.4425278,35.55000000000001],[-76.42500000000001,35.55000000000001],[-76.42500000000001,35.51570340000001],[-76.42500000000001,35.47500000000002],[-76.48268489999998,35.47500000000002]]]}},{"type":"Feature","properties":{},"geometry":{"type":"Polygon","coordinates":[[[-76.5,35.39512860000002],[-76.5,35.39662249999998],[-76.5,35.39996609999997],[-76.5,35.39999999999998],[-76.5,35.40368289999998],[-76.5,35.40411289999997],[-76.5,35.406545900000026],[-76.5,35.4081807],[-76.5,35.40921730000002],[-76.5,35.4169321],[-76.5,35.41735110000002],[-76.5,35.419057399999986],[-76.5,35.41960940000001],[-76.5,35.419752200000005],[-76.5,35.420801900000015],[-76.5,35.42117059999998],[-76.5,35.453531699999985],[-76.5,35.460309300000006],[-76.5,35.46228289999999],[-76.5,35.464191400000004],[-76.5,35.47500000000002],[-76.48268489999998,35.47500000000002],[-76.4812733,35.410819600000025],[-76.4812407,35.40933510000002],[-76.48123270000002,35.40897410000002],[-76.48116979999998,35.40611510000002],[-76.48113999999998,35.4047602],[-76.48108939999997,35.402456900000004],[-76.48104869999997,35.40060820000002],[-76.48104419999999,35.40040429999999],[-76.48093790000001,35.395566900000006],[-76.48092541892444,35.394999999999996],[-76.5,35.394999999999996],[-76.5,35.39512860000002]]]}},{"type":"Feature","properties":{},"geometry":{"type":"Polygon","coordinates":[[[-76.69902780000001,35.625],[-76.64999999999998,35.625],[-76.64999999999998,35.57787050000002],[-76.64999999999998,35.575406699999974],[-76.64999999999998,35.57445039999999],[-76.64999999999998,35.572853699999996],[-76.64999999999998,35.571848999999986],[-76.64999999999998,35.57105369999999],[-76.64999999999998,35.5707774],[-76.64999999999998,35.56599749999998],[-76.64999999999998,35.55837250000002],[-76.64999999999998,35.55177680000003],[-76.64999999999998,35.55000000000001],[-76.6509011,35.55000000000001],[-76.65630199999998,35.55000000000001],[-76.65634770000003,35.55000000000001],[-76.6620231,35.55000000000001],[-76.6628283,35.55000000000001],[-76.66699319999998,35.55000000000001],[-76.68616279999998,35.55000000000001],[-76.68762029999999,35.55000000000001],[-76.6890209,35.55000000000001],[-76.68911450000002,35.55000000000001],[-76.6943331,35.55000000000001],[-76.705,35.55000000000001],[-76.705,35.625],[-76.69902780000001,35.625]]]}},{"type":"Feature","properties":{},"geometry":{"type":"Polygon","coordinates":[[[-76.64732500000002,35.55000000000001],[-76.64999999999998,35.55000000000001],[-76.64999999999998,35.55177680000003],[-76.64999999999998,35.55837250000002],[-76.64999999999998,35.56599749999998],[-76.64999999999998,35.5707774],[-76.64999999999998,35.57105369999999],[-76.64999999999998,35.571848999999986],[-76.64999999999998,35.572853699999996],[-76.64999999999998,35.57445039999999],[-76.64999999999998,35.575406699999974],[-76.64999999999998,35.57787050000002],[-76.64999999999998,35.625],[-76.57499999999999,35.625],[-76.57499999999999,35.55243330000002],[-76.57499999999999,35.5508648],[-76.57499999999999,35.55061599999999],[-76.57499999999999,35.55000000000001],[-76.57777049999999,35.55000000000001],[-76.5783348,35.55000000000001],[-76.58149500000002,35.55000000000001],[-76.5842778,35.55000000000001],[-76.58565420000002,35.55000000000001],[-76.58974119999999,35.55000000000001],[-76.59200659999999,35.55000000000001],[-76.59271059999998,35.55000000000001],[-76.59536029999998,35.55000000000001],[-76.6294886,35.55000000000001],[-76.63350580000002,35.55000000000001],[-76.63491320000003,35.55000000000001],[-76.6459145,35.55000000000001],[-76.64732500000002,35.55000000000001]]]}},{"type":"Feature","properties":{},"geometry":{"type":"Polygon","coordinates":[[[-76.5741519,35.55000000000001],[-76.57499999999999,35.55000000000001],[-76.57499999999999,35.55061599999999],[-76.57499999999999,35.5508648],[-76.57499999999999,35.55243330000002],[-76.57499999999999,35.625],[-76.5,35.625],[-76.5,35.58373469999998],[-76.5,35.581455800000015],[-76.5,35.58075480000002],[-76.5,35.579499999999996],[-76.5,35.57760239999999],[-76.5,35.577277700000025],[-76.5,35.57593780000002],[-76.5,35.5753598],[-76.5,35.57446220000003],[-76.5,35.57308010000003],[-76.5,35.572684200000026],[-76.5,35.57222139999999],[-76.5,35.570798000000025],[-76.5,35.57004069999999],[-76.5,35.5695164],[-76.5,35.56050049999999],[-76.5,35.55000000000001],[-76.52470890000001,35.55000000000001],[-76.52519660000002,35.55000000000001],[-76.52580849999998,35.55000000000001],[-76.52877430000001,35.55000000000001],[-76.5295903,35.55000000000001],[-76.52987000000002,35.55000000000001],[-76.53246669999999,35.55000000000001],[-76.5741519,35.55000000000001]]]}},{"type":"Feature","properties":{},"geometry":{"type":"Polygon","coordinates":[[[-76.48748490000003,35.55000000000001],[-76.5,35.55000000000001],[-76.5,35.56050049999999],[-76.5,35.5695164],[-76.5,35.57004069999999],[-76.5,35.570798000000025],[-76.5,35.57222139999999],[-76.5,35.572684200000026],[-76.5,35.57308010000003],[-76.5,35.57446220000003],[-76.5,35.5753598],[-76.5,35.57593780000002],[-76.5,35.577277700000025],[-76.5,35.57760239999999],[-76.5,35.579499999999996],[-76.5,35.58075480000002],[-76.5,35.581455800000015],[-76.5,35.58373469999998],[-76.5,35.625],[-76.4372889,35.625],[-76.42500000000001,35.625],[-76.42500000000001,35.55831949999998],[-76.42500000000001,35.5578893],[-76.42500000000001,35.55762390000001],[-76.42500000000001,35.55000000000001],[-76.4425278,35.55000000000001],[-76.4440826,35.55000000000001],[-76.44697769999999,35.55000000000001],[-76.44776569999999,35.55000000000001],[-76.4480724,35.55000000000001],[-76.44919449999998,35.55000000000001],[-76.45503780000001,35.55000000000001],[-76.45740619999998,35.55000000000001],[-76.46193169999998,35.55000000000001],[-76.46219070000001,35.55000000000001],[-76.46554229999998,35.55000000000001],[-76.46670189999998,35.55000000000001],[-76.46797020000002,35.55000000000001],[-76.4748897,35.55000000000001],[-76.47755699999999,35.55000000000001],[-76.47947470000003,35.55000000000001],[-76.4807083,35.55000000000001],[-76.48656440000002,35.55000000000001],[-76.48748490000003,35.55000000000001]]]}},{"type":"Feature","properties":{},"geometry":{"type":"Polygon","coordinates":[[[-76.38769059999998,35.55000000000001],[-76.42500000000001,35.55000000000001],[-76.42500000000001,35.55762390000001],[-76.42500000000001,35.5578893],[-76.42500000000001,35.55831949999998],[-76.42500000000001,35.625],[-76.35000000000002,35.625],[-76.35000000000002,35.57145639999999],[-76.35000000000002,35.5711685],[-76.35000000000002,35.57090149999999],[-76.35000000000002,35.55000000000001],[-76.38769059999998,35.55000000000001]]]}},{"type":"Feature","properties":{},"geometry":{"type":"Polygon","coordinates":[[[-76.32212570000002,35.55000000000001],[-76.34400929999998,35.55000000000001],[-76.35000000000002,35.55000000000001],[-76.35000000000002,35.57090149999999],[-76.35000000000002,35.5711685],[-76.35000000000002,35.57145639999999],[-76.35000000000002,35.625],[-76.31398610000002,35.625],[-76.3075786,35.625],[-76.29494720000002,35.625],[-76.27499999999998,35.625],[-76.27499999999998,35.584763699999996],[-76.27499999999998,35.5844194],[-76.27499999999998,35.584276699999975],[-76.27499999999998,35.56905389999997],[-76.27499999999998,35.568814599999996],[-76.27499999999998,35.55000000000001],[-76.32212570000002,35.55000000000001]]]}},{"type":"Feature","properties":{},"geometry":{"type":"Polygon","coordinates":[[[-76.27499999999998,35.55000000000001],[-76.27499999999998,35.568814599999996],[-76.27499999999998,35.56905389999997],[-76.27499999999998,35.584276699999975],[-76.27499999999998,35.5844194],[-76.27499999999998,35.584763699999996],[-76.27499999999998,35.625],[-76.20228150000003,35.625],[-76.19999999999999,35.625],[-76.19999999999999,35.618647399999986],[-76.19999999999999,35.617153599999995],[-76.19999999999999,35.616197399999976],[-76.19999999999999,35.61574400000001],[-76.19999999999999,35.615502400000025],[-76.19999999999999,35.614919999999984],[-76.19999999999999,35.61075060000002],[-76.19999999999999,35.61042650000002],[-76.19999999999999,35.61007719999998],[-76.19999999999999,35.60631330000001],[-76.19999999999999,35.605712900000015],[-76.19999999999999,35.55000000000001],[-76.27499999999998,35.55000000000001]]]}},{"type":"Feature","properties":{},"geometry":{"type":"Polygon","coordinates":[[[-76.7025284,35.92500000000001],[-76.70120150000002,35.92500000000001],[-76.70012279999997,35.92500000000001],[-76.66170929999998,35.92500000000001],[-76.64999999999998,35.92500000000001],[-76.64999999999998,35.85000000000002],[-76.6834417,35.85000000000002],[-76.705,35.85000000000002],[-76.705,35.92500000000001],[-76.7025284,35.92500000000001]]]}},{"type":"Feature","properties":{},"geometry":{"type":"Polygon","coordinates":[[[-76.64999999999998,35.85000000000002],[-76.64999999999998,35.92500000000001],[-76.61329380000001,35.92500000000001],[-76.6126597,35.92500000000001],[-76.57572570000002,35.92500000000001],[-76.57499999999999,35.92500000000001],[-76.57499999999999,35.85165139999998],[-76.57499999999999,35.85000000000002],[-76.64999999999998,35.85000000000002]]]}},{"type":"Feature","properties":{},"geometry":{"type":"Polygon","coordinates":[[[-76.3602864,35.85000000000002],[-76.36807750000003,35.85000000000002],[-76.42500000000001,35.85000000000002],[-76.42500000000001,35.855807200000015],[-76.42500000000001,35.92500000000001],[-76.36961550000001,35.92500000000001],[-76.35000000000002,35.92500000000001],[-76.35000000000002,35.88332059999999],[-76.35000000000002,35.88080910000002],[-76.35000000000002,35.86395160000001],[-76.35000000000002,35.86331530000001],[-76.35000000000002,35.8517612],[-76.35000000000002,35.85000000000002],[-76.35446200000001,35.85000000000002],[-76.3602864,35.85000000000002]]]}},{"type":"Feature","properties":{},"geometry":{"type":"Polygon","coordinates":[[[-76.35000000000002,35.86331530000001],[-76.35000000000002,35.86395160000001],[-76.35000000000002,35.88080910000002],[-76.35000000000002,35.88332059999999],[-76.35000000000002,35.92500000000001],[-76.31712620000002,35.92500000000001],[-76.30473110000003,35.92500000000001],[-76.30438620000001,35.92500000000001],[-76.28724260000001,35.92500000000001],[-76.28414659999999,35.92500000000001],[-76.27773250000001,35.92500000000001],[-76.27651100000003,35.92500000000001],[-76.27499999999998,35.92500000000001],[-76.27499999999998,35.92186670000001],[-76.27499999999998,35.92132729999997],[-76.27499999999998,35.919219699999985],[-76.27499999999998,35.88963690000003],[-76.27499999999998,35.88209119999999],[-76.27499999999998,35.88136029999998],[-76.27499999999998,35.85000000000002],[-76.35000000000002,35.85000000000002],[-76.35000000000002,35.8517612],[-76.35000000000002,35.86331530000001]]]}},{"type":"Feature","properties":{},"geometry":{"type":"Polygon","coordinates":[[[-76.27499999999998,35.85000000000002],[-76.27499999999998,35.88136029999998],[-76.27499999999998,35.88209119999999],[-76.27499999999998,35.88963690000003],[-76.27499999999998,35.919219699999985],[-76.27499999999998,35.92132729999997],[-76.27499999999998,35.92186670000001],[-76.27499999999998,35.92500000000001],[-76.26979490000002,35.92500000000001],[-76.26022180000001,35.92500000000001],[-76.25048620000001,35.92500000000001],[-76.19999999999999,35.92500000000001],[-76.19999999999999,35.906227899999976],[-76.19999999999999,35.85000000000002],[-76.27499999999998,35.85000000000002]]]}},{"type":"Feature","properties":{},"geometry":{"type":"Polygon","coordinates":[[[-76.69617069999998,36.0],[-76.68392770000003,36.0],[-76.67440049999999,36.0],[-76.6733625,36.0],[-76.66718450000002,36.0],[-76.66538079999998,36.0],[-76.64999999999998,36.0],[-76.64999999999998,35.96669459999998],[-76.64999999999998,35.9509865],[-76.64999999999998,35.939610800000025],[-76.64999999999998,35.93857200000002],[-76.64999999999998,35.935965599999975],[-76.64999999999998,35.93127370000002],[-76.64999999999998,35.92500000000001],[-76.66170929999998,35.92500000000001],[-76.70012279999997,35.92500000000001],[-76.70120150000002,35.92500000000001],[-76.7025284,35.92500000000001],[-76.705,35.92500000000001],[-76.705,36.0],[-76.69617069999998,36.0]]]}},{"type":"Feature","properties":{},"geometry":{"type":"Polygon","coordinates":[[[-76.61329380000001,35.92500000000001],[-76.64999999999998,35.92500000000001],[-76.64999999999998,35.93127370000002],[-76.64999999999998,35.935965599999975],[-76.64999999999998,35.93857200000002],[-76.64999999999998,35.939610800000025],[-76.64999999999998,35.9509865],[-76.64999999999998,35.96669459999998],[-76.64999999999998,36.0],[-76.58263099999999,36.0],[-76.57980329999998,36.0],[-76.57767130000002,36.0],[-76.57499999999999,36.0],[-76.57499999999999,35.9556508],[-76.57499999999999,35.94976609999998],[-76.57499999999999,35.94294380000002],[-76.57499999999999,35.94284449999998],[-76.57499999999999,35.94256530000001],[-76.57499999999999,35.92569959999997],[-76.57499999999999,35.92500000000001],[-76.57572570000002,35.92500000000001],[-76.6126597,35.92500000000001],[-76.61329380000001,35.92500000000001]]]}},{"type":"Feature","properties":{},"geometry":{"type":"Polygon","coordinates":[[[-76.51573660000003,35.92500000000001],[-76.57499999999999,35.92500000000001],[-76.57499999999999,35.92569959999997],[-76.57499999999999,35.94256530000001],[-76.57499999999999,35.94284449999998],[-76.57499999999999,35.94294380000002],[-76.57499999999999,35.94976609999998],[-76.57499999999999,35.9556508],[-76.57499999999999,36.0],[-76.509614,36.0],[-76.50949750000001,36.0],[-76.5,36.0],[-76.5,35.981504099999995],[-76.5,35.9812728],[-76.5,35.967753200000004],[-76.5,35.96304309999999],[-76.5,35.954497600000025],[-76.5,35.954252199999985],[-76.5,35.92500000000001],[-76.51573660000003,35.92500000000001]]]}},{"type":"Feature","properties":{},"geometry":{"type":"Polygon","coordinates":[[[-76.5,35.954252199999985],[-76.5,35.954497600000025],[-76.5,35.96304309999999],[-76.5,35.967753200000004],[-76.5,35.9812728],[-76.5,35.981504099999995],[-76.5,36.0],[-76.42500000000001,36.0],[-76.42500000000001,35.9925083],[-76.42500000000001,35.98978940000001],[-76.42500000000001,35.97771019999999],[-76.42500000000001,35.928774299999986],[-76.42500000000001,35.92500000000001],[-76.45768609999999,35.92500000000001],[-76.46760699999999,35.92500000000001],[-76.5,35.92500000000001],[-76.5,35.954252199999985]]]}},{"type":"Feature","properties":{},"geometry":{"type":"Polygon","coordinates":[[[-76.36961550000001,35.92500000000001],[-76.42500000000001,35.92500000000001],[-76.42500000000001,35.928774299999986],[-76.42500000000001,35.97771019999999],[-76.42500000000001,35.98978940000001],[-76.42500000000001,35.9925083],[-76.42500000000001,36.0],[-76.402491,36.0],[-76.37959469999998,36.0],[-76.35000000000002,36.0],[-76.35000000000002,35.97680029999998],[-76.35000000000002,35.974694399999976],[-76.35000000000002,35.973460699999976],[-76.35000000000002,35.96393560000001],[-76.35000000000002,35.957188099999996],[-76.35000000000002,35.95384539999998],[-76.35000000000002,35.952198099999976],[-76.35000000000002,35.948305800000014],[-76.35000000000002,35.946409500000016],[-76.35000000000002,35.942386399999975],[-76.35000000000002,35.942028600000015],[-76.35000000000002,35.930074400000024],[-76.35000000000002,35.92500000000001],[-76.36961550000001,35.92500000000001]]]}},{"type":"Feature","properties":{},"geometry":{"type":"Polygon","coordinates":[[[-76.35000000000002,35.942028600000015],[-76.35000000000002,35.942386399999975],[-76.35000000000002,35.946409500000016],[-76.35000000000002,35.948305800000014],[-76.35000000000002,35.952198099999976],[-76.35000000000002,35.95384539999998],[-76.35000000000002,35.957188099999996],[-76.35000000000002,35.96393560000001],[-76.35000000000002,35.973460699999976],[-76.35000000000002,35.974694399999976],[-76.35000000000002,35.97680029999998],[-76.35000000000002,36.0],[-76.3220187,36.0],[-76.27499999999998,36.0],[-76.27499999999998,35.99526040000001],[-76.27499999999998,35.9798624],[-76.27499999999998,35.97914479999997],[-76.27499999999998,35.969309399999986],[-76.27499999999998,35.93376999999998],[-76.27499999999998,35.92500000000001],[-76.27651100000003,35.92500000000001],[-76.27773250000001,35.92500000000001],[-76.28414659999999,35.92500000000001],[-76.28724260000001,35.92500000000001],[-76.30438620000001,35.92500000000001],[-76.30473110000003,35.92500000000001],[-76.31712620000002,35.92500000000001],[-76.35000000000002,35.92500000000001],[-76.35000000000002,35.930074400000024],[-76.35000000000002,35.942028600000015]]]}},{"type":"Feature","properties":{},"geometry":{"type":"Polygon","coordinates":[[[-76.26979490000002,35.92500000000001],[-76.27499999999998,35.92500000000001],[-76.27499999999998,35.93376999999998],[-76.27499999999998,35.969309399999986],[-76.27499999999998,35.97914479999997],[-76.27499999999998,35.9798624],[-76.27499999999998,35.99526040000001],[-76.27499999999998,36.0],[-76.24101259999998,36.0],[-76.2139535,36.0],[-76.21012139999999,36.0],[-76.19999999999999,36.0],[-76.19999999999999,35.99989019999998],[-76.19999999999999,35.99836779999998],[-76.19999999999999,35.99440199999998],[-76.19999999999999,35.98698380000002],[-76.19999999999999,35.92500000000001],[-76.25048620000001,35.92500000000001],[-76.26022180000001,35.92500000000001],[-76.26979490000002,35.92500000000001]]]}},{"type":"Feature","properties":{},"geometry":{"type":"Polygon","coordinates":[[[-76.19999999999999,35.55000000000001],[-76.19999999999999,35.605712900000015],[-76.19999999999999,35.60631330000001],[-76.19999999999999,35.61007719999998],[-76.19999999999999,35.61042650000002],[-76.19999999999999,35.61075060000002],[-76.19999999999999,35.614919999999984],[-76.19999999999999,35.615502400000025],[-76.19999999999999,35.61574400000001],[-76.19999999999999,35.616197399999976],[-76.19999999999999,35.617153599999995],[-76.19999999999999,35.618647399999986],[-76.19999999999999,35.625],[-76.19660140000002,35.625],[-76.19612599999999,35.625],[-76.17549450000001,35.625],[-76.17504730000002,35.625],[-76.1745257,35.625],[-76.125,35.625],[-76.125,35.61585839999998],[-76.125,35.55000000000001],[-76.19999999999999,35.55000000000001]]]}},{"type":"Feature","properties":{},"geometry":{"type":"Polygon","coordinates":[[[-76.13670100000002,35.69999999999999],[-76.1346097,35.69999999999999],[-76.1318847,35.69999999999999],[-76.12671749999998,35.69999999999999],[-76.125,35.69999999999999],[-76.125,35.69521370000001],[-76.125,35.69512320000001],[-76.125,35.69362239999998],[-76.125,35.692114100000026],[-76.125,35.69038870000003],[-76.125,35.686276099999986],[-76.125,35.6831962],[-76.125,35.6796238],[-76.125,35.65463360000001],[-76.125,35.65434829999998],[-76.125,35.6540981],[-76.125,35.625],[-76.1745257,35.625],[-76.17504730000002,35.625],[-76.17549450000001,35.625],[-76.19612599999999,35.625],[-76.19660140000002,35.625],[-76.19999999999999,35.625],[-76.19999999999999,35.660997399999985],[-76.19999999999999,35.68349999999998],[-76.19999999999999,35.69999999999999],[-76.14619920000001,35.69999999999999],[-76.13899400000003,35.69999999999999],[-76.13670100000002,35.69999999999999]]]}},{"type":"Feature","properties":{},"geometry":{"type":"Polygon","coordinates":[[[-76.09763759999998,35.625],[-76.125,35.625],[-76.125,35.6540981],[-76.125,35.65434829999998],[-76.125,35.65463360000001],[-76.125,35.6796238],[-76.125,35.6831962],[-76.125,35.686276099999986],[-76.125,35.69038870000003],[-76.125,35.692114100000026],[-76.125,35.69362239999998],[-76.125,35.69512320000001],[-76.125,35.69521370000001],[-76.125,35.69999999999999],[-76.12061089999997,35.69999999999999],[-76.05827399999998,35.69999999999999],[-76.05660949999998,35.69999999999999],[-76.05000000000001,35.69999999999999],[-76.05000000000001,35.67405050000002],[-76.05000000000001,35.67185840000002],[-76.05000000000001,35.6712569],[-76.05000000000001,35.67100060000001],[-76.05000000000001,35.670552799999996],[-76.05000000000001,35.670171400000015],[-76.05000000000001,35.660220200000026],[-76.05000000000001,35.625],[-76.09763759999998,35.625]]]}},{"type":"Feature","properties":{},"geometry":{"type":"Polygon","coordinates":[[[-76.05000000000001,35.625],[-76.05000000000001,35.660220200000026],[-76.05000000000001,35.670171400000015],[-76.05000000000001,35.670552799999996],[-76.05000000000001,35.67100060000001],[-76.05000000000001,35.6712569],[-76.05000000000001,35.67185840000002],[-76.05000000000001,35.67405050000002],[-76.05000000000001,35.69999999999999],[-76.04489790000002,35.69999999999999],[-76.0439902,35.69999999999999],[-76.04252980000001,35.69999999999999],[-76.04143820000002,35.69999999999999],[-76.04020159999999,35.69999999999999],[-76.032196,35.69999999999999],[-76.03125560000001,35.69999999999999],[-76.02482600000002,35.69999999999999],[-76.01890689999999,35.69999999999999],[-76.0160138,35.69999999999999],[-76.01542289999998,35.69999999999999],[-76.01508639999997,35.69999999999999],[-76.0026674,35.69999999999999],[-76.00192440000001,35.69999999999999],[-76.00086770000001,35.69999999999999],[-75.99974730000002,35.69999999999999],[-75.97500000000002,35.69999999999999],[-75.97500000000002,35.68349999999998],[-75.97500000000002,35.625],[-76.05000000000001,35.625]]]}},{"type":"Feature","properties":{},"geometry":{"type":"Polygon","coordinates":[[[-76.12061089999997,35.69999999999999],[-76.125,35.69999999999999],[-76.125,35.70109000000002],[-76.125,35.71687600000001],[-76.125,35.77499999999998],[-76.12141059999999,35.77499999999998],[-76.09134540000002,35.77499999999998],[-76.09131100000002,35.77499999999998],[-76.08662249999998,35.77499999999998],[-76.08626629999998,35.77499999999998],[-76.06986869999997,35.77499999999998],[-76.06203049999999,35.77499999999998],[-76.06183809999999,35.77499999999998],[-76.05304699999999,35.77499999999998],[-76.05000000000001,35.77499999999998],[-76.05000000000001,35.76509299999998],[-76.05000000000001,35.75667149999998],[-76.05000000000001,35.75565080000001],[-76.05000000000001,35.75072669999997],[-76.05000000000001,35.749208399999986],[-76.05000000000001,35.74669260000002],[-76.05000000000001,35.735633800000016],[-76.05000000000001,35.705255799999975],[-76.05000000000001,35.70466219999997],[-76.05000000000001,35.69999999999999],[-76.05660949999998,35.69999999999999],[-76.05827399999998,35.69999999999999],[-76.12061089999997,35.69999999999999]]]}},{"type":"Feature","properties":{},"geometry":{"type":"Polygon","coordinates":[[[-76.04489790000002,35.69999999999999],[-76.05000000000001,35.69999999999999],[-76.05000000000001,35.70466219999997],[-76.05000000000001,35.705255799999975],[-76.05000000000001,35.735633800000016],[-76.05000000000001,35.74669260000002],[-76.05000000000001,35.749208399999986],[-76.05000000000001,35.75072669999997],[-76.05000000000001,35.75565080000001],[-76.05000000000001,35.75667149999998],[-76.05000000000001,35.76509299999998],[-76.05000000000001,35.77499999999998],[-76.04953460000002,35.77499999999998],[-76.02084330000002,35.77499999999998],[-76.02052120000002,35.77499999999998],[-76.01999699999999,35.77499999999998],[-75.98302539999997,35.77499999999998],[-75.97500000000002,35.77499999999998],[-75.97500000000002,35.69999999999999],[-75.99974730000002,35.69999999999999],[-76.00086770000001,35.69999999999999],[-76.00192440000001,35.69999999999999],[-76.0026674,35.69999999999999],[-76.01508639999997,35.69999999999999],[-76.01542289999998,35.69999999999999],[-76.0160138,35.69999999999999],[-76.01890689999999,35.69999999999999],[-76.02482600000002,35.69999999999999],[-76.03125560000001,35.69999999999999],[-76.032196,35.69999999999999],[-76.04020159999999,35.69999999999999],[-76.04143820000002,35.69999999999999],[-76.04252980000001,35.69999999999999],[-76.0439902,35.69999999999999],[-76.04489790000002,35.69999999999999]]]}},{"type":"Feature","properties":{},"geometry":{"type":"Polygon","coordinates":[[[-76.06216599999999,35.85000000000002],[-76.05592739999997,35.85000000000002],[-76.05000000000001,35.85000000000002],[-76.05000000000001,35.82469329999998],[-76.05000000000001,35.80705089999998],[-76.05000000000001,35.77633220000001],[-76.05000000000001,35.77533140000003],[-76.05000000000001,35.77499999999998],[-76.05304699999999,35.77499999999998],[-76.06183809999999,35.77499999999998],[-76.06203049999999,35.77499999999998],[-76.06986869999997,35.77499999999998],[-76.08626629999998,35.77499999999998],[-76.08662249999998,35.77499999999998],[-76.09134540000002,35.77499999999998],[-76.12141059999999,35.77499999999998],[-76.125,35.77499999999998],[-76.125,35.85000000000002],[-76.10627,35.85000000000002],[-76.06216599999999,35.85000000000002]]]}},{"type":"Feature","properties":{},"geometry":{"type":"Polygon","coordinates":[[[-76.04953460000002,35.77499999999998],[-76.05000000000001,35.77499999999998],[-76.05000000000001,35.77533140000003],[-76.05000000000001,35.77633220000001],[-76.05000000000001,35.80705089999998],[-76.05000000000001,35.82469329999998],[-76.05000000000001,35.85000000000002],[-76.04365919999998,35.85000000000002],[-76.0293297,35.85000000000002],[-76.0289841,35.85000000000002],[-76.02848260000002,35.85000000000002],[-75.98222479999998,35.85000000000002],[-75.97500000000002,35.85000000000002],[-75.97500000000002,35.84176070000001],[-75.97500000000002,35.84146440000001],[-75.97500000000002,35.79934850000001],[-75.97500000000002,35.77499999999998],[-75.98302539999997,35.77499999999998],[-76.01999699999999,35.77499999999998],[-76.02052120000002,35.77499999999998],[-76.02084330000002,35.77499999999998],[-76.04953460000002,35.77499999999998]]]}},{"type":"Feature","properties":{},"geometry":{"type":"Polygon","coordinates":[[[-76.10627,35.85000000000002],[-76.125,35.85000000000002],[-76.125,35.90768350000002],[-76.125,35.92500000000001],[-76.1078966,35.92500000000001],[-76.08912299999997,35.92500000000001],[-76.07356600000003,35.92500000000001],[-76.0645528,35.92500000000001],[-76.06350930000002,35.92500000000001],[-76.06092949999999,35.92500000000001],[-76.05000000000001,35.92500000000001],[-76.05000000000001,35.92287920000001],[-76.05000000000001,35.92011710000003],[-76.05000000000001,35.91927770000001],[-76.05000000000001,35.9180149],[-76.05000000000001,35.90891529999999],[-76.05000000000001,35.86831480000001],[-76.05000000000001,35.86814450000003],[-76.05000000000001,35.86522000000002],[-76.05000000000001,35.85000000000002],[-76.05592739999997,35.85000000000002],[-76.06216599999999,35.85000000000002],[-76.10627,35.85000000000002]]]}},{"type":"Feature","properties":{},"geometry":{"type":"Polygon","coordinates":[[[-76.04365919999998,35.85000000000002],[-76.05000000000001,35.85000000000002],[-76.05000000000001,35.86522000000002],[-76.05000000000001,35.86814450000003],[-76.05000000000001,35.86831480000001],[-76.05000000000001,35.90891529999999],[-76.05000000000001,35.9180149],[-76.05000000000001,35.91927770000001],[-76.05000000000001,35.92011710000003],[-76.05000000000001,35.92287920000001],[-76.05000000000001,35.92500000000001],[-76.047548,35.92500000000001],[-76.0437096,35.92500000000001],[-76.0413317,35.92500000000001],[-76.02488879999999,35.92500000000001],[-76.01458009999999,35.92500000000001],[-76.01001000000002,35.92500000000001],[-75.99926449999998,35.92500000000001],[-75.99867230000001,35.92500000000001],[-75.99837630000002,35.92500000000001],[-75.99764160000001,35.92500000000001],[-75.97500000000002,35.92500000000001],[-75.97500000000002,35.898587599999985],[-75.97500000000002,35.89669190000001],[-75.97500000000002,35.871208000000024],[-75.97500000000002,35.85000000000002],[-75.98222479999998,35.85000000000002],[-76.02848260000002,35.85000000000002],[-76.0289841,35.85000000000002],[-76.0293297,35.85000000000002],[-76.04365919999998,35.85000000000002]]]}},{"type":"Feature","properties":{},"geometry":{"type":"Polygon","coordinates":[[[-75.96238299999999,35.85000000000002],[-75.97500000000002,35.85000000000002],[-75.97500000000002,35.871208000000024],[-75.97500000000002,35.89669190000001],[-75.97500000000002,35.898587599999985],[-75.97500000000002,35.92500000000001],[-75.94500000000001,35.92500000000001],[-75.94500000000001,35.85000000000002],[-75.96238299999999,35.85000000000002]]]}},{"type":"Feature","properties":{},"geometry":{"type":"Polygon","coordinates":[[[-76.19999999999999,35.92500000000001],[-76.19999999999999,35.98698380000002],[-76.19999999999999,35.99440199999998],[-76.19999999999999,35.99836779999998],[-76.19999999999999,35.99989019999998],[-76.19999999999999,36.0],[-76.1996297,36.0],[-76.18438750000001,36.0],[-76.16461399999997,36.0],[-76.1465033,36.0],[-76.125,36.0],[-76.125,35.9980056],[-76.125,35.991139499999974],[-76.125,35.977274799999975],[-76.125,35.95360390000002],[-76.125,35.949485700000025],[-76.125,35.946421799999996],[-76.125,35.94550909999998],[-76.125,35.93610410000002],[-76.125,35.92500000000001],[-76.19999999999999,35.92500000000001]]]}},{"type":"Feature","properties":{},"geometry":{"type":"Polygon","coordinates":[[[-76.1078966,35.92500000000001],[-76.125,35.92500000000001],[-76.125,35.93610410000002],[-76.125,35.94550909999998],[-76.125,35.946421799999996],[-76.125,35.949485700000025],[-76.125,35.95360390000002],[-76.125,35.977274799999975],[-76.125,35.991139499999974],[-76.125,35.9980056],[-76.125,36.0],[-76.10153580000002,36.0],[-76.09956929999998,36.0],[-76.05957799999999,36.0],[-76.05000000000001,36.0],[-76.05000000000001,35.991472999999985],[-76.05000000000001,35.98839170000002],[-76.05000000000001,35.98542839999999],[-76.05000000000001,35.98278499999998],[-76.05000000000001,35.95525020000002],[-76.05000000000001,35.929883700000005],[-76.05000000000001,35.92500000000001],[-76.06092949999999,35.92500000000001],[-76.06350930000002,35.92500000000001],[-76.0645528,35.92500000000001],[-76.07356600000003,35.92500000000001],[-76.08912299999997,35.92500000000001],[-76.1078966,35.92500000000001]]]}},{"type":"Feature","properties":{},"geometry":{"type":"Polygon","coordinates":[[[-76.047548,35.92500000000001],[-76.05000000000001,35.92500000000001],[-76.05000000000001,35.929883700000005],[-76.05000000000001,35.95525020000002],[-76.05000000000001,35.98278499999998],[-76.05000000000001,35.98542839999999],[-76.05000000000001,35.98839170000002],[-76.05000000000001,35.991472999999985],[-76.05000000000001,36.0],[-76.00622659999999,36.0],[-75.97500000000002,36.0],[-75.97500000000002,35.99539709999999],[-75.97500000000002,35.98060779999997],[-75.97500000000002,35.979025999999976],[-75.97500000000002,35.96266600000001],[-75.97500000000002,35.962402499999996],[-75.97500000000002,35.951744599999984],[-75.97500000000002,35.94259440000002],[-75.97500000000002,35.92500000000001],[-75.99764160000001,35.92500000000001],[-75.99837630000002,35.92500000000001],[-75.99867230000001,35.92500000000001],[-75.99926449999998,35.92500000000001],[-76.01001000000002,35.92500000000001],[-76.01458009999999,35.92500000000001],[-76.02488879999999,35.92500000000001],[-76.0413317,35.92500000000001],[-76.0437096,35.92500000000001],[-76.047548,35.92500000000001]]]}},{"type":"Feature","properties":{},"geometry":{"type":"Polygon","coordinates":[[[-75.97500000000002,35.92500000000001],[-75.97500000000002,35.94259440000002],[-75.97500000000002,35.951744599999984],[-75.97500000000002,35.962402499999996],[-75.97500000000002,35.96266600000001],[-75.97500000000002,35.979025999999976],[-75.97500000000002,35.98060779999997],[-75.97500000000002,35.99539709999999],[-75.97500000000002,36.0],[-75.9742157,36.0],[-75.96483949999998,36.0],[-75.94500000000001,36.0],[-75.94500000000001,35.92500000000001],[-75.97500000000002,35.92500000000001]]]}}]}