{"type":"FeatureCollection","features":[{"type":"Feature","properties":{},"geometry":{"type":"Polygon","coordinates":[[[-76.58300000000003,38.68853789999997],[-76.58300109999999,38.72603299999997],[-76.58300070000001,38.78345409999997],[-76.56381370000003,38.783454000000006],[-76.56379729999998,38.783454000000006],[-76.5634407,38.783454000000006],[-76.56179880000002,38.783454000000006],[-76.5613722,38.783454000000006],[-76.55998820000002,38.783454000000006],[-76.55895040000001,38.783454000000006],[-76.55895020000003,38.783454000000006],[-76.5589139,38.783454000000006],[-76.55891359999998,38.783454000000006],[-76.55753270000002,38.783454000000006],[-76.55724420000001,38.783454000000006],[-76.55723929999999,38.783454000000006],[-76.55655230000002,38.783454000000006],[-76.55647320000003,38.783454000000006],[-76.54624239999998,38.783454000000006],[-76.54609649999998,38.783454000000006],[-76.54512190000003,38.783454000000006],[-76.54507280000001,38.783454000000006],[-76.54099919999999,38.783454000000006],[-76.5407548,38.783454000000006],[-76.54060520000002,38.783454000000006],[-76.5405902,38.783454000000006],[-76.54013070000002,38.783454000000006],[-76.5329499,38.783454000000006],[-76.53273309999997,38.783454000000006],[-76.52325509999997,38.783454000000006],[-76.51743900000002,38.783454000000006],[-76.51364430000001,38.783454000000006],[-76.51255170000002,38.783454000000006],[-76.51245799999998,38.783454000000006],[-76.51236569999998,38.783454000000006],[-76.50498909999999,38.783454000000006],[-76.5043215,38.783454000000006],[-76.4978916,38.783454000000006],[-76.4960198,38.783454000000006],[-76.48622990000001,38.783454000000006],[-76.4860918,38.783454000000006],[-76.47256199999998,38.783454000000006],[-76.46285949999998,38.783454000000006],[-76.45658830000002,38.783454000000006],[-76.45619099999999,38.783454000000006],[-76.43411149999997,38.783454000000006],[-76.43404579999998,38.783454000000006],[-76.4338553,38.783454000000006],[-76.41557599999999,38.783454000000006],[-76.41549149999997,38.783454000000006],[-76.4138671,38.783454000000006],[-76.41374869999999,38.783454000000006],[-76.41362600000002,38.783454000000006],[-76.41346240000001,38.783454000000006],[-76.4133258,38.783454000000006],[-76.41317040000001,38.783454000000006],[-76.413118,38.783454000000006],[-76.39574399999998,38.783454000000006],[-76.39533210000002,38.783454000000006],[-76.39504199999999,38.783454000000006],[-76.38508730000001,38.783454000000006],[-76.38019759999997,38.783454000000006],[-76.38011999999998,38.783454000000006],[-76.37464139999997,38.783454000000006],[-76.37182239999999,38.783454000000006],[-76.37049180000002,38.783454000000006],[-76.36953720000002,38.783454000000006],[-76.36442879999998,38.783454000000006],[-76.35987119999999,38.783454000000006],[-76.35958540000001,38.783454000000006],[-76.35836999999998,38.783454000000006],[-76.35834499999999,38.783454000000006],[-76.35833330000003,38.783454000000006],[-76.35833330000003,38.778788399999996],[-76.35833330000003,38.77782669999999],[-76.35833330000003,38.766383099999985],[-76.35833330000003,38.764238999999975],[-76.35833330000003,38.7634736],[-76.35833330000003,38.7531654],[-76.35833330000003,38.7408322],[-76.35833330000003,38.731734700000004],[-76.35833330000003,38.72990420000002],[-76.35833330000003,38.715092200000015],[-76.35833330000003,38.71186260000002],[-76.35833330000003,38.707882100000006],[-76.35833330000003,38.70066489999999],[-76.35833330000003,38.66103279999999],[-76.35833330000003,38.6561906],[-76.35833330000003,38.6499905],[-76.35833330000003,38.648525500000005],[-76.35833330000003,38.647514],[-76.35833330000003,38.646017400000005],[-76.35833330000003,38.642445399999986],[-76.35833330000003,38.63625510000003],[-76.35833330000003,38.62041900000003],[-76.35833330000003,38.60769299999998],[-76.35833330000003,38.60733670000002],[-76.35833330000003,38.60635989999997],[-76.35833330000003,38.60522350000002],[-76.35833330000003,38.60510119999998],[-76.35833330000003,38.60317509999999],[-76.35833330000003,38.5963658],[-76.35833330000003,38.58961069999998],[-76.35833330000003,38.57957219999997],[-76.35833330000003,38.57361159999999],[-76.35833330000003,38.57066529999997],[-76.35833330000003,38.570121400000005],[-76.35833330000003,38.56861120000002],[-76.35833330000003,38.565952100000004],[-76.35833330000003,38.563213399999995],[-76.35833330000003,38.562439100000006],[-76.35833330000003,38.555296],[-76.35833330000003,38.5132759],[-76.35833330000003,38.50350750000001],[-76.35833330000003,38.495],[-76.58300000000003,38.495],[-76.58300000000003,38.68853789999997]]]}},{"type":"Feature","properties":{},"geometry":{"type":"Polygon","coordinates":[[[-76.29720400000002,38.83955099999997],[-76.29720400000002,38.83798100000001],[-76.29720400000002,38.835334999999986],[-76.29720400000002,38.82840599999997],[-76.29720400000002,38.828033000000005],[-76.29764599999999,38.82624499999997],[-76.3082152,38.783454000000006],[-76.32069619999999,38.783454000000006],[-76.32101219999998,38.783454000000006],[-76.32108099999999,38.783454000000006],[-76.321283,38.783454000000006],[-76.32990339999998,38.783454000000006],[-76.33002979999998,38.783454000000006],[-76.3301002,38.783454000000006],[-76.34579939999998,38.783454000000006],[-76.34901719999999,38.783454000000006],[-76.3491439,38.783454000000006],[-76.349245,38.783454000000006],[-76.35781329999998,38.783454000000006],[-76.35782089999998,38.783454000000006],[-76.35804059999998,38.783454000000006],[-76.35833330000003,38.783454000000006],[-76.35834499999999,38.783454000000006],[-76.35958540000001,38.783454000000006],[-76.35987119999999,38.783454000000006],[-76.36442879999998,38.783454000000006],[-76.36953720000002,38.783454000000006],[-76.37049180000002,38.783454000000006],[-76.37182239999999,38.783454000000006],[-76.37464139999997,38.783454000000006],[-76.38011999999998,38.783454000000006],[-76.38019759999997,38.783454000000006],[-76.38508730000001,38.783454000000006],[-76.39504199999999,38.783454000000006],[-76.39574399999998,38.783454000000006],[-76.413118,38.783454000000006],[-76.41317040000001,38.783454000000006],[-76.4133258,38.783454000000006],[-76.41362600000002,38.783454000000006],[-76.41374869999999,38.783454000000006],[-76.4138671,38.783454000000006],[-76.41549149999997,38.783454000000006],[-76.41557599999999,38.783454000000006],[-76.4338553,38.783454000000006],[-76.43404579999998,38.783454000000006],[-76.43411149999997,38.783454000000006],[-76.45619099999999,38.783454000000006],[-76.45658830000002,38.783454000000006],[-76.46285949999998,38.783454000000006],[-76.47256199999998,38.783454000000006],[-76.4860918,38.783454000000006],[-76.48622990000001,38.783454000000006],[-76.4960198,38.783454000000006],[-76.4978916,38.783454000000006],[-76.5043215,38.783454000000006],[-76.50498909999999,38.783454000000006],[-76.51236569999998,38.783454000000006],[-76.51245799999998,38.783454000000006],[-76.51364430000001,38.783454000000006],[-76.51743900000002,38.783454000000006],[-76.52325509999997,38.783454000000006],[-76.53273309999997,38.783454000000006],[-76.5329499,38.783454000000006],[-76.53298610000002,38.783454000000006],[-76.54022099999997,38.783454000000006],[-76.54060520000002,38.783454000000006],[-76.5407548,38.783454000000006],[-76.54099919999999,38.783454000000006],[-76.5410187,38.783454000000006],[-76.54512190000003,38.783454000000006],[-76.54609649999998,38.783454000000006],[-76.54624239999998,38.783454000000006],[-76.54634529999998,38.783454000000006],[-76.55655230000002,38.783454000000006],[-76.55723929999999,38.783454000000006],[-76.55724420000001,38.783454000000006],[-76.55753270000002,38.783454000000006],[-76.55891359999998,38.783454000000006],[-76.5589139,38.783454000000006],[-76.55895020000003,38.783454000000006],[-76.55895040000001,38.783454000000006],[-76.55896460000002,38.783454000000006],[-76.55998790000001,38.783454000000006],[-76.56128969999997,38.783454000000006],[-76.56182560000002,38.783454000000006],[-76.56344059999998,38.783454000000006],[-76.5634407,38.783454000000006],[-76.5634435,38.783454000000006],[-76.56379729999998,38.783454000000006],[-76.56379750000002,38.783454000000006],[-76.58300070000001,38.78345409999997],[-76.58300109999999,38.72603299999997],[-76.60528699999998,38.72603299999997],[-76.60528699999998,38.87092100000001],[-76.58683150000002,38.87092100000001],[-76.57499999999999,38.87092100000001],[-76.57499999999999,38.85000000000002],[-76.54418529999998,38.85000000000002],[-76.54396170000001,38.85000000000002],[-76.54288050000002,38.85000000000002],[-76.54025569999999,38.85000000000002],[-76.53683469999999,38.85000000000002],[-76.53404790000002,38.85000000000002],[-76.53167989999997,38.85000000000002],[-76.52920180000001,38.85000000000002],[-76.528839,38.85000000000002],[-76.52593200000001,38.85000000000002],[-76.52591919999998,38.85000000000002],[-76.52195619999998,38.85000000000002],[-76.51938760000002,38.85000000000002],[-76.51833850000003,38.85000000000002],[-76.51147759999998,38.85000000000002],[-76.50658620000002,38.85000000000002],[-76.50641030000003,38.85000000000002],[-76.5,38.85000000000002],[-76.4998564,38.85000000000002],[-76.4943326,38.85000000000002],[-76.48428689999997,38.85000000000002],[-76.48279550000001,38.85000000000002],[-76.46841239999998,38.85000000000002],[-76.46673220000002,38.85000000000002],[-76.4626586,38.85000000000002],[-76.46156910000002,38.85000000000002],[-76.45573109999998,38.85000000000002],[-76.45129400000002,38.85000000000002],[-76.42837459999998,38.85000000000002],[-76.42500000000001,38.85000000000002],[-76.42500000000001,38.86514570000003],[-76.42500000000001,38.91133400000001],[-76.42500000000001,38.92500000000001],[-76.42285149999998,38.92500000000001],[-76.3972402,38.92500000000001],[-76.38460880000002,38.92500000000001],[-76.38292790000003,38.92500000000001],[-76.3829179,38.92500000000001],[-76.38285480000002,38.92500000000001],[-76.3826891,38.92500000000001],[-76.38248220000003,38.92500000000001],[-76.3822558,38.92500000000001],[-76.37888190000001,38.92500000000001],[-76.37673799999999,38.92500000000001],[-76.37372779999998,38.92500000000001],[-76.36245880000001,38.92500000000001],[-76.35000000000002,38.92500000000001],[-76.34744030000002,38.92500000000001],[-76.34702850000002,38.92500000000001],[-76.34474210000002,38.92500000000001],[-76.34310770000002,38.92500000000001],[-76.3395534,38.92500000000001],[-76.33796319999999,38.92500000000001],[-76.33105369999998,38.92500000000001],[-76.32984900000002,38.92500000000001],[-76.32900690000002,38.92500000000001],[-76.32046659999997,38.92500000000001],[-76.31853050000001,38.92500000000001],[-76.31377529999997,38.92500000000001],[-76.31157510000003,38.92500000000001],[-76.30936120000001,38.92500000000001],[-76.3093594,38.92500000000001],[-76.30453039999998,38.92500000000001],[-76.30168229999998,38.92500000000001],[-76.30131649999998,38.92500000000001],[-76.3007925,38.92244720000002],[-76.30060379999998,38.92152779999998],[-76.29720300000002,38.904961000000014],[-76.29720300000002,38.90286680000003],[-76.29720300000002,38.902649],[-76.29720300000002,38.901972],[-76.29720300000002,38.90143519999998],[-76.29720300000002,38.90114449999999],[-76.29720300000002,38.898713999999984],[-76.29720300000002,38.89568600000001],[-76.29720300000002,38.88771300000002],[-76.29720300000002,38.88421099999999],[-76.29720400000002,38.881463],[-76.29720400000002,38.87220000000002],[-76.29720400000002,38.870003999999994],[-76.29720400000002,38.86443300000002],[-76.29720400000002,38.85996699999998],[-76.29720400000002,38.85091190000003],[-76.29720400000002,38.850679000000014],[-76.29720400000002,38.848614],[-76.29720400000002,38.83955099999997]]]}},{"type":"Feature","properties":{},"geometry":{"type":"Polygon","coordinates":[[[-76.217355,38.78116399999999],[-76.219696,38.783454000000006],[-76.23206090000002,38.783454000000006],[-76.24802499999998,38.783454000000006],[-76.24816479999998,38.783454000000006],[-76.24953240000002,38.783454000000006],[-76.2496471,38.783454000000006],[-76.24986380000001,38.783454000000006],[-76.24990070000001,38.783454000000006],[-76.25231839999998,38.783454000000006],[-76.25256300000001,38.783454000000006],[-76.2525736,38.783454000000006],[-76.25739299999998,38.783454000000006],[-76.25739750000002,38.783454000000006],[-76.25780270000001,38.783454000000006],[-76.25783419999999,38.783454000000006],[-76.25820800000002,38.783454000000006],[-76.25822840000001,38.783454000000006],[-76.2601674,38.783454000000006],[-76.26052600000003,38.783454000000006],[-76.26061429999999,38.783454000000006],[-76.26068559999999,38.783454000000006],[-76.26071000000002,38.783454000000006],[-76.26724899999999,38.783454000000006],[-76.26728939999998,38.783454000000006],[-76.26741329999999,38.783454000000006],[-76.27018500000003,38.783454000000006],[-76.27247699999998,38.783454000000006],[-76.2739641,38.783454000000006],[-76.27493399999997,38.783454000000006],[-76.27549110000001,38.783454000000006],[-76.27558749999997,38.783454000000006],[-76.28135900000001,38.783454000000006],[-76.28137429999998,38.783454000000006],[-76.2817508,38.783454000000006],[-76.28179180000001,38.783454000000006],[-76.28181810000001,38.783454000000006],[-76.28227659999999,38.783454000000006],[-76.2822835,38.783454000000006],[-76.28241120000001,38.783454000000006],[-76.28453680000001,38.783454000000006],[-76.28475830000002,38.783454000000006],[-76.28486079999999,38.783454000000006],[-76.2856916,38.783454000000006],[-76.28582319999998,38.783454000000006],[-76.285935,38.783454000000006],[-76.28610750000001,38.783454000000006],[-76.28653020000002,38.783454000000006],[-76.28665819999998,38.783454000000006],[-76.28666679999998,38.783454000000006],[-76.28671609999998,38.783454000000006],[-76.28823349999999,38.783454000000006],[-76.28892560000003,38.783454000000006],[-76.29379929999999,38.783454000000006],[-76.29387860000003,38.783454000000006],[-76.29445120000003,38.783454000000006],[-76.2982758,38.783454000000006],[-76.29832099999999,38.783454000000006],[-76.2983921,38.783454000000006],[-76.29859399999998,38.783454000000006],[-76.3082152,38.783454000000006],[-76.29764599999999,38.82624499999997],[-76.29720400000002,38.828033000000005],[-76.29720400000002,38.82840599999997],[-76.29720400000002,38.82842260000001],[-76.29720400000002,38.835334999999986],[-76.29720400000002,38.83798100000001],[-76.29720400000002,38.83955099999997],[-76.29720400000002,38.848614],[-76.29720400000002,38.850679000000014],[-76.29720400000002,38.85091190000003],[-76.29720400000002,38.85996699999998],[-76.29720400000002,38.86443300000002],[-76.29720400000002,38.870003999999994],[-76.29720400000002,38.87220000000002],[-76.29720400000002,38.881463],[-76.29720300000002,38.88421099999999],[-76.29720300000002,38.88771300000002],[-76.29720300000002,38.89568600000001],[-76.29720300000002,38.898713999999984],[-76.29720300000002,38.90114449999999],[-76.29720300000002,38.90143519999998],[-76.29720300000002,38.901972],[-76.29720300000002,38.902219100000025],[-76.29720300000002,38.902649],[-76.29720300000002,38.90286680000003],[-76.29720300000002,38.904961000000014],[-76.30060379999998,38.92152779999998],[-76.3007925,38.92244720000002],[-76.30131649999998,38.92500000000001],[-76.29665360000001,38.92500000000001],[-76.29627240000002,38.92500000000001],[-76.29409420000002,38.92500000000001],[-76.29319049999998,38.92500000000001],[-76.2918927,38.92500000000001],[-76.2911512,38.92500000000001],[-76.289916,38.92500000000001],[-76.28907800000002,38.92500000000001],[-76.2836393,38.92500000000001],[-76.2784317,38.92500000000001],[-76.27597700000001,38.92500000000001],[-76.27499999999998,38.92500000000001],[-76.27460580000002,38.92500000000001],[-76.27414670000002,38.92500000000001],[-76.26975720000002,38.92500000000001],[-76.26467350000001,38.92500000000001],[-76.25190989999999,38.92500000000001],[-76.24902850000001,38.92500000000001],[-76.24522639999998,38.92500000000001],[-76.24362100000002,38.92500000000001],[-76.24240789999999,38.92500000000001],[-76.24178210000002,38.92500000000001],[-76.24036899999999,38.92500000000001],[-76.2394602,38.92500000000001],[-76.23678719999998,38.92500000000001],[-76.2354894,38.92500000000001],[-76.22979559999999,38.92500000000001],[-76.22846570000002,38.92500000000001],[-76.2269746,38.92500000000001],[-76.22524049999998,38.92500000000001],[-76.22450179999998,38.92500000000001],[-76.22330410000001,38.92500000000001],[-76.21498059999999,38.92500000000001],[-76.21213740000002,38.92500000000001],[-76.20805360000003,38.92500000000001],[-76.20258469999999,38.92500000000001],[-76.20219989999998,38.92500000000001],[-76.19999999999999,38.92500000000001],[-76.19999999999999,38.90361899999999],[-76.19999999999999,38.90336930000001],[-76.19999999999999,38.90209549999997],[-76.19999999999999,38.901110800000026],[-76.19999999999999,38.9004147],[-76.19999999999999,38.8996616],[-76.19999999999999,38.8996027],[-76.19999999999999,38.896340699999996],[-76.19999999999999,38.8949485],[-76.19999999999999,38.89196609999999],[-76.19999999999999,38.88348050000002],[-76.19999999999999,38.88071600000001],[-76.19999999999999,38.858321699999976],[-76.19999999999999,38.85739589999997],[-76.19999999999999,38.85647590000002],[-76.19999999999999,38.85607160000001],[-76.19999999999999,38.855556999999976],[-76.19999999999999,38.8551741],[-76.19999999999999,38.8546073],[-76.19999999999999,38.853915700000016],[-76.19999999999999,38.853086099999985],[-76.19999999999999,38.85236259999999],[-76.19999999999999,38.849740199999985],[-76.19999999999999,38.84882049999999],[-76.19999999999999,38.84822320000001],[-76.19999999999999,38.847835499999974],[-76.19999999999999,38.846315600000025],[-76.19999999999999,38.844885999999974],[-76.19999999999999,38.840668600000015],[-76.19999999999999,38.83945410000001],[-76.19999999999999,38.839025400000025],[-76.19999999999999,38.83785990000001],[-76.19999999999999,38.83429050000001],[-76.19999999999999,38.83345370000001],[-76.19999999999999,38.832117100000005],[-76.19999999999999,38.8318759],[-76.19999999999999,38.830402900000024],[-76.19999999999999,38.82962140000001],[-76.19999999999999,38.82721379999998],[-76.19999999999999,38.82357739999998],[-76.19999999999999,38.79393270000003],[-76.19999999999999,38.793611699999985],[-76.19999999999999,38.79204549999997],[-76.19999999999999,38.7840094],[-76.19999999999999,38.783642999999984],[-76.19999999999999,38.782103800000016],[-76.19999999999999,38.779173800000024],[-76.19999999999999,38.77876520000001],[-76.19999999999999,38.774752999999976],[-76.19999999999999,38.77409060000002],[-76.19999999999999,38.773776199999986],[-76.19999999999999,38.77319870000002],[-76.19999999999999,38.767413999999974],[-76.19999999999999,38.76688489999998],[-76.19999999999999,38.764186800000004],[-76.217355,38.78116399999999]]]}},{"type":"Feature","properties":{},"geometry":{"type":"Polygon","coordinates":[[[-76.19999999999999,38.5236807],[-76.19999999999999,38.524102400000004],[-76.19999999999999,38.52500040000001],[-76.19999999999999,38.52744000000001],[-76.19999999999999,38.52922480000001],[-76.19999999999999,38.53562310000001],[-76.19999999999999,38.550771699999984],[-76.19999999999999,38.55160110000003],[-76.19999999999999,38.552426000000025],[-76.19999999999999,38.552635099999975],[-76.19999999999999,38.55294170000002],[-76.19999999999999,38.554188599999975],[-76.19999999999999,38.55651690000002],[-76.19999999999999,38.56098689999999],[-76.19999999999999,38.56217989999999],[-76.19999999999999,38.5623506],[-76.19999999999999,38.5755934],[-76.19999999999999,38.5759276],[-76.19999999999999,38.576830099999995],[-76.19999999999999,38.57778969999998],[-76.19999999999999,38.57827409999999],[-76.19999999999999,38.58338550000002],[-76.19999999999999,38.59178960000003],[-76.19999999999999,38.61267729999997],[-76.19999999999999,38.612930199999994],[-76.19999999999999,38.61394009999998],[-76.19999999999999,38.61952609999997],[-76.19999999999999,38.6221362],[-76.19999999999999,38.6275789],[-76.19999999999999,38.63680249999999],[-76.19999999999999,38.64591059999998],[-76.19999999999999,38.66290780000003],[-76.19999999999999,38.663093300000014],[-76.19999999999999,38.665936699999975],[-76.19999999999999,38.66610989999998],[-76.19999999999999,38.66715169999998],[-76.19999999999999,38.67119330000003],[-76.19999999999999,38.673616200000026],[-76.19999999999999,38.674065799999994],[-76.19999999999999,38.674508],[-76.19999999999999,38.674809400000015],[-76.19999999999999,38.67621539999999],[-76.19999999999999,38.67691780000001],[-76.19999999999999,38.678994699999976],[-76.19999999999999,38.679794500000014],[-76.19999999999999,38.68295119999999],[-76.19999999999999,38.685416599999996],[-76.19999999999999,38.68822019999999],[-76.19999999999999,38.69999999999999],[-76.19951780000002,38.69999999999999],[-76.19915550000002,38.69999999999999],[-76.18362660000003,38.69999999999999],[-76.18004200000001,38.69999999999999],[-76.17951060000001,38.69999999999999],[-76.1788029,38.69999999999999],[-76.1732308,38.69999999999999],[-76.17304539999998,38.69999999999999],[-76.1719903,38.69999999999999],[-76.16594950000001,38.69999999999999],[-76.16458419999998,38.69999999999999],[-76.16134349999999,38.69999999999999],[-76.15954099999999,38.69999999999999],[-76.15629430000001,38.69999999999999],[-76.15587920000002,38.69999999999999],[-76.15201730000001,38.69999999999999],[-76.14899880000002,38.69999999999999],[-76.14831800000002,38.69999999999999],[-76.14731929999999,38.69999999999999],[-76.14572349999997,38.69999999999999],[-76.14500000000001,38.69999999999999],[-76.14500000000001,38.495],[-76.19999999999999,38.495],[-76.19999999999999,38.5236807]]]}},{"type":"Feature","properties":{},"geometry":{"type":"Polygon","coordinates":[[[-76.4998564,38.85000000000002],[-76.5,38.85000000000002],[-76.5,38.85769570000002],[-76.5,38.86155609999997],[-76.5,38.8676974],[-76.5,38.86920600000002],[-76.5,38.87053479999997],[-76.5,38.87497589999998],[-76.5,38.878155400000026],[-76.5,38.899038099999984],[-76.5,38.8992341],[-76.5,38.89940489999998],[-76.5,38.899886400000014],[-76.5,38.901781099999994],[-76.5,38.9027299],[-76.5,38.90807890000002],[-76.5,38.90926230000002],[-76.5,38.91352119999999],[-76.5,38.914167299999974],[-76.5,38.914457700000014],[-76.5,38.915833299999974],[-76.5,38.9197843],[-76.5,38.92014339999997],[-76.5,38.92405550000001],[-76.5,38.92500000000001],[-76.49940750000002,38.92500000000001],[-76.49854269999997,38.92500000000001],[-76.49807470000002,38.92500000000001],[-76.49086199999999,38.92500000000001],[-76.48762870000002,38.92500000000001],[-76.48589679999998,38.92500000000001],[-76.48158910000001,38.92500000000001],[-76.48056559999998,38.92500000000001],[-76.48023319999999,38.92500000000001],[-76.4790582,38.92500000000001],[-76.47890790000002,38.92500000000001],[-76.47105540000001,38.92500000000001],[-76.4708531,38.92500000000001],[-76.46437689999999,38.92500000000001],[-76.4633273,38.92500000000001],[-76.4590475,38.92500000000001],[-76.45656709999997,38.92500000000001],[-76.4461599,38.92500000000001],[-76.433965,38.92500000000001],[-76.4314013,38.92500000000001],[-76.4286899,38.92500000000001],[-76.42500000000001,38.92500000000001],[-76.42500000000001,38.91133400000001],[-76.42500000000001,38.86514570000003],[-76.42500000000001,38.85000000000002],[-76.42837459999998,38.85000000000002],[-76.45129400000002,38.85000000000002],[-76.45573109999998,38.85000000000002],[-76.46156910000002,38.85000000000002],[-76.4626586,38.85000000000002],[-76.46673220000002,38.85000000000002],[-76.46841239999998,38.85000000000002],[-76.48279550000001,38.85000000000002],[-76.48428689999997,38.85000000000002],[-76.4943326,38.85000000000002],[-76.4998564,38.85000000000002]]]}},{"type":"Feature","properties":{},"geometry":{"type":"Polygon","coordinates":[[[-76.49940750000002,38.92500000000001],[-76.5,38.92500000000001],[-76.5,38.925251600000024],[-76.5,38.92736259999998],[-76.5,38.928043],[-76.5,38.92842209999998],[-76.5,38.93103180000003],[-76.5,38.95391990000002],[-76.5,38.96941880000003],[-76.5,38.96942389999998],[-76.5,38.969711099999984],[-76.5,38.970326399999976],[-76.5,38.9705922],[-76.5,38.98059280000001],[-76.5,38.980710699999975],[-76.5,38.981064],[-76.5,38.981153000000006],[-76.5,38.98356940000002],[-76.5,38.983876699999996],[-76.5,38.99868900000001],[-76.5,38.99913600000002],[-76.5,38.999461],[-76.5,39.0],[-76.499684,39.0],[-76.49851089999999,39.0],[-76.49665169999997,39.0],[-76.4958795,39.0],[-76.49584729999998,39.0],[-76.49530349999998,39.0],[-76.49460240000002,39.0],[-76.49458879999997,39.0],[-76.49456679999997,39.0],[-76.4943968,39.0],[-76.49435469999997,39.0],[-76.49343520000002,39.0],[-76.49342940000002,39.0],[-76.49342360000003,39.0],[-76.4934121,39.0],[-76.49334140000002,39.0],[-76.49327349999999,39.0],[-76.4929818,39.0],[-76.4921041,39.0],[-76.48930089999999,39.0],[-76.48809399999999,39.0],[-76.48689100000001,39.0],[-76.4868042,39.0],[-76.48634399999997,39.0],[-76.48606289999998,39.0],[-76.485569,39.0],[-76.4854985,39.0],[-76.45788540000001,39.0],[-76.45755259999999,39.0],[-76.45535130000002,39.0],[-76.45512980000001,39.0],[-76.45247030000002,39.0],[-76.45231960000001,39.0],[-76.4522402,39.0],[-76.4520645,39.0],[-76.45119720000002,39.0],[-76.45062430000002,39.0],[-76.44808560000001,39.0],[-76.4472738,39.0],[-76.434124,39.0],[-76.43336049999999,39.0],[-76.43317869999998,39.0],[-76.43309369999997,39.0],[-76.43286799999998,39.0],[-76.4327872,39.0],[-76.43263530000002,39.0],[-76.4323738,39.0],[-76.4319506,39.0],[-76.43171990000002,39.0],[-76.4303289,39.0],[-76.42867159999997,39.0],[-76.42848450000002,39.0],[-76.42536910000001,39.0],[-76.42500000000001,39.0],[-76.42500000000001,38.99712699999998],[-76.42500000000001,38.99657939999997],[-76.42500000000001,38.99396100000001],[-76.42500000000001,38.991756599999974],[-76.42500000000001,38.99148259999998],[-76.42500000000001,38.986875999999995],[-76.42500000000001,38.986791700000026],[-76.42500000000001,38.9866523],[-76.42500000000001,38.983122200000025],[-76.42500000000001,38.980648299999984],[-76.42500000000001,38.9801971],[-76.42500000000001,38.9741042],[-76.42500000000001,38.968679899999984],[-76.42500000000001,38.9680113],[-76.42500000000001,38.96730209999998],[-76.42500000000001,38.96678730000002],[-76.42500000000001,38.96678220000001],[-76.42500000000001,38.966771800000004],[-76.42500000000001,38.96472299999999],[-76.42500000000001,38.96268090000001],[-76.42500000000001,38.96249799999998],[-76.42500000000001,38.95860720000002],[-76.42500000000001,38.9581154],[-76.42500000000001,38.9546512],[-76.42500000000001,38.953420300000005],[-76.42500000000001,38.953124100000025],[-76.42500000000001,38.9521982],[-76.42500000000001,38.950845500000014],[-76.42500000000001,38.95039259999999],[-76.42500000000001,38.94705069999998],[-76.42500000000001,38.94574269999998],[-76.42500000000001,38.94303789999998],[-76.42500000000001,38.94193059999998],[-76.42500000000001,38.93091709999999],[-76.42500000000001,38.92500000000001],[-76.4286899,38.92500000000001],[-76.4314013,38.92500000000001],[-76.433965,38.92500000000001],[-76.4461599,38.92500000000001],[-76.45656709999997,38.92500000000001],[-76.4590475,38.92500000000001],[-76.4633273,38.92500000000001],[-76.46437689999999,38.92500000000001],[-76.4708531,38.92500000000001],[-76.47105540000001,38.92500000000001],[-76.47890790000002,38.92500000000001],[-76.4790582,38.92500000000001],[-76.48023319999999,38.92500000000001],[-76.48056559999998,38.92500000000001],[-76.48158910000001,38.92500000000001],[-76.48589679999998,38.92500000000001],[-76.48762870000002,38.92500000000001],[-76.49086199999999,38.92500000000001],[-76.49807470000002,38.92500000000001],[-76.49854269999997,38.92500000000001],[-76.49940750000002,38.92500000000001]]]}},{"type":"Feature","properties":{},"geometry":{"type":"Polygon","coordinates":[[[-76.42285149999998,38.92500000000001],[-76.42500000000001,38.92500000000001],[-76.42500000000001,38.93091709999999],[-76.42500000000001,38.94193059999998],[-76.42500000000001,38.94303789999998],[-76.42500000000001,38.94574269999998],[-76.42500000000001,38.94705069999998],[-76.42500000000001,38.95039259999999],[-76.42500000000001,38.950845500000014],[-76.42500000000001,38.9521982],[-76.42500000000001,38.953124100000025],[-76.42500000000001,38.953420300000005],[-76.42500000000001,38.9546512],[-76.42500000000001,38.9581154],[-76.42500000000001,38.95860720000002],[-76.42500000000001,38.96249799999998],[-76.42500000000001,38.96268090000001],[-76.42500000000001,38.96472299999999],[-76.42500000000001,38.966771800000004],[-76.42500000000001,38.96678220000001],[-76.42500000000001,38.96678730000002],[-76.42500000000001,38.96730209999998],[-76.42500000000001,38.9680113],[-76.42500000000001,38.968679899999984],[-76.42500000000001,38.9741042],[-76.42500000000001,38.9801971],[-76.42500000000001,38.980648299999984],[-76.42500000000001,38.983122200000025],[-76.42500000000001,38.9866523],[-76.42500000000001,38.986791700000026],[-76.42500000000001,38.986875999999995],[-76.42500000000001,38.99148259999998],[-76.42500000000001,38.991756599999974],[-76.42500000000001,38.99396100000001],[-76.42500000000001,38.99657939999997],[-76.42500000000001,38.99712699999998],[-76.42500000000001,39.0],[-76.42449620000002,39.0],[-76.42431490000001,39.0],[-76.42386800000003,39.0],[-76.42336269999998,39.0],[-76.42311469999999,39.0],[-76.418072,39.0],[-76.41407830000003,39.0],[-76.40310729999999,39.0],[-76.40241350000002,39.0],[-76.39904860000001,39.0],[-76.39891569999998,39.0],[-76.39788900000002,39.0],[-76.39778159999997,39.0],[-76.39759930000002,39.0],[-76.3944558,39.0],[-76.3935176,39.0],[-76.39350860000002,39.0],[-76.39329420000001,39.0],[-76.3873964,39.0],[-76.38721140000001,39.0],[-76.38322849999997,39.0],[-76.37002710000002,39.0],[-76.3666533,39.0],[-76.35894619999999,39.0],[-76.35792700000002,39.0],[-76.35146650000002,39.0],[-76.35000000000002,39.0],[-76.35000000000002,38.998713599999974],[-76.35000000000002,38.997669599999995],[-76.35000000000002,38.997090800000024],[-76.35000000000002,38.99467249999998],[-76.35000000000002,38.9919443],[-76.35000000000002,38.99069259999999],[-76.35000000000002,38.989054599999974],[-76.35000000000002,38.98702309999999],[-76.35000000000002,38.98690499999998],[-76.35000000000002,38.98571700000002],[-76.35000000000002,38.9856211],[-76.35000000000002,38.9843401],[-76.35000000000002,38.97544570000002],[-76.35000000000002,38.96322959999998],[-76.35000000000002,38.96298489999998],[-76.35000000000002,38.96291489999999],[-76.35000000000002,38.92500000000001],[-76.36245880000001,38.92500000000001],[-76.37372779999998,38.92500000000001],[-76.37673799999999,38.92500000000001],[-76.37888190000001,38.92500000000001],[-76.3822558,38.92500000000001],[-76.38248220000003,38.92500000000001],[-76.3826891,38.92500000000001],[-76.38285480000002,38.92500000000001],[-76.3829179,38.92500000000001],[-76.38292790000003,38.92500000000001],[-76.38460880000002,38.92500000000001],[-76.3972402,38.92500000000001],[-76.42285149999998,38.92500000000001]]]}},{"type":"Feature","properties":{},"geometry":{"type":"Polygon","coordinates":[[[-76.34744030000002,38.92500000000001],[-76.35000000000002,38.92500000000001],[-76.35000000000002,38.96291489999999],[-76.35000000000002,38.96298489999998],[-76.35000000000002,38.96322959999998],[-76.35000000000002,38.97544570000002],[-76.35000000000002,38.9843401],[-76.35000000000002,38.9856211],[-76.35000000000002,38.98571700000002],[-76.35000000000002,38.98690499999998],[-76.35000000000002,38.98702309999999],[-76.35000000000002,38.989054599999974],[-76.35000000000002,38.99069259999999],[-76.35000000000002,38.9919443],[-76.35000000000002,38.99467249999998],[-76.35000000000002,38.997090800000024],[-76.35000000000002,38.997669599999995],[-76.35000000000002,38.998713599999974],[-76.35000000000002,39.0],[-76.34968270000002,39.0],[-76.34953569999999,39.0],[-76.34848040000003,39.0],[-76.34729820000001,39.0],[-76.34579129999997,39.0],[-76.34541180000002,39.0],[-76.340733,39.0],[-76.33620760000002,39.0],[-76.33327430000003,39.0],[-76.3224295,39.0],[-76.3221476,39.0],[-76.32213680000001,39.0],[-76.32201220000002,39.0],[-76.32121089999998,39.0],[-76.29628919999999,39.0],[-76.29153789999998,39.0],[-76.28564139999997,39.0],[-76.28263320000002,39.0],[-76.27499999999998,39.0],[-76.27499999999998,38.997799499999985],[-76.27499999999998,38.99666589999998],[-76.27499999999998,38.9917772],[-76.27499999999998,38.983062099999984],[-76.27499999999998,38.977248900000006],[-76.27499999999998,38.97610320000001],[-76.27499999999998,38.96280519999999],[-76.27499999999998,38.962140799999986],[-76.27499999999998,38.96089549999999],[-76.27499999999998,38.9577711],[-76.27499999999998,38.95751519999999],[-76.27499999999998,38.95271969999999],[-76.27499999999998,38.951393199999984],[-76.27499999999998,38.9428216],[-76.27499999999998,38.941560100000004],[-76.27499999999998,38.941327100000024],[-76.27499999999998,38.93991340000002],[-76.27499999999998,38.93861020000003],[-76.27499999999998,38.936819300000025],[-76.27499999999998,38.93554760000001],[-76.27499999999998,38.93524869999999],[-76.27499999999998,38.9307321],[-76.27499999999998,38.9272249],[-76.27499999999998,38.926083199999994],[-76.27499999999998,38.925232900000026],[-76.27499999999998,38.92500000000001],[-76.27597700000001,38.92500000000001],[-76.2784317,38.92500000000001],[-76.2836393,38.92500000000001],[-76.28907800000002,38.92500000000001],[-76.289916,38.92500000000001],[-76.2911512,38.92500000000001],[-76.2918927,38.92500000000001],[-76.29319049999998,38.92500000000001],[-76.29409420000002,38.92500000000001],[-76.29627240000002,38.92500000000001],[-76.29665360000001,38.92500000000001],[-76.30131649999998,38.92500000000001],[-76.30168229999998,38.92500000000001],[-76.30453039999998,38.92500000000001],[-76.3093594,38.92500000000001],[-76.30936120000001,38.92500000000001],[-76.31157510000003,38.92500000000001],[-76.31377529999997,38.92500000000001],[-76.31853050000001,38.92500000000001],[-76.32046659999997,38.92500000000001],[-76.32900690000002,38.92500000000001],[-76.32984900000002,38.92500000000001],[-76.33105369999998,38.92500000000001],[-76.33796319999999,38.92500000000001],[-76.3395534,38.92500000000001],[-76.34310770000002,38.92500000000001],[-76.34474210000002,38.92500000000001],[-76.34702850000002,38.92500000000001],[-76.34744030000002,38.92500000000001]]]}},{"type":"Feature","properties":{},"geometry":{"type":"Polygon","coordinates":[[[-76.27460580000002,38.92500000000001],[-76.27499999999998,38.92500000000001],[-76.27499999999998,38.925232900000026],[-76.27499999999998,38.926083199999994],[-76.27499999999998,38.9272249],[-76.27499999999998,38.9307321],[-76.27499999999998,38.93524869999999],[-76.27499999999998,38.93554760000001],[-76.27499999999998,38.936819300000025],[-76.27499999999998,38.93861020000003],[-76.27499999999998,38.93991340000002],[-76.27499999999998,38.941327100000024],[-76.27499999999998,38.941560100000004],[-76.27499999999998,38.9428216],[-76.27499999999998,38.951393199999984],[-76.27499999999998,38.95271969999999],[-76.27499999999998,38.95751519999999],[-76.27499999999998,38.9577711],[-76.27499999999998,38.96089549999999],[-76.27499999999998,38.962140799999986],[-76.27499999999998,38.96280519999999],[-76.27499999999998,38.97610320000001],[-76.27499999999998,38.977248900000006],[-76.27499999999998,38.983062099999984],[-76.27499999999998,38.9917772],[-76.27499999999998,38.99666589999998],[-76.27499999999998,38.997799499999985],[-76.27499999999998,39.0],[-76.2747402,39.0],[-76.27169830000003,39.0],[-76.2579857,39.0],[-76.2473645,39.0],[-76.24151760000001,39.0],[-76.24081410000002,39.0],[-76.2318937,39.0],[-76.22916650000002,39.0],[-76.22663440000002,39.0],[-76.22601700000001,39.0],[-76.22590500000001,39.0],[-76.22584269999999,39.0],[-76.22144800000001,39.0],[-76.21367500000002,39.0],[-76.21218349999998,39.0],[-76.20591569999999,39.0],[-76.2048072,39.0],[-76.20292949999998,39.0],[-76.19999999999999,39.0],[-76.19999999999999,38.99981589999999],[-76.19999999999999,38.99544950000001],[-76.19999999999999,38.993926699999975],[-76.19999999999999,38.990726800000004],[-76.19999999999999,38.990514399999995],[-76.19999999999999,38.989959699999986],[-76.19999999999999,38.98163299999999],[-76.19999999999999,38.980000399999994],[-76.19999999999999,38.97381710000002],[-76.19999999999999,38.973719800000026],[-76.19999999999999,38.97337399999998],[-76.19999999999999,38.97270099999997],[-76.19999999999999,38.9726799],[-76.19999999999999,38.97091119999999],[-76.19999999999999,38.966656],[-76.19999999999999,38.96623260000001],[-76.19999999999999,38.965285800000004],[-76.19999999999999,38.931949599999996],[-76.19999999999999,38.931443],[-76.19999999999999,38.92867480000001],[-76.19999999999999,38.92500000000001],[-76.20219989999998,38.92500000000001],[-76.20258469999999,38.92500000000001],[-76.20805360000003,38.92500000000001],[-76.21213740000002,38.92500000000001],[-76.21498059999999,38.92500000000001],[-76.22330410000001,38.92500000000001],[-76.22450179999998,38.92500000000001],[-76.22524049999998,38.92500000000001],[-76.2269746,38.92500000000001],[-76.22846570000002,38.92500000000001],[-76.22979559999999,38.92500000000001],[-76.2354894,38.92500000000001],[-76.23678719999998,38.92500000000001],[-76.2394602,38.92500000000001],[-76.24036899999999,38.92500000000001],[-76.24178210000002,38.92500000000001],[-76.24240789999999,38.92500000000001],[-76.24362100000002,38.92500000000001],[-76.24522639999998,38.92500000000001],[-76.24902850000001,38.92500000000001],[-76.25190989999999,38.92500000000001],[-76.26467350000001,38.92500000000001],[-76.26975720000002,38.92500000000001],[-76.27414670000002,38.92500000000001],[-76.27460580000002,38.92500000000001]]]}},{"type":"Feature","properties":{},"geometry":{"type":"Polygon","coordinates":[[[-76.35000000000002,39.093789000000015],[-76.35000000000002,39.08250190000001],[-76.35000000000002,39.07499999999999],[-76.36034660000001,39.07499999999999],[-76.39229619999998,39.07499999999999],[-76.39293140000001,39.07499999999999],[-76.39312840000002,39.07499999999999],[-76.39340429999999,39.07499999999999],[-76.3937439,39.07499999999999],[-76.39432549999998,39.07499999999999],[-76.39436130000001,39.07499999999999],[-76.39497779999999,39.07499999999999],[-76.395286,39.07499999999999],[-76.3955942,39.07499999999999],[-76.39590620000001,39.07499999999999],[-76.39630849999998,39.07499999999999],[-76.39642129999999,39.07499999999999],[-76.40614390000002,39.07499999999999],[-76.40662309999999,39.07499999999999],[-76.4072334,39.07499999999999],[-76.4154092,39.07499999999999],[-76.4160238,39.07499999999999],[-76.4226294,39.07499999999999],[-76.42500000000001,39.07499999999999],[-76.42500000000001,39.082696699999985],[-76.42500000000001,39.08413860000002],[-76.42500000000001,39.086524],[-76.42500000000001,39.08712489999999],[-76.42500000000001,39.08785390000003],[-76.42500000000001,39.090960499999994],[-76.42500000000001,39.09135709999998],[-76.42500000000001,39.099408600000004],[-76.42500000000001,39.10302730000001],[-76.42500000000001,39.105000000000004],[-76.35000000000002,39.105000000000004],[-76.35000000000002,39.093789000000015]]]}},{"type":"Feature","properties":{},"geometry":{"type":"Polygon","coordinates":[[[-76.27499999999998,39.099879199999975],[-76.27499999999998,39.08873490000002],[-76.27499999999998,39.08723880000002],[-76.27499999999998,39.08719910000002],[-76.27499999999998,39.07499999999999],[-76.29422640000001,39.07499999999999],[-76.29518810000002,39.07499999999999],[-76.30537509999999,39.07499999999999],[-76.31207920000003,39.07499999999999],[-76.31440809999998,39.07499999999999],[-76.31604929999997,39.07499999999999],[-76.31669799999997,39.07499999999999],[-76.31734640000002,39.07499999999999],[-76.31740400000001,39.07499999999999],[-76.31799489999997,39.07499999999999],[-76.31864300000001,39.07499999999999],[-76.31990589999998,39.07499999999999],[-76.3285889,39.07499999999999],[-76.32926889999999,39.07499999999999],[-76.34968270000002,39.07499999999999],[-76.35000000000002,39.07499999999999],[-76.35000000000002,39.08250190000001],[-76.35000000000002,39.093789000000015],[-76.35000000000002,39.105000000000004],[-76.27499999999998,39.105000000000004],[-76.27499999999998,39.099879199999975]]]}},{"type":"Feature","properties":{},"geometry":{"type":"Polygon","coordinates":[[[-76.19999999999999,39.097927500000026],[-76.19999999999999,39.09605690000001],[-76.19999999999999,39.09598799999998],[-76.19999999999999,39.095822999999996],[-76.19999999999999,39.0956291],[-76.19999999999999,39.09544090000003],[-76.19999999999999,39.09118080000002],[-76.19999999999999,39.08478659999997],[-76.19999999999999,39.08097939999999],[-76.19999999999999,39.07499999999999],[-76.20083199999999,39.07499999999999],[-76.2056743,39.07499999999999],[-76.2106761,39.07499999999999],[-76.21152460000002,39.07499999999999],[-76.21588050000003,39.07499999999999],[-76.21640509999997,39.07499999999999],[-76.21750939999998,39.07499999999999],[-76.21847789999998,39.07499999999999],[-76.2198037,39.07499999999999],[-76.220169,39.07499999999999],[-76.23115139999999,39.07499999999999],[-76.23721280000001,39.07499999999999],[-76.2383221,39.07499999999999],[-76.2458952,39.07499999999999],[-76.24711660000003,39.07499999999999],[-76.27499999999998,39.07499999999999],[-76.27499999999998,39.08719910000002],[-76.27499999999998,39.08723880000002],[-76.27499999999998,39.08873490000002],[-76.27499999999998,39.099879199999975],[-76.27499999999998,39.105000000000004],[-76.19999999999999,39.105000000000004],[-76.19999999999999,39.097927500000026]]]}},{"type":"Feature","properties":{},"geometry":{"type":"Polygon","coordinates":[[[-76.54418529999998,38.85000000000002],[-76.57499999999999,38.85000000000002],[-76.57499999999999,38.87092100000001],[-76.57499999999999,38.92311799999999],[-76.57499999999999,38.92500000000001],[-76.5512076,38.92500000000001],[-76.55083159999998,38.92500000000001],[-76.54923309999998,38.92500000000001],[-76.54819479999998,38.92500000000001],[-76.54789699999998,38.92500000000001],[-76.54497889999999,38.92500000000001],[-76.52668060000002,38.92500000000001],[-76.5251644,38.92500000000001],[-76.52408209999999,38.92500000000001],[-76.52364510000001,38.92500000000001],[-76.51876479999999,38.92500000000001],[-76.51870780000002,38.92500000000001],[-76.5173251,38.92500000000001],[-76.51346699999999,38.92500000000001],[-76.50384500000001,38.92500000000001],[-76.5019666,38.92500000000001],[-76.50032299999998,38.92500000000001],[-76.5,38.92500000000001],[-76.5,38.92405550000001],[-76.5,38.92014339999997],[-76.5,38.9197843],[-76.5,38.915833299999974],[-76.5,38.914457700000014],[-76.5,38.914167299999974],[-76.5,38.91352119999999],[-76.5,38.90926230000002],[-76.5,38.90807890000002],[-76.5,38.9027299],[-76.5,38.901781099999994],[-76.5,38.899886400000014],[-76.5,38.89940489999998],[-76.5,38.8992341],[-76.5,38.899038099999984],[-76.5,38.878155400000026],[-76.5,38.87497589999998],[-76.5,38.87053479999997],[-76.5,38.86920600000002],[-76.5,38.8676974],[-76.5,38.86155609999997],[-76.5,38.85769570000002],[-76.5,38.85000000000002],[-76.50641030000003,38.85000000000002],[-76.50658620000002,38.85000000000002],[-76.51147759999998,38.85000000000002],[-76.51833850000003,38.85000000000002],[-76.51938760000002,38.85000000000002],[-76.52195619999998,38.85000000000002],[-76.52591919999998,38.85000000000002],[-76.52593200000001,38.85000000000002],[-76.528839,38.85000000000002],[-76.52920180000001,38.85000000000002],[-76.53167989999997,38.85000000000002],[-76.53404790000002,38.85000000000002],[-76.53683469999999,38.85000000000002],[-76.54025569999999,38.85000000000002],[-76.54288050000002,38.85000000000002],[-76.54396170000001,38.85000000000002],[-76.54418529999998,38.85000000000002]]]}},{"type":"Feature","properties":{},"geometry":{"type":"Polygon","coordinates":[[[-76.57499999999999,39.0],[-76.57499999999999,38.97458790000002],[-76.57499999999999,38.97265349999998],[-76.57499999999999,38.971919300000025],[-76.57499999999999,38.97111530000001],[-76.57499999999999,38.96933200000001],[-76.57499999999999,38.9688266],[-76.57499999999999,38.96679790000002],[-76.57499999999999,38.966446099999985],[-76.57499999999999,38.96629969999998],[-76.57499999999999,38.9658695],[-76.57499999999999,38.96494100000001],[-76.57499999999999,38.964861600000006],[-76.57499999999999,38.961873500000024],[-76.57499999999999,38.96152569999998],[-76.57499999999999,38.958442400000024],[-76.57499999999999,38.95718849999997],[-76.57499999999999,38.956545800000015],[-76.57499999999999,38.95461990000001],[-76.57499999999999,38.95434319999998],[-76.57499999999999,38.95402760000002],[-76.57499999999999,38.94939310000001],[-76.57499999999999,38.94883199999998],[-76.57499999999999,38.94867590000001],[-76.57499999999999,38.946531400000026],[-76.57499999999999,38.9460105],[-76.57499999999999,38.94526509999997],[-76.57499999999999,38.94519600000001],[-76.57499999999999,38.94439139999997],[-76.57499999999999,38.94248140000002],[-76.57499999999999,38.94112749999999],[-76.57499999999999,38.94082580000003],[-76.57499999999999,38.92500000000001],[-76.60502279999997,38.92500000000001],[-76.60528699999998,38.92500000000001],[-76.64999999999998,38.92500000000001],[-76.64999999999998,39.0],[-76.6330173,39.0],[-76.63028659999998,39.0],[-76.57499999999999,39.0]]]}},{"type":"Feature","properties":{},"geometry":{"type":"Polygon","coordinates":[[[-76.57499999999999,38.94082580000003],[-76.57499999999999,38.94112749999999],[-76.57499999999999,38.94248140000002],[-76.57499999999999,38.94439139999997],[-76.57499999999999,38.94519600000001],[-76.57499999999999,38.94526509999997],[-76.57499999999999,38.9460105],[-76.57499999999999,38.946531400000026],[-76.57499999999999,38.94867590000001],[-76.57499999999999,38.94883199999998],[-76.57499999999999,38.94939310000001],[-76.57499999999999,38.95402760000002],[-76.57499999999999,38.95434319999998],[-76.57499999999999,38.95461990000001],[-76.57499999999999,38.956545800000015],[-76.57499999999999,38.95718849999997],[-76.57499999999999,38.958442400000024],[-76.57499999999999,38.96152569999998],[-76.57499999999999,38.961873500000024],[-76.57499999999999,38.964861600000006],[-76.57499999999999,38.96494100000001],[-76.57499999999999,38.9658695],[-76.57499999999999,38.96629969999998],[-76.57499999999999,38.966446099999985],[-76.57499999999999,38.96679790000002],[-76.57499999999999,38.9688266],[-76.57499999999999,38.96933200000001],[-76.57499999999999,38.97111530000001],[-76.57499999999999,38.971919300000025],[-76.57499999999999,38.97265349999998],[-76.57499999999999,38.97458790000002],[-76.57499999999999,39.0],[-76.5054594,39.0],[-76.5052311,39.0],[-76.50458090000001,39.0],[-76.50428849999997,39.0],[-76.50401490000002,39.0],[-76.50162319999998,39.0],[-76.50033289999999,39.0],[-76.5,39.0],[-76.5,38.999461],[-76.5,38.99913600000002],[-76.5,38.99868900000001],[-76.5,38.983876699999996],[-76.5,38.98356940000002],[-76.5,38.981153000000006],[-76.5,38.981064],[-76.5,38.980710699999975],[-76.5,38.98059280000001],[-76.5,38.9705922],[-76.5,38.970326399999976],[-76.5,38.969711099999984],[-76.5,38.96942389999998],[-76.5,38.96941880000003],[-76.5,38.95391990000002],[-76.5,38.93103180000003],[-76.5,38.92842209999998],[-76.5,38.928043],[-76.5,38.92736259999998],[-76.5,38.925251600000024],[-76.5,38.92500000000001],[-76.50032299999998,38.92500000000001],[-76.5019666,38.92500000000001],[-76.50384500000001,38.92500000000001],[-76.51346699999999,38.92500000000001],[-76.5173251,38.92500000000001],[-76.51870780000002,38.92500000000001],[-76.51876479999999,38.92500000000001],[-76.52364510000001,38.92500000000001],[-76.52408209999999,38.92500000000001],[-76.5251644,38.92500000000001],[-76.52668060000002,38.92500000000001],[-76.54497889999999,38.92500000000001],[-76.54789699999998,38.92500000000001],[-76.54819479999998,38.92500000000001],[-76.54923309999998,38.92500000000001],[-76.55083159999998,38.92500000000001],[-76.5512076,38.92500000000001],[-76.57499999999999,38.92500000000001],[-76.57499999999999,38.94082580000003]]]}},{"type":"Feature","properties":{},"geometry":{"type":"Polygon","coordinates":[[[-76.64999999999998,39.0585107],[-76.64999999999998,39.07499999999999],[-76.6330173,39.07499999999999],[-76.60820330000001,39.07499999999999],[-76.60743439999999,39.07499999999999],[-76.6071116,39.07499999999999],[-76.5998712,39.07499999999999],[-76.59744940000002,39.07499999999999],[-76.5906445,39.07499999999999],[-76.59002170000002,39.07499999999999],[-76.58942289999999,39.07499999999999],[-76.5889972,39.07499999999999],[-76.5771105,39.07499999999999],[-76.57647530000003,39.07499999999999],[-76.57499999999999,39.07499999999999],[-76.57499999999999,39.074116300000014],[-76.57499999999999,39.07354409999999],[-76.57499999999999,39.07339780000001],[-76.57499999999999,39.07262530000003],[-76.57499999999999,39.07236790000002],[-76.57499999999999,39.0720202],[-76.57499999999999,39.070636200000024],[-76.57499999999999,39.07022280000001],[-76.57499999999999,39.07009679999999],[-76.57499999999999,39.06978049999998],[-76.57499999999999,39.068830400000024],[-76.57499999999999,39.06871560000002],[-76.57499999999999,39.068503599999985],[-76.57499999999999,39.06788390000003],[-76.57499999999999,39.067665799999986],[-76.57499999999999,39.06631429999999],[-76.57499999999999,39.065997700000025],[-76.57499999999999,39.06518360000001],[-76.57499999999999,39.063036599999975],[-76.57499999999999,39.06301389999999],[-76.57499999999999,39.06292639999998],[-76.57499999999999,39.06269930000002],[-76.57499999999999,39.06231960000002],[-76.57499999999999,39.06184539999998],[-76.57499999999999,39.059414300000014],[-76.57499999999999,39.059031000000004],[-76.57499999999999,39.042366800000025],[-76.57499999999999,39.041380100000026],[-76.57499999999999,39.03602910000001],[-76.57499999999999,39.03571649999998],[-76.57499999999999,39.03458999999998],[-76.57499999999999,39.0297726],[-76.57499999999999,39.0],[-76.63028659999998,39.0],[-76.6330173,39.0],[-76.64999999999998,39.0],[-76.64999999999998,39.01779370000003],[-76.64999999999998,39.0585107]]]}},{"type":"Feature","properties":{},"geometry":{"type":"Polygon","coordinates":[[[-76.5054594,39.0],[-76.57499999999999,39.0],[-76.57499999999999,39.0297726],[-76.57499999999999,39.03458999999998],[-76.57499999999999,39.03571649999998],[-76.57499999999999,39.03602910000001],[-76.57499999999999,39.041380100000026],[-76.57499999999999,39.042366800000025],[-76.57499999999999,39.059031000000004],[-76.57499999999999,39.059414300000014],[-76.57499999999999,39.06184539999998],[-76.57499999999999,39.06231960000002],[-76.57499999999999,39.06269930000002],[-76.57499999999999,39.06292639999998],[-76.57499999999999,39.06301389999999],[-76.57499999999999,39.063036599999975],[-76.57499999999999,39.06518360000001],[-76.57499999999999,39.065997700000025],[-76.57499999999999,39.06631429999999],[-76.57499999999999,39.067665799999986],[-76.57499999999999,39.06788390000003],[-76.57499999999999,39.068503599999985],[-76.57499999999999,39.06871560000002],[-76.57499999999999,39.068830400000024],[-76.57499999999999,39.06978049999998],[-76.57499999999999,39.07009679999999],[-76.57499999999999,39.07022280000001],[-76.57499999999999,39.070636200000024],[-76.57499999999999,39.0720202],[-76.57499999999999,39.07236790000002],[-76.57499999999999,39.07262530000003],[-76.57499999999999,39.07339780000001],[-76.57499999999999,39.07354409999999],[-76.57499999999999,39.074116300000014],[-76.57499999999999,39.07499999999999],[-76.57405419999998,39.07499999999999],[-76.57394010000002,39.07499999999999],[-76.57314810000003,39.07499999999999],[-76.57285100000001,39.07499999999999],[-76.53094340000001,39.07499999999999],[-76.5305631,39.07499999999999],[-76.52990140000003,39.07499999999999],[-76.52931339999998,39.07499999999999],[-76.5229243,39.07499999999999],[-76.52264600000001,39.07499999999999],[-76.5216388,39.07499999999999],[-76.51967680000001,39.07499999999999],[-76.51881300000002,39.07499999999999],[-76.5,39.07499999999999],[-76.5,39.07121719999998],[-76.5,39.07075930000002],[-76.5,39.07030930000002],[-76.5,39.07001270000001],[-76.5,39.06966249999999],[-76.5,39.069440799999995],[-76.5,39.06910599999998],[-76.5,39.065347299999985],[-76.5,39.064748899999984],[-76.5,39.008620399999984],[-76.5,39.00792310000003],[-76.5,39.00789309999999],[-76.5,39.0078211],[-76.5,39.0071653],[-76.5,39.00701520000001],[-76.5,39.00652980000001],[-76.5,39.00292139999999],[-76.5,39.00290810000001],[-76.5,39.00254480000001],[-76.5,39.00200219999999],[-76.5,39.001100099999974],[-76.5,39.00093099999998],[-76.5,39.0000728],[-76.5,39.0],[-76.50033289999999,39.0],[-76.50162319999998,39.0],[-76.50401490000002,39.0],[-76.50428849999997,39.0],[-76.50458090000001,39.0],[-76.5052311,39.0],[-76.5054594,39.0]]]}},{"type":"Feature","properties":{},"geometry":{"type":"Polygon","coordinates":[[[-76.499684,39.0],[-76.5,39.0],[-76.5,39.0000728],[-76.5,39.00093099999998],[-76.5,39.001100099999974],[-76.5,39.00200219999999],[-76.5,39.00254480000001],[-76.5,39.00290810000001],[-76.5,39.00292139999999],[-76.5,39.00652980000001],[-76.5,39.00701520000001],[-76.5,39.0071653],[-76.5,39.0078211],[-76.5,39.00789309999999],[-76.5,39.00792310000003],[-76.5,39.008620399999984],[-76.5,39.064748899999984],[-76.5,39.065347299999985],[-76.5,39.06910599999998],[-76.5,39.069440799999995],[-76.5,39.06966249999999],[-76.5,39.07001270000001],[-76.5,39.07030930000002],[-76.5,39.07075930000002],[-76.5,39.07121719999998],[-76.5,39.07499999999999],[-76.49558739999998,39.07499999999999],[-76.49391630000002,39.07499999999999],[-76.49279949999999,39.07499999999999],[-76.4921898,39.07499999999999],[-76.4811623,39.07499999999999],[-76.47913949999997,39.07499999999999],[-76.4682454,39.07499999999999],[-76.46384790000002,39.07499999999999],[-76.4616787,39.07499999999999],[-76.44614510000002,39.07499999999999],[-76.44370900000001,39.07499999999999],[-76.42500000000001,39.07499999999999],[-76.42500000000001,39.07112489999997],[-76.42500000000001,39.066598899999974],[-76.42500000000001,39.06099879999999],[-76.42500000000001,39.06056619999998],[-76.42500000000001,39.05946669999997],[-76.42500000000001,39.0537645],[-76.42500000000001,39.050215200000025],[-76.42500000000001,39.04814879999998],[-76.42500000000001,39.04408139999998],[-76.42500000000001,39.011000000000024],[-76.42500000000001,39.00363340000001],[-76.42500000000001,39.00361720000001],[-76.42500000000001,39.00310400000001],[-76.42500000000001,39.00265630000001],[-76.42500000000001,39.00256660000002],[-76.42500000000001,39.002234199999975],[-76.42500000000001,39.00125329999997],[-76.42500000000001,39.001175699999976],[-76.42500000000001,39.0007693],[-76.42500000000001,39.00073120000002],[-76.42500000000001,39.00034049999999],[-76.42500000000001,39.0],[-76.42536910000001,39.0],[-76.42848450000002,39.0],[-76.42867159999997,39.0],[-76.4303289,39.0],[-76.43171990000002,39.0],[-76.4319506,39.0],[-76.4323738,39.0],[-76.43263530000002,39.0],[-76.4327872,39.0],[-76.43286799999998,39.0],[-76.43309369999997,39.0],[-76.43317869999998,39.0],[-76.43336049999999,39.0],[-76.434124,39.0],[-76.4472738,39.0],[-76.44808560000001,39.0],[-76.45062430000002,39.0],[-76.45119720000002,39.0],[-76.4520645,39.0],[-76.4522402,39.0],[-76.45231960000001,39.0],[-76.45247030000002,39.0],[-76.45512980000001,39.0],[-76.45535130000002,39.0],[-76.45755259999999,39.0],[-76.45788540000001,39.0],[-76.4854985,39.0],[-76.485569,39.0],[-76.48606289999998,39.0],[-76.48634399999997,39.0],[-76.4868042,39.0],[-76.48689100000001,39.0],[-76.48809399999999,39.0],[-76.48930089999999,39.0],[-76.4921041,39.0],[-76.4929818,39.0],[-76.49327349999999,39.0],[-76.49334140000002,39.0],[-76.4934121,39.0],[-76.49342360000003,39.0],[-76.49342940000002,39.0],[-76.49343520000002,39.0],[-76.49435469999997,39.0],[-76.4943968,39.0],[-76.49456679999997,39.0],[-76.49458879999997,39.0],[-76.49460240000002,39.0],[-76.49530349999998,39.0],[-76.49584729999998,39.0],[-76.4958795,39.0],[-76.49665169999997,39.0],[-76.49851089999999,39.0],[-76.499684,39.0]]]}},{"type":"Feature","properties":{},"geometry":{"type":"Polygon","coordinates":[[[-76.42449620000002,39.0],[-76.42500000000001,39.0],[-76.42500000000001,39.00034049999999],[-76.42500000000001,39.00073120000002],[-76.42500000000001,39.0007693],[-76.42500000000001,39.001175699999976],[-76.42500000000001,39.00125329999997],[-76.42500000000001,39.002234199999975],[-76.42500000000001,39.00256660000002],[-76.42500000000001,39.00265630000001],[-76.42500000000001,39.00310400000001],[-76.42500000000001,39.00361720000001],[-76.42500000000001,39.00363340000001],[-76.42500000000001,39.011000000000024],[-76.42500000000001,39.04408139999998],[-76.42500000000001,39.04814879999998],[-76.42500000000001,39.050215200000025],[-76.42500000000001,39.0537645],[-76.42500000000001,39.05946669999997],[-76.42500000000001,39.06056619999998],[-76.42500000000001,39.06099879999999],[-76.42500000000001,39.066598899999974],[-76.42500000000001,39.07112489999997],[-76.42500000000001,39.07499999999999],[-76.4226294,39.07499999999999],[-76.4160238,39.07499999999999],[-76.4154092,39.07499999999999],[-76.4072334,39.07499999999999],[-76.40662309999999,39.07499999999999],[-76.40614390000002,39.07499999999999],[-76.39642129999999,39.07499999999999],[-76.39630849999998,39.07499999999999],[-76.39590620000001,39.07499999999999],[-76.3955942,39.07499999999999],[-76.395286,39.07499999999999],[-76.39497779999999,39.07499999999999],[-76.39436130000001,39.07499999999999],[-76.39432549999998,39.07499999999999],[-76.3937439,39.07499999999999],[-76.39340429999999,39.07499999999999],[-76.39312840000002,39.07499999999999],[-76.39293140000001,39.07499999999999],[-76.39229619999998,39.07499999999999],[-76.36034660000001,39.07499999999999],[-76.35000000000002,39.07499999999999],[-76.35000000000002,39.06084729999998],[-76.35000000000002,39.059610099999986],[-76.35000000000002,39.05035859999998],[-76.35000000000002,39.021323499999994],[-76.35000000000002,39.021026199999994],[-76.35000000000002,39.01811350000003],[-76.35000000000002,39.00652170000001],[-76.35000000000002,39.00434739999997],[-76.35000000000002,39.00165420000002],[-76.35000000000002,39.0],[-76.35146650000002,39.0],[-76.35792700000002,39.0],[-76.35894619999999,39.0],[-76.3666533,39.0],[-76.37002710000002,39.0],[-76.38322849999997,39.0],[-76.38442220000002,39.0],[-76.38721140000001,39.0],[-76.3873964,39.0],[-76.39329420000001,39.0],[-76.39350860000002,39.0],[-76.3935176,39.0],[-76.3944558,39.0],[-76.39759930000002,39.0],[-76.39778159999997,39.0],[-76.39788900000002,39.0],[-76.39891569999998,39.0],[-76.39904860000001,39.0],[-76.40241350000002,39.0],[-76.40310729999999,39.0],[-76.41407830000003,39.0],[-76.418072,39.0],[-76.42311469999999,39.0],[-76.42336269999998,39.0],[-76.42386800000003,39.0],[-76.42431490000001,39.0],[-76.42449620000002,39.0]]]}},{"type":"Feature","properties":{},"geometry":{"type":"Polygon","coordinates":[[[-76.35000000000002,39.00165420000002],[-76.35000000000002,39.00434739999997],[-76.35000000000002,39.00652170000001],[-76.35000000000002,39.01811350000003],[-76.35000000000002,39.021026199999994],[-76.35000000000002,39.021323499999994],[-76.35000000000002,39.05035859999998],[-76.35000000000002,39.059610099999986],[-76.35000000000002,39.06084729999998],[-76.35000000000002,39.07499999999999],[-76.34968270000002,39.07499999999999],[-76.32926889999999,39.07499999999999],[-76.3285889,39.07499999999999],[-76.31990589999998,39.07499999999999],[-76.31864300000001,39.07499999999999],[-76.31799489999997,39.07499999999999],[-76.31740400000001,39.07499999999999],[-76.31734640000002,39.07499999999999],[-76.31669799999997,39.07499999999999],[-76.31604929999997,39.07499999999999],[-76.31440809999998,39.07499999999999],[-76.31207920000003,39.07499999999999],[-76.30537509999999,39.07499999999999],[-76.29518810000002,39.07499999999999],[-76.29422640000001,39.07499999999999],[-76.27499999999998,39.07499999999999],[-76.27499999999998,39.06849940000001],[-76.27499999999998,39.06812839999998],[-76.27499999999998,39.06681639999999],[-76.27499999999998,39.062876500000016],[-76.27499999999998,39.062497199999996],[-76.27499999999998,39.057749],[-76.27499999999998,39.03894810000003],[-76.27499999999998,39.025345200000004],[-76.27499999999998,39.020172],[-76.27499999999998,39.015894600000024],[-76.27499999999998,39.014426000000014],[-76.27499999999998,39.00015480000002],[-76.27499999999998,39.0],[-76.28263320000002,39.0],[-76.28564139999997,39.0],[-76.29153789999998,39.0],[-76.29628919999999,39.0],[-76.32121089999998,39.0],[-76.32201220000002,39.0],[-76.32213680000001,39.0],[-76.3221476,39.0],[-76.3224295,39.0],[-76.33327430000003,39.0],[-76.33620760000002,39.0],[-76.340733,39.0],[-76.34541180000002,39.0],[-76.34579129999997,39.0],[-76.34729820000001,39.0],[-76.34848040000003,39.0],[-76.34953569999999,39.0],[-76.34968270000002,39.0],[-76.35000000000002,39.0],[-76.35000000000002,39.00165420000002]]]}},{"type":"Feature","properties":{},"geometry":{"type":"Polygon","coordinates":[[[-76.2747402,39.0],[-76.27499999999998,39.0],[-76.27499999999998,39.00015480000002],[-76.27499999999998,39.014426000000014],[-76.27499999999998,39.015894600000024],[-76.27499999999998,39.020172],[-76.27499999999998,39.025345200000004],[-76.27499999999998,39.03894810000003],[-76.27499999999998,39.057749],[-76.27499999999998,39.062497199999996],[-76.27499999999998,39.062876500000016],[-76.27499999999998,39.06681639999999],[-76.27499999999998,39.06812839999998],[-76.27499999999998,39.06849940000001],[-76.27499999999998,39.07499999999999],[-76.24711660000003,39.07499999999999],[-76.2458952,39.07499999999999],[-76.2383221,39.07499999999999],[-76.23721280000001,39.07499999999999],[-76.23115139999999,39.07499999999999],[-76.220169,39.07499999999999],[-76.2198037,39.07499999999999],[-76.21847789999998,39.07499999999999],[-76.21750939999998,39.07499999999999],[-76.21640509999997,39.07499999999999],[-76.21588050000003,39.07499999999999],[-76.21152460000002,39.07499999999999],[-76.2106761,39.07499999999999],[-76.2056743,39.07499999999999],[-76.20083199999999,39.07499999999999],[-76.19999999999999,39.07499999999999],[-76.19999999999999,39.07347950000002],[-76.19999999999999,39.070409600000005],[-76.19999999999999,39.06245610000002],[-76.19999999999999,39.05690179999999],[-76.19999999999999,39.054839300000026],[-76.19999999999999,39.047090000000026],[-76.19999999999999,39.044762100000014],[-76.19999999999999,39.04339249999998],[-76.19999999999999,39.03308950000002],[-76.19999999999999,39.032820000000015],[-76.19999999999999,39.03161779999999],[-76.19999999999999,39.02866799999998],[-76.19999999999999,39.02827860000002],[-76.19999999999999,39.0245271],[-76.19999999999999,39.02293359999999],[-76.19999999999999,39.020172],[-76.19999999999999,39.0166198],[-76.19999999999999,39.00939319999998],[-76.19999999999999,39.007969],[-76.19999999999999,39.006506],[-76.19999999999999,39.00502710000001],[-76.19999999999999,39.00353469999999],[-76.19999999999999,39.00178399999999],[-76.19999999999999,39.0],[-76.20292949999998,39.0],[-76.2048072,39.0],[-76.20591569999999,39.0],[-76.21218349999998,39.0],[-76.21367500000002,39.0],[-76.22144800000001,39.0],[-76.22584269999999,39.0],[-76.22590500000001,39.0],[-76.22601700000001,39.0],[-76.22663440000002,39.0],[-76.22916650000002,39.0],[-76.2318937,39.0],[-76.24081410000002,39.0],[-76.24151760000001,39.0],[-76.2473645,39.0],[-76.2579857,39.0],[-76.27169830000003,39.0],[-76.2747402,39.0]]]}},{"type":"Feature","properties":{},"geometry":{"type":"Polygon","coordinates":[[[-76.57499999999999,39.07499999999999],[-76.57647530000003,39.07499999999999],[-76.5771105,39.07499999999999],[-76.5889972,39.07499999999999],[-76.58942289999999,39.07499999999999],[-76.59002170000002,39.07499999999999],[-76.5906445,39.07499999999999],[-76.59744940000002,39.07499999999999],[-76.5998712,39.07499999999999],[-76.6071116,39.07499999999999],[-76.60743439999999,39.07499999999999],[-76.60820330000001,39.07499999999999],[-76.6330173,39.07499999999999],[-76.64999999999998,39.07499999999999],[-76.64999999999998,39.105000000000004],[-76.57499999999999,39.105000000000004],[-76.57499999999999,39.07499999999999]]]}},{"type":"Feature","properties":{},"geometry":{"type":"Polygon","coordinates":[[[-76.5,39.089761599999974],[-76.5,39.08953980000001],[-76.5,39.0883202],[-76.5,39.08785710000001],[-76.5,39.0872306],[-76.5,39.087029400000006],[-76.5,39.086479999999995],[-76.5,39.08626020000003],[-76.5,39.079874399999994],[-76.5,39.078897100000006],[-76.5,39.07851649999998],[-76.5,39.07499999999999],[-76.51881300000002,39.07499999999999],[-76.51967680000001,39.07499999999999],[-76.5216388,39.07499999999999],[-76.52264600000001,39.07499999999999],[-76.5229243,39.07499999999999],[-76.52931339999998,39.07499999999999],[-76.52990140000003,39.07499999999999],[-76.5305631,39.07499999999999],[-76.53094340000001,39.07499999999999],[-76.57285100000001,39.07499999999999],[-76.57314810000003,39.07499999999999],[-76.57394010000002,39.07499999999999],[-76.57405419999998,39.07499999999999],[-76.57499999999999,39.07499999999999],[-76.57499999999999,39.105000000000004],[-76.5,39.105000000000004],[-76.5,39.089761599999974]]]}},{"type":"Feature","properties":{},"geometry":{"type":"Polygon","coordinates":[[[-76.42500000000001,39.10302730000001],[-76.42500000000001,39.099408600000004],[-76.42500000000001,39.09135709999998],[-76.42500000000001,39.090960499999994],[-76.42500000000001,39.08785390000003],[-76.42500000000001,39.08712489999999],[-76.42500000000001,39.086524],[-76.42500000000001,39.08413860000002],[-76.42500000000001,39.082696699999985],[-76.42500000000001,39.07499999999999],[-76.44370900000001,39.07499999999999],[-76.44614510000002,39.07499999999999],[-76.4616787,39.07499999999999],[-76.46384790000002,39.07499999999999],[-76.4682454,39.07499999999999],[-76.47913949999997,39.07499999999999],[-76.4811623,39.07499999999999],[-76.4921898,39.07499999999999],[-76.49279949999999,39.07499999999999],[-76.49391630000002,39.07499999999999],[-76.49558739999998,39.07499999999999],[-76.5,39.07499999999999],[-76.5,39.07851649999998],[-76.5,39.078897100000006],[-76.5,39.079874399999994],[-76.5,39.08626020000003],[-76.5,39.086479999999995],[-76.5,39.087029400000006],[-76.5,39.0872306],[-76.5,39.08785710000001],[-76.5,39.0883202],[-76.5,39.08953980000001],[-76.5,39.089761599999974],[-76.5,39.105000000000004],[-76.42500000000001,39.105000000000004],[-76.42500000000001,39.10302730000001]]]}}]}