{"type": "FeatureCollection", "features": [{"type": "Feature", "properties": {}, "geometry": {"type": "Polygon", "coordinates": [[[-79.3137717, 25.6262939], [-79.3140078, 25.6266373], [-79.3139702, 25.6269347], [-79.3140078, 25.6271524], [-79.3141285, 25.6272951], [-79.3141151, 25.6274257], [-79.3142572, 25.6277473], [-79.314445, 25.6279577], [-79.3146515, 25.6281004], [-79.3145845, 25.6279045], [-79.3145818, 25.6277062], [-79.3143591, 25.627341], [-79.3142599, 25.6269057], [-79.314276, 25.6264607], [-79.3142492, 25.6262286], [-79.3142894, 25.6260133], [-79.3142948, 25.6258586], [-79.3141043, 25.6259239], [-79.3139515, 25.6260569], [-79.3137771, 25.6258924], [-79.3138308, 25.6261488], [-79.3137717, 25.6262939]]]}}, {"type": "Feature", "properties": {}, "geometry": {"type": "Polygon", "coordinates": [[[-79.3086505, 25.6557051], [-79.3084788, 25.655913], [-79.308393, 25.6561451], [-79.3082535, 25.6564159], [-79.3080819, 25.6567447], [-79.3079255, 25.6572809], [-79.3079102, 25.6577215], [-79.3081286, 25.6580274], [-79.3080435, 25.6584505], [-79.3079147, 25.658876], [-79.3075741, 25.6591831], [-79.3075634, 25.6598044], [-79.3075991, 25.6601005], [-79.3077225, 25.6602359], [-79.3079585, 25.6601972], [-79.3080044, 25.659422], [-79.3082857, 25.6588094], [-79.3083984, 25.6587708], [-79.3085486, 25.658292], [-79.3086237, 25.6581808], [-79.3088681, 25.6579666], [-79.3085999, 25.6576619], [-79.3085892, 25.6573138], [-79.3085164, 25.6570832], [-79.3085164, 25.6569091], [-79.3086398, 25.6565996], [-79.3088919, 25.6558888], [-79.3090314, 25.6556519], [-79.3090743, 25.6554294], [-79.3091762, 25.6551393], [-79.3092996, 25.6548685], [-79.3093103, 25.654767], [-79.3092084, 25.6547573], [-79.3090734, 25.6550082], [-79.3088651, 25.6552892], [-79.3086505, 25.6557051]]]}}, {"type": "Feature", "properties": {}, "geometry": {"type": "Polygon", "coordinates": [[[-79.3078792, 25.6608183], [-79.3076474, 25.6611353], [-79.3075419, 25.6615718], [-79.3075224, 25.6618023], [-79.3074393, 25.6619763], [-79.3072189, 25.6621336], [-79.3072397, 25.6624698], [-79.3074328, 25.6626004], [-79.3074829, 25.6623019], [-79.3077806, 25.6620094], [-79.3079746, 25.6617638], [-79.3080813, 25.6613718], [-79.3080193, 25.6610858], [-79.3078792, 25.6608183]]]}}, {"type": "Feature", "properties": {}, "geometry": {"type": "Polygon", "coordinates": [[[-79.3066963, 25.6628007], [-79.3065756, 25.6631223], [-79.3066507, 25.6632964], [-79.3066802, 25.6634922], [-79.3068358, 25.6636421], [-79.3068573, 25.6638911], [-79.3067285, 25.6639322], [-79.3066695, 25.6640216], [-79.3067071, 25.6641377], [-79.3066266, 25.6643915], [-79.3065273, 25.6645173], [-79.3064735, 25.6646978], [-79.3065542, 25.6648267], [-79.3065971, 25.6649887], [-79.3067097, 25.665066], [-79.3067178, 25.6653392], [-79.3068009, 25.665963], [-79.3069753, 25.6659436], [-79.3069875, 25.6655837], [-79.3071362, 25.6652836], [-79.3069994, 25.6651555], [-79.3069189, 25.6649597], [-79.3069002, 25.664672], [-79.307214, 25.6642827], [-79.3074339, 25.6635478], [-79.3074393, 25.6634632], [-79.3073642, 25.6633471], [-79.3072354, 25.6632746], [-79.3070048, 25.6632625], [-79.3070611, 25.6627089], [-79.3066963, 25.6628007]]]}}, {"type": "Feature", "properties": {}, "geometry": {"type": "Polygon", "coordinates": [[[-79.3071498, 25.6670214], [-79.306994, 25.6668405], [-79.3067193, 25.66701], [-79.3064683, 25.667283], [-79.3063208, 25.667532], [-79.3062028, 25.6676746], [-79.3061518, 25.6678511], [-79.3061947, 25.6679865], [-79.3065101, 25.6686249], [-79.3066802, 25.6691614], [-79.3065462, 25.6693645], [-79.3061829, 25.669737], [-79.3063277, 25.6698434], [-79.3065316, 25.6697902], [-79.3065316, 25.6696161], [-79.3065423, 25.6694952], [-79.3067526, 25.6693862], [-79.3069124, 25.6690166], [-79.3067634, 25.6685956], [-79.3066078, 25.6679816], [-79.3068588, 25.6675951], [-79.3071498, 25.6670214]]]}}, {"type": "Feature", "properties": {}, "geometry": {"type": "Polygon", "coordinates": [[[-79.2747903, 25.7327008], [-79.2744684, 25.7332614], [-79.2742753, 25.733648], [-79.2742646, 25.7343825], [-79.2745435, 25.7356099], [-79.2748547, 25.7360545], [-79.275316, 25.7361898], [-79.2757666, 25.7359192], [-79.2765927, 25.7352137], [-79.2775154, 25.7346048], [-79.2779768, 25.7340152], [-79.2781377, 25.7334257], [-79.2779982, 25.7325172], [-79.2772257, 25.73186], [-79.2768395, 25.7314057], [-79.2764962, 25.7312898], [-79.2759168, 25.7314444], [-79.275316, 25.7322562], [-79.2747903, 25.7327008]]]}}, {"type": "Feature", "properties": {}, "geometry": {"type": "Polygon", "coordinates": [[[-79.283706, 25.7280858], [-79.2837328, 25.7279021], [-79.2837757, 25.7277717], [-79.2839849, 25.7275735], [-79.2846716, 25.7271531], [-79.2850363, 25.7265828], [-79.2852509, 25.7259642], [-79.2850685, 25.7252973], [-79.2846716, 25.7251137], [-79.284398, 25.7251282], [-79.2840493, 25.7252007], [-79.2837328, 25.7253118], [-79.283309, 25.7254133], [-79.2828906, 25.7256501], [-79.2825526, 25.7258627], [-79.2818874, 25.7261624], [-79.2813671, 25.7263895], [-79.2810077, 25.7267471], [-79.2808682, 25.7269694], [-79.2808038, 25.7272449], [-79.2807072, 25.7276798], [-79.2806482, 25.7280423], [-79.2805034, 25.7283612], [-79.2805195, 25.7285787], [-79.280659, 25.7289895], [-79.2809916, 25.7293857], [-79.2815119, 25.7298231], [-79.2817479, 25.7298932], [-79.2818606, 25.7297965], [-79.281984, 25.7295694], [-79.2821986, 25.7290233], [-79.2825365, 25.7285352], [-79.2827565, 25.7283612], [-79.2830998, 25.7282936], [-79.2835397, 25.7282163], [-79.283706, 25.7280858]]]}}, {"type": "Feature", "properties": {}, "geometry": {"type": "Polygon", "coordinates": [[[-79.2936803, 25.7214951], [-79.2937433, 25.7215633], [-79.2938701, 25.721668], [-79.2940181, 25.721792], [-79.294137, 25.7217336], [-79.2941639, 25.7215445], [-79.2940997, 25.7214013], [-79.2939805, 25.7213248], [-79.2937754, 25.7212886], [-79.2936679, 25.7213943], [-79.2936803, 25.7214951]]]}}, {"type": "Feature", "properties": {}, "geometry": {"type": "Polygon", "coordinates": [[[-79.2927143, 25.724714], [-79.2928429, 25.7248008], [-79.2930361, 25.72483], [-79.2932398, 25.7247718], [-79.2933794, 25.7246221], [-79.2934251, 25.7244313], [-79.293307, 25.7242863], [-79.2930334, 25.7243056], [-79.2927947, 25.7244192], [-79.292681, 25.7245506], [-79.2927143, 25.724714]]]}}, {"type": "Feature", "properties": {}, "geometry": {"type": "Polygon", "coordinates": [[[-79.2925894, 25.7167467], [-79.2927651, 25.7167189], [-79.2928335, 25.7166525], [-79.292918, 25.7165981], [-79.2929582, 25.7165111], [-79.2929277, 25.7162717], [-79.2928094, 25.7161389], [-79.2926028, 25.7160254], [-79.2925036, 25.7159746], [-79.2923963, 25.7158538], [-79.2922971, 25.7156097], [-79.2921522, 25.7155203], [-79.2918196, 25.7155131], [-79.2914763, 25.7154043], [-79.2911732, 25.7152279], [-79.291023, 25.7152207], [-79.2908567, 25.7154067], [-79.2905992, 25.7157426], [-79.2905469, 25.7158043], [-79.2905509, 25.7159094], [-79.2907253, 25.7160109], [-79.2908004, 25.7160145], [-79.2910069, 25.7161704], [-79.2910713, 25.7161595], [-79.2912121, 25.7162658], [-79.2913181, 25.7162513], [-79.2914777, 25.7163117], [-79.2916238, 25.7164011], [-79.2917083, 25.7164084], [-79.2918009, 25.7164543], [-79.2918813, 25.7164338], [-79.2920168, 25.7164893], [-79.2920879, 25.7165522], [-79.2921844, 25.7165401], [-79.2923024, 25.7165667], [-79.2923521, 25.7166186], [-79.2924875, 25.7167213], [-79.2925894, 25.7167467]]]}}, {"type": "Feature", "properties": {}, "geometry": {"type": "Polygon", "coordinates": [[[-79.257545, 25.7984157], [-79.2576121, 25.7983433], [-79.2576751, 25.7982793], [-79.2577449, 25.7982346], [-79.2577462, 25.7981742], [-79.2577019, 25.7981525], [-79.2576349, 25.7981875], [-79.2576054, 25.7982237], [-79.2575115, 25.7982551], [-79.2573479, 25.7983082], [-79.2573224, 25.7983433], [-79.2573398, 25.7983916], [-79.2572661, 25.7984833], [-79.2572741, 25.7985461], [-79.257305, 25.7985884], [-79.2573586, 25.7986077], [-79.2573895, 25.7986101], [-79.2574377, 25.7985799], [-79.257545, 25.7984157]]]}}, {"type": "Feature", "properties": {}, "geometry": {"type": "Polygon", "coordinates": [[[-79.2692899, 25.748995], [-79.2695211, 25.7485633], [-79.2694791, 25.7483474], [-79.2694244, 25.748211], [-79.2692436, 25.748052], [-79.2690586, 25.7479914], [-79.26884, 25.7479459], [-79.2685709, 25.7480179], [-79.2684027, 25.7482868], [-79.2683901, 25.7486996], [-79.2684363, 25.7487678], [-79.2684573, 25.7490291], [-79.2686045, 25.7492071], [-79.2686634, 25.749226], [-79.2688904, 25.749173], [-79.2689661, 25.7491389], [-79.2690628, 25.74912], [-79.2691848, 25.749067], [-79.2692899, 25.748995]]]}}, {"type": "Feature", "properties": {}, "geometry": {"type": "Polygon", "coordinates": [[[-79.305137, 25.6883756], [-79.3051747, 25.6882774], [-79.3052256, 25.6881779], [-79.305243, 25.6881125], [-79.3051849, 25.6880379], [-79.3051152, 25.6880235], [-79.3050673, 25.6881099], [-79.3050193, 25.6882224], [-79.3050455, 25.6883298], [-79.305137, 25.6883756]]]}}, {"type": "Feature", "properties": {}, "geometry": {"type": "Polygon", "coordinates": [[[-79.3045807, 25.6898129], [-79.3046431, 25.6895707], [-79.3046823, 25.6894817], [-79.304707, 25.689377], [-79.3047346, 25.6893298], [-79.3047782, 25.6891544], [-79.3048915, 25.6890628], [-79.3049264, 25.6890065], [-79.3049147, 25.6889529], [-79.3048886, 25.6888887], [-79.3048276, 25.6888939], [-79.3047724, 25.6889345], [-79.304646, 25.6891296], [-79.3046605, 25.6891963], [-79.3045661, 25.6892644], [-79.3045661, 25.6892945], [-79.3044441, 25.6894215], [-79.3044383, 25.689606], [-79.304508, 25.6897749], [-79.3045807, 25.6898129]]]}}, {"type": "Feature", "properties": {}, "geometry": {"type": "Polygon", "coordinates": [[[-79.2476088, 25.7492193], [-79.2476249, 25.7490164], [-79.2476839, 25.7488859], [-79.2478099, 25.7487627], [-79.2478126, 25.7485894], [-79.2477617, 25.7484438], [-79.2476584, 25.7484825], [-79.2474251, 25.7487458], [-79.2473513, 25.7488908], [-79.2472655, 25.7492374], [-79.2472628, 25.7492942], [-79.2472681, 25.7493486], [-79.247134, 25.7496324], [-79.2470663, 25.7497206], [-79.2469335, 25.749781], [-79.2469087, 25.7498233], [-79.2469523, 25.7498444], [-79.2470402, 25.749778], [-79.2470844, 25.7497605], [-79.2471823, 25.7497605], [-79.2472655, 25.7497556], [-79.2473191, 25.7497871], [-79.247362, 25.7497508], [-79.2473593, 25.7496276], [-79.247295, 25.7495672], [-79.2473164, 25.7494102], [-79.2474103, 25.7493449], [-79.2475122, 25.7491855], [-79.2475793, 25.7492531], [-79.2476088, 25.7492193]]]}}, {"type": "Feature", "properties": {}, "geometry": {"type": "Polygon", "coordinates": [[[-79.2918253, 25.6997829], [-79.2916873, 25.7003058], [-79.29158, 25.7005572], [-79.2915263, 25.7008569], [-79.2915263, 25.7013306], [-79.2914512, 25.7017269], [-79.2911938, 25.7019879], [-79.2908826, 25.7020169], [-79.2905929, 25.7020653], [-79.290196, 25.7022006], [-79.2897946, 25.702243], [-79.2893891, 25.7022049], [-79.2893618, 25.7023169], [-79.2896986, 25.7025657], [-79.2895833, 25.7027406], [-79.2896273, 25.702974], [-79.2897239, 25.7030997], [-79.289563, 25.7032157], [-79.2891338, 25.7033414], [-79.2885437, 25.703409], [-79.2879536, 25.7033897], [-79.2874387, 25.7032157], [-79.2872421, 25.7030289], [-79.287152, 25.7028138], [-79.2870641, 25.7025475], [-79.2871165, 25.7023313], [-79.2870012, 25.7023324], [-79.2866617, 25.7027167], [-79.2851826, 25.7042708], [-79.2849582, 25.7041205], [-79.2850583, 25.7038745], [-79.2852008, 25.7039169], [-79.2853222, 25.7039073], [-79.2854283, 25.7038431], [-79.2869729, 25.7021463], [-79.2875683, 25.7015083], [-79.2880723, 25.7010644], [-79.2882669, 25.7008052], [-79.2885225, 25.7006691], [-79.2885923, 25.7005801], [-79.2892866, 25.7000434], [-79.2895829, 25.6998419], [-79.2896468, 25.6996927], [-79.2896265, 25.6996717], [-79.2900826, 25.6993576], [-79.2902465, 25.699391], [-79.2903586, 25.6994623], [-79.2904967, 25.6995112], [-79.2906863, 25.699585], [-79.2907378, 25.6995399], [-79.2913035, 25.6995399], [-79.2916842, 25.6995659], [-79.2918344, 25.6995042], [-79.2923377, 25.6996002], [-79.2929649, 25.6996304], [-79.2931446, 25.6996521], [-79.2932748, 25.6994295], [-79.2934524, 25.699442], [-79.2939161, 25.699704], [-79.2939544, 25.6996888], [-79.2939635, 25.6996516], [-79.2939329, 25.6996212], [-79.293377, 25.6992372], [-79.2933244, 25.6990431], [-79.2932439, 25.698869], [-79.2930669, 25.6988159], [-79.2927826, 25.6987965], [-79.2924339, 25.6987047], [-79.2919618, 25.6984823], [-79.2907441, 25.6978974], [-79.290154, 25.6976993], [-79.2895424, 25.6975929], [-79.2889148, 25.6974817], [-79.288078, 25.6972642], [-79.2872357, 25.6971192], [-79.2862058, 25.6971772], [-79.2850202, 25.6974866], [-79.284481, 25.6976702], [-79.2842414, 25.697662], [-79.2837166, 25.6976101], [-79.2832109, 25.6976362], [-79.2827732, 25.697744], [-79.2826822, 25.6977413], [-79.2824456, 25.6977878], [-79.2821453, 25.6976265], [-79.2817419, 25.69758], [-79.2802942, 25.6973125], [-79.2786849, 25.6969597], [-79.2778802, 25.6968292], [-79.2753482, 25.6968243], [-79.2735754, 25.6968028], [-79.27324, 25.6967011], [-79.2720997, 25.6962479], [-79.270952, 25.695698], [-79.2700481, 25.6953089], [-79.2692029, 25.69499], [-79.2679721, 25.6943252], [-79.2668414, 25.693811], [-79.2656386, 25.6926961], [-79.2642101, 25.6914738], [-79.2637959, 25.6912072], [-79.2634606, 25.6909534], [-79.2631012, 25.6904893], [-79.2629188, 25.6903057], [-79.2621893, 25.6898537], [-79.2618218, 25.6896119], [-79.2615777, 25.6892228], [-79.2612505, 25.6886403], [-79.2606497, 25.6881569], [-79.2600462, 25.687671], [-79.2596304, 25.6874245], [-79.2593034, 25.6873159], [-79.257605, 25.687486], [-79.2554399, 25.6877732], [-79.2530173, 25.6877964], [-79.2506752, 25.6890359], [-79.2486025, 25.6907726], [-79.2483149, 25.6912393], [-79.2477395, 25.6915341], [-79.2471304, 25.6920302], [-79.2465926, 25.6922922], [-79.2456101, 25.6934639], [-79.2451466, 25.6940758], [-79.244784, 25.6951157], [-79.2449975, 25.6957345], [-79.2457727, 25.6963735], [-79.2465318, 25.6969323], [-79.2483031, 25.6976579], [-79.2488041, 25.6975989], [-79.2495905, 25.6981417], [-79.2508759, 25.6986063], [-79.252055, 25.6987977], [-79.2531713, 25.6991829], [-79.2541494, 25.6998442], [-79.2561266, 25.7009057], [-79.2598987, 25.7027215], [-79.2604566, 25.703084], [-79.2610145, 25.7034369], [-79.2618942, 25.7039154], [-79.2626506, 25.7042489], [-79.2637718, 25.7045341], [-79.2646891, 25.7047081], [-79.2653489, 25.7048773], [-79.2663467, 25.7053172], [-79.26772, 25.7059793], [-79.2686802, 25.7063322], [-79.2698604, 25.7067479], [-79.271121, 25.7069702], [-79.272269, 25.7070693], [-79.2725466, 25.7070717], [-79.2726767, 25.707062], [-79.2729449, 25.7070427], [-79.2733741, 25.7069799], [-79.2737791, 25.7069509], [-79.2740634, 25.7070886], [-79.2746535, 25.706946], [-79.2748949, 25.7068735], [-79.2756969, 25.7065859], [-79.275949, 25.7065279], [-79.2761341, 25.7064072], [-79.2766759, 25.7063177], [-79.2774403, 25.7061193], [-79.2781913, 25.706163], [-79.2787492, 25.7065545], [-79.279334, 25.7069702], [-79.2796612, 25.7069847], [-79.2799723, 25.7069944], [-79.2806697, 25.7072216], [-79.2814107, 25.7076103], [-79.2818388, 25.7077694], [-79.2826492, 25.7080867], [-79.282974, 25.7082644], [-79.2835236, 25.7085652], [-79.2843604, 25.7091549], [-79.2854355, 25.7100913], [-79.285841, 25.7105663], [-79.2862272, 25.7112429], [-79.2862996, 25.7120597], [-79.2865518, 25.713459], [-79.2867503, 25.7139157], [-79.2867985, 25.7142057], [-79.2870373, 25.7144522], [-79.2876113, 25.7149162], [-79.2880243, 25.7153367], [-79.2882872, 25.7157547], [-79.2884481, 25.7157426], [-79.2886734, 25.7158127], [-79.2888692, 25.7158731], [-79.2891428, 25.7158272], [-79.289175, 25.7158707], [-79.2894083, 25.7158804], [-79.28947, 25.7158127], [-79.289934, 25.7156629], [-79.2900655, 25.7156532], [-79.2902513, 25.7155413], [-79.2905858, 25.7153874], [-79.2909157, 25.7151457], [-79.2909694, 25.7150273], [-79.2910659, 25.7150273], [-79.2911035, 25.7149742], [-79.2911679, 25.7149911], [-79.2913127, 25.7148968], [-79.2914539, 25.7147206], [-79.2913637, 25.7145803], [-79.2910606, 25.7144063], [-79.2905429, 25.7143169], [-79.2902157, 25.7142274], [-79.2901111, 25.7141066], [-79.289733, 25.7140101], [-79.2891535, 25.7139918], [-79.2889054, 25.7140377], [-79.2887358, 25.7141096], [-79.2886949, 25.7141078], [-79.2887002, 25.7140251], [-79.2885956, 25.713926], [-79.2885925, 25.7138739], [-79.288656, 25.7137139], [-79.288727, 25.713645], [-79.2887539, 25.7136052], [-79.2887659, 25.7135496], [-79.2887311, 25.7135097], [-79.2886519, 25.7135218], [-79.2885929, 25.7135182], [-79.2885165, 25.7134493], [-79.2884535, 25.713442], [-79.288369, 25.7135013], [-79.2883837, 25.7133985], [-79.2883247, 25.713378], [-79.2882925, 25.7132898], [-79.2882335, 25.7132813], [-79.2882, 25.7132572], [-79.2881852, 25.7132149], [-79.2881303, 25.7131943], [-79.2881048, 25.7131508], [-79.2881343, 25.7131231], [-79.2881262, 25.7130433], [-79.288267, 25.7130276], [-79.2882738, 25.7131158], [-79.2883797, 25.7131472], [-79.2884266, 25.7132862], [-79.2886146, 25.7132914], [-79.2888035, 25.7134227], [-79.288888, 25.7134493], [-79.2890543, 25.7133949], [-79.2891629, 25.7133224], [-79.2892849, 25.7133261], [-79.2893855, 25.713407], [-79.2895009, 25.7135327], [-79.2896041, 25.713523], [-79.2896457, 25.713471], [-79.2899497, 25.7134437], [-79.2901327, 25.7133079], [-79.2901111, 25.7132391], [-79.2901419, 25.7131726], [-79.2901969, 25.7131714], [-79.290272, 25.7132149], [-79.2903659, 25.7132016], [-79.2905013, 25.7131267], [-79.2905188, 25.7129708], [-79.2906462, 25.7129539], [-79.2907213, 25.7128814], [-79.2907575, 25.7128246], [-79.2908272, 25.7128004], [-79.2909245, 25.712754], [-79.2911959, 25.7126554], [-79.2913663, 25.7125576], [-79.2914768, 25.7123948], [-79.2915353, 25.7123087], [-79.2916077, 25.7120887], [-79.2917365, 25.7117262], [-79.291867, 25.71128], [-79.2918922, 25.7109252], [-79.2918221, 25.7107622], [-79.291593, 25.7106678], [-79.291597, 25.7106327], [-79.291306, 25.7104913], [-79.2913382, 25.7104418], [-79.2920098, 25.7106229], [-79.2919298, 25.7112839], [-79.2918438, 25.711603], [-79.2917526, 25.7119413], [-79.291648, 25.712241], [-79.2915056, 25.7126143], [-79.2914872, 25.7126627], [-79.2919662, 25.7130082], [-79.293209, 25.713935], [-79.293319, 25.713935], [-79.2934826, 25.7141018], [-79.2934504, 25.7143253], [-79.2933592, 25.7144933], [-79.2933579, 25.7145646], [-79.2933995, 25.7145766], [-79.2934652, 25.7145694], [-79.2934021, 25.7146769], [-79.2932908, 25.7147446], [-79.2932466, 25.7148413], [-79.2933016, 25.7149802], [-79.2932157, 25.7150225], [-79.293222, 25.7151112], [-79.2933953, 25.7152943], [-79.293606, 25.7155856], [-79.2938903, 25.7157596], [-79.2941263, 25.716052], [-79.2944295, 25.7162271], [-79.2945126, 25.7165159], [-79.2947959, 25.7168747], [-79.2948555, 25.7170995], [-79.2948728, 25.7172781], [-79.2948925, 25.7174808], [-79.2950561, 25.717996], [-79.295415, 25.7182091], [-79.2958136, 25.7182913], [-79.2964402, 25.7185083], [-79.2965403, 25.7185216], [-79.2967629, 25.718599], [-79.2968515, 25.7186908], [-79.2969346, 25.7188551], [-79.2970903, 25.7189346], [-79.2973564, 25.7190194], [-79.2975046, 25.7190225], [-79.2975703, 25.7190194], [-79.2978575, 25.7190762], [-79.2975864, 25.7188769], [-79.2954574, 25.7175658], [-79.2957636, 25.71608], [-79.2963602, 25.7135142], [-79.2980994, 25.7136177], [-79.298102, 25.7137036], [-79.2981058, 25.7138303], [-79.2966311, 25.7137656], [-79.2965276, 25.7138589], [-79.2959248, 25.7165208], [-79.2959422, 25.7166186], [-79.2959851, 25.7166561], [-79.2961165, 25.7167491], [-79.296307, 25.7167999], [-79.2964428, 25.7167785], [-79.2967438, 25.7161991], [-79.2968843, 25.7155901], [-79.297086, 25.7144306], [-79.2973049, 25.7144707], [-79.2969739, 25.7160666], [-79.2969568, 25.7163387], [-79.2962106, 25.7174866], [-79.2969788, 25.7178873], [-79.2969118, 25.71799], [-79.2982869, 25.7188048], [-79.298322, 25.718824], [-79.2984299, 25.7189034], [-79.2985305, 25.7190279], [-79.2985922, 25.7190931], [-79.2986593, 25.7190799], [-79.2987303, 25.7190835], [-79.2988403, 25.7191378], [-79.2992791, 25.718727], [-79.2992057, 25.7187003], [-79.2992979, 25.7183879], [-79.2993963, 25.7182022], [-79.2995274, 25.7179462], [-79.2998398, 25.7177056], [-79.2999597, 25.7173116], [-79.2998153, 25.7156846], [-79.2999303, 25.714634], [-79.3000912, 25.7138168], [-79.3010309, 25.7115844], [-79.3010966, 25.7115473], [-79.3011421, 25.7115216], [-79.3011178, 25.7114748], [-79.3010438, 25.7113662], [-79.3010733, 25.7110061], [-79.301194, 25.7107403], [-79.3013276, 25.7107307], [-79.30143, 25.7107233], [-79.3016003, 25.7105596], [-79.3016466, 25.7105131], [-79.30166, 25.7104817], [-79.301375, 25.7105264], [-79.3012101, 25.7105905], [-79.3010666, 25.7105651], [-79.3002632, 25.7105058], [-79.3002217, 25.7105119], [-79.3002015, 25.7105373], [-79.3001707, 25.7106545], [-79.3001613, 25.7107934], [-79.2991998, 25.710739], [-79.2989007, 25.7103826], [-79.2989919, 25.7084408], [-79.2991174, 25.7083303], [-79.2992601, 25.7082148], [-79.2993526, 25.7082148], [-79.3000346, 25.7082474], [-79.3001238, 25.7082752], [-79.3003192, 25.7085211], [-79.3002171, 25.7101863], [-79.3002364, 25.7102545], [-79.3011765, 25.7102847], [-79.3013562, 25.7102557], [-79.3015809, 25.7102152], [-79.3015721, 25.7101095], [-79.3015467, 25.7100527], [-79.3014863, 25.7100418], [-79.3014354, 25.7100104], [-79.3014273, 25.7099162], [-79.3014675, 25.7098098], [-79.3015748, 25.7096455], [-79.3016526, 25.7094908], [-79.3016446, 25.7094195], [-79.3015882, 25.7093773], [-79.3014501, 25.7093797], [-79.3013924, 25.7093766], [-79.3013388, 25.7093555], [-79.3012771, 25.7087489], [-79.3012726, 25.7086754], [-79.301261, 25.7084444], [-79.301261, 25.7081254], [-79.3012621, 25.7080457], [-79.3012636, 25.7079297], [-79.3013737, 25.7072699], [-79.3014773, 25.7066491], [-79.3014578, 25.7061398], [-79.3015358, 25.7057279], [-79.3014952, 25.7054475], [-79.30156, 25.705148], [-79.3017236, 25.7046446], [-79.3018848, 25.7042338], [-79.302056, 25.7037782], [-79.3022561, 25.7032919], [-79.3024761, 25.7027408], [-79.302645, 25.7023542], [-79.3027657, 25.7020786], [-79.3028696, 25.7013641], [-79.3030707, 25.7010559], [-79.3034443, 25.7008581], [-79.3036938, 25.7006164], [-79.3040344, 25.7004183], [-79.3042704, 25.7001113], [-79.3044502, 25.699843], [-79.3048176, 25.6991518], [-79.3048877, 25.6988017], [-79.3050814, 25.6985906], [-79.3052454, 25.6984977], [-79.305325, 25.6985005], [-79.3054, 25.6986047], [-79.3053828, 25.6986356], [-79.3054281, 25.6986525], [-79.3054078, 25.6987074], [-79.3054422, 25.698751], [-79.3055156, 25.6987271], [-79.3055472, 25.6986684], [-79.305582, 25.6986153], [-79.3055765, 25.6985779], [-79.3055359, 25.6985624], [-79.3055577, 25.6984259], [-79.3055281, 25.6983879], [-79.3055562, 25.6983725], [-79.305614, 25.6983204], [-79.3056233, 25.6982528], [-79.305574, 25.6981947], [-79.3056357, 25.697721], [-79.3055928, 25.6974721], [-79.3055284, 25.6972183], [-79.3052951, 25.6969742], [-79.3053862, 25.6967252], [-79.3053433, 25.6965488], [-79.3052441, 25.6962636], [-79.3050885, 25.6960654], [-79.3051019, 25.6956884], [-79.3050805, 25.6954926], [-79.3051529, 25.6949294], [-79.3050568, 25.694431], [-79.3045293, 25.6944968], [-79.3044207, 25.6947131], [-79.3043911, 25.6949294], [-79.3043053, 25.6950624], [-79.3041712, 25.6951445], [-79.3041578, 25.6952037], [-79.3041363, 25.69533], [-79.3041417, 25.6953596], [-79.3041685, 25.6953778], [-79.3042148, 25.695405], [-79.3042181, 25.6954358], [-79.3042047, 25.6954962], [-79.3041819, 25.6955609], [-79.3041524, 25.6955663], [-79.3041129, 25.6955512], [-79.304078, 25.6955476], [-79.3040525, 25.6955596], [-79.3040512, 25.6955832], [-79.3040559, 25.695637], [-79.3040518, 25.6957742], [-79.3040954, 25.6959778], [-79.3041149, 25.6961004], [-79.3041243, 25.6961476], [-79.3041578, 25.6961808], [-79.3041886, 25.6962062], [-79.3042013, 25.6962468], [-79.3042041, 25.6962664], [-79.3042509, 25.696519], [-79.3042539, 25.696537], [-79.3042794, 25.6967093], [-79.3043248, 25.6970154], [-79.3043735, 25.6973443], [-79.304481, 25.6977464], [-79.3046138, 25.6977597], [-79.304603, 25.6978261], [-79.3046433, 25.6978539], [-79.3046165, 25.6979337], [-79.3044005, 25.6978298], [-79.3037731, 25.6982513], [-79.3036321, 25.6983639], [-79.3032619, 25.6985911], [-79.3027979, 25.698811], [-79.3015507, 25.6993838], [-79.3012007, 25.6995831], [-79.3011093, 25.699629], [-79.299936, 25.7000896], [-79.2990532, 25.7004705], [-79.2990153, 25.7004599], [-79.2989741, 25.7004781], [-79.2989365, 25.7005016], [-79.2989272, 25.7005243], [-79.2988846, 25.7005654], [-79.2986794, 25.7006346], [-79.2986606, 25.7006684], [-79.2986968, 25.7007518], [-79.2986746, 25.7007625], [-79.2985978, 25.7007994], [-79.2985124, 25.7008405], [-79.2984782, 25.7008569], [-79.2984313, 25.7008037], [-79.2983857, 25.7008037], [-79.2981711, 25.7008726], [-79.2980782, 25.700907], [-79.2979876, 25.700748], [-79.2985359, 25.700498], [-79.2999923, 25.6998358], [-79.301143, 25.6993089], [-79.3027523, 25.6985814], [-79.3034068, 25.69826], [-79.3041363, 25.6977041], [-79.3041766, 25.6975857], [-79.3040089, 25.6968557], [-79.3039955, 25.6968328], [-79.3039808, 25.6968316], [-79.3039459, 25.6968485], [-79.3033668, 25.6973286], [-79.3032043, 25.697441], [-79.3030397, 25.6975643], [-79.3028639, 25.6976978], [-79.302133, 25.6980368], [-79.3002525, 25.6988255], [-79.2987049, 25.6995264], [-79.2976722, 25.6999143], [-79.2975797, 25.6998853], [-79.2975408, 25.6998297], [-79.2975636, 25.6997536], [-79.2977124, 25.6996835], [-79.2979552, 25.6995953], [-79.2985835, 25.6993458], [-79.2987917, 25.6992491], [-79.2989532, 25.699179], [-79.2990253, 25.6991425], [-79.2991085, 25.6991062], [-79.2994827, 25.6989319], [-79.2997684, 25.6987989], [-79.3002532, 25.6986104], [-79.300457, 25.698495], [-79.3006051, 25.698401], [-79.3006175, 25.6983936], [-79.300744, 25.6983415], [-79.300789, 25.6983712], [-79.30096, 25.6982884], [-79.3012342, 25.6981597], [-79.3011792, 25.6980799], [-79.3012731, 25.6980267], [-79.3013294, 25.6981077], [-79.3017852, 25.6979384], [-79.3020247, 25.6978288], [-79.3023406, 25.6976563], [-79.3025974, 25.6975264], [-79.3032311, 25.6970914], [-79.3035583, 25.6968424], [-79.3038547, 25.6966382], [-79.3039244, 25.6965512], [-79.3039352, 25.6964231], [-79.3037796, 25.6958285], [-79.3037662, 25.6956859], [-79.3037823, 25.6955458], [-79.3042141, 25.6945089], [-79.3042624, 25.6942454], [-79.3043241, 25.6940569], [-79.3044904, 25.6939699], [-79.304764, 25.6939095], [-79.3050458, 25.6938468], [-79.305051, 25.6933245], [-79.3050242, 25.6931505], [-79.3049115, 25.6930345], [-79.3046701, 25.6929668], [-79.3044966, 25.6929502], [-79.3043561, 25.6927645], [-79.3043498, 25.6925759], [-79.3044435, 25.6923508], [-79.3045735, 25.6921668], [-79.3047345, 25.691942], [-79.3048793, 25.6916858], [-79.3049142, 25.691287], [-79.3049222, 25.6908592], [-79.304772, 25.6904773], [-79.3045984, 25.690402], [-79.3044931, 25.6904676], [-79.3044233, 25.6906803], [-79.3044958, 25.6910187], [-79.3045306, 25.6913232], [-79.3044885, 25.6916222], [-79.3044719, 25.6918408], [-79.3040125, 25.6920974], [-79.3036814, 25.6923902], [-79.3035534, 25.6925618], [-79.303498, 25.6926719], [-79.3033263, 25.6927106], [-79.3031332, 25.6926478], [-79.3029602, 25.6925777], [-79.3029233, 25.6925795], [-79.3028677, 25.6926073], [-79.3028489, 25.6926593], [-79.3030715, 25.6928846], [-79.3031694, 25.6929318], [-79.3032485, 25.6929741], [-79.3033774, 25.6929942], [-79.3035092, 25.6930147], [-79.3036302, 25.6930336], [-79.3037601, 25.6930539], [-79.3038824, 25.6930729], [-79.3039975, 25.6930909], [-79.3041779, 25.6931227], [-79.3042021, 25.6931421], [-79.3041792, 25.693517], [-79.3041483, 25.6938497], [-79.3040881, 25.6939385], [-79.3039835, 25.6939699], [-79.3038947, 25.6939608], [-79.3037432, 25.6939454], [-79.3035958, 25.6939304], [-79.3034625, 25.6939168], [-79.3033227, 25.6939025], [-79.3031905, 25.6938891], [-79.3030822, 25.693878], [-79.3030447, 25.6938273], [-79.3030152, 25.6934768], [-79.3028759, 25.6931444], [-79.3027899, 25.6931602], [-79.302763, 25.6932327], [-79.3028086, 25.6933777], [-79.302865, 25.6935082], [-79.3029213, 25.6938442], [-79.3029588, 25.6939264], [-79.3030527, 25.693994], [-79.30316, 25.6940327], [-79.3032324, 25.6941342], [-79.3032646, 25.6943687], [-79.3031949, 25.6949729], [-79.3030175, 25.6955237], [-79.3028348, 25.6958415], [-79.3028274, 25.6958525], [-79.3025781, 25.6962362], [-79.3018779, 25.696863], [-79.3016041, 25.6971471], [-79.3014568, 25.6972026], [-79.3012369, 25.6972473], [-79.3007581, 25.6975699], [-79.2992574, 25.6982962], [-79.2988148, 25.6984896], [-79.2984715, 25.6985983], [-79.2980424, 25.6986128], [-79.2977554, 25.6985887], [-79.2975837, 25.6986612], [-79.2968917, 25.6990455], [-79.296366, 25.6993109], [-79.2958644, 25.6994781], [-79.2946494, 25.6998696], [-79.2942319, 25.6999457], [-79.2941971, 25.6999964], [-79.2941354, 25.7001004], [-79.294122, 25.7002695], [-79.2941468, 25.7003517], [-79.2942157, 25.7004122], [-79.294264, 25.7004159], [-79.2944992, 25.7002874], [-79.2947379, 25.7002998], [-79.2948639, 25.7003627], [-79.2949095, 25.7005065], [-79.2949981, 25.7005488], [-79.2950785, 25.70055], [-79.2952126, 25.7005173], [-79.2967851, 25.6999781], [-79.297235, 25.6998962], [-79.2972913, 25.6999349], [-79.2972833, 25.7000412], [-79.297066, 25.7002418], [-79.2969131, 25.7004424], [-79.2966449, 25.7006817], [-79.2962962, 25.7008219], [-79.2948854, 25.7013753], [-79.2938125, 25.701733], [-79.293716, 25.7017016], [-79.2937455, 25.7016243], [-79.2944135, 25.7013658], [-79.2944594, 25.7012472], [-79.2944839, 25.7009576], [-79.2944594, 25.7007783], [-79.2941197, 25.7007838], [-79.293775, 25.7009331], [-79.2936543, 25.7010225], [-79.2935711, 25.7012279], [-79.2935658, 25.7014841], [-79.2935497, 25.7017282], [-79.2934155, 25.701895], [-79.2932493, 25.7019095], [-79.2931581, 25.7018394], [-79.2931688, 25.7016315], [-79.2932483, 25.7001376], [-79.2931849, 25.700005], [-79.2931062, 25.6999341], [-79.292686, 25.6998938], [-79.2925519, 25.6999615], [-79.2925481, 25.7003525], [-79.2923802, 25.7022067], [-79.2922568, 25.7022937], [-79.2921227, 25.7022406], [-79.2920637, 25.7020907], [-79.2923012, 25.6999168], [-79.2922543, 25.6998476], [-79.2918253, 25.6997829]]]}}, {"type": "Feature", "properties": {}, "geometry": {"type": "Polygon", "coordinates": [[[-79.2706946, 25.7611048], [-79.2704451, 25.7612571], [-79.2700213, 25.7616097], [-79.2688353, 25.7632816], [-79.2683959, 25.7642379], [-79.2682853, 25.7646848], [-79.2679882, 25.7659336], [-79.2680311, 25.7663974], [-79.2680526, 25.7667984], [-79.2677915, 25.7671406], [-79.2672801, 25.7675955], [-79.2672157, 25.7678564], [-79.266756, 25.768797], [-79.2665593, 25.7691331], [-79.2663141, 25.7694017], [-79.2662394, 25.7695472], [-79.2660463, 25.7694119], [-79.2670065, 25.7679965], [-79.266969, 25.7679047], [-79.2667866, 25.7677887], [-79.26669, 25.7677356], [-79.2652631, 25.768924], [-79.2642331, 25.7704844], [-79.2645872, 25.7706728], [-79.2647588, 25.7706003], [-79.2659015, 25.76961], [-79.266057, 25.7697597], [-79.2658424, 25.7699771], [-79.2655152, 25.7701752], [-79.2644933, 25.7710569], [-79.2640749, 25.7716462], [-79.2637964, 25.7721244], [-79.2632472, 25.772317], [-79.2643062, 25.7710294], [-79.26375, 25.7706424], [-79.2631798, 25.7711635], [-79.2629996, 25.7712391], [-79.261273, 25.7724788], [-79.2612855, 25.7725378], [-79.2616947, 25.7729541], [-79.2612137, 25.7730526], [-79.2611598, 25.7730019], [-79.2609045, 25.7731369], [-79.2608358, 25.7731088], [-79.2607546, 25.773016], [-79.2606203, 25.7729879], [-79.2605141, 25.7728697], [-79.2603517, 25.7730947], [-79.2601174, 25.7731341], [-79.2599925, 25.7732382], [-79.2597707, 25.7733113], [-79.2587111, 25.7733148], [-79.2585096, 25.7732923], [-79.2583519, 25.7732965], [-79.2582463, 25.7733672], [-79.2580774, 25.7734892], [-79.2577636, 25.7739505], [-79.257077, 25.7746051], [-79.2569429, 25.7747778], [-79.2567672, 25.7751727], [-79.2567243, 25.7752198], [-79.2566586, 25.7752161], [-79.2566398, 25.7751485], [-79.2565819, 25.7748296], [-79.2565325, 25.774558], [-79.2562726, 25.7741888], [-79.2565254, 25.7727369], [-79.2565816, 25.7714873], [-79.2568794, 25.7710117], [-79.2570582, 25.7702376], [-79.2567658, 25.76861], [-79.256959, 25.7674554], [-79.2574724, 25.7656719], [-79.2577047, 25.7646375], [-79.2582625, 25.7636485], [-79.2584664, 25.7632233], [-79.2584302, 25.7629619], [-79.2577046, 25.7619624], [-79.2576832, 25.7617885], [-79.2577368, 25.7615904], [-79.2582286, 25.7608821], [-79.2585476, 25.7603664], [-79.2584885, 25.7602239], [-79.2581391, 25.7601797], [-79.2576295, 25.7601362], [-79.2574847, 25.7599333], [-79.2574847, 25.759682], [-79.2581123, 25.7589766], [-79.2585282, 25.7582401], [-79.2589116, 25.7576625], [-79.2594005, 25.7568493], [-79.2598987, 25.7556285], [-79.2602104, 25.7548719], [-79.2604405, 25.7542515], [-79.2607516, 25.7532465], [-79.26117, 25.7523189], [-79.2614543, 25.7520918], [-79.2618728, 25.751942], [-79.2632692, 25.7519551], [-79.2641119, 25.7517664], [-79.2642774, 25.7514224], [-79.2641371, 25.7509425], [-79.2640482, 25.7507475], [-79.2639059, 25.750594], [-79.2633369, 25.750044], [-79.2629286, 25.7491139], [-79.2626238, 25.7484197], [-79.2624468, 25.7479462], [-79.2622862, 25.7480255], [-79.2622456, 25.7479486], [-79.2624468, 25.7473204], [-79.2626349, 25.7472746], [-79.2627684, 25.7472055], [-79.2628169, 25.7473712], [-79.2630798, 25.7473132], [-79.2635518, 25.7469121], [-79.2640346, 25.7464966], [-79.2646515, 25.7461149], [-79.265644, 25.7456655], [-79.2660373, 25.7454351], [-79.2663901, 25.744095], [-79.2666453, 25.7431524], [-79.2670935, 25.7427579], [-79.2677632, 25.7424991], [-79.2676664, 25.7415825], [-79.2675698, 25.7407997], [-79.2677629, 25.7399396], [-79.267956, 25.7393597], [-79.2684656, 25.7390311], [-79.269222, 25.7387364], [-79.2701393, 25.7386736], [-79.2701715, 25.7385431], [-79.2700964, 25.7383933], [-79.2698389, 25.738374], [-79.2693079, 25.7384223], [-79.268927, 25.7384223], [-79.2687017, 25.7384078], [-79.2684764, 25.7384174], [-79.2682779, 25.7385672], [-79.2679721, 25.7387509], [-79.2677468, 25.7387605], [-79.2674357, 25.7385962], [-79.2671943, 25.7383643], [-79.2665076, 25.7376685], [-79.2659819, 25.7368856], [-79.2651343, 25.7356969], [-79.2650807, 25.73503], [-79.2653918, 25.7339959], [-79.2656708, 25.7332904], [-79.2661536, 25.7328651], [-79.2671299, 25.7324495], [-79.2684281, 25.7325655], [-79.2691255, 25.7327202], [-79.26934, 25.7329328], [-79.2693937, 25.7333097], [-79.2690718, 25.733677], [-79.268707, 25.7339186], [-79.268353, 25.7344308], [-79.2685676, 25.7350977], [-79.2689563, 25.7361382], [-79.2690948, 25.736185], [-79.2692852, 25.7362941], [-79.2695448, 25.7363565], [-79.2699194, 25.7361705], [-79.2705524, 25.735146], [-79.2711103, 25.7332807], [-79.2722046, 25.7315507], [-79.2725265, 25.7301493], [-79.2724085, 25.7291344], [-79.2718721, 25.7283902], [-79.2710674, 25.7279166], [-79.2699409, 25.7275977], [-79.2693991, 25.7274237], [-79.2686588, 25.7273947], [-79.266513, 25.7273319], [-79.2642278, 25.7273705], [-79.2634606, 25.7273512], [-79.2626452, 25.7276122], [-79.2618728, 25.7277765], [-79.2612183, 25.7279118], [-79.2607838, 25.7279215], [-79.2601293, 25.7278006], [-79.2597163, 25.7278574], [-79.2595889, 25.7279021], [-79.2595325, 25.7279505], [-79.2594829, 25.7280169], [-79.2594709, 25.7281123], [-79.2595258, 25.7281655], [-79.2596881, 25.7282247], [-79.2596935, 25.7282537], [-79.2596331, 25.7283081], [-79.2595285, 25.7283999], [-79.2590806, 25.7286729], [-79.2587748, 25.7288686], [-79.2586246, 25.7290426], [-79.2584315, 25.7293036], [-79.2582893, 25.7295235], [-79.2582679, 25.7296225], [-79.2582786, 25.7297095], [-79.2584288, 25.7299391], [-79.2585441, 25.7301505], [-79.2586568, 25.7304815], [-79.2586917, 25.7305341], [-79.2587527, 25.7305914], [-79.2587782, 25.7306482], [-79.2587876, 25.7307056], [-79.2587943, 25.730792], [-79.2587011, 25.7310058], [-79.2585026, 25.7309104], [-79.2584261, 25.7308065], [-79.2582907, 25.7306941], [-79.2580922, 25.7305673], [-79.2578951, 25.7305153], [-79.2577904, 25.7305129], [-79.2574726, 25.7305371], [-79.2573519, 25.7305467], [-79.2572956, 25.7305268], [-79.257252, 25.7304827], [-79.2572111, 25.7304785], [-79.2571615, 25.7304821], [-79.2570958, 25.730525], [-79.2570763, 25.7305981], [-79.2570683, 25.7306386], [-79.2570381, 25.7306736], [-79.2569489, 25.7307105], [-79.2565405, 25.7308065], [-79.2563193, 25.7309068], [-79.2560604, 25.7310614], [-79.2558914, 25.7312366], [-79.2555682, 25.7316051], [-79.2551217, 25.7320412], [-79.2549634, 25.7322828], [-79.2548722, 25.7324906], [-79.2547515, 25.7326138], [-79.2546201, 25.732696], [-79.2545477, 25.7327975], [-79.254486, 25.7329376], [-79.2544457, 25.7332614], [-79.2543063, 25.7335658], [-79.2541587, 25.7337519], [-79.254038, 25.7338606], [-79.2539884, 25.7339585], [-79.2539509, 25.7342073], [-79.2539415, 25.7342629], [-79.2538838, 25.7342822], [-79.2537189, 25.7343088], [-79.2536397, 25.7343402], [-79.2535914, 25.734368], [-79.2535673, 25.7344272], [-79.253574, 25.7344924], [-79.2536397, 25.7345589], [-79.2537215, 25.7345903], [-79.2538355, 25.7345927], [-79.2538784, 25.7346326], [-79.2538731, 25.7347787], [-79.2538302, 25.7350288], [-79.2538154, 25.7353417], [-79.2538315, 25.7356341], [-79.2538691, 25.7359143], [-79.2539442, 25.7360907], [-79.2540286, 25.7362031], [-79.2541802, 25.7362852], [-79.2546214, 25.7363662], [-79.2548132, 25.7363601], [-79.2550519, 25.7363287], [-79.2553738, 25.7361729], [-79.255642, 25.7360424], [-79.2560148, 25.7359554], [-79.2566156, 25.7359965], [-79.2570126, 25.7361535], [-79.2573908, 25.7363758], [-79.2576563, 25.7365812], [-79.2580104, 25.7367697], [-79.2581928, 25.7368349], [-79.258343, 25.7368603], [-79.2584597, 25.7368615], [-79.2586675, 25.7369134], [-79.2589948, 25.7370197], [-79.259208, 25.7371804], [-79.2593783, 25.7374015], [-79.2595768, 25.7376926], [-79.2595661, 25.7379294], [-79.259389, 25.7378328], [-79.2593206, 25.7377228], [-79.2592335, 25.7376056], [-79.259043, 25.7375162], [-79.258756, 25.7374027], [-79.2580962, 25.7371562], [-79.2578387, 25.7370415], [-79.2574793, 25.736847], [-79.2569912, 25.7366875], [-79.2563742, 25.7366875], [-79.2557895, 25.7367552], [-79.255068, 25.7368784], [-79.2546335, 25.7368397], [-79.2541105, 25.736731], [-79.253397, 25.7366585], [-79.2521739, 25.7365812], [-79.2512566, 25.7365184], [-79.2501998, 25.7364846], [-79.2497706, 25.7365522], [-79.24954, 25.7367648], [-79.2492825, 25.7370161], [-79.2490035, 25.7374317], [-79.2484778, 25.7386204], [-79.2481506, 25.7394032], [-79.2481184, 25.7398139], [-79.2480916, 25.7405629], [-79.2481721, 25.7412781], [-79.2480755, 25.7421913], [-79.2480862, 25.7425634], [-79.2482472, 25.7427905], [-79.2485905, 25.7431964], [-79.2490411, 25.7436216], [-79.2493308, 25.7440565], [-79.2496634, 25.7445493], [-79.2499101, 25.7448586], [-79.2500603, 25.7450905], [-79.2503346, 25.7452025], [-79.2505649, 25.7451569], [-79.2508065, 25.7447268], [-79.2508402, 25.7445598], [-79.250961, 25.7441803], [-79.2510733, 25.7441373], [-79.2511941, 25.7439981], [-79.2511211, 25.7442258], [-79.2510368, 25.7443068], [-79.2510817, 25.7445497], [-79.2509862, 25.7446357], [-79.2509357, 25.7449191], [-79.250666, 25.7452278], [-79.2504638, 25.7453695], [-79.2500657, 25.7453466], [-79.250012, 25.7456752], [-79.2500067, 25.746226], [-79.2502588, 25.7465836], [-79.2505753, 25.7471392], [-79.250688, 25.7473567], [-79.2508167, 25.7474533], [-79.2509884, 25.7475499], [-79.2515195, 25.74798], [-79.2516911, 25.7480476], [-79.2526567, 25.7498934], [-79.253397, 25.7500866], [-79.2542231, 25.7501833], [-79.2546308, 25.7500673], [-79.254722, 25.7501253], [-79.2549098, 25.7499997], [-79.2553443, 25.7499127], [-79.2555535, 25.74999], [-79.2569053, 25.749903], [-79.2559397, 25.7500625], [-79.2556822, 25.7500915], [-79.2555428, 25.7501736], [-79.2552531, 25.7503765], [-79.2549956, 25.7502509], [-79.2547166, 25.7504828], [-79.255001, 25.7508597], [-79.2556179, 25.7520869], [-79.2557144, 25.7529276], [-79.255068, 25.7534325], [-79.2550305, 25.7536717], [-79.255127, 25.7537079], [-79.2552343, 25.7536983], [-79.2552786, 25.7537321], [-79.2552571, 25.753807], [-79.2552947, 25.7538179], [-79.2553617, 25.753772], [-79.2553282, 25.7537043], [-79.2553563, 25.7536934], [-79.2553845, 25.7537309], [-79.2554314, 25.7537538], [-79.2555092, 25.7537369], [-79.2556179, 25.7536886], [-79.2556903, 25.7535847], [-79.2557976, 25.7535388], [-79.2559236, 25.7536789], [-79.256275, 25.7534567], [-79.2562428, 25.7533794], [-79.2560631, 25.7532876], [-79.2561623, 25.7532127], [-79.2562589, 25.7532151], [-79.2563447, 25.7526305], [-79.2565459, 25.7525097], [-79.2566532, 25.7526861], [-79.2567417, 25.7529083], [-79.2569295, 25.7531354], [-79.2569536, 25.7532973], [-79.2568409, 25.7534615], [-79.2567605, 25.753476], [-79.2566237, 25.7533987], [-79.2564976, 25.7534156], [-79.2564815, 25.7533818], [-79.2563581, 25.7533407], [-79.2562777, 25.7535002], [-79.2560497, 25.7536596], [-79.2558673, 25.7537369], [-79.2557386, 25.7536234], [-79.2554596, 25.7538988], [-79.2553765, 25.7538311], [-79.2552692, 25.7538481], [-79.2551056, 25.7537659], [-79.2549419, 25.7538505], [-79.2548642, 25.7538674], [-79.2548186, 25.7539978], [-79.2546952, 25.7541911], [-79.2547059, 25.7540027], [-79.2547756, 25.7539278], [-79.2548239, 25.75372], [-79.25484, 25.7534712], [-79.2544243, 25.7537007], [-79.2537242, 25.7545655], [-79.253735, 25.7546912], [-79.2536438, 25.7548506], [-79.2534882, 25.7545849], [-79.2538315, 25.7542612], [-79.2541802, 25.7533721], [-79.2554569, 25.7527924], [-79.255591, 25.7526716], [-79.2554247, 25.752285], [-79.255296, 25.7521739], [-79.2549205, 25.7521981], [-79.2549473, 25.7514926], [-79.2547381, 25.7510336], [-79.2542446, 25.7508114], [-79.2534989, 25.7507631], [-79.2534024, 25.7505843], [-79.2529678, 25.7504538], [-79.2528445, 25.7504007], [-79.2526728, 25.7504152], [-79.2524743, 25.7502436], [-79.2523563, 25.7501639], [-79.252139, 25.7500021], [-79.2519218, 25.7498934], [-79.2518386, 25.7499537], [-79.2516857, 25.7502267], [-79.2512727, 25.7506374], [-79.2513451, 25.7508404], [-79.251219, 25.7510312], [-79.2512056, 25.7510989], [-79.2510822, 25.7512414], [-79.2509535, 25.7515965], [-79.2509723, 25.7519202], [-79.2509481, 25.7520145], [-79.2508596, 25.7520676], [-79.250806, 25.7523044], [-79.2507362, 25.7523817], [-79.2508248, 25.7520193], [-79.250924, 25.7519009], [-79.2509589, 25.751338], [-79.251278, 25.750792], [-79.2511278, 25.7505625], [-79.2511922, 25.7503765], [-79.2515463, 25.7501494], [-79.2517447, 25.7498716], [-79.2517662, 25.7496808], [-79.2514658, 25.7494295], [-79.2513987, 25.7492483], [-79.2511332, 25.7490188], [-79.2510152, 25.748985], [-79.250865, 25.7488594], [-79.2499316, 25.7485018], [-79.2490733, 25.747806], [-79.2481613, 25.746888], [-79.2474908, 25.7463033], [-79.2466968, 25.7452355], [-79.2462435, 25.7439574], [-79.2461979, 25.7429669], [-79.2462731, 25.7424909], [-79.2464072, 25.7419449], [-79.2464608, 25.741423], [-79.2465144, 25.740993], [-79.2466754, 25.7407997], [-79.2469382, 25.7403261], [-79.2469811, 25.7398574], [-79.2468149, 25.7392244], [-79.2465788, 25.7389055], [-79.246257, 25.7386349], [-79.2459109, 25.7385141], [-79.2455542, 25.7384054], [-79.2453879, 25.738287], [-79.2452297, 25.7381468], [-79.2451063, 25.7381178], [-79.2448837, 25.7381468], [-79.2445779, 25.7382725], [-79.2445108, 25.7382725], [-79.2444813, 25.7382169], [-79.2444974, 25.7381444], [-79.2446262, 25.7380309], [-79.2448649, 25.7379511], [-79.2451036, 25.7378448], [-79.2452377, 25.7377071], [-79.2452776, 25.7374479], [-79.2452109, 25.7372529], [-79.2450982, 25.7370306], [-79.2450446, 25.73676], [-79.2451733, 25.7365039], [-79.2453396, 25.7363251], [-79.2455971, 25.7359723], [-79.2456722, 25.7356872], [-79.2458707, 25.7345226], [-79.2462248, 25.7338123], [-79.2466164, 25.7328458], [-79.2468309, 25.7321741], [-79.2469382, 25.7317053], [-79.2467988, 25.7312414], [-79.2464018, 25.7308597], [-79.2458546, 25.73056], [-79.2452002, 25.7304441], [-79.2447496, 25.7303329], [-79.2442775, 25.7304731], [-79.243387, 25.7307582], [-79.2425662, 25.7312124], [-79.242062, 25.7317295], [-79.2415845, 25.7324399], [-79.2407852, 25.7335997], [-79.2404687, 25.7349431], [-79.2401254, 25.736615], [-79.2399699, 25.7372867], [-79.2399806, 25.7376926], [-79.2400348, 25.7381805], [-79.240222, 25.7391664], [-79.2405707, 25.7405098], [-79.2408764, 25.7413795], [-79.2410642, 25.7422445], [-79.2412198, 25.7430466], [-79.2413056, 25.7435588], [-79.24137, 25.7443706], [-79.2413378, 25.7448827], [-79.2412975, 25.745134], [-79.2413244, 25.7453466], [-79.2414209, 25.7456244], [-79.2415416, 25.7458781], [-79.2416704, 25.7461487], [-79.2417187, 25.7463565], [-79.2417455, 25.7465787], [-79.2417991, 25.7468542], [-79.2419332, 25.7471489], [-79.2426091, 25.7482844], [-79.2429149, 25.7488883], [-79.2430812, 25.7494392], [-79.243108, 25.7496469], [-79.2429847, 25.7500673], [-79.2430276, 25.7504732], [-79.2430973, 25.7509322], [-79.2431402, 25.7515651], [-79.2433226, 25.7522416], [-79.244107, 25.7543498], [-79.2453182, 25.7578075], [-79.2464125, 25.7606096], [-79.246729, 25.761716], [-79.2469704, 25.7622281], [-79.2471072, 25.7629455], [-79.2470536, 25.7638272], [-79.247067, 25.7641364], [-79.2472547, 25.7641847], [-79.2473701, 25.7643176], [-79.2476732, 25.7647645], [-79.247928, 25.7651799], [-79.2481774, 25.7655471], [-79.2482927, 25.7658998], [-79.2486763, 25.7673104], [-79.2489982, 25.7684071], [-79.2490357, 25.7687259], [-79.2492672, 25.7689982], [-79.2495537, 25.7690286], [-79.2497814, 25.7683878], [-79.2497953, 25.7677941], [-79.249835, 25.7675568], [-79.2503286, 25.7671027], [-79.2507899, 25.7669771], [-79.2510581, 25.7662911], [-79.2512941, 25.7658563], [-79.2523134, 25.7652089], [-79.2523831, 25.7647886], [-79.2522061, 25.7642186], [-79.252131, 25.7634794], [-79.2523107, 25.7630253], [-79.2526594, 25.7624697], [-79.2531207, 25.7620638], [-79.2531288, 25.7618078], [-79.2532924, 25.7616822], [-79.2534238, 25.7612522], [-79.2533809, 25.7606048], [-79.253253, 25.7601822], [-79.2536116, 25.7603487], [-79.2537418, 25.7603391], [-79.2538373, 25.7602379], [-79.2540845, 25.7601392], [-79.2540595, 25.7603657], [-79.2538986, 25.7604889], [-79.2536277, 25.7605662], [-79.253692, 25.7611338], [-79.2537135, 25.7618126], [-79.253794, 25.7620083], [-79.2538583, 25.7621242], [-79.2538181, 25.7621508], [-79.2536759, 25.7621049], [-79.2536116, 25.7621556], [-79.2534024, 25.7623344], [-79.253059, 25.762489], [-79.2527747, 25.7629431], [-79.2523938, 25.7636243], [-79.252426, 25.7639577], [-79.2525333, 25.7643055], [-79.2526996, 25.7645809], [-79.2527425, 25.7649577], [-79.2526674, 25.7651848], [-79.2525494, 25.7652959], [-79.2524046, 25.7655809], [-79.251954, 25.7657548], [-79.2515302, 25.7661027], [-79.2512405, 25.7668901], [-79.2509937, 25.7673201], [-79.250865, 25.7677646], [-79.2502964, 25.7682042], [-79.2506129, 25.7686535], [-79.250688, 25.7690448], [-79.2506611, 25.7694119], [-79.2503071, 25.7700496], [-79.2500603, 25.7701559], [-79.2498851, 25.7698937], [-79.2491267, 25.7697065], [-79.2486388, 25.7688032], [-79.2485637, 25.7685472], [-79.2482472, 25.7674699], [-79.2481855, 25.7669022], [-79.248164, 25.7666027], [-79.2481667, 25.7661413], [-79.2480916, 25.765994], [-79.2479172, 25.7660085], [-79.247759, 25.766163], [-79.2477402, 25.766395], [-79.2477241, 25.7666437], [-79.2483598, 25.7687791], [-79.2487061, 25.7700711], [-79.2489234, 25.7707512], [-79.2492019, 25.7714851], [-79.2499155, 25.7726534], [-79.250766, 25.7742234], [-79.2512706, 25.7755538], [-79.2516657, 25.7768027], [-79.2518125, 25.7770868], [-79.2521014, 25.77745], [-79.2525481, 25.7778944], [-79.2529213, 25.7781489], [-79.2537323, 25.7786048], [-79.2540059, 25.7786459], [-79.2544135, 25.7786386], [-79.2548052, 25.7786942], [-79.2552584, 25.778827], [-79.2553745, 25.7788784], [-79.2554764, 25.7789575], [-79.2555213, 25.7789852], [-79.255581, 25.7789726], [-79.2556661, 25.7789067], [-79.2557155, 25.7787154], [-79.2562153, 25.7784004], [-79.2569931, 25.7779897], [-79.2583019, 25.7773681], [-79.2589883, 25.7771252], [-79.259702, 25.7768495], [-79.2600398, 25.776727], [-79.2606109, 25.7765823], [-79.2607977, 25.7766339], [-79.261185, 25.7763948], [-79.2616629, 25.7762992], [-79.262139, 25.7762566], [-79.2624059, 25.7760695], [-79.2625701, 25.77582], [-79.2628223, 25.774779], [-79.262953, 25.7744312], [-79.2631683, 25.7741075], [-79.2635894, 25.7736993], [-79.2643206, 25.7731437], [-79.2647561, 25.7727549], [-79.2656258, 25.7717906], [-79.2666322, 25.770854], [-79.2673736, 25.7699894], [-79.269087, 25.7676316], [-79.2707191, 25.7651348], [-79.2710406, 25.7647186], [-79.2742634, 25.7617046], [-79.2755681, 25.7607594], [-79.2768803, 25.7598202], [-79.2780995, 25.7592035], [-79.2782458, 25.7591939], [-79.2782833, 25.7593064], [-79.2783083, 25.759337], [-79.2783547, 25.7593418], [-79.2783761, 25.7593097], [-79.2784145, 25.7591776], [-79.2787546, 25.7590621], [-79.278801, 25.7589109], [-79.2790165, 25.7578556], [-79.279161, 25.7574725], [-79.279237, 25.756908], [-79.279274, 25.7566307], [-79.2793484, 25.7557881], [-79.2794269, 25.7553675], [-79.2796007, 25.7548535], [-79.279876, 25.7540278], [-79.2802227, 25.7532936], [-79.280777, 25.7521226], [-79.2808574, 25.7520871], [-79.2809545, 25.751736], [-79.2810758, 25.7516514], [-79.2811395, 25.7513317], [-79.2812805, 25.7512416], [-79.2816036, 25.7507334], [-79.2817739, 25.7506761], [-79.2827823, 25.7494489], [-79.283301, 25.7489762], [-79.2836676, 25.7487418], [-79.2836972, 25.7487143], [-79.2837274, 25.7486863], [-79.2844901, 25.747479], [-79.2855191, 25.7459844], [-79.2864525, 25.7448683], [-79.2869166, 25.7443512], [-79.2871687, 25.744042], [-79.2879707, 25.7428243], [-79.2882279, 25.7422983], [-79.2886237, 25.7417587], [-79.2899877, 25.7400773], [-79.2911947, 25.7385044], [-79.2935137, 25.7352616], [-79.2936516, 25.7350687], [-79.2941692, 25.7342804], [-79.2955184, 25.7317972], [-79.2957008, 25.7315072], [-79.2964625, 25.7306615], [-79.2965806, 25.7304102], [-79.2965968, 25.7300639], [-79.2966878, 25.7296274], [-79.2969417, 25.7290673], [-79.2982382, 25.7271821], [-79.2993647, 25.7254568], [-79.2997103, 25.7245798], [-79.2998696, 25.7243279], [-79.3001226, 25.7240282], [-79.300321, 25.7240226], [-79.3002663, 25.7238537], [-79.3003491, 25.7237707], [-79.300599, 25.7236328], [-79.300738, 25.7234907], [-79.3008004, 25.72335], [-79.301333, 25.7212198], [-79.3018524, 25.7190102], [-79.3018882, 25.7188179], [-79.3017452, 25.7187113], [-79.3015742, 25.7187291], [-79.3013293, 25.7188727], [-79.3010416, 25.719166], [-79.3009392, 25.7193017], [-79.3009676, 25.7194637], [-79.3009109, 25.719661], [-79.3008376, 25.7197574], [-79.3006856, 25.719835], [-79.3004469, 25.719893], [-79.3003354, 25.7199591], [-79.2998101, 25.720708], [-79.2997632, 25.7209894], [-79.2996477, 25.7213678], [-79.2994962, 25.7216774], [-79.2994267, 25.7219151], [-79.2993137, 25.7222865], [-79.2991032, 25.7228761], [-79.2989585, 25.7232544], [-79.2988498, 25.7234119], [-79.2983234, 25.7231903], [-79.2981964, 25.7234468], [-79.2980885, 25.7236645], [-79.2983966, 25.723823], [-79.2983524, 25.7239068], [-79.2984824, 25.7239744], [-79.2982945, 25.7242559], [-79.2980142, 25.7247645], [-79.2977715, 25.7251898], [-79.2976497, 25.7253053], [-79.2972699, 25.7255583], [-79.2971867, 25.7254955], [-79.2970312, 25.725568], [-79.2969185, 25.7257347], [-79.2969695, 25.7258748], [-79.296838, 25.7260476], [-79.2967187, 25.7261406], [-79.2961282, 25.7256899], [-79.2960796, 25.7256632], [-79.2958615, 25.7259075], [-79.2960579, 25.7260409], [-79.2958496, 25.7263074], [-79.2955425, 25.726735], [-79.2952381, 25.7271325], [-79.2951645, 25.7272274], [-79.2956664, 25.7273728], [-79.2955032, 25.7277396], [-79.29539, 25.7279809], [-79.2954941, 25.7280071], [-79.2954379, 25.728093], [-79.294932, 25.7292674], [-79.2948166, 25.7294065], [-79.2943477, 25.7295954], [-79.2941243, 25.7301642], [-79.2939683, 25.730435], [-79.2938125, 25.7305069], [-79.2933364, 25.7308875], [-79.2930212, 25.7311394], [-79.2927412, 25.7313374], [-79.2926109, 25.7314951], [-79.2921778, 25.7323519], [-79.2921678, 25.7324888], [-79.292095, 25.7326719], [-79.2919797, 25.7327183], [-79.2919072, 25.7326985], [-79.291731, 25.7327757], [-79.2916507, 25.7329546], [-79.2914426, 25.7334812], [-79.2913988, 25.7338127], [-79.2915353, 25.7338906], [-79.2914352, 25.7341079], [-79.291511, 25.7341488], [-79.2915277, 25.734183], [-79.2914337, 25.7341803], [-79.2913563, 25.7342254], [-79.2912911, 25.7342991], [-79.2913078, 25.7344125], [-79.2913791, 25.7344768], [-79.2913578, 25.7345369], [-79.2912905, 25.7345285], [-79.2911849, 25.7345492], [-79.2911455, 25.734597], [-79.2911288, 25.7346844], [-79.2911956, 25.7347582], [-79.2913123, 25.7347514], [-79.2913048, 25.7348853], [-79.2912668, 25.7349905], [-79.291144, 25.735], [-79.2907961, 25.7363584], [-79.2905673, 25.7372656], [-79.2904625, 25.7375289], [-79.290319, 25.7377762], [-79.2901674, 25.7378968], [-79.2900816, 25.7379391], [-79.2899676, 25.7380152], [-79.2899428, 25.7380381], [-79.2899354, 25.7380611], [-79.2899233, 25.7381734], [-79.2898871, 25.7382846], [-79.2897838, 25.7384996], [-79.2895626, 25.7388221], [-79.2893507, 25.7390915], [-79.2893051, 25.7391701], [-79.2892769, 25.739251], [-79.2892393, 25.7393029], [-79.2891404, 25.7393889], [-79.2891275, 25.7394022], [-79.2890033, 25.7395458], [-79.2889041, 25.7396074], [-79.2885983, 25.7398236], [-79.2884575, 25.7399154], [-79.2883515, 25.7399456], [-79.2882831, 25.7399734], [-79.2881611, 25.7400447], [-79.288094, 25.7400996], [-79.2880699, 25.7400972], [-79.2880471, 25.7400888], [-79.2879707, 25.7400223], [-79.2879552, 25.7400193], [-79.2879284, 25.7400223], [-79.2878922, 25.7400549], [-79.2876833, 25.7402159], [-79.287602, 25.7402788], [-79.2869782, 25.7409241], [-79.2869716, 25.7409551], [-79.2870466, 25.7410437], [-79.2870477, 25.7410777], [-79.2867275, 25.7412863], [-79.2866805, 25.7412853], [-79.286411, 25.7411279], [-79.2863573, 25.7411391], [-79.2860918, 25.7413952], [-79.286075, 25.7414343], [-79.2861173, 25.7415245], [-79.2861141, 25.7415797], [-79.2858272, 25.7419227], [-79.2856558, 25.7419691], [-79.2855627, 25.742125], [-79.2854026, 25.7423557], [-79.2853646, 25.7424213], [-79.2852372, 25.7423858], [-79.285216, 25.7424131], [-79.2853783, 25.742491], [-79.285307, 25.7425743], [-79.2852509, 25.7425511], [-79.2851614, 25.7425005], [-79.2851311, 25.7425224], [-79.2851008, 25.7425565], [-79.2848472, 25.7431191], [-79.2848043, 25.743136], [-79.2847708, 25.7431565], [-79.2846876, 25.743316], [-79.284697, 25.7433558], [-79.2847104, 25.7433752], [-79.2847238, 25.7434706], [-79.2846581, 25.7436337], [-79.2844446, 25.7437548], [-79.2840048, 25.7436783], [-79.2838349, 25.7437275], [-79.2837227, 25.743845], [-79.2836651, 25.7439242], [-79.2835498, 25.7439324], [-79.2834224, 25.7438423], [-79.283298, 25.7437439], [-79.283298, 25.743651], [-79.2829219, 25.7435936], [-79.2827914, 25.7437138], [-79.282934, 25.7439078], [-79.2830887, 25.7439761], [-79.2831797, 25.7439652], [-79.2834588, 25.7441128], [-79.2836196, 25.7440909], [-79.2838562, 25.7440363], [-79.2839168, 25.7439434], [-79.2838744, 25.7438313], [-79.283935, 25.7437903], [-79.2841292, 25.7437767], [-79.2844143, 25.743845], [-79.2845053, 25.7439543], [-79.2844677, 25.7440879], [-79.2843491, 25.7443095], [-79.2842611, 25.7445253], [-79.2841565, 25.7446729], [-79.2840169, 25.7446975], [-79.2840298, 25.7449324], [-79.2837301, 25.7455254], [-79.2835732, 25.7457996], [-79.2834276, 25.7459951], [-79.2832844, 25.7463074], [-79.2830468, 25.7467556], [-79.2830126, 25.7468134], [-79.2829931, 25.7468364], [-79.2829765, 25.7468474], [-79.2829596, 25.7468529], [-79.2829369, 25.7468513], [-79.2829171, 25.7468422], [-79.2829085, 25.7468406], [-79.282902, 25.7468438], [-79.2828945, 25.7468522], [-79.2828763, 25.7468768], [-79.2827596, 25.747061], [-79.2827352, 25.7470947], [-79.2827193, 25.7471197], [-79.2827214, 25.7471362], [-79.2827446, 25.7471591], [-79.2827644, 25.747173], [-79.2827749, 25.7471914], [-79.2827764, 25.7472117], [-79.2827679, 25.7472403], [-79.2827467, 25.7472733], [-79.2827078, 25.7473125], [-79.2826423, 25.7473631], [-79.2825732, 25.7474104], [-79.2825099, 25.7474532], [-79.2824667, 25.7474753], [-79.2824264, 25.7474863], [-79.2823717, 25.7474882], [-79.2823314, 25.7474792], [-79.2822551, 25.7474416], [-79.2821514, 25.7473728], [-79.2818864, 25.7472146], [-79.2815864, 25.7470106], [-79.2815699, 25.7470007], [-79.2813399, 25.7468588], [-79.2812626, 25.746814], [-79.2811341, 25.7467325], [-79.2811247, 25.7467268], [-79.281115, 25.746721], [-79.2809052, 25.7465886], [-79.2808271, 25.7466944], [-79.2805873, 25.7470511], [-79.2803379, 25.7473877], [-79.280451, 25.7474706], [-79.2810109, 25.7478074], [-79.2814781, 25.7481394], [-79.2815412, 25.7481805], [-79.2808727, 25.7490061], [-79.2802887, 25.7495232], [-79.2800876, 25.749386], [-79.2799437, 25.7495503], [-79.2797534, 25.7497953], [-79.2796122, 25.7500101], [-79.2793735, 25.750362], [-79.279199, 25.7507218], [-79.2787351, 25.7513242], [-79.2787124, 25.7513634], [-79.2787124, 25.7514159], [-79.2788364, 25.7514981], [-79.2788686, 25.7515162], [-79.2788243, 25.7516249], [-79.2787388, 25.751784], [-79.2786929, 25.7518538], [-79.2786067, 25.7519126], [-79.2785266, 25.7519541], [-79.2784267, 25.7519921], [-79.2783261, 25.7520114], [-79.2782027, 25.7520235], [-79.2781196, 25.7520235], [-79.2779737, 25.7520165], [-79.2778319, 25.7520567], [-79.2778105, 25.7520785], [-79.2777226, 25.7521854], [-79.2776679, 25.7523002], [-79.2775802, 25.7524928], [-79.2775253, 25.7526082], [-79.2774738, 25.7527477], [-79.2774819, 25.7528117], [-79.2775236, 25.7529125], [-79.27762, 25.7530321], [-79.2776649, 25.7531257], [-79.2776991, 25.7531897], [-79.277726, 25.7532664], [-79.277738, 25.7533673], [-79.2777343, 25.7534455], [-79.2777032, 25.7535534], [-79.2773888, 25.7540362], [-79.2773404, 25.7541325], [-79.2771592, 25.754525], [-79.277073, 25.7547795], [-79.2770299, 25.7549545], [-79.2770058, 25.7551574], [-79.2769817, 25.7554823], [-79.2769964, 25.7557529], [-79.2770232, 25.7560222], [-79.2770876, 25.7563109], [-79.2772199, 25.7567139], [-79.2770622, 25.7567518], [-79.2769849, 25.756516], [-79.2766966, 25.7565852], [-79.2766296, 25.756398], [-79.2765914, 25.7563375], [-79.2765565, 25.756358], [-79.2764975, 25.7563653], [-79.2764734, 25.7562783], [-79.2764466, 25.7562288], [-79.2763755, 25.7562578], [-79.2763299, 25.7563314], [-79.2762843, 25.7563665], [-79.2762105, 25.7563339], [-79.2761602, 25.7562615], [-79.2760476, 25.7561615], [-79.2757773, 25.756044], [-79.27572, 25.7560002], [-79.2753889, 25.7545781], [-79.2753348, 25.7545486], [-79.2753133, 25.7541838], [-79.2753428, 25.7540027], [-79.275316, 25.7539519], [-79.2752811, 25.7538577], [-79.2753375, 25.7534688], [-79.275206, 25.7533939], [-79.2751685, 25.7535509], [-79.275147, 25.7540896], [-79.2751873, 25.7541814], [-79.2751926, 25.7542877], [-79.2751344, 25.754456], [-79.2751846, 25.7545293], [-79.2751631, 25.7545873], [-79.2751014, 25.754667], [-79.2749298, 25.7546887], [-79.2745079, 25.754634], [-79.2743397, 25.7545583], [-79.2742607, 25.754547], [-79.2741116, 25.7546172], [-79.273894, 25.7546151], [-79.2737258, 25.7545166], [-79.2735577, 25.7543613], [-79.2732339, 25.7540773], [-79.2729101, 25.7539675], [-79.2726915, 25.7536607], [-79.2725906, 25.7536607], [-79.272599, 25.7540925], [-79.2724602, 25.7543045], [-79.2720524, 25.7544825], [-79.2719641, 25.7544939], [-79.2719683, 25.7543159], [-79.2720734, 25.7542174], [-79.272086, 25.7539599], [-79.2722164, 25.7538274], [-79.2723803, 25.7538046], [-79.2724224, 25.7537062], [-79.2723089, 25.7535888], [-79.2722248, 25.7534979], [-79.271943, 25.7535736], [-79.2719809, 25.7536872], [-79.2719683, 25.7538046], [-79.2718295, 25.7538236], [-79.271859, 25.7540016], [-79.2718463, 25.7545355], [-79.2718337, 25.7546416], [-79.2716824, 25.7547097], [-79.271388, 25.7547855], [-79.2711315, 25.7548234], [-79.271018, 25.7550847], [-79.2711063, 25.755168], [-79.2712745, 25.7551453], [-79.2713712, 25.7549748], [-79.2716445, 25.754971], [-79.271695, 25.7552475], [-79.2717244, 25.7554066], [-79.2718884, 25.755558], [-79.2720566, 25.755755], [-79.2720355, 25.7559519], [-79.2721407, 25.7561867], [-79.2723173, 25.7562056], [-79.2723972, 25.7564858], [-79.2721701, 25.7563533], [-79.2719977, 25.7564063], [-79.2718716, 25.7564177], [-79.2715814, 25.7566676], [-79.2715772, 25.7567926], [-79.2712619, 25.7568342], [-79.2709802, 25.7568305], [-79.2708708, 25.7559935], [-79.2708751, 25.7558345], [-79.2709087, 25.7554028], [-79.2708372, 25.7553838], [-79.2707153, 25.7555277], [-79.270669, 25.755986], [-79.2706102, 25.7562662], [-79.2704083, 25.7572887], [-79.2702906, 25.7580839], [-79.2702317, 25.7585156], [-79.2702275, 25.7589587], [-79.2702485, 25.7595078], [-79.2702317, 25.7597653], [-79.2704294, 25.7598145], [-79.2704167, 25.760481], [-79.2711399, 25.760731], [-79.2714511, 25.7608786], [-79.2717496, 25.7610225], [-79.2719388, 25.7610301], [-79.2721154, 25.7609771], [-79.2722789, 25.7609651], [-79.2723215, 25.760962], [-79.272435, 25.7609279], [-79.2725065, 25.7608408], [-79.2725485, 25.760712], [-79.27262, 25.7606704], [-79.2727714, 25.7606666], [-79.2728471, 25.7607272], [-79.2729816, 25.7607461], [-79.2730909, 25.7606666], [-79.2732381, 25.7606552], [-79.2732928, 25.760606], [-79.2733726, 25.760534], [-79.2734946, 25.7605303], [-79.2735492, 25.7606287], [-79.273503, 25.7607007], [-79.2734862, 25.7607878], [-79.2736249, 25.7609089], [-79.2737721, 25.7609582], [-79.2739571, 25.7609809], [-79.2741211, 25.7610074], [-79.2741421, 25.7611096], [-79.2740496, 25.7611702], [-79.2738772, 25.7612725], [-79.2737679, 25.7611361], [-79.2736291, 25.7610945], [-79.2735492, 25.7610074], [-79.2734357, 25.7608294], [-79.2733853, 25.7607764], [-79.2732633, 25.7608105], [-79.2730068, 25.7608332], [-79.2727798, 25.7608635], [-79.2726999, 25.7609317], [-79.2726362, 25.761083], [-79.2725211, 25.7613332], [-79.2722876, 25.7616679], [-79.2721851, 25.761837], [-79.2719523, 25.7621017], [-79.2716375, 25.7623619], [-79.2714978, 25.7624528], [-79.2711484, 25.7627736], [-79.2707627, 25.7631247], [-79.2703326, 25.7635521], [-79.2699542, 25.7641088], [-79.2698449, 25.7642451], [-79.2695211, 25.7640595], [-79.2697734, 25.7636544], [-79.2702696, 25.762969], [-79.2707949, 25.7624424], [-79.27128, 25.76196], [-79.2715824, 25.7616749], [-79.2716333, 25.7616218], [-79.2715368, 25.7615614], [-79.2712015, 25.761257], [-79.2711315, 25.7612195], [-79.2710853, 25.7611324], [-79.270893, 25.7610275], [-79.2706946, 25.7611048]]]}}, {"type": "Feature", "properties": {}, "geometry": {"type": "Polygon", "coordinates": [[[-79.2798398, 25.7493907], [-79.279952, 25.7492964], [-79.2801373, 25.7490768], [-79.2802419, 25.7489524], [-79.2803089, 25.7488255], [-79.2803277, 25.7487301], [-79.280314, 25.7485889], [-79.2802379, 25.7484801], [-79.2801512, 25.7484234], [-79.2797658, 25.7481847], [-79.2794394, 25.7479901], [-79.2792904, 25.7479703], [-79.2791267, 25.7479769], [-79.2789744, 25.7479993], [-79.278817, 25.7480512], [-79.2787551, 25.7481065], [-79.2786902, 25.748172], [-79.2786064, 25.7483363], [-79.2783456, 25.7490575], [-79.2782644, 25.7492782], [-79.2782071, 25.7493889], [-79.2778949, 25.7499006], [-79.2775049, 25.7505299], [-79.2773451, 25.7507685], [-79.2773237, 25.7508572], [-79.2773163, 25.7508965], [-79.2773397, 25.7509907], [-79.2773653, 25.7510649], [-79.2774014, 25.7511478], [-79.2774611, 25.7512178], [-79.2775087, 25.7512686], [-79.2775671, 25.7513082], [-79.2776489, 25.7513483], [-79.2777119, 25.7513616], [-79.2777877, 25.7513706], [-79.2779086, 25.7513717], [-79.2779774, 25.7513604], [-79.2780498, 25.751332], [-79.2781344, 25.7512905], [-79.2782637, 25.7511882], [-79.2783865, 25.7510771], [-79.2785514, 25.7509092], [-79.2786747, 25.7507523], [-79.2787774, 25.7506042], [-79.2788793, 25.7504285], [-79.278988, 25.7502029], [-79.2790657, 25.7500643], [-79.2791509, 25.7499495], [-79.2792924, 25.7498058], [-79.2795395, 25.7496196], [-79.2798398, 25.7493907]]]}}]}