{"type":"FeatureCollection","features":[{"type":"Feature","properties":{},"geometry":{"type":"Polygon","coordinates":[[[-76.64942810000002,34.5],[-76.64999999999998,34.5],[-76.64999999999998,34.506618300000014],[-76.64999999999998,34.54055199999999],[-76.64999999999998,34.5700827],[-76.64999999999998,34.57499999999999],[-76.64415589999999,34.57499999999999],[-76.58073660000002,34.57499999999999],[-76.57499999999999,34.57499999999999],[-76.57499999999999,34.55305270000002],[-76.57499999999999,34.5],[-76.5780277,34.5],[-76.63136300000002,34.5],[-76.63715450000001,34.5],[-76.64942810000002,34.5]]]}},{"type":"Feature","properties":{},"geometry":{"type":"Polygon","coordinates":[[[-76.52206860000001,34.5],[-76.57499999999999,34.5],[-76.57499999999999,34.55305270000002],[-76.57499999999999,34.57499999999999],[-76.54958370000003,34.57499999999999],[-76.54669660000002,34.57499999999999],[-76.54197699999997,34.57499999999999],[-76.54107210000001,34.57499999999999],[-76.53985189999997,34.57499999999999],[-76.52274599999998,34.57499999999999],[-76.52208389999998,34.57499999999999],[-76.51919529999998,34.57499999999999],[-76.51611109999999,34.57499999999999],[-76.5155416,34.57499999999999],[-76.51387979999998,34.57499999999999],[-76.5,34.57499999999999],[-76.5,34.55030149999999],[-76.5,34.5464824],[-76.5,34.52989719999999],[-76.5,34.52656539999998],[-76.5,34.519696599999975],[-76.5,34.51002749999998],[-76.5,34.504998899999975],[-76.5,34.50344030000002],[-76.5,34.5031965],[-76.5,34.50157660000002],[-76.5,34.500442899999996],[-76.5,34.5],[-76.50140579999999,34.5],[-76.50393350000002,34.5],[-76.51611109999999,34.5],[-76.52206860000001,34.5]]]}},{"type":"Feature","properties":{},"geometry":{"type":"Polygon","coordinates":[[[-76.80000000000001,34.644625399999995],[-76.80000000000001,34.64498709999998],[-76.80000000000001,34.64999999999998],[-76.7898303,34.64999999999998],[-76.78626680000002,34.64999999999998],[-76.746667,34.64999999999998],[-76.72500000000002,34.64999999999998],[-76.72500000000002,34.64662420000002],[-76.72500000000002,34.64626279999999],[-76.72500000000002,34.641909699999985],[-76.72500000000002,34.64182840000001],[-76.72500000000002,34.6355719],[-76.72500000000002,34.619249000000025],[-76.72500000000002,34.600165000000004],[-76.72500000000002,34.60009910000002],[-76.72500000000002,34.57499999999999],[-76.73280390000002,34.57499999999999],[-76.78928400000001,34.57499999999999],[-76.79754070000001,34.57499999999999],[-76.80000000000001,34.57499999999999],[-76.80000000000001,34.644625399999995]]]}},{"type":"Feature","properties":{},"geometry":{"type":"Polygon","coordinates":[[[-76.72500000000002,34.57499999999999],[-76.72500000000002,34.60009910000002],[-76.72500000000002,34.619249000000025],[-76.72500000000002,34.6355719],[-76.72500000000002,34.641909699999985],[-76.72500000000002,34.64626279999999],[-76.72500000000002,34.64662420000002],[-76.72500000000002,34.64999999999998],[-76.70650840000002,34.64999999999998],[-76.6990194,34.64999999999998],[-76.69612059999997,34.64999999999998],[-76.69448599999998,34.64999999999998],[-76.68579039999997,34.64999999999998],[-76.67773790000001,34.64999999999998],[-76.67663700000003,34.64999999999998],[-76.67625550000002,34.64999999999998],[-76.67588699999999,34.64999999999998],[-76.67587409999999,34.64999999999998],[-76.67549279999997,34.64999999999998],[-76.67511150000001,34.64999999999998],[-76.67419569999998,34.64999999999998],[-76.66553160000001,34.64999999999998],[-76.64999999999998,34.64999999999998],[-76.64999999999998,34.627915099999996],[-76.64999999999998,34.6275488],[-76.64999999999998,34.60182639999999],[-76.64999999999998,34.58279420000002],[-76.64999999999998,34.57499999999999],[-76.72500000000002,34.57499999999999]]]}},{"type":"Feature","properties":{},"geometry":{"type":"Polygon","coordinates":[[[-76.64999999999998,34.57499999999999],[-76.64999999999998,34.58279420000002],[-76.64999999999998,34.60182639999999],[-76.64999999999998,34.64999999999998],[-76.6442548,34.64999999999998],[-76.61666600000001,34.64999999999998],[-76.58766050000003,34.64999999999998],[-76.5776136,34.64999999999998],[-76.57499999999999,34.64999999999998],[-76.57499999999999,34.64833340000001],[-76.57499999999999,34.64214870000001],[-76.57499999999999,34.583494400000006],[-76.57499999999999,34.577993400000025],[-76.57499999999999,34.57499999999999],[-76.57885470000002,34.57499999999999],[-76.58073660000002,34.57499999999999],[-76.61666600000001,34.57499999999999],[-76.64999999999998,34.57499999999999]]]}},{"type":"Feature","properties":{},"geometry":{"type":"Polygon","coordinates":[[[-76.54958370000003,34.57499999999999],[-76.57499999999999,34.57499999999999],[-76.57499999999999,34.577993400000025],[-76.57499999999999,34.583494400000006],[-76.57499999999999,34.64214870000001],[-76.57499999999999,34.64833340000001],[-76.57499999999999,34.64999999999998],[-76.56300779999998,34.64999999999998],[-76.55987929999998,34.64999999999998],[-76.55927500000001,34.64999999999998],[-76.55880990000003,34.64999999999998],[-76.55497300000002,34.64999999999998],[-76.5541184,34.64999999999998],[-76.54912539999998,34.64999999999998],[-76.54381489999997,34.64999999999998],[-76.54144969999999,34.64999999999998],[-76.524428,34.64999999999998],[-76.52418210000002,34.64999999999998],[-76.5221795,34.64999999999998],[-76.52193899999997,34.64999999999998],[-76.52094449999998,34.64999999999998],[-76.52085979999998,34.64999999999998],[-76.52053369999999,34.64999999999998],[-76.5201778,34.64999999999998],[-76.51814250000001,34.64999999999998],[-76.51797850000003,34.64999999999998],[-76.51775079999999,34.64999999999998],[-76.51731790000002,34.64999999999998],[-76.51280459999998,34.64999999999998],[-76.5120872,34.64999999999998],[-76.51124859999999,34.64999999999998],[-76.51068400000003,34.64999999999998],[-76.51025399999997,34.64999999999998],[-76.50802779999998,34.64999999999998],[-76.50602120000002,34.64999999999998],[-76.50313949999997,34.64999999999998],[-76.5,34.64999999999998],[-76.5,34.64572700000002],[-76.5,34.64076080000001],[-76.5,34.62037090000001],[-76.5,34.61978349999998],[-76.5,34.61702630000002],[-76.5,34.612899500000026],[-76.5,34.60916980000002],[-76.5,34.60489910000001],[-76.5,34.60141220000003],[-76.5,34.59999340000002],[-76.5,34.596502699999974],[-76.5,34.59297720000001],[-76.5,34.58943850000003],[-76.5,34.58784020000002],[-76.5,34.586411699999985],[-76.5,34.58564130000002],[-76.5,34.58384380000001],[-76.5,34.581595400000026],[-76.5,34.57569560000002],[-76.5,34.57499999999999],[-76.51387979999998,34.57499999999999],[-76.5155416,34.57499999999999],[-76.51611109999999,34.57499999999999],[-76.51919529999998,34.57499999999999],[-76.52208389999998,34.57499999999999],[-76.52274599999998,34.57499999999999],[-76.52868940000002,34.57499999999999],[-76.53985189999997,34.57499999999999],[-76.54107210000001,34.57499999999999],[-76.54197699999997,34.57499999999999],[-76.54669660000002,34.57499999999999],[-76.54958370000003,34.57499999999999]]]}},{"type":"Feature","properties":{},"geometry":{"type":"Polygon","coordinates":[[[-76.7898303,34.64999999999998],[-76.80000000000001,34.64999999999998],[-76.80000000000001,34.66883230000002],[-76.80000000000001,34.684119099999975],[-76.80000000000001,34.687601700000016],[-76.80000000000001,34.69033940000003],[-76.80000000000001,34.692205100000024],[-76.80000000000001,34.69386420000001],[-76.80000000000001,34.694949699999995],[-76.80000000000001,34.69518629999999],[-76.80000000000001,34.696918900000014],[-76.80000000000001,34.70240230000002],[-76.80000000000001,34.7033644],[-76.80000000000001,34.720552699999985],[-76.80000000000001,34.721142999999984],[-76.80000000000001,34.72197169999998],[-76.80000000000001,34.72203409999997],[-76.80000000000001,34.72204049999999],[-76.80000000000001,34.72205339999999],[-76.80000000000001,34.72212639999998],[-76.80000000000001,34.7222476],[-76.80000000000001,34.72233110000002],[-76.80000000000001,34.72250500000001],[-76.80000000000001,34.72261309999999],[-76.80000000000001,34.72268220000001],[-76.80000000000001,34.722857799999986],[-76.80000000000001,34.72427759999999],[-76.80000000000001,34.72500000000002],[-76.79844059999999,34.72500000000002],[-76.7950629,34.72500000000002],[-76.7903349,34.72500000000002],[-76.78953430000001,34.72500000000002],[-76.7862753,34.72500000000002],[-76.78553190000002,34.72500000000002],[-76.78515149999998,34.72500000000002],[-76.78322100000003,34.72500000000002],[-76.78056420000001,34.72500000000002],[-76.7803376,34.72500000000002],[-76.78020190000001,34.72500000000002],[-76.7799316,34.72500000000002],[-76.73823149999998,34.72500000000002],[-76.72500000000002,34.72500000000002],[-76.72500000000002,34.7190526],[-76.72500000000002,34.71715260000002],[-76.72500000000002,34.71678459999998],[-76.72500000000002,34.71565880000003],[-76.72500000000002,34.7156334],[-76.72500000000002,34.71542149999999],[-76.72500000000002,34.714879199999984],[-76.72500000000002,34.71460430000002],[-76.72500000000002,34.7144988],[-76.72500000000002,34.713950599999976],[-76.72500000000002,34.713806799999986],[-76.72500000000002,34.713370699999984],[-76.72500000000002,34.712854600000014],[-76.72500000000002,34.71281049999999],[-76.72500000000002,34.71257989999998],[-76.72500000000002,34.71214470000001],[-76.72500000000002,34.712137799999994],[-76.72500000000002,34.71202570000003],[-76.72500000000002,34.71201289999999],[-76.72500000000002,34.711697500000014],[-76.72500000000002,34.7115397],[-76.72500000000002,34.71149129999998],[-76.72500000000002,34.708601499999986],[-76.72500000000002,34.706875500000024],[-76.72500000000002,34.7067988],[-76.72500000000002,34.70673049999999],[-76.72500000000002,34.706570399999976],[-76.72500000000002,34.70656509999998],[-76.72500000000002,34.70641440000003],[-76.72500000000002,34.706121199999984],[-76.72500000000002,34.70591300000001],[-76.72500000000002,34.70483630000001],[-76.72500000000002,34.704567499999996],[-76.72500000000002,34.70444980000002],[-76.72500000000002,34.7023284],[-76.72500000000002,34.702311699999996],[-76.72500000000002,34.70222419999999],[-76.72500000000002,34.70180540000001],[-76.72500000000002,34.70168239999998],[-76.72500000000002,34.7012216],[-76.72500000000002,34.701025000000016],[-76.72500000000002,34.70092829999999],[-76.72500000000002,34.7007797],[-76.72500000000002,34.70058180000001],[-76.72500000000002,34.70043099999998],[-76.72500000000002,34.70041800000001],[-76.72500000000002,34.70026280000002],[-76.72500000000002,34.700155800000005],[-76.72500000000002,34.696436500000004],[-76.72500000000002,34.69616910000002],[-76.72500000000002,34.69544209999998],[-76.72500000000002,34.693716600000016],[-76.72500000000002,34.693553699999995],[-76.72500000000002,34.691648499999985],[-76.72500000000002,34.68867590000002],[-76.72500000000002,34.68663090000001],[-76.72500000000002,34.68626069999999],[-76.72500000000002,34.682892400000014],[-76.72500000000002,34.64999999999998],[-76.746667,34.64999999999998],[-76.78626680000002,34.64999999999998],[-76.7898303,34.64999999999998]]]}},{"type":"Feature","properties":{},"geometry":{"type":"Polygon","coordinates":[[[-76.70650840000002,34.64999999999998],[-76.72500000000002,34.64999999999998],[-76.72500000000002,34.682892400000014],[-76.72500000000002,34.68626069999999],[-76.72500000000002,34.68663090000001],[-76.72500000000002,34.68867590000002],[-76.72500000000002,34.691648499999985],[-76.72500000000002,34.693553699999995],[-76.72500000000002,34.693716600000016],[-76.72500000000002,34.69544209999998],[-76.72500000000002,34.69616910000002],[-76.72500000000002,34.696436500000004],[-76.72500000000002,34.700155800000005],[-76.72500000000002,34.70026280000002],[-76.72500000000002,34.70041800000001],[-76.72500000000002,34.70043099999998],[-76.72500000000002,34.70058180000001],[-76.72500000000002,34.7007797],[-76.72500000000002,34.70092829999999],[-76.72500000000002,34.701025000000016],[-76.72500000000002,34.7012216],[-76.72500000000002,34.70168239999998],[-76.72500000000002,34.70180540000001],[-76.72500000000002,34.70222419999999],[-76.72500000000002,34.702311699999996],[-76.72500000000002,34.7023284],[-76.72500000000002,34.70444980000002],[-76.72500000000002,34.704567499999996],[-76.72500000000002,34.70483630000001],[-76.72500000000002,34.70591300000001],[-76.72500000000002,34.706121199999984],[-76.72500000000002,34.70641440000003],[-76.72500000000002,34.70656509999998],[-76.72500000000002,34.706570399999976],[-76.72500000000002,34.70673049999999],[-76.72500000000002,34.7067988],[-76.72500000000002,34.706875500000024],[-76.72500000000002,34.708601499999986],[-76.72500000000002,34.71149129999998],[-76.72500000000002,34.7115397],[-76.72500000000002,34.711697500000014],[-76.72500000000002,34.71201289999999],[-76.72500000000002,34.71202570000003],[-76.72500000000002,34.712137799999994],[-76.72500000000002,34.71214470000001],[-76.72500000000002,34.71257989999998],[-76.72500000000002,34.71281049999999],[-76.72500000000002,34.712854600000014],[-76.72500000000002,34.713370699999984],[-76.72500000000002,34.713806799999986],[-76.72500000000002,34.713950599999976],[-76.72500000000002,34.7144988],[-76.72500000000002,34.71460430000002],[-76.72500000000002,34.714879199999984],[-76.72500000000002,34.71542149999999],[-76.72500000000002,34.7156334],[-76.72500000000002,34.71565880000003],[-76.72500000000002,34.71678459999998],[-76.72500000000002,34.71715260000002],[-76.72500000000002,34.7190526],[-76.72500000000002,34.72500000000002],[-76.71452649999998,34.72500000000002],[-76.71417919999999,34.72500000000002],[-76.71386569999999,34.72500000000002],[-76.7133394,34.72500000000002],[-76.71331070000002,34.72500000000002],[-76.70939659999999,34.72500000000002],[-76.70666549999999,34.72500000000002],[-76.70588659999999,34.72500000000002],[-76.70535539999997,34.72500000000002],[-76.7053343,34.72500000000002],[-76.70483730000001,34.72500000000002],[-76.70339489999998,34.72500000000002],[-76.70218249999999,34.72500000000002],[-76.69751230000003,34.72500000000002],[-76.6964782,34.72500000000002],[-76.69607789999998,34.72500000000002],[-76.6959314,34.72500000000002],[-76.69571560000003,34.72500000000002],[-76.69535439999999,34.72500000000002],[-76.69535300000001,34.72500000000002],[-76.69477699999999,34.72500000000002],[-76.69457879999999,34.72500000000002],[-76.69436889999997,34.72500000000002],[-76.69433709999998,34.72500000000002],[-76.69393589999999,34.72500000000002],[-76.69392190000002,34.72500000000002],[-76.69384639999998,34.72500000000002],[-76.69353360000002,34.72500000000002],[-76.6928196,34.72500000000002],[-76.6927796,34.72500000000002],[-76.6925496,34.72500000000002],[-76.69188550000001,34.72500000000002],[-76.69076189999998,34.72500000000002],[-76.69006730000001,34.72500000000002],[-76.68957319999998,34.72500000000002],[-76.68704150000002,34.72500000000002],[-76.68678619999997,34.72500000000002],[-76.68665879999998,34.72500000000002],[-76.6865211,34.72500000000002],[-76.68629429999999,34.72500000000002],[-76.68623960000002,34.72500000000002],[-76.68391830000002,34.72500000000002],[-76.6833992,34.72500000000002],[-76.68186709999998,34.72500000000002],[-76.68083580000001,34.72500000000002],[-76.67789049999999,34.72500000000002],[-76.6775644,34.72500000000002],[-76.67741960000001,34.72500000000002],[-76.67680080000002,34.72500000000002],[-76.67535140000001,34.72500000000002],[-76.67334260000001,34.72500000000002],[-76.67311640000003,34.72500000000002],[-76.67283370000001,34.72500000000002],[-76.67151139999999,34.72500000000002],[-76.6712751,34.72500000000002],[-76.67054230000002,34.72500000000002],[-76.67023749999998,34.72500000000002],[-76.66974629999999,34.72500000000002],[-76.66967849999997,34.72500000000002],[-76.66958090000003,34.72500000000002],[-76.6694761,34.72500000000002],[-76.66928109999998,34.72500000000002],[-76.66897290000003,34.72500000000002],[-76.66894780000001,34.72500000000002],[-76.66842860000003,34.72500000000002],[-76.66833309999998,34.72500000000002],[-76.66830599999997,34.72500000000002],[-76.66828720000001,34.72500000000002],[-76.66816469999998,34.72500000000002],[-76.66707170000001,34.72500000000002],[-76.66701440000003,34.72500000000002],[-76.66431239999997,34.72500000000002],[-76.66419810000002,34.72500000000002],[-76.6641644,34.72500000000002],[-76.66415790000002,34.72500000000002],[-76.66396070000002,34.72500000000002],[-76.66211559999999,34.72500000000002],[-76.66119650000002,34.72500000000002],[-76.66110930000002,34.72500000000002],[-76.66074700000001,34.72500000000002],[-76.65920899999998,34.72500000000002],[-76.64999999999998,34.72500000000002],[-76.64999999999998,34.71700759999999],[-76.64999999999998,34.71274119999998],[-76.64999999999998,34.71236449999998],[-76.64999999999998,34.71223309999999],[-76.64999999999998,34.71216079999999],[-76.64999999999998,34.71201639999998],[-76.64999999999998,34.711944200000005],[-76.64999999999998,34.71176320000001],[-76.64999999999998,34.71169420000001],[-76.64999999999998,34.711516700000004],[-76.64999999999998,34.71090620000001],[-76.64999999999998,34.7093524],[-76.64999999999998,34.709104500000024],[-76.64999999999998,34.7088109],[-76.64999999999998,34.70835490000002],[-76.64999999999998,34.70797390000001],[-76.64999999999998,34.70680920000001],[-76.64999999999998,34.70371019999999],[-76.64999999999998,34.703619600000025],[-76.64999999999998,34.70339039999999],[-76.64999999999998,34.702572499999974],[-76.64999999999998,34.70231960000001],[-76.64999999999998,34.701501500000006],[-76.64999999999998,34.701032999999995],[-76.64999999999998,34.700741300000004],[-76.64999999999998,34.7005312],[-76.64999999999998,34.70044969999998],[-76.64999999999998,34.70042169999999],[-76.64999999999998,34.70040419999998],[-76.64999999999998,34.70031590000002],[-76.64999999999998,34.69956789999998],[-76.64999999999998,34.698653200000024],[-76.64999999999998,34.69852589999999],[-76.64999999999998,34.69822549999998],[-76.64999999999998,34.69815360000001],[-76.64999999999998,34.69805250000002],[-76.64999999999998,34.69697780000001],[-76.64999999999998,34.696196199999974],[-76.64999999999998,34.69611120000002],[-76.64999999999998,34.695829],[-76.64999999999998,34.69487600000002],[-76.64999999999998,34.694725000000005],[-76.64999999999998,34.694666900000016],[-76.64999999999998,34.69151649999998],[-76.64999999999998,34.69151069999998],[-76.64999999999998,34.69078489999998],[-76.64999999999998,34.69073909999997],[-76.64999999999998,34.689644999999985],[-76.64999999999998,34.689452700000004],[-76.64999999999998,34.689316599999984],[-76.64999999999998,34.68929300000002],[-76.64999999999998,34.68915099999998],[-76.64999999999998,34.68903369999998],[-76.64999999999998,34.68850570000001],[-76.64999999999998,34.68823250000003],[-76.64999999999998,34.685942899999986],[-76.64999999999998,34.68055179999999],[-76.64999999999998,34.68040070000001],[-76.64999999999998,34.679979600000024],[-76.64999999999998,34.67712210000002],[-76.64999999999998,34.676696400000026],[-76.64999999999998,34.676655100000005],[-76.64999999999998,34.67658069999999],[-76.64999999999998,34.67649669999997],[-76.64999999999998,34.67635969999998],[-76.64999999999998,34.67615999999998],[-76.64999999999998,34.674414300000024],[-76.64999999999998,34.67435310000002],[-76.64999999999998,34.67424519999997],[-76.64999999999998,34.67417019999999],[-76.64999999999998,34.673522100000014],[-76.64999999999998,34.67105650000002],[-76.64999999999998,34.67007189999998],[-76.64999999999998,34.66734120000001],[-76.64999999999998,34.66675939999999],[-76.64999999999998,34.66628509999998],[-76.64999999999998,34.665151200000025],[-76.64999999999998,34.66509660000003],[-76.64999999999998,34.66098579999999],[-76.64999999999998,34.64999999999998],[-76.66553160000001,34.64999999999998],[-76.67419569999998,34.64999999999998],[-76.67511150000001,34.64999999999998],[-76.67549279999997,34.64999999999998],[-76.67587409999999,34.64999999999998],[-76.67588699999999,34.64999999999998],[-76.67625550000002,34.64999999999998],[-76.67663700000003,34.64999999999998],[-76.67773790000001,34.64999999999998],[-76.68579039999997,34.64999999999998],[-76.69448599999998,34.64999999999998],[-76.69612059999997,34.64999999999998],[-76.6990194,34.64999999999998],[-76.70650840000002,34.64999999999998]]]}},{"type":"Feature","properties":{},"geometry":{"type":"Polygon","coordinates":[[[-76.61666600000001,34.64999999999998],[-76.64999999999998,34.64999999999998],[-76.64999999999998,34.66098579999999],[-76.64999999999998,34.66509660000003],[-76.64999999999998,34.665151200000025],[-76.64999999999998,34.66628509999998],[-76.64999999999998,34.66675939999999],[-76.64999999999998,34.667337599999996],[-76.64999999999998,34.67003820000002],[-76.64999999999998,34.67105650000002],[-76.64999999999998,34.673522100000014],[-76.64999999999998,34.67424620000003],[-76.64999999999998,34.674414300000024],[-76.64999999999998,34.67635969999998],[-76.64999999999998,34.676655100000005],[-76.64999999999998,34.67712210000002],[-76.64999999999998,34.679979600000024],[-76.64999999999998,34.68040070000001],[-76.64999999999998,34.68055179999999],[-76.64999999999998,34.685942899999986],[-76.64999999999998,34.68823250000003],[-76.64999999999998,34.68850570000001],[-76.64999999999998,34.68903369999998],[-76.64999999999998,34.68915099999998],[-76.64999999999998,34.689316599999984],[-76.64999999999998,34.689452700000004],[-76.64999999999998,34.69078489999998],[-76.64999999999998,34.69151069999998],[-76.64999999999998,34.69151649999998],[-76.64999999999998,34.69215200000002],[-76.64999999999998,34.69414089999998],[-76.64999999999998,34.694666900000016],[-76.64999999999998,34.694725000000005],[-76.64999999999998,34.69472510000003],[-76.64999999999998,34.69487600000002],[-76.64999999999998,34.695829],[-76.64999999999998,34.69611120000002],[-76.64999999999998,34.696196199999974],[-76.64999999999998,34.69697780000001],[-76.64999999999998,34.69805250000002],[-76.64999999999998,34.69815360000001],[-76.64999999999998,34.69822549999998],[-76.64999999999998,34.69852589999999],[-76.64999999999998,34.698653200000024],[-76.64999999999998,34.69956789999998],[-76.64999999999998,34.70031590000002],[-76.64999999999998,34.70044969999998],[-76.64999999999998,34.701032999999995],[-76.64999999999998,34.701501500000006],[-76.64999999999998,34.70231960000001],[-76.64999999999998,34.702572499999974],[-76.64999999999998,34.70339039999999],[-76.64999999999998,34.703619600000025],[-76.64999999999998,34.70371019999999],[-76.64999999999998,34.70680920000001],[-76.64999999999998,34.70797390000001],[-76.64999999999998,34.70835490000002],[-76.64999999999998,34.7088109],[-76.64999999999998,34.709104500000024],[-76.64999999999998,34.7093524],[-76.64999999999998,34.71090620000001],[-76.64999999999998,34.711516700000004],[-76.64999999999998,34.71169420000001],[-76.64999999999998,34.71176320000001],[-76.64999999999998,34.711944200000005],[-76.64999999999998,34.71201639999998],[-76.64999999999998,34.71216079999999],[-76.64999999999998,34.71223309999999],[-76.64999999999998,34.71236449999998],[-76.64999999999998,34.71274119999998],[-76.64999999999998,34.71700759999999],[-76.64999999999998,34.72500000000002],[-76.64102680000002,34.72500000000002],[-76.63259499999998,34.72500000000002],[-76.62979339999998,34.72500000000002],[-76.62944169999997,34.72500000000002],[-76.62882960000002,34.72500000000002],[-76.62765739999998,34.72500000000002],[-76.62728129999999,34.72500000000002],[-76.62640349999998,34.72500000000002],[-76.62167720000002,34.72500000000002],[-76.6214488,34.72500000000002],[-76.61990159999999,34.72500000000002],[-76.6193202,34.72500000000002],[-76.61901879999999,34.72500000000002],[-76.61618199999998,34.72500000000002],[-76.6158102,34.72500000000002],[-76.61258830000003,34.72500000000002],[-76.60910810000001,34.72500000000002],[-76.608202,34.72500000000002],[-76.60745759999998,34.72500000000002],[-76.60219699999999,34.72500000000002],[-76.59774679999998,34.72500000000002],[-76.59688319999998,34.72500000000002],[-76.59588350000001,34.72500000000002],[-76.59572459999998,34.72500000000002],[-76.59534359999998,34.72500000000002],[-76.59529609999998,34.72500000000002],[-76.59521030000002,34.72500000000002],[-76.5949187,34.72500000000002],[-76.59401350000002,34.72500000000002],[-76.5937078,34.72500000000002],[-76.59334189999998,34.72500000000002],[-76.5932353,34.72500000000002],[-76.59208280000001,34.72500000000002],[-76.5831604,34.72500000000002],[-76.58245210000001,34.72500000000002],[-76.580554,34.72500000000002],[-76.58031840000001,34.72500000000002],[-76.57751789999998,34.72500000000002],[-76.57499999999999,34.72500000000002],[-76.57499999999999,34.72106500000001],[-76.57499999999999,34.72079359999998],[-76.57499999999999,34.720721200000014],[-76.57499999999999,34.71993220000002],[-76.57499999999999,34.719538899999975],[-76.57499999999999,34.719526599999995],[-76.57499999999999,34.71784439999999],[-76.57499999999999,34.717386799999986],[-76.57499999999999,34.716852200000005],[-76.57499999999999,34.716665499999976],[-76.57499999999999,34.71508319999998],[-76.57499999999999,34.71423540000001],[-76.57499999999999,34.7131316],[-76.57499999999999,34.71113220000001],[-76.57499999999999,34.709931400000016],[-76.57499999999999,34.70951020000001],[-76.57499999999999,34.69718799999998],[-76.57499999999999,34.69644629999999],[-76.57499999999999,34.69185169999997],[-76.57499999999999,34.689954899999975],[-76.57499999999999,34.6868202],[-76.57499999999999,34.683882600000004],[-76.57499999999999,34.6723576],[-76.57499999999999,34.672083799999996],[-76.57499999999999,34.6698993],[-76.57499999999999,34.66958260000001],[-76.57499999999999,34.6645322],[-76.57499999999999,34.66415810000001],[-76.57499999999999,34.66325069999999],[-76.57499999999999,34.65987660000002],[-76.57499999999999,34.65959459999999],[-76.57499999999999,34.65760469999998],[-76.57499999999999,34.6566224],[-76.57499999999999,34.656505400000015],[-76.57499999999999,34.655103499999996],[-76.57499999999999,34.64999999999998],[-76.5776136,34.64999999999998],[-76.58766050000003,34.64999999999998],[-76.61666600000001,34.64999999999998]]]}},{"type":"Feature","properties":{},"geometry":{"type":"Polygon","coordinates":[[[-76.56300779999998,34.64999999999998],[-76.57499999999999,34.64999999999998],[-76.57499999999999,34.655103499999996],[-76.57499999999999,34.656505400000015],[-76.57499999999999,34.6566224],[-76.57499999999999,34.65760469999998],[-76.57499999999999,34.65959459999999],[-76.57499999999999,34.65987660000002],[-76.57499999999999,34.66325069999999],[-76.57499999999999,34.66415810000001],[-76.57499999999999,34.6645322],[-76.57499999999999,34.66958260000001],[-76.57499999999999,34.6698993],[-76.57499999999999,34.672083799999996],[-76.57499999999999,34.6723576],[-76.57499999999999,34.683882600000004],[-76.57499999999999,34.6868202],[-76.57499999999999,34.689954899999975],[-76.57499999999999,34.69185169999997],[-76.57499999999999,34.69644629999999],[-76.57499999999999,34.69718799999998],[-76.57499999999999,34.70951020000001],[-76.57499999999999,34.709931400000016],[-76.57499999999999,34.71113220000001],[-76.57499999999999,34.7131316],[-76.57499999999999,34.71423540000001],[-76.57499999999999,34.71508319999998],[-76.57499999999999,34.716665499999976],[-76.57499999999999,34.716852200000005],[-76.57499999999999,34.717386799999986],[-76.57499999999999,34.71784439999999],[-76.57499999999999,34.719526599999995],[-76.57499999999999,34.719538899999975],[-76.57499999999999,34.71993220000002],[-76.57499999999999,34.720721200000014],[-76.57499999999999,34.72079359999998],[-76.57499999999999,34.72106500000001],[-76.57499999999999,34.72500000000002],[-76.57012329999998,34.72500000000002],[-76.56957720000003,34.72500000000002],[-76.56760980000001,34.72500000000002],[-76.56723729999999,34.72500000000002],[-76.564393,34.72500000000002],[-76.56423009999997,34.72500000000002],[-76.5639764,34.72500000000002],[-76.56385449999999,34.72500000000002],[-76.56042689999998,34.72500000000002],[-76.56015389999999,34.72500000000002],[-76.55853380000002,34.72500000000002],[-76.55813360000002,34.72500000000002],[-76.55586410000001,34.72500000000002],[-76.55571470000001,34.72500000000002],[-76.5553251,34.72500000000002],[-76.55461650000001,34.72500000000002],[-76.55357930000002,34.72500000000002],[-76.55185399999999,34.72500000000002],[-76.55141040000001,34.72500000000002],[-76.55045109999998,34.72500000000002],[-76.55014,34.72500000000002],[-76.54362359999999,34.72500000000002],[-76.54274049999998,34.72500000000002],[-76.53039410000002,34.72500000000002],[-76.53009960000003,34.72500000000002],[-76.52749799999998,34.72500000000002],[-76.52459750000003,34.72500000000002],[-76.5221656,34.72500000000002],[-76.51724439999998,34.72500000000002],[-76.51153979999998,34.72500000000002],[-76.50785109999998,34.72500000000002],[-76.5,34.72500000000002],[-76.5,34.71834460000002],[-76.5,34.7167417],[-76.5,34.71549709999999],[-76.5,34.71378820000001],[-76.5,34.68790919999998],[-76.5,34.68718310000003],[-76.5,34.68065769999998],[-76.5,34.67839140000001],[-76.5,34.67504259999998],[-76.5,34.67448999999999],[-76.5,34.673564],[-76.5,34.671736899999985],[-76.5,34.66939769999999],[-76.5,34.668723],[-76.5,34.668672000000015],[-76.5,34.666099299999985],[-76.5,34.66435719999998],[-76.5,34.66358009999999],[-76.5,34.662239399999976],[-76.5,34.66156590000003],[-76.5,34.65979809999999],[-76.5,34.65496519999999],[-76.5,34.64999999999998],[-76.50313949999997,34.64999999999998],[-76.50602120000002,34.64999999999998],[-76.50802779999998,34.64999999999998],[-76.51025399999997,34.64999999999998],[-76.51068400000003,34.64999999999998],[-76.51124859999999,34.64999999999998],[-76.5120872,34.64999999999998],[-76.51280459999998,34.64999999999998],[-76.51731790000002,34.64999999999998],[-76.51775079999999,34.64999999999998],[-76.51797850000003,34.64999999999998],[-76.51814250000001,34.64999999999998],[-76.5201778,34.64999999999998],[-76.52053369999999,34.64999999999998],[-76.52085979999998,34.64999999999998],[-76.52094449999998,34.64999999999998],[-76.52193899999997,34.64999999999998],[-76.5221795,34.64999999999998],[-76.52418210000002,34.64999999999998],[-76.524428,34.64999999999998],[-76.54144969999999,34.64999999999998],[-76.54381489999997,34.64999999999998],[-76.54912539999998,34.64999999999998],[-76.5541184,34.64999999999998],[-76.55497300000002,34.64999999999998],[-76.55880990000003,34.64999999999998],[-76.55927500000001,34.64999999999998],[-76.55987929999998,34.64999999999998],[-76.56300779999998,34.64999999999998]]]}},{"type":"Feature","properties":{},"geometry":{"type":"Polygon","coordinates":[[[-76.71452649999998,34.72500000000002],[-76.72500000000002,34.72500000000002],[-76.72500000000002,34.72580540000001],[-76.72500000000002,34.726159199999984],[-76.72500000000002,34.72666959999998],[-76.72500000000002,34.72747099999998],[-76.72500000000002,34.73772079999998],[-76.72500000000002,34.738663900000006],[-76.72500000000002,34.741831400000024],[-76.72500000000002,34.7425265],[-76.72500000000002,34.761641499999996],[-76.72500000000002,34.76187199999998],[-76.72500000000002,34.76340210000001],[-76.72500000000002,34.77370250000001],[-76.72500000000002,34.775314700000024],[-76.72500000000002,34.776455899999974],[-76.72500000000002,34.776649599999985],[-76.72500000000002,34.77773209999998],[-76.72500000000002,34.777988300000004],[-76.72500000000002,34.78032009999998],[-76.72500000000002,34.78308709999999],[-76.72500000000002,34.7856185],[-76.72500000000002,34.78652169999998],[-76.72500000000002,34.78998710000002],[-76.72500000000002,34.794466399999976],[-76.72500000000002,34.79655309999998],[-76.72500000000002,34.79677800000002],[-76.72500000000002,34.79763809999997],[-76.72500000000002,34.7983213],[-76.72500000000002,34.799238600000024],[-76.72500000000002,34.80000000000001],[-76.72089399999999,34.80000000000001],[-76.72049950000002,34.80000000000001],[-76.71954790000001,34.80000000000001],[-76.7175676,34.80000000000001],[-76.69617010000002,34.80000000000001],[-76.69555350000002,34.80000000000001],[-76.693851,34.80000000000001],[-76.69257959999999,34.80000000000001],[-76.69102720000001,34.80000000000001],[-76.68801380000002,34.80000000000001],[-76.68728759999999,34.80000000000001],[-76.68704250000002,34.80000000000001],[-76.68680699999999,34.80000000000001],[-76.68662569999998,34.80000000000001],[-76.68630309999998,34.80000000000001],[-76.68507169999998,34.80000000000001],[-76.6844001,34.80000000000001],[-76.6841976,34.80000000000001],[-76.68315039999999,34.80000000000001],[-76.682748,34.80000000000001],[-76.68104620000003,34.80000000000001],[-76.68063160000003,34.80000000000001],[-76.67799159999998,34.80000000000001],[-76.64999999999998,34.80000000000001],[-76.64999999999998,34.74919299999999],[-76.64999999999998,34.748948299999995],[-76.64999999999998,34.72500000000002],[-76.65920899999998,34.72500000000002],[-76.66074700000001,34.72500000000002],[-76.66110930000002,34.72500000000002],[-76.66119650000002,34.72500000000002],[-76.66211559999999,34.72500000000002],[-76.66396070000002,34.72500000000002],[-76.66415790000002,34.72500000000002],[-76.6641644,34.72500000000002],[-76.66419810000002,34.72500000000002],[-76.66431239999997,34.72500000000002],[-76.66449010000002,34.72500000000002],[-76.66701440000003,34.72500000000002],[-76.66707170000001,34.72500000000002],[-76.66816469999998,34.72500000000002],[-76.66828720000001,34.72500000000002],[-76.668293,34.72500000000002],[-76.66830599999997,34.72500000000002],[-76.66833309999998,34.72500000000002],[-76.66842860000003,34.72500000000002],[-76.66894780000001,34.72500000000002],[-76.66897290000003,34.72500000000002],[-76.66928109999998,34.72500000000002],[-76.6694761,34.72500000000002],[-76.66958090000003,34.72500000000002],[-76.66967849999997,34.72500000000002],[-76.66974629999999,34.72500000000002],[-76.66978319999998,34.72500000000002],[-76.67023749999998,34.72500000000002],[-76.67054230000002,34.72500000000002],[-76.6712751,34.72500000000002],[-76.67151139999999,34.72500000000002],[-76.67283370000001,34.72500000000002],[-76.67311640000003,34.72500000000002],[-76.67334260000001,34.72500000000002],[-76.67535140000001,34.72500000000002],[-76.67680080000002,34.72500000000002],[-76.67741960000001,34.72500000000002],[-76.6775644,34.72500000000002],[-76.67789049999999,34.72500000000002],[-76.68083580000001,34.72500000000002],[-76.68186709999998,34.72500000000002],[-76.6833992,34.72500000000002],[-76.68377779999997,34.72500000000002],[-76.68391830000002,34.72500000000002],[-76.68623960000002,34.72500000000002],[-76.68629429999999,34.72500000000002],[-76.6865211,34.72500000000002],[-76.68665879999998,34.72500000000002],[-76.68678619999997,34.72500000000002],[-76.68704150000002,34.72500000000002],[-76.68957319999998,34.72500000000002],[-76.69006730000001,34.72500000000002],[-76.69076189999998,34.72500000000002],[-76.69188550000001,34.72500000000002],[-76.6925496,34.72500000000002],[-76.6927796,34.72500000000002],[-76.6928196,34.72500000000002],[-76.6930304,34.72500000000002],[-76.69353360000002,34.72500000000002],[-76.69384639999998,34.72500000000002],[-76.69392190000002,34.72500000000002],[-76.69393589999999,34.72500000000002],[-76.69433709999998,34.72500000000002],[-76.69436889999997,34.72500000000002],[-76.69457879999999,34.72500000000002],[-76.69477699999999,34.72500000000002],[-76.69535300000001,34.72500000000002],[-76.69535439999999,34.72500000000002],[-76.69571560000003,34.72500000000002],[-76.6959314,34.72500000000002],[-76.69607789999998,34.72500000000002],[-76.6964782,34.72500000000002],[-76.69751230000003,34.72500000000002],[-76.70218249999999,34.72500000000002],[-76.70339489999998,34.72500000000002],[-76.70472960000001,34.72500000000002],[-76.70483730000001,34.72500000000002],[-76.7053343,34.72500000000002],[-76.70535539999997,34.72500000000002],[-76.70588659999999,34.72500000000002],[-76.70666549999999,34.72500000000002],[-76.70939659999999,34.72500000000002],[-76.70965489999998,34.72500000000002],[-76.70968499999998,34.72500000000002],[-76.71002470000002,34.72500000000002],[-76.71329809999997,34.72500000000002],[-76.71331070000002,34.72500000000002],[-76.7133394,34.72500000000002],[-76.71386569999999,34.72500000000002],[-76.71417919999999,34.72500000000002],[-76.71452649999998,34.72500000000002]]]}},{"type":"Feature","properties":{},"geometry":{"type":"Polygon","coordinates":[[[-76.63259499999998,34.72500000000002],[-76.64102680000002,34.72500000000002],[-76.64999999999998,34.72500000000002],[-76.64999999999998,34.748948299999995],[-76.64999999999998,34.74919299999999],[-76.64999999999998,34.80000000000001],[-76.63002740000002,34.80000000000001],[-76.6213641,34.80000000000001],[-76.62056610000002,34.80000000000001],[-76.6075085,34.80000000000001],[-76.6051688,34.80000000000001],[-76.60479329999998,34.80000000000001],[-76.57499999999999,34.80000000000001],[-76.57499999999999,34.78297739999999],[-76.57499999999999,34.78278030000001],[-76.57499999999999,34.78175390000001],[-76.57499999999999,34.7814793],[-76.57499999999999,34.78122000000002],[-76.57499999999999,34.780611799999974],[-76.57499999999999,34.7804266],[-76.57499999999999,34.77890020000001],[-76.57499999999999,34.776155800000026],[-76.57499999999999,34.77553640000002],[-76.57499999999999,34.7719103],[-76.57499999999999,34.76812769999998],[-76.57499999999999,34.76667739999999],[-76.57499999999999,34.76353210000002],[-76.57499999999999,34.76207160000001],[-76.57499999999999,34.76146779999999],[-76.57499999999999,34.76111659999998],[-76.57499999999999,34.760769100000005],[-76.57499999999999,34.75636320000001],[-76.57499999999999,34.75391139999999],[-76.57499999999999,34.74098559999999],[-76.57499999999999,34.73928710000001],[-76.57499999999999,34.73283670000001],[-76.57499999999999,34.73247839999999],[-76.57499999999999,34.72500000000002],[-76.57751789999998,34.72500000000002],[-76.58031840000001,34.72500000000002],[-76.580554,34.72500000000002],[-76.58245210000001,34.72500000000002],[-76.5831604,34.72500000000002],[-76.59208280000001,34.72500000000002],[-76.5932353,34.72500000000002],[-76.59334189999998,34.72500000000002],[-76.5937078,34.72500000000002],[-76.59529609999998,34.72500000000002],[-76.59572459999998,34.72500000000002],[-76.59588350000001,34.72500000000002],[-76.59688319999998,34.72500000000002],[-76.59774679999998,34.72500000000002],[-76.60219699999999,34.72500000000002],[-76.60745759999998,34.72500000000002],[-76.608202,34.72500000000002],[-76.60910810000001,34.72500000000002],[-76.61258830000003,34.72500000000002],[-76.6158102,34.72500000000002],[-76.61618199999998,34.72500000000002],[-76.61901879999999,34.72500000000002],[-76.6193202,34.72500000000002],[-76.61990159999999,34.72500000000002],[-76.6214488,34.72500000000002],[-76.62167720000002,34.72500000000002],[-76.62640349999998,34.72500000000002],[-76.62728129999999,34.72500000000002],[-76.62765739999998,34.72500000000002],[-76.62882960000002,34.72500000000002],[-76.62944169999997,34.72500000000002],[-76.62979339999998,34.72500000000002],[-76.63259499999998,34.72500000000002]]]}},{"type":"Feature","properties":{},"geometry":{"type":"Polygon","coordinates":[[[-76.57012329999998,34.72500000000002],[-76.57499999999999,34.72500000000002],[-76.57499999999999,34.73247839999999],[-76.57499999999999,34.73283670000001],[-76.57499999999999,34.73928710000001],[-76.57499999999999,34.74098559999999],[-76.57499999999999,34.75391139999999],[-76.57499999999999,34.75636320000001],[-76.57499999999999,34.760769100000005],[-76.57499999999999,34.76111659999998],[-76.57499999999999,34.76146779999999],[-76.57499999999999,34.76207160000001],[-76.57499999999999,34.76353210000002],[-76.57499999999999,34.76667739999999],[-76.57499999999999,34.76812769999998],[-76.57499999999999,34.7719103],[-76.57499999999999,34.77553640000002],[-76.57499999999999,34.776155800000026],[-76.57499999999999,34.77890020000001],[-76.57499999999999,34.7804266],[-76.57499999999999,34.780611799999974],[-76.57499999999999,34.78122000000002],[-76.57499999999999,34.7814793],[-76.57499999999999,34.78175390000001],[-76.57499999999999,34.78278030000001],[-76.57499999999999,34.78297739999999],[-76.57499999999999,34.80000000000001],[-76.56914130000001,34.80000000000001],[-76.56506109999998,34.80000000000001],[-76.56461560000002,34.80000000000001],[-76.56276380000003,34.80000000000001],[-76.5191911,34.80000000000001],[-76.51798910000002,34.80000000000001],[-76.5,34.80000000000001],[-76.5,34.798809800000015],[-76.5,34.79811489999997],[-76.5,34.79739139999998],[-76.5,34.79216969999999],[-76.5,34.791533300000026],[-76.5,34.78826290000001],[-76.5,34.78599830000002],[-76.5,34.773191699999984],[-76.5,34.772105599999975],[-76.5,34.76710379999997],[-76.5,34.76593120000001],[-76.5,34.76217860000003],[-76.5,34.7605188],[-76.5,34.759886300000005],[-76.5,34.75893189999999],[-76.5,34.7555605],[-76.5,34.74564170000002],[-76.5,34.742706999999996],[-76.5,34.74099719999998],[-76.5,34.73472529999998],[-76.5,34.73013129999998],[-76.5,34.72970620000001],[-76.5,34.728496199999995],[-76.5,34.72500000000002],[-76.50785109999998,34.72500000000002],[-76.51153979999998,34.72500000000002],[-76.51724439999998,34.72500000000002],[-76.5221656,34.72500000000002],[-76.52459750000003,34.72500000000002],[-76.52749799999998,34.72500000000002],[-76.53009960000003,34.72500000000002],[-76.53039410000002,34.72500000000002],[-76.54274049999998,34.72500000000002],[-76.54362359999999,34.72500000000002],[-76.55014,34.72500000000002],[-76.55045109999998,34.72500000000002],[-76.55141040000001,34.72500000000002],[-76.55185399999999,34.72500000000002],[-76.55357930000002,34.72500000000002],[-76.55461650000001,34.72500000000002],[-76.5553251,34.72500000000002],[-76.55571470000001,34.72500000000002],[-76.55586410000001,34.72500000000002],[-76.55813360000002,34.72500000000002],[-76.55853380000002,34.72500000000002],[-76.56015389999999,34.72500000000002],[-76.56042689999998,34.72500000000002],[-76.56385449999999,34.72500000000002],[-76.5639764,34.72500000000002],[-76.56423009999997,34.72500000000002],[-76.564393,34.72500000000002],[-76.56723729999999,34.72500000000002],[-76.56760980000001,34.72500000000002],[-76.56957720000003,34.72500000000002],[-76.57012329999998,34.72500000000002]]]}},{"type":"Feature","properties":{},"geometry":{"type":"Polygon","coordinates":[[[-77.35488889999999,34.5],[-77.35289890000001,34.5],[-77.33405269999997,34.5],[-77.32499999999999,34.5],[-77.27778419999999,34.5],[-77.27702160000001,34.5],[-77.25142240000002,34.5],[-77.25,34.5],[-77.25,34.51712520000001],[-77.25,34.517564600000014],[-77.25,34.5647065],[-77.25,34.573312199999975],[-77.25,34.57499999999999],[-77.24613069999998,34.57499999999999],[-77.24179950000001,34.57499999999999],[-77.23922010000001,34.57499999999999],[-77.2367117,34.57499999999999],[-77.2335979,34.57499999999999],[-77.23301950000001,34.57499999999999],[-77.23301950000001,34.57481919999998],[-77.23301950000001,34.52927349999999],[-77.23301950000001,34.52880759999999],[-77.23301950000001,34.495],[-77.35499999999999,34.495],[-77.35499999999999,34.5],[-77.35488889999999,34.5]]]}},{"type":"Feature","properties":{},"geometry":{"type":"Polygon","coordinates":[[[-77.33613559999998,34.57499999999999],[-77.335579,34.57499999999999],[-77.334967,34.57499999999999],[-77.32499999999999,34.57499999999999],[-77.32499999999999,34.553978099999995],[-77.32499999999999,34.55378830000001],[-77.32499999999999,34.55064199999998],[-77.32499999999999,34.55015070000002],[-77.32499999999999,34.549861899999996],[-77.32499999999999,34.5478023],[-77.32499999999999,34.5477449],[-77.32499999999999,34.54731709999999],[-77.32499999999999,34.547186599999975],[-77.32499999999999,34.5470565],[-77.32499999999999,34.54689259999998],[-77.32499999999999,34.54671350000001],[-77.32499999999999,34.543002100000024],[-77.32499999999999,34.5425444],[-77.32499999999999,34.5424132],[-77.32499999999999,34.5420618],[-77.32499999999999,34.53943400000003],[-77.32499999999999,34.53900279999999],[-77.32499999999999,34.53710109999997],[-77.32499999999999,34.536429199999986],[-77.32499999999999,34.5358377],[-77.32499999999999,34.5306286],[-77.32499999999999,34.52880950000002],[-77.32499999999999,34.52760569999998],[-77.32499999999999,34.52758669999997],[-77.32499999999999,34.525348199999996],[-77.32499999999999,34.52285760000001],[-77.32499999999999,34.521436800000004],[-77.32499999999999,34.51621540000002],[-77.32499999999999,34.50667900000002],[-77.32499999999999,34.504186800000014],[-77.32499999999999,34.5],[-77.33405269999997,34.5],[-77.35289890000001,34.5],[-77.35488889999999,34.5],[-77.35499999999999,34.5],[-77.35499999999999,34.57499999999999],[-77.33613559999998,34.57499999999999]]]}},{"type":"Feature","properties":{},"geometry":{"type":"Polygon","coordinates":[[[-77.27778419999999,34.5],[-77.32499999999999,34.5],[-77.32499999999999,34.504186800000014],[-77.32499999999999,34.50667900000002],[-77.32499999999999,34.51621540000002],[-77.32499999999999,34.521436800000004],[-77.32499999999999,34.52285760000001],[-77.32499999999999,34.525348199999996],[-77.32499999999999,34.52758669999997],[-77.32499999999999,34.52760569999998],[-77.32499999999999,34.52880950000002],[-77.32499999999999,34.5306286],[-77.32499999999999,34.5358377],[-77.32499999999999,34.536429199999986],[-77.32499999999999,34.53710109999997],[-77.32499999999999,34.53900279999999],[-77.32499999999999,34.53943400000003],[-77.32499999999999,34.5420618],[-77.32499999999999,34.5424132],[-77.32499999999999,34.5425444],[-77.32499999999999,34.543002100000024],[-77.32499999999999,34.54671350000001],[-77.32499999999999,34.54689259999998],[-77.32499999999999,34.5470565],[-77.32499999999999,34.547186599999975],[-77.32499999999999,34.54731709999999],[-77.32499999999999,34.5477449],[-77.32499999999999,34.5478023],[-77.32499999999999,34.549861899999996],[-77.32499999999999,34.55015070000002],[-77.32499999999999,34.55064199999998],[-77.32499999999999,34.55378830000001],[-77.32499999999999,34.553978099999995],[-77.32499999999999,34.57499999999999],[-77.27854730000001,34.57499999999999],[-77.27561730000002,34.57499999999999],[-77.27193679999999,34.57499999999999],[-77.27007459999999,34.57499999999999],[-77.26981660000001,34.57499999999999],[-77.26937700000002,34.57499999999999],[-77.26915639999999,34.57499999999999],[-77.26895610000003,34.57499999999999],[-77.26841000000002,34.57499999999999],[-77.2623307,34.57499999999999],[-77.26208170000001,34.57499999999999],[-77.26142190000002,34.57499999999999],[-77.25845279999999,34.57499999999999],[-77.25739850000002,34.57499999999999],[-77.25520490000002,34.57499999999999],[-77.25238109999998,34.57499999999999],[-77.25,34.57499999999999],[-77.25,34.573312199999975],[-77.25,34.5647065],[-77.25,34.517564600000014],[-77.25,34.51712520000001],[-77.25,34.5],[-77.25142240000002,34.5],[-77.27702160000001,34.5],[-77.27778419999999,34.5]]]}},{"type":"Feature","properties":{},"geometry":{"type":"Polygon","coordinates":[[[-77.35365789999997,34.64999999999998],[-77.3437391,34.64999999999998],[-77.3430773,34.64999999999998],[-77.32629170000001,34.64999999999998],[-77.32499999999999,34.64999999999998],[-77.32499999999999,34.57499999999999],[-77.334967,34.57499999999999],[-77.335579,34.57499999999999],[-77.33613559999998,34.57499999999999],[-77.35499999999999,34.57499999999999],[-77.35499999999999,34.64999999999998],[-77.35365789999997,34.64999999999998]]]}},{"type":"Feature","properties":{},"geometry":{"type":"Polygon","coordinates":[[[-77.27007459999999,34.57499999999999],[-77.27193679999999,34.57499999999999],[-77.27561730000002,34.57499999999999],[-77.27854730000001,34.57499999999999],[-77.32499999999999,34.57499999999999],[-77.32499999999999,34.64999999999998],[-77.25,34.64999999999998],[-77.25,34.63548050000003],[-77.25,34.596061299999974],[-77.25,34.594614999999976],[-77.25,34.59259420000001],[-77.25,34.592293900000016],[-77.25,34.5919768],[-77.25,34.5911198],[-77.25,34.590934800000014],[-77.25,34.590770099999986],[-77.25,34.59058959999999],[-77.25,34.588919299999986],[-77.25,34.588559799999985],[-77.25,34.58674350000001],[-77.25,34.58625669999998],[-77.25,34.584677899999974],[-77.25,34.583236699999986],[-77.25,34.58297140000002],[-77.25,34.58237939999998],[-77.25,34.581851700000016],[-77.25,34.581251399999985],[-77.25,34.58044239999998],[-77.25,34.579387],[-77.25,34.57499999999999],[-77.25238109999998,34.57499999999999],[-77.25520490000002,34.57499999999999],[-77.25739850000002,34.57499999999999],[-77.25845279999999,34.57499999999999],[-77.26142190000002,34.57499999999999],[-77.26208170000001,34.57499999999999],[-77.2623307,34.57499999999999],[-77.26841000000002,34.57499999999999],[-77.26895610000003,34.57499999999999],[-77.26915639999999,34.57499999999999],[-77.26937700000002,34.57499999999999],[-77.26981660000001,34.57499999999999],[-77.27007459999999,34.57499999999999]]]}},{"type":"Feature","properties":{},"geometry":{"type":"Polygon","coordinates":[[[-77.24613069999998,34.57499999999999],[-77.25,34.57499999999999],[-77.25,34.579387],[-77.25,34.58044239999998],[-77.25,34.581251399999985],[-77.25,34.581851700000016],[-77.25,34.58237939999998],[-77.25,34.58297140000002],[-77.25,34.583236699999986],[-77.25,34.584677899999974],[-77.25,34.58625669999998],[-77.25,34.58674350000001],[-77.25,34.588559799999985],[-77.25,34.588919299999986],[-77.25,34.59058959999999],[-77.25,34.590770099999986],[-77.25,34.590934800000014],[-77.25,34.5911198],[-77.25,34.5919768],[-77.25,34.592293900000016],[-77.25,34.59259420000001],[-77.25,34.594614999999976],[-77.25,34.596061299999974],[-77.25,34.63548050000003],[-77.25,34.64999999999998],[-77.2047478,34.64999999999998],[-77.1825493,34.64999999999998],[-77.18174140000002,34.64999999999998],[-77.17500000000001,34.64999999999998],[-77.17500000000001,34.64966759999999],[-77.17500000000001,34.6474862],[-77.17500000000001,34.64698370000002],[-77.17500000000001,34.64674179999997],[-77.17500000000001,34.6464575],[-77.17500000000001,34.6463038],[-77.17500000000001,34.64615309999999],[-77.17500000000001,34.64579379999998],[-77.17500000000001,34.64341910000002],[-77.17500000000001,34.6412095],[-77.17500000000001,34.640847699999995],[-77.17500000000001,34.640109800000005],[-77.17500000000001,34.639244700000006],[-77.17500000000001,34.63895600000001],[-77.17500000000001,34.638649699999974],[-77.17500000000001,34.635702700000024],[-77.17500000000001,34.63500570000002],[-77.17500000000001,34.62811599999998],[-77.17500000000001,34.6280481],[-77.17500000000001,34.62777440000002],[-77.17500000000001,34.62763960000001],[-77.17500000000001,34.6273137],[-77.17500000000001,34.62705],[-77.17500000000001,34.62609309999999],[-77.17500000000001,34.62340230000001],[-77.17500000000001,34.623111300000005],[-77.17500000000001,34.62176199999999],[-77.17500000000001,34.62164469999999],[-77.17500000000001,34.62140290000002],[-77.17500000000001,34.619776],[-77.17500000000001,34.61968680000001],[-77.17500000000001,34.61955649999999],[-77.17500000000001,34.613340100000016],[-77.17500000000001,34.61248740000002],[-77.17500000000001,34.611286699999994],[-77.17500000000001,34.60760499999998],[-77.17500000000001,34.60029079999998],[-77.17500000000001,34.58864319999998],[-77.17500000000001,34.57499999999999],[-77.20189260000001,34.57499999999999],[-77.23198050000002,34.57499999999999],[-77.23301950000001,34.57499999999999],[-77.2335979,34.57499999999999],[-77.2367117,34.57499999999999],[-77.23922010000001,34.57499999999999],[-77.24179950000001,34.57499999999999],[-77.24613069999998,34.57499999999999]]]}},{"type":"Feature","properties":{},"geometry":{"type":"Polygon","coordinates":[[[-77.14002579999999,34.57499999999999],[-77.17500000000001,34.57499999999999],[-77.17500000000001,34.58864319999998],[-77.17500000000001,34.60029079999998],[-77.17500000000001,34.60760499999998],[-77.17500000000001,34.611286699999994],[-77.17500000000001,34.61248740000002],[-77.17500000000001,34.613340100000016],[-77.17500000000001,34.61955649999999],[-77.17500000000001,34.61968680000001],[-77.17500000000001,34.619776],[-77.17500000000001,34.62140290000002],[-77.17500000000001,34.62164469999999],[-77.17500000000001,34.62176199999999],[-77.17500000000001,34.623111300000005],[-77.17500000000001,34.62340230000001],[-77.17500000000001,34.62609309999999],[-77.17500000000001,34.62705],[-77.17500000000001,34.6273137],[-77.17500000000001,34.62763960000001],[-77.17500000000001,34.62777440000002],[-77.17500000000001,34.6280481],[-77.17500000000001,34.62811599999998],[-77.17500000000001,34.63500570000002],[-77.17500000000001,34.635702700000024],[-77.17500000000001,34.638649699999974],[-77.17500000000001,34.63895600000001],[-77.17500000000001,34.639244700000006],[-77.17500000000001,34.640109800000005],[-77.17500000000001,34.640847699999995],[-77.17500000000001,34.6412095],[-77.17500000000001,34.64341910000002],[-77.17500000000001,34.64579379999998],[-77.17500000000001,34.64615309999999],[-77.17500000000001,34.6463038],[-77.17500000000001,34.6464575],[-77.17500000000001,34.64674179999997],[-77.17500000000001,34.64698370000002],[-77.17500000000001,34.6474862],[-77.17500000000001,34.64966759999999],[-77.17500000000001,34.64999999999998],[-77.173472,34.64999999999998],[-77.16977370000001,34.64999999999998],[-77.1694114,34.64999999999998],[-77.1692701,34.64999999999998],[-77.1690476,34.64999999999998],[-77.16878609999998,34.64999999999998],[-77.16853579999997,34.64999999999998],[-77.16774420000002,34.64999999999998],[-77.16723459999997,34.64999999999998],[-77.16498410000003,34.64999999999998],[-77.16442890000002,34.64999999999998],[-77.16399200000001,34.64999999999998],[-77.1623717,34.64999999999998],[-77.15805110000002,34.64999999999998],[-77.15359719999998,34.64999999999998],[-77.15273819999999,34.64999999999998],[-77.14859799999999,34.64999999999998],[-77.14813659999999,34.64999999999998],[-77.1463756,34.64999999999998],[-77.1450491,34.64999999999998],[-77.14473290000001,34.64999999999998],[-77.14441729999999,34.64999999999998],[-77.14383939999999,34.64999999999998],[-77.1430704,34.64999999999998],[-77.14280659999997,34.64999999999998],[-77.13346949999999,34.64999999999998],[-77.13159159999998,34.64999999999998],[-77.13024139999999,34.64999999999998],[-77.12951829999997,34.64999999999998],[-77.12794919999999,34.64999999999998],[-77.12069789999998,34.64999999999998],[-77.11908460000001,34.64999999999998],[-77.11608760000001,34.64999999999998],[-77.11598629999997,34.64999999999998],[-77.1132288,34.64999999999998],[-77.1121374,34.64999999999998],[-77.1112607,34.64999999999998],[-77.1086636,34.64999999999998],[-77.10847749999999,34.64999999999998],[-77.1076941,34.64999999999998],[-77.10700059999999,34.64999999999998],[-77.10676319999999,34.64999999999998],[-77.1064996,34.64999999999998],[-77.10618820000002,34.64999999999998],[-77.10607649999997,34.64999999999998],[-77.10597849999999,34.64999999999998],[-77.1059252,34.64999999999998],[-77.10540809999998,34.64999999999998],[-77.10507109999998,34.64999999999998],[-77.1047896,34.64999999999998],[-77.1046177,34.64999999999998],[-77.10439489999999,34.64999999999998],[-77.10420049999999,34.64999999999998],[-77.10405930000002,34.64999999999998],[-77.10394230000003,34.64999999999998],[-77.10331509999997,34.64999999999998],[-77.1030973,34.64999999999998],[-77.10299370000001,34.64999999999998],[-77.1029906,34.64999999999998],[-77.1026683,34.64999999999998],[-77.10251740000001,34.64999999999998],[-77.10000000000002,34.64999999999998],[-77.10000000000002,34.64938009999997],[-77.10000000000002,34.64907670000002],[-77.10000000000002,34.646865100000014],[-77.10000000000002,34.646651899999995],[-77.10000000000002,34.646148100000005],[-77.10000000000002,34.642332599999975],[-77.10000000000002,34.641801999999984],[-77.10000000000002,34.64150310000002],[-77.10000000000002,34.64062259999997],[-77.10000000000002,34.64051189999998],[-77.10000000000002,34.6404235],[-77.10000000000002,34.640357300000005],[-77.10000000000002,34.64028250000001],[-77.10000000000002,34.63974480000002],[-77.10000000000002,34.63959390000002],[-77.10000000000002,34.639451699999995],[-77.10000000000002,34.63936560000002],[-77.10000000000002,34.6376396],[-77.10000000000002,34.637263399999995],[-77.10000000000002,34.63511569999997],[-77.10000000000002,34.63343739999999],[-77.10000000000002,34.63330209999998],[-77.10000000000002,34.63325459999999],[-77.10000000000002,34.63275119999997],[-77.10000000000002,34.632275100000015],[-77.10000000000002,34.631606999999974],[-77.10000000000002,34.630232999999976],[-77.10000000000002,34.62946820000002],[-77.10000000000002,34.62669219999998],[-77.10000000000002,34.60696089999999],[-77.10000000000002,34.588673099999994],[-77.10000000000002,34.588295800000026],[-77.10000000000002,34.57499999999999],[-77.13399520000002,34.57499999999999],[-77.13930729999998,34.57499999999999],[-77.14002579999999,34.57499999999999]]]}},{"type":"Feature","properties":{},"geometry":{"type":"Polygon","coordinates":[[[-77.06951889999999,34.57499999999999],[-77.10000000000002,34.57499999999999],[-77.10000000000002,34.588295800000026],[-77.10000000000002,34.588673099999994],[-77.10000000000002,34.60696089999999],[-77.10000000000002,34.62669219999998],[-77.10000000000002,34.62946820000002],[-77.10000000000002,34.630232999999976],[-77.10000000000002,34.631606999999974],[-77.10000000000002,34.632275100000015],[-77.10000000000002,34.63275119999997],[-77.10000000000002,34.63325459999999],[-77.10000000000002,34.63330209999998],[-77.10000000000002,34.63511569999997],[-77.10000000000002,34.637263399999995],[-77.10000000000002,34.6376396],[-77.10000000000002,34.63936560000002],[-77.10000000000002,34.639451699999995],[-77.10000000000002,34.63959390000002],[-77.10000000000002,34.63974480000002],[-77.10000000000002,34.64028250000001],[-77.10000000000002,34.640357300000005],[-77.10000000000002,34.6404235],[-77.10000000000002,34.64051189999998],[-77.10000000000002,34.64062259999997],[-77.10000000000002,34.64150310000002],[-77.10000000000002,34.641801999999984],[-77.10000000000002,34.642332599999975],[-77.10000000000002,34.646148100000005],[-77.10000000000002,34.646651899999995],[-77.10000000000002,34.646865100000014],[-77.10000000000002,34.64907670000002],[-77.10000000000002,34.64938009999997],[-77.10000000000002,34.64999999999998],[-77.09977959999998,34.64999999999998],[-77.09934800000002,34.64999999999998],[-77.09835099999998,34.64999999999998],[-77.09806350000002,34.64999999999998],[-77.09702399999998,34.64999999999998],[-77.09639720000001,34.64999999999998],[-77.09590259999999,34.64999999999998],[-77.0952155,34.64999999999998],[-77.09502930000002,34.64999999999998],[-77.0949728,34.64999999999998],[-77.09456410000001,34.64999999999998],[-77.09456360000001,34.64999999999998],[-77.09046330000001,34.64999999999998],[-77.0740874,34.64999999999998],[-77.07257729999998,34.64999999999998],[-77.07082780000002,34.64999999999998],[-77.069974,34.64999999999998],[-77.06506000000002,34.64999999999998],[-77.06067100000001,34.64999999999998],[-77.05405680000001,34.64999999999998],[-77.05152090000001,34.64999999999998],[-77.04695959999998,34.64999999999998],[-77.02499999999998,34.64999999999998],[-77.02499999999998,34.6101759],[-77.02499999999998,34.60979550000002],[-77.02499999999998,34.590011600000025],[-77.02499999999998,34.57499999999999],[-77.0481062,34.57499999999999],[-77.06951889999999,34.57499999999999]]]}},{"type":"Feature","properties":{},"geometry":{"type":"Polygon","coordinates":[[[-77.32499999999999,34.72500000000002],[-77.32499999999999,34.64999999999998],[-77.3430773,34.64999999999998],[-77.3437391,34.64999999999998],[-77.35365789999997,34.64999999999998],[-77.35499999999999,34.64999999999998],[-77.35499999999999,34.72500000000002],[-77.32499999999999,34.72500000000002]]]}},{"type":"Feature","properties":{},"geometry":{"type":"Polygon","coordinates":[[[-77.1114116,34.72500000000002],[-77.10716430000002,34.72500000000002],[-77.10000000000002,34.72500000000002],[-77.10000000000002,34.721768999999995],[-77.10000000000002,34.71933480000001],[-77.10000000000002,34.71690109999997],[-77.10000000000002,34.70308699999998],[-77.10000000000002,34.6840785],[-77.10000000000002,34.678890000000024],[-77.10000000000002,34.677910999999995],[-77.10000000000002,34.677723000000015],[-77.10000000000002,34.67420069999997],[-77.10000000000002,34.67388940000001],[-77.10000000000002,34.67364509999999],[-77.10000000000002,34.67355550000002],[-77.10000000000002,34.673394099999996],[-77.10000000000002,34.67334770000002],[-77.10000000000002,34.67318690000002],[-77.10000000000002,34.6729972],[-77.10000000000002,34.6729512],[-77.10000000000002,34.67271549999998],[-77.10000000000002,34.67215169999997],[-77.10000000000002,34.66965110000001],[-77.10000000000002,34.6696402],[-77.10000000000002,34.66752700000001],[-77.10000000000002,34.66705289999999],[-77.10000000000002,34.6658549],[-77.10000000000002,34.6652383],[-77.10000000000002,34.66434800000002],[-77.10000000000002,34.66100110000002],[-77.10000000000002,34.65944919999998],[-77.10000000000002,34.658660399999974],[-77.10000000000002,34.65682220000002],[-77.10000000000002,34.65673429999998],[-77.10000000000002,34.65540329999999],[-77.10000000000002,34.65473079999998],[-77.10000000000002,34.65445549999998],[-77.10000000000002,34.6531966],[-77.10000000000002,34.65292840000001],[-77.10000000000002,34.6527557],[-77.10000000000002,34.6525613],[-77.10000000000002,34.65223359999999],[-77.10000000000002,34.65219209999998],[-77.10000000000002,34.65205630000003],[-77.10000000000002,34.65187359999999],[-77.10000000000002,34.64999999999998],[-77.10251740000001,34.64999999999998],[-77.1026683,34.64999999999998],[-77.1029906,34.64999999999998],[-77.10299370000001,34.64999999999998],[-77.1030973,34.64999999999998],[-77.10331509999997,34.64999999999998],[-77.10394230000003,34.64999999999998],[-77.10405930000002,34.64999999999998],[-77.10420049999999,34.64999999999998],[-77.10439489999999,34.64999999999998],[-77.1046177,34.64999999999998],[-77.1047896,34.64999999999998],[-77.10507109999998,34.64999999999998],[-77.10540809999998,34.64999999999998],[-77.1059252,34.64999999999998],[-77.10597849999999,34.64999999999998],[-77.10607649999997,34.64999999999998],[-77.10618820000002,34.64999999999998],[-77.1064996,34.64999999999998],[-77.10676319999999,34.64999999999998],[-77.10700059999999,34.64999999999998],[-77.1076941,34.64999999999998],[-77.10847749999999,34.64999999999998],[-77.1086636,34.64999999999998],[-77.1112607,34.64999999999998],[-77.1121374,34.64999999999998],[-77.1132288,34.64999999999998],[-77.11598629999997,34.64999999999998],[-77.11608760000001,34.64999999999998],[-77.11908460000001,34.64999999999998],[-77.12069789999998,34.64999999999998],[-77.12794919999999,34.64999999999998],[-77.12951829999997,34.64999999999998],[-77.13024139999999,34.64999999999998],[-77.13159159999998,34.64999999999998],[-77.13346949999999,34.64999999999998],[-77.14280659999997,34.64999999999998],[-77.1430704,34.64999999999998],[-77.14383939999999,34.64999999999998],[-77.14441729999999,34.64999999999998],[-77.14473290000001,34.64999999999998],[-77.1450491,34.64999999999998],[-77.1463756,34.64999999999998],[-77.14813659999999,34.64999999999998],[-77.14859799999999,34.64999999999998],[-77.15273819999999,34.64999999999998],[-77.15359719999998,34.64999999999998],[-77.15805110000002,34.64999999999998],[-77.1623717,34.64999999999998],[-77.16399200000001,34.64999999999998],[-77.16442890000002,34.64999999999998],[-77.16498410000003,34.64999999999998],[-77.16723459999997,34.64999999999998],[-77.16774420000002,34.64999999999998],[-77.16853579999997,34.64999999999998],[-77.16878609999998,34.64999999999998],[-77.1690476,34.64999999999998],[-77.1692701,34.64999999999998],[-77.1694114,34.64999999999998],[-77.16977370000001,34.64999999999998],[-77.173472,34.64999999999998],[-77.17500000000001,34.64999999999998],[-77.17500000000001,34.665076399999975],[-77.17500000000001,34.72500000000002],[-77.12926750000003,34.72500000000002],[-77.1114116,34.72500000000002]]]}},{"type":"Feature","properties":{},"geometry":{"type":"Polygon","coordinates":[[[-77.09977959999998,34.64999999999998],[-77.10000000000002,34.64999999999998],[-77.10000000000002,34.65187359999999],[-77.10000000000002,34.65205630000003],[-77.10000000000002,34.65219209999998],[-77.10000000000002,34.65223359999999],[-77.10000000000002,34.6525613],[-77.10000000000002,34.6527557],[-77.10000000000002,34.65292840000001],[-77.10000000000002,34.6531966],[-77.10000000000002,34.65445549999998],[-77.10000000000002,34.65473079999998],[-77.10000000000002,34.65540329999999],[-77.10000000000002,34.65673429999998],[-77.10000000000002,34.65682220000002],[-77.10000000000002,34.658660399999974],[-77.10000000000002,34.65944919999998],[-77.10000000000002,34.66100110000002],[-77.10000000000002,34.66434800000002],[-77.10000000000002,34.6652383],[-77.10000000000002,34.6658549],[-77.10000000000002,34.66705289999999],[-77.10000000000002,34.66752700000001],[-77.10000000000002,34.6696402],[-77.10000000000002,34.66965110000001],[-77.10000000000002,34.67215169999997],[-77.10000000000002,34.67271549999998],[-77.10000000000002,34.6729512],[-77.10000000000002,34.6729972],[-77.10000000000002,34.67318690000002],[-77.10000000000002,34.67334770000002],[-77.10000000000002,34.673394099999996],[-77.10000000000002,34.67355550000002],[-77.10000000000002,34.67364509999999],[-77.10000000000002,34.67388940000001],[-77.10000000000002,34.67420069999997],[-77.10000000000002,34.677723000000015],[-77.10000000000002,34.677910999999995],[-77.10000000000002,34.678890000000024],[-77.10000000000002,34.6840785],[-77.10000000000002,34.70308699999998],[-77.10000000000002,34.71690109999997],[-77.10000000000002,34.71933480000001],[-77.10000000000002,34.721768999999995],[-77.10000000000002,34.72500000000002],[-77.08595689999999,34.72500000000002],[-77.0838622,34.72500000000002],[-77.05676269999998,34.72500000000002],[-77.02997219999997,34.72500000000002],[-77.02499999999998,34.72500000000002],[-77.02499999999998,34.7183139],[-77.02499999999998,34.68875589999999],[-77.02499999999998,34.68212199999999],[-77.02499999999998,34.68198610000002],[-77.02499999999998,34.68184209999998],[-77.02499999999998,34.6812185],[-77.02499999999998,34.67924110000001],[-77.02499999999998,34.673539500000004],[-77.02499999999998,34.67288020000001],[-77.02499999999998,34.6647342],[-77.02499999999998,34.66222349999998],[-77.02499999999998,34.65943090000002],[-77.02499999999998,34.65768459999998],[-77.02499999999998,34.65579700000001],[-77.02499999999998,34.64999999999998],[-77.04695959999998,34.64999999999998],[-77.05152090000001,34.64999999999998],[-77.05405680000001,34.64999999999998],[-77.06067100000001,34.64999999999998],[-77.06506000000002,34.64999999999998],[-77.069974,34.64999999999998],[-77.07082780000002,34.64999999999998],[-77.07257729999998,34.64999999999998],[-77.0740874,34.64999999999998],[-77.09046330000001,34.64999999999998],[-77.09456360000001,34.64999999999998],[-77.09456410000001,34.64999999999998],[-77.0949728,34.64999999999998],[-77.09502930000002,34.64999999999998],[-77.0952155,34.64999999999998],[-77.09590259999999,34.64999999999998],[-77.09639720000001,34.64999999999998],[-77.09702399999998,34.64999999999998],[-77.09806350000002,34.64999999999998],[-77.09835099999998,34.64999999999998],[-77.09934800000002,34.64999999999998],[-77.09977959999998,34.64999999999998]]]}},{"type":"Feature","properties":{},"geometry":{"type":"Polygon","coordinates":[[[-77.02499999999998,34.64999999999998],[-77.02499999999998,34.65579700000001],[-77.02499999999998,34.65768459999998],[-77.02499999999998,34.65943090000002],[-77.02499999999998,34.66222349999998],[-77.02499999999998,34.6647342],[-77.02499999999998,34.67288020000001],[-77.02499999999998,34.673539500000004],[-77.02499999999998,34.67924110000001],[-77.02499999999998,34.6812185],[-77.02499999999998,34.68184209999998],[-77.02499999999998,34.68198610000002],[-77.02499999999998,34.68212199999999],[-77.02499999999998,34.68875589999999],[-77.02499999999998,34.7183139],[-77.02499999999998,34.72500000000002],[-77.02453830000002,34.72500000000002],[-76.94999999999999,34.72500000000002],[-76.94999999999999,34.71130790000001],[-76.94999999999999,34.70921199999998],[-76.94999999999999,34.709096699999975],[-76.94999999999999,34.70909360000002],[-76.94999999999999,34.70899700000001],[-76.94999999999999,34.708872299999996],[-76.94999999999999,34.70873690000002],[-76.94999999999999,34.708586000000025],[-76.94999999999999,34.708574899999974],[-76.94999999999999,34.7085199],[-76.94999999999999,34.708184800000026],[-76.94999999999999,34.707819700000016],[-76.94999999999999,34.696661000000006],[-76.94999999999999,34.6860097],[-76.94999999999999,34.685205199999984],[-76.94999999999999,34.67868379999999],[-76.94999999999999,34.676149899999984],[-76.94999999999999,34.67569950000001],[-76.94999999999999,34.674988299999995],[-76.94999999999999,34.673796400000015],[-76.94999999999999,34.672396400000025],[-76.94999999999999,34.67064240000002],[-76.94999999999999,34.667726800000025],[-76.94999999999999,34.664732500000014],[-76.94999999999999,34.64999999999998],[-77.02499999999998,34.64999999999998]]]}},{"type":"Feature","properties":{},"geometry":{"type":"Polygon","coordinates":[[[-76.94999999999999,34.64999999999998],[-76.94999999999999,34.664732500000014],[-76.94999999999999,34.667726800000025],[-76.94999999999999,34.67064240000002],[-76.94999999999999,34.672396400000025],[-76.94999999999999,34.673796400000015],[-76.94999999999999,34.674988299999995],[-76.94999999999999,34.67569950000001],[-76.94999999999999,34.676149899999984],[-76.94999999999999,34.67868379999999],[-76.94999999999999,34.685205199999984],[-76.94999999999999,34.6860097],[-76.94999999999999,34.696661000000006],[-76.94999999999999,34.707819700000016],[-76.94999999999999,34.708184800000026],[-76.94999999999999,34.7085199],[-76.94999999999999,34.70854700000001],[-76.94999999999999,34.708574899999974],[-76.94999999999999,34.70873690000002],[-76.94999999999999,34.708872299999996],[-76.94999999999999,34.70899700000001],[-76.94999999999999,34.709096699999975],[-76.94999999999999,34.7090996],[-76.94999999999999,34.70921199999998],[-76.94999999999999,34.71130790000001],[-76.94999999999999,34.72500000000002],[-76.94869740000001,34.72500000000002],[-76.94536929999998,34.72500000000002],[-76.90413210000003,34.72500000000002],[-76.9016479,34.72500000000002],[-76.8982924,34.72500000000002],[-76.89464240000001,34.72500000000002],[-76.89017910000001,34.72500000000002],[-76.8885017,34.72500000000002],[-76.88564639999998,34.72500000000002],[-76.87738280000002,34.72500000000002],[-76.875,34.72500000000002],[-76.875,34.724888299999975],[-76.875,34.72330260000001],[-76.875,34.72322129999998],[-76.875,34.72303119999998],[-76.875,34.72290509999999],[-76.875,34.72277939999998],[-76.875,34.722605999999985],[-76.875,34.722512300000005],[-76.875,34.72158460000003],[-76.875,34.69193799999999],[-76.875,34.68732019999999],[-76.875,34.686988499999984],[-76.875,34.685392200000024],[-76.875,34.684687800000006],[-76.875,34.68380719999999],[-76.875,34.682738099999995],[-76.875,34.67997029999998],[-76.875,34.66678239999999],[-76.875,34.64999999999998],[-76.94999999999999,34.64999999999998]]]}},{"type":"Feature","properties":{},"geometry":{"type":"Polygon","coordinates":[[[-76.82123769999998,34.64999999999998],[-76.875,34.64999999999998],[-76.875,34.66678239999999],[-76.875,34.67997029999998],[-76.875,34.682738099999995],[-76.875,34.68380719999999],[-76.875,34.684687800000006],[-76.875,34.685392200000024],[-76.875,34.686988499999984],[-76.875,34.68732019999999],[-76.875,34.69193799999999],[-76.875,34.72158460000003],[-76.875,34.722512300000005],[-76.875,34.722605999999985],[-76.875,34.72277939999998],[-76.875,34.72290509999999],[-76.875,34.72303119999998],[-76.875,34.72322129999998],[-76.875,34.72330260000001],[-76.875,34.724888299999975],[-76.875,34.72500000000002],[-76.8736753,34.72500000000002],[-76.87021440000001,34.72500000000002],[-76.86989219999998,34.72500000000002],[-76.8637526,34.72500000000002],[-76.86229830000002,34.72500000000002],[-76.86097089999998,34.72500000000002],[-76.85795680000001,34.72500000000002],[-76.8359739,34.72500000000002],[-76.83565679999998,34.72500000000002],[-76.8215907,34.72500000000002],[-76.81700009999997,34.72500000000002],[-76.81168430000002,34.72500000000002],[-76.80987399999998,34.72500000000002],[-76.80821479999997,34.72500000000002],[-76.80494879999998,34.72500000000002],[-76.80461209999999,34.72500000000002],[-76.80335409999998,34.72500000000002],[-76.80305170000003,34.72500000000002],[-76.80265989999998,34.72500000000002],[-76.80222520000001,34.72500000000002],[-76.80119430000002,34.72500000000002],[-76.80000000000001,34.72500000000002],[-76.80000000000001,34.72427759999999],[-76.80000000000001,34.722857799999986],[-76.80000000000001,34.72261309999999],[-76.80000000000001,34.72250500000001],[-76.80000000000001,34.72233110000002],[-76.80000000000001,34.7222476],[-76.80000000000001,34.72212639999998],[-76.80000000000001,34.72205339999999],[-76.80000000000001,34.72197169999998],[-76.80000000000001,34.721142999999984],[-76.80000000000001,34.720552699999985],[-76.80000000000001,34.7033644],[-76.80000000000001,34.70240230000002],[-76.80000000000001,34.696918900000014],[-76.80000000000001,34.69518629999999],[-76.80000000000001,34.694949699999995],[-76.80000000000001,34.69386420000001],[-76.80000000000001,34.692205100000024],[-76.80000000000001,34.69033940000003],[-76.80000000000001,34.687601700000016],[-76.80000000000001,34.684119099999975],[-76.80000000000001,34.66883230000002],[-76.80000000000001,34.64999999999998],[-76.81106569999997,34.64999999999998],[-76.82123769999998,34.64999999999998]]]}},{"type":"Feature","properties":{},"geometry":{"type":"Polygon","coordinates":[[[-77.32499999999999,34.80000000000001],[-77.32499999999999,34.72500000000002],[-77.35499999999999,34.72500000000002],[-77.35499999999999,34.80000000000001],[-77.32499999999999,34.80000000000001]]]}},{"type":"Feature","properties":{},"geometry":{"type":"Polygon","coordinates":[[[-76.94536929999998,34.72500000000002],[-76.94869740000001,34.72500000000002],[-76.94999999999999,34.72500000000002],[-76.94999999999999,34.72587629999998],[-76.94999999999999,34.72661249999999],[-76.94999999999999,34.7300257],[-76.94999999999999,34.80000000000001],[-76.875,34.80000000000001],[-76.875,34.7266664],[-76.875,34.72500000000002],[-76.87738280000002,34.72500000000002],[-76.88564639999998,34.72500000000002],[-76.8885017,34.72500000000002],[-76.89017910000001,34.72500000000002],[-76.89464240000001,34.72500000000002],[-76.8982924,34.72500000000002],[-76.9016479,34.72500000000002],[-76.90413210000003,34.72500000000002],[-76.94536929999998,34.72500000000002]]]}},{"type":"Feature","properties":{},"geometry":{"type":"Polygon","coordinates":[[[-76.875,34.7266664],[-76.875,34.80000000000001],[-76.80000000000001,34.80000000000001],[-76.80000000000001,34.7636248],[-76.80000000000001,34.761141099999975],[-76.80000000000001,34.734106999999995],[-76.80000000000001,34.729833799999994],[-76.80000000000001,34.7296346],[-76.80000000000001,34.72828879999997],[-76.80000000000001,34.72808650000002],[-76.80000000000001,34.7252646],[-76.80000000000001,34.72500000000002],[-76.80119430000002,34.72500000000002],[-76.80222520000001,34.72500000000002],[-76.80265989999998,34.72500000000002],[-76.80305170000003,34.72500000000002],[-76.80335409999998,34.72500000000002],[-76.80461209999999,34.72500000000002],[-76.80494879999998,34.72500000000002],[-76.80821479999997,34.72500000000002],[-76.80987399999998,34.72500000000002],[-76.81168430000002,34.72500000000002],[-76.81700009999997,34.72500000000002],[-76.8215907,34.72500000000002],[-76.83565679999998,34.72500000000002],[-76.8359739,34.72500000000002],[-76.86989219999998,34.72500000000002],[-76.87021440000001,34.72500000000002],[-76.8736753,34.72500000000002],[-76.875,34.72500000000002],[-76.875,34.7266664]]]}},{"type":"Feature","properties":{},"geometry":{"type":"Polygon","coordinates":[[[-76.79844059999999,34.72500000000002],[-76.80000000000001,34.72500000000002],[-76.80000000000001,34.7252646],[-76.80000000000001,34.72808650000002],[-76.80000000000001,34.72828879999997],[-76.80000000000001,34.7296346],[-76.80000000000001,34.729833799999994],[-76.80000000000001,34.734106999999995],[-76.80000000000001,34.761141099999975],[-76.80000000000001,34.7636248],[-76.80000000000001,34.80000000000001],[-76.78628400000002,34.80000000000001],[-76.72520739999999,34.80000000000001],[-76.72500000000002,34.80000000000001],[-76.72500000000002,34.799238600000024],[-76.72500000000002,34.7983213],[-76.72500000000002,34.79763809999997],[-76.72500000000002,34.79677800000002],[-76.72500000000002,34.79655309999998],[-76.72500000000002,34.794466399999976],[-76.72500000000002,34.78998710000002],[-76.72500000000002,34.78652169999998],[-76.72500000000002,34.7856185],[-76.72500000000002,34.78308709999999],[-76.72500000000002,34.78032009999998],[-76.72500000000002,34.777988300000004],[-76.72500000000002,34.77773209999998],[-76.72500000000002,34.776649599999985],[-76.72500000000002,34.776455899999974],[-76.72500000000002,34.775314700000024],[-76.72500000000002,34.77370250000001],[-76.72500000000002,34.76340210000001],[-76.72500000000002,34.76187199999998],[-76.72500000000002,34.761641499999996],[-76.72500000000002,34.7425265],[-76.72500000000002,34.741831400000024],[-76.72500000000002,34.738663900000006],[-76.72500000000002,34.73772079999998],[-76.72500000000002,34.72747099999998],[-76.72500000000002,34.72666959999998],[-76.72500000000002,34.726159199999984],[-76.72500000000002,34.72580540000001],[-76.72500000000002,34.72500000000002],[-76.7799316,34.72500000000002],[-76.78020190000001,34.72500000000002],[-76.7803376,34.72500000000002],[-76.78056420000001,34.72500000000002],[-76.78322100000003,34.72500000000002],[-76.78515149999998,34.72500000000002],[-76.78553190000002,34.72500000000002],[-76.7862753,34.72500000000002],[-76.78953430000001,34.72500000000002],[-76.7903349,34.72500000000002],[-76.7950629,34.72500000000002],[-76.79844059999999,34.72500000000002]]]}},{"type":"Feature","properties":{},"geometry":{"type":"Polygon","coordinates":[[[-76.72500000000002,34.81029699999999],[-76.72500000000002,34.80678449999999],[-76.72500000000002,34.80641609999998],[-76.72500000000002,34.8060011],[-76.72500000000002,34.80000000000001],[-76.72520739999999,34.80000000000001],[-76.78628400000002,34.80000000000001],[-76.80000000000001,34.80000000000001],[-76.80000000000001,34.855000000000004],[-76.72500000000002,34.855000000000004],[-76.72500000000002,34.81029699999999]]]}},{"type":"Feature","properties":{},"geometry":{"type":"Polygon","coordinates":[[[-76.64999999999998,34.80000000000001],[-76.67799159999998,34.80000000000001],[-76.68063160000003,34.80000000000001],[-76.68104620000003,34.80000000000001],[-76.682748,34.80000000000001],[-76.68315039999999,34.80000000000001],[-76.6841976,34.80000000000001],[-76.6844001,34.80000000000001],[-76.68507169999998,34.80000000000001],[-76.68662569999998,34.80000000000001],[-76.68680699999999,34.80000000000001],[-76.68704250000002,34.80000000000001],[-76.68801380000002,34.80000000000001],[-76.69102720000001,34.80000000000001],[-76.69257959999999,34.80000000000001],[-76.693851,34.80000000000001],[-76.69555350000002,34.80000000000001],[-76.69617010000002,34.80000000000001],[-76.7175676,34.80000000000001],[-76.71954790000001,34.80000000000001],[-76.72049950000002,34.80000000000001],[-76.72089399999999,34.80000000000001],[-76.72500000000002,34.80000000000001],[-76.72500000000002,34.8060011],[-76.72500000000002,34.80641609999998],[-76.72500000000002,34.80678449999999],[-76.72500000000002,34.81029699999999],[-76.72500000000002,34.855000000000004],[-76.64999999999998,34.855000000000004],[-76.64999999999998,34.80000000000001]]]}},{"type":"Feature","properties":{},"geometry":{"type":"Polygon","coordinates":[[[-76.57499999999999,34.80000000000001],[-76.60479329999998,34.80000000000001],[-76.6051688,34.80000000000001],[-76.6075085,34.80000000000001],[-76.62056610000002,34.80000000000001],[-76.6213641,34.80000000000001],[-76.63002740000002,34.80000000000001],[-76.64999999999998,34.80000000000001],[-76.64999999999998,34.855000000000004],[-76.57499999999999,34.855000000000004],[-76.57499999999999,34.80000000000001]]]}},{"type":"Feature","properties":{},"geometry":{"type":"Polygon","coordinates":[[[-76.5,34.80000000000001],[-76.51798910000002,34.80000000000001],[-76.5191911,34.80000000000001],[-76.56276380000003,34.80000000000001],[-76.56461560000002,34.80000000000001],[-76.56506109999998,34.80000000000001],[-76.56914130000001,34.80000000000001],[-76.57499999999999,34.80000000000001],[-76.57499999999999,34.855000000000004],[-76.5,34.855000000000004],[-76.5,34.80000000000001]]]}}]}