{"type":"FeatureCollection","features":[{"type":"Feature","properties":{},"geometry":{"type":"Polygon","coordinates":[[[-81.50257670000002,30.899999999999977],[-81.50246870000001,30.899999999999977],[-81.50220890000003,30.899999999999977],[-81.50032620000002,30.899999999999977],[-81.49957899999998,30.899999999999977],[-81.49934560000003,30.899999999999977],[-81.49900359999998,30.899999999999977],[-81.49811060000002,30.899999999999977],[-81.49764169999997,30.899999999999977],[-81.49747880000001,30.899999999999977],[-81.4971875,30.899999999999977],[-81.4966738,30.899999999999977],[-81.4962648,30.899999999999977],[-81.48791929999999,30.899999999999977],[-81.4875169,30.899999999999977],[-81.48698569999999,30.899999999999977],[-81.483112,30.899999999999977],[-81.47790980000002,30.899999999999977],[-81.47766580000001,30.899999999999977],[-81.4751789,30.899999999999977],[-81.47467610000001,30.899999999999977],[-81.47424130000002,30.899999999999977],[-81.47383719999999,30.899999999999977],[-81.47351839999999,30.899999999999977],[-81.47314920000002,30.899999999999977],[-81.47275819999999,30.899999999999977],[-81.47242119999999,30.899999999999977],[-81.4720987,30.899999999999977],[-81.47156289999998,30.899999999999977],[-81.46988149999999,30.899999999999977],[-81.46968559999999,30.899999999999977],[-81.46935459999997,30.899999999999977],[-81.46804100000003,30.899999999999977],[-81.467693,30.899999999999977],[-81.45494029999998,30.899999999999977],[-81.45419670000001,30.899999999999977],[-81.45138480000003,30.899999999999977],[-81.45014479999998,30.899999999999977],[-81.44999999999999,30.899999999999977],[-81.44999999999999,30.900234899999987],[-81.44999999999999,30.900466999999992],[-81.44999999999999,30.90072509999999],[-81.44999999999999,30.901381800000024],[-81.44999999999999,30.901617499999986],[-81.44999999999999,30.901851299999976],[-81.44999999999999,30.902061000000003],[-81.44999999999999,30.90213449999999],[-81.44999999999999,30.902527399999997],[-81.44999999999999,30.903686600000015],[-81.44999999999999,30.90451009999998],[-81.44999999999999,30.90482479999997],[-81.44999999999999,30.906809399999986],[-81.44999999999999,30.907243600000015],[-81.44999999999999,30.91043380000002],[-81.44999999999999,30.9112571],[-81.44999999999999,30.914270699999975],[-81.44999999999999,30.924411299999974],[-81.44999999999999,30.926728799999978],[-81.44999999999999,30.928026199999977],[-81.44999999999999,30.928640900000005],[-81.44999999999999,30.929348300000015],[-81.44999999999999,30.929736699999978],[-81.44999999999999,30.930083200000013],[-81.44999999999999,30.932067599999982],[-81.44999999999999,30.9324426],[-81.44999999999999,30.932726600000024],[-81.44999999999999,30.93921949999998],[-81.44999999999999,30.94047649999999],[-81.44999999999999,30.9412595],[-81.44999999999999,30.941596600000025],[-81.44999999999999,30.94192270000002],[-81.44999999999999,30.942188299999998],[-81.44999999999999,30.952385100000015],[-81.44999999999999,30.952630899999974],[-81.44999999999999,30.9533586],[-81.44999999999999,30.953629200000023],[-81.44999999999999,30.95406969999999],[-81.44999999999999,30.954320100000018],[-81.44999999999999,30.954545999999993],[-81.44999999999999,30.954730900000015],[-81.44999999999999,30.95605310000002],[-81.44999999999999,30.9561774],[-81.44999999999999,30.966388499999994],[-81.44999999999999,30.96729590000001],[-81.44999999999999,30.967441000000008],[-81.44999999999999,30.967693899999972],[-81.44999999999999,30.971326799999986],[-81.44999999999999,30.97327180000002],[-81.44999999999999,30.974863700000014],[-81.44999999999999,30.975000000000023],[-81.450581,30.975000000000023],[-81.46824029999999,30.975000000000023],[-81.47005050000001,30.975000000000023],[-81.4710847,30.975000000000023],[-81.4748851,30.975000000000023],[-81.4769478,30.975000000000023],[-81.4843634,30.975000000000023],[-81.48609049999999,30.975000000000023],[-81.48737990000001,30.975000000000023],[-81.4887076,30.975000000000023],[-81.49408749999998,30.975000000000023],[-81.49501759999998,30.975000000000023],[-81.49556610000002,30.975000000000023],[-81.49697680000003,30.975000000000023],[-81.49755499999998,30.975000000000023],[-81.50314739999999,30.975000000000023],[-81.50382530000002,30.975000000000023],[-81.50592990000001,30.975000000000023],[-81.50682289999997,30.975000000000023],[-81.5084096,30.975000000000023],[-81.51068729999997,30.975000000000023],[-81.51269719999999,30.975000000000023],[-81.51663980000001,30.975000000000023],[-81.52146440000001,30.975000000000023],[-81.52184019999999,30.975000000000023],[-81.52230909999997,30.975000000000023],[-81.52499999999998,30.975000000000023],[-81.52499999999998,30.95186799999999],[-81.52499999999998,30.95153210000001],[-81.52499999999998,30.950393899999995],[-81.52499999999998,30.94961619999998],[-81.52499999999998,30.929515400000014],[-81.52499999999998,30.923086899999987],[-81.52499999999998,30.92297960000002],[-81.52499999999998,30.921587999999986],[-81.52499999999998,30.899999999999977],[-81.51395280000003,30.899999999999977],[-81.50257670000002,30.899999999999977]]]}},{"type":"Feature","properties":{},"geometry":{"type":"Polygon","coordinates":[[[-81.44999999999999,30.899999999999977],[-81.4495781,30.899999999999977],[-81.44913910000002,30.899999999999977],[-81.44858740000001,30.899999999999977],[-81.44710620000001,30.899999999999977],[-81.44675660000001,30.899999999999977],[-81.44648810000001,30.899999999999977],[-81.44627120000001,30.899999999999977],[-81.4053108,30.899999999999977],[-81.40459679999998,30.899999999999977],[-81.39124600000002,30.899999999999977],[-81.375,30.899999999999977],[-81.375,30.906501400000025],[-81.375,30.908000500000014],[-81.375,30.910340500000018],[-81.375,30.912939100000017],[-81.375,30.963362700000005],[-81.375,30.97026519999997],[-81.375,30.970733399999972],[-81.375,30.971270100000027],[-81.375,30.975000000000023],[-81.38085610000002,30.975000000000023],[-81.3812911,30.975000000000023],[-81.3815113,30.975000000000023],[-81.38270369999998,30.975000000000023],[-81.38445139999999,30.975000000000023],[-81.39191069999998,30.975000000000023],[-81.39235939999998,30.975000000000023],[-81.3937209,30.975000000000023],[-81.39457290000001,30.975000000000023],[-81.39516889999999,30.975000000000023],[-81.40030410000003,30.975000000000023],[-81.40088909999997,30.975000000000023],[-81.40473259999999,30.975000000000023],[-81.40543200000002,30.975000000000023],[-81.40611799999999,30.975000000000023],[-81.4063587,30.975000000000023],[-81.41884429999999,30.975000000000023],[-81.41929779999998,30.975000000000023],[-81.4196743,30.975000000000023],[-81.42006270000002,30.975000000000023],[-81.42525819999997,30.975000000000023],[-81.4255182,30.975000000000023],[-81.4257667,30.975000000000023],[-81.42809629999999,30.975000000000023],[-81.43564930000002,30.975000000000023],[-81.440313,30.975000000000023],[-81.44528109999999,30.975000000000023],[-81.44746270000002,30.975000000000023],[-81.44947050000002,30.975000000000023],[-81.44999999999999,30.975000000000023],[-81.44999999999999,30.974863700000014],[-81.44999999999999,30.97327180000002],[-81.44999999999999,30.971326799999986],[-81.44999999999999,30.967693899999972],[-81.44999999999999,30.967441000000008],[-81.44999999999999,30.96729590000001],[-81.44999999999999,30.966388499999994],[-81.44999999999999,30.9561774],[-81.44999999999999,30.95605310000002],[-81.44999999999999,30.954730900000015],[-81.44999999999999,30.954545999999993],[-81.44999999999999,30.954320100000018],[-81.44999999999999,30.95406969999999],[-81.44999999999999,30.953629200000023],[-81.44999999999999,30.9533586],[-81.44999999999999,30.952630899999974],[-81.44999999999999,30.952385100000015],[-81.44999999999999,30.942188299999998],[-81.44999999999999,30.94192270000002],[-81.44999999999999,30.941596600000025],[-81.44999999999999,30.9412595],[-81.44999999999999,30.94047649999999],[-81.44999999999999,30.93921949999998],[-81.44999999999999,30.932726600000024],[-81.44999999999999,30.9324426],[-81.44999999999999,30.932067599999982],[-81.44999999999999,30.930083200000013],[-81.44999999999999,30.929736699999978],[-81.44999999999999,30.929348300000015],[-81.44999999999999,30.928640900000005],[-81.44999999999999,30.928026199999977],[-81.44999999999999,30.926728799999978],[-81.44999999999999,30.924411299999974],[-81.44999999999999,30.914270699999975],[-81.44999999999999,30.9112571],[-81.44999999999999,30.91043380000002],[-81.44999999999999,30.907243600000015],[-81.44999999999999,30.906809399999986],[-81.44999999999999,30.90482479999997],[-81.44999999999999,30.90451009999998],[-81.44999999999999,30.903686600000015],[-81.44999999999999,30.902527399999997],[-81.44999999999999,30.90213449999999],[-81.44999999999999,30.902061000000003],[-81.44999999999999,30.901851299999976],[-81.44999999999999,30.901617499999986],[-81.44999999999999,30.901381800000024],[-81.44999999999999,30.90072509999999],[-81.44999999999999,30.900466999999992],[-81.44999999999999,30.900234899999987],[-81.44999999999999,30.899999999999977]]]}},{"type":"Feature","properties":{},"geometry":{"type":"Polygon","coordinates":[[[-81.5791218,31.274999999999977],[-81.59981800000003,31.274999999999977],[-81.60000000000002,31.274999999999977],[-81.60000000000002,31.19999999999999],[-81.59981800000003,31.19999999999999],[-81.5985154,31.19999999999999],[-81.58747799999998,31.19999999999999],[-81.58397880000001,31.19999999999999],[-81.58365300000003,31.19999999999999],[-81.57898499999999,31.19999999999999],[-81.57733710000002,31.19999999999999],[-81.5768481,31.19999999999999],[-81.57291989999999,31.19999999999999],[-81.57171520000003,31.19999999999999],[-81.57160110000001,31.19999999999999],[-81.57112059999997,31.19999999999999],[-81.5681869,31.19999999999999],[-81.56790899999999,31.19999999999999],[-81.56726750000001,31.19999999999999],[-81.56583590000002,31.19999999999999],[-81.5551767,31.19999999999999],[-81.55476279999999,31.19999999999999],[-81.55445780000002,31.19999999999999],[-81.5490024,31.19999999999999],[-81.5486727,31.19999999999999],[-81.54823099999999,31.19999999999999],[-81.53913490000002,31.19999999999999],[-81.5364118,31.19999999999999],[-81.5359866,31.19999999999999],[-81.5348985,31.19999999999999],[-81.53377289999997,31.19999999999999],[-81.53320880000001,31.19999999999999],[-81.5330811,31.19999999999999],[-81.5325449,31.19999999999999],[-81.5323707,31.19999999999999],[-81.53114749999997,31.19999999999999],[-81.52499999999998,31.19999999999999],[-81.52499999999998,31.202744399999972],[-81.52499999999998,31.20490669999998],[-81.52499999999998,31.206357700000012],[-81.52499999999998,31.20722760000001],[-81.52499999999998,31.20795770000001],[-81.52499999999998,31.208377100000007],[-81.52499999999998,31.21045670000001],[-81.52499999999998,31.21088709999998],[-81.52499999999998,31.213627499999973],[-81.52499999999998,31.217202799999995],[-81.52499999999998,31.2172645],[-81.52499999999998,31.225394999999992],[-81.52499999999998,31.274999999999977],[-81.5791218,31.274999999999977]]]}},{"type":"Feature","properties":{},"geometry":{"type":"Polygon","coordinates":[[[-81.44999999999999,31.19999999999999],[-81.4480307,31.19999999999999],[-81.44785839999997,31.19999999999999],[-81.4475018,31.19999999999999],[-81.44651340000001,31.19999999999999],[-81.44639590000003,31.19999999999999],[-81.44617440000002,31.19999999999999],[-81.43523549999998,31.19999999999999],[-81.43477669999999,31.19999999999999],[-81.4345533,31.19999999999999],[-81.43427930000001,31.19999999999999],[-81.43349899999998,31.19999999999999],[-81.43313610000001,31.19999999999999],[-81.43268219999999,31.19999999999999],[-81.43246160000001,31.19999999999999],[-81.4319787,31.19999999999999],[-81.43110250000001,31.19999999999999],[-81.42110409999998,31.19999999999999],[-81.4203109,31.19999999999999],[-81.41931390000002,31.19999999999999],[-81.41686229999999,31.19999999999999],[-81.4147898,31.19999999999999],[-81.4142445,31.19999999999999],[-81.41270839999999,31.19999999999999],[-81.41257710000002,31.19999999999999],[-81.41243739999999,31.19999999999999],[-81.39443110000002,31.19999999999999],[-81.3937128,31.19999999999999],[-81.39185989999999,31.19999999999999],[-81.3911933,31.19999999999999],[-81.38939590000001,31.19999999999999],[-81.3885247,31.19999999999999],[-81.3837689,31.19999999999999],[-81.375,31.19999999999999],[-81.375,31.203756899999973],[-81.375,31.205786999999987],[-81.375,31.20737109999999],[-81.375,31.212746700000025],[-81.375,31.216743099999974],[-81.375,31.216803400000003],[-81.375,31.257924300000013],[-81.375,31.258687699999996],[-81.375,31.259927100000027],[-81.375,31.269708100000003],[-81.375,31.2702941],[-81.375,31.27137160000001],[-81.375,31.272458500000027],[-81.375,31.274999999999977],[-81.38308410000002,31.274999999999977],[-81.3837603,31.274999999999977],[-81.38412440000002,31.274999999999977],[-81.3847207,31.274999999999977],[-81.38495210000002,31.274999999999977],[-81.3857936,31.274999999999977],[-81.38644770000002,31.274999999999977],[-81.38702130000001,31.274999999999977],[-81.3947066,31.274999999999977],[-81.39615709999998,31.274999999999977],[-81.3969922,31.274999999999977],[-81.40830899999997,31.274999999999977],[-81.4094038,31.274999999999977],[-81.40972319999997,31.274999999999977],[-81.42295339999998,31.274999999999977],[-81.44999999999999,31.274999999999977],[-81.44999999999999,31.228286000000026],[-81.44999999999999,31.213183300000026],[-81.44999999999999,31.205786999999987],[-81.44999999999999,31.203873999999985],[-81.44999999999999,31.203339200000016],[-81.44999999999999,31.19999999999999]]]}},{"type":"Feature","properties":{},"geometry":{"type":"Polygon","coordinates":[[[-81.35566510000001,31.19999999999999],[-81.35539929999999,31.19999999999999],[-81.35463349999998,31.19999999999999],[-81.3539462,31.19999999999999],[-81.3525343,31.19999999999999],[-81.35251169999998,31.19999999999999],[-81.3516424,31.19999999999999],[-81.35097009999998,31.19999999999999],[-81.35000289999999,31.19999999999999],[-81.3495605,31.19999999999999],[-81.34947260000001,31.19999999999999],[-81.3480755,31.19999999999999],[-81.3477188,31.19999999999999],[-81.34746289999998,31.19999999999999],[-81.3470322,31.19999999999999],[-81.34334230000002,31.19999999999999],[-81.34314360000002,31.19999999999999],[-81.34314060000003,31.19999999999999],[-81.34279099999998,31.19999999999999],[-81.34146600000003,31.19999999999999],[-81.34041819999999,31.19999999999999],[-81.3389072,31.19999999999999],[-81.33863029999998,31.19999999999999],[-81.33736829999998,31.19999999999999],[-81.33714909999998,31.19999999999999],[-81.33635120000002,31.19999999999999],[-81.33604939999998,31.19999999999999],[-81.3343362,31.19999999999999],[-81.32872459999999,31.19999999999999],[-81.32708789999998,31.19999999999999],[-81.3268668,31.19999999999999],[-81.3122166,31.19999999999999],[-81.31172350000003,31.19999999999999],[-81.31036719999997,31.19999999999999],[-81.30868240000001,31.19999999999999],[-81.30545030000002,31.19999999999999],[-81.300385,31.19999999999999],[-81.30000000000001,31.19999999999999],[-81.30000000000001,31.204456499999992],[-81.30000000000001,31.205786999999987],[-81.30000000000001,31.207814499999984],[-81.30000000000001,31.208445700000027],[-81.30000000000001,31.211429399999986],[-81.30000000000001,31.21214550000002],[-81.30000000000001,31.21297579999998],[-81.30000000000001,31.215150400000027],[-81.30000000000001,31.215991900000006],[-81.30000000000001,31.218211399999973],[-81.30000000000001,31.22011359999999],[-81.30000000000001,31.220338200000015],[-81.30000000000001,31.22074429999998],[-81.30000000000001,31.222409200000016],[-81.30000000000001,31.2227436],[-81.30000000000001,31.224109499999997],[-81.30000000000001,31.224534000000006],[-81.30000000000001,31.224838299999988],[-81.30000000000001,31.225597400000026],[-81.30000000000001,31.22569709999999],[-81.30000000000001,31.22604869999998],[-81.30000000000001,31.226878999999997],[-81.30000000000001,31.227115099999992],[-81.30000000000001,31.230733299999997],[-81.30000000000001,31.2325429],[-81.30000000000001,31.23708099999999],[-81.30000000000001,31.237205200000005],[-81.30000000000001,31.23974609999999],[-81.30000000000001,31.257837300000006],[-81.30000000000001,31.258148500000004],[-81.30000000000001,31.258759399999974],[-81.30000000000001,31.259129299999984],[-81.30000000000001,31.274999999999977],[-81.30535529999997,31.274999999999977],[-81.31115290000002,31.274999999999977],[-81.3132172,31.274999999999977],[-81.31409689999998,31.274999999999977],[-81.3146145,31.274999999999977],[-81.3149651,31.274999999999977],[-81.31638320000002,31.274999999999977],[-81.3178868,31.274999999999977],[-81.31811110000001,31.274999999999977],[-81.31848980000001,31.274999999999977],[-81.31869640000002,31.274999999999977],[-81.31870839999999,31.274999999999977],[-81.32567039999998,31.274999999999977],[-81.32923740000001,31.274999999999977],[-81.33101690000001,31.274999999999977],[-81.34046990000002,31.274999999999977],[-81.3410811,31.274999999999977],[-81.3418605,31.274999999999977],[-81.343658,31.274999999999977],[-81.35186340000001,31.274999999999977],[-81.35250400000001,31.274999999999977],[-81.36038009999999,31.274999999999977],[-81.375,31.274999999999977],[-81.375,31.272458500000027],[-81.375,31.27137160000001],[-81.375,31.2702941],[-81.375,31.269708100000003],[-81.375,31.259927100000027],[-81.375,31.258687699999996],[-81.375,31.257924300000013],[-81.375,31.216803400000003],[-81.375,31.216743099999974],[-81.375,31.212746700000025],[-81.375,31.20737109999999],[-81.375,31.205786999999987],[-81.375,31.203756899999973],[-81.375,31.19999999999999],[-81.36738930000001,31.19999999999999],[-81.36517570000001,31.19999999999999],[-81.35566510000001,31.19999999999999]]]}},{"type":"Feature","properties":{},"geometry":{"type":"Polygon","coordinates":[[[-81.40972319999997,31.274999999999977],[-81.4094038,31.274999999999977],[-81.40830899999997,31.274999999999977],[-81.3969922,31.274999999999977],[-81.39615709999998,31.274999999999977],[-81.3947066,31.274999999999977],[-81.38702130000001,31.274999999999977],[-81.38644770000002,31.274999999999977],[-81.3857936,31.274999999999977],[-81.38495210000002,31.274999999999977],[-81.3847207,31.274999999999977],[-81.38412440000002,31.274999999999977],[-81.3837603,31.274999999999977],[-81.38308410000002,31.274999999999977],[-81.375,31.274999999999977],[-81.375,31.27867889999999],[-81.375,31.2789262],[-81.375,31.286648500000013],[-81.375,31.286973400000022],[-81.375,31.296898],[-81.375,31.301316699999973],[-81.375,31.302788599999985],[-81.375,31.313088100000016],[-81.375,31.3135403],[-81.375,31.314572],[-81.375,31.314623799999993],[-81.375,31.314806299999987],[-81.375,31.314940200000024],[-81.375,31.315943000000004],[-81.375,31.316560400000014],[-81.375,31.31772319999999],[-81.375,31.319501000000002],[-81.375,31.320624500000008],[-81.375,31.32113750000002],[-81.375,31.321346100000028],[-81.375,31.32155640000002],[-81.375,31.322142799999995],[-81.375,31.322628800000018],[-81.375,31.327707099999998],[-81.375,31.32837139999998],[-81.375,31.32907],[-81.375,31.329138699999987],[-81.375,31.330256700000007],[-81.375,31.336668799999984],[-81.375,31.337588700000026],[-81.375,31.338015600000006],[-81.375,31.350000000000023],[-81.38433959999998,31.350000000000023],[-81.38480099999998,31.350000000000023],[-81.38608870000002,31.350000000000023],[-81.41304000000002,31.350000000000023],[-81.4135551,31.350000000000023],[-81.4137068,31.350000000000023],[-81.41371299999997,31.350000000000023],[-81.41379640000002,31.350000000000023],[-81.41439200000002,31.350000000000023],[-81.41469000000001,31.350000000000023],[-81.41497709999999,31.350000000000023],[-81.41535599999997,31.350000000000023],[-81.4168661,31.350000000000023],[-81.4169564,31.350000000000023],[-81.4169956,31.350000000000023],[-81.4172987,31.350000000000023],[-81.41777689999998,31.350000000000023],[-81.41812520000002,31.350000000000023],[-81.41823879999998,31.350000000000023],[-81.41847130000002,31.350000000000023],[-81.41860059999999,31.350000000000023],[-81.4189556,31.350000000000023],[-81.41953330000001,31.350000000000023],[-81.4196589,31.350000000000023],[-81.42313660000002,31.350000000000023],[-81.42400140000001,31.350000000000023],[-81.43898309999997,31.350000000000023],[-81.43911109999999,31.350000000000023],[-81.44010680000002,31.350000000000023],[-81.44027060000002,31.350000000000023],[-81.44049919999998,31.350000000000023],[-81.44728029999999,31.350000000000023],[-81.44861300000002,31.350000000000023],[-81.4487838,31.350000000000023],[-81.44999999999999,31.350000000000023],[-81.44999999999999,31.349871800000017],[-81.44999999999999,31.348273000000006],[-81.44999999999999,31.346519600000022],[-81.44999999999999,31.338612599999976],[-81.44999999999999,31.33839740000002],[-81.44999999999999,31.33798300000001],[-81.44999999999999,31.337471300000004],[-81.44999999999999,31.337226199999975],[-81.44999999999999,31.337141099999997],[-81.44999999999999,31.33681680000001],[-81.44999999999999,31.32854070000002],[-81.44999999999999,31.327861600000006],[-81.44999999999999,31.326427599999988],[-81.44999999999999,31.313270199999977],[-81.44999999999999,31.312849099999994],[-81.44999999999999,31.312638400000026],[-81.44999999999999,31.274999999999977],[-81.42295339999998,31.274999999999977],[-81.40972319999997,31.274999999999977]]]}},{"type":"Feature","properties":{},"geometry":{"type":"Polygon","coordinates":[[[-81.3418605,31.274999999999977],[-81.3410811,31.274999999999977],[-81.34046990000002,31.274999999999977],[-81.33101690000001,31.274999999999977],[-81.32923740000001,31.274999999999977],[-81.32567039999998,31.274999999999977],[-81.31870839999999,31.274999999999977],[-81.31869640000002,31.274999999999977],[-81.31848980000001,31.274999999999977],[-81.31811110000001,31.274999999999977],[-81.3178868,31.274999999999977],[-81.31638320000002,31.274999999999977],[-81.3149651,31.274999999999977],[-81.3146145,31.274999999999977],[-81.31409689999998,31.274999999999977],[-81.3132172,31.274999999999977],[-81.31115290000002,31.274999999999977],[-81.30535529999997,31.274999999999977],[-81.30000000000001,31.274999999999977],[-81.30000000000001,31.28792340000001],[-81.30000000000001,31.28936870000001],[-81.30000000000001,31.29032219999999],[-81.30000000000001,31.29190729999999],[-81.30000000000001,31.29217299999999],[-81.30000000000001,31.2926023],[-81.30000000000001,31.293855199999996],[-81.30000000000001,31.294427499999983],[-81.30000000000001,31.294720199999972],[-81.30000000000001,31.295154000000025],[-81.30000000000001,31.3040838],[-81.30000000000001,31.305268000000012],[-81.30000000000001,31.307255999999995],[-81.30000000000001,31.307429300000024],[-81.30000000000001,31.30814459999999],[-81.30000000000001,31.30815389999998],[-81.30000000000001,31.3099024],[-81.30000000000001,31.312323900000024],[-81.30000000000001,31.312522100000024],[-81.30000000000001,31.313796000000025],[-81.30000000000001,31.314679300000023],[-81.30000000000001,31.315202],[-81.30000000000001,31.31531769999998],[-81.30000000000001,31.315584399999977],[-81.30000000000001,31.31587639999998],[-81.30000000000001,31.316118899999992],[-81.30000000000001,31.316227099999992],[-81.30000000000001,31.31648469999999],[-81.30000000000001,31.316708399999982],[-81.30000000000001,31.32038030000001],[-81.30000000000001,31.321719799999983],[-81.30000000000001,31.321957499999996],[-81.30000000000001,31.322186799999997],[-81.30000000000001,31.322564],[-81.30000000000001,31.32557700000001],[-81.30000000000001,31.329345400000022],[-81.30000000000001,31.331518200000005],[-81.30000000000001,31.33200929999998],[-81.30000000000001,31.33339810000001],[-81.30000000000001,31.333845399999973],[-81.30000000000001,31.33460309999998],[-81.30000000000001,31.341876300000024],[-81.30000000000001,31.34202620000002],[-81.30000000000001,31.342144599999983],[-81.30000000000001,31.343237199999976],[-81.30000000000001,31.350000000000023],[-81.306085,31.350000000000023],[-81.30807470000002,31.350000000000023],[-81.3124502,31.350000000000023],[-81.31315569999998,31.350000000000023],[-81.3204766,31.350000000000023],[-81.32104299999997,31.350000000000023],[-81.32847709999999,31.350000000000023],[-81.3293046,31.350000000000023],[-81.33053799999999,31.350000000000023],[-81.33108090000002,31.350000000000023],[-81.33274829999999,31.350000000000023],[-81.33531090000002,31.350000000000023],[-81.33992549999999,31.350000000000023],[-81.34023450000001,31.350000000000023],[-81.3414644,31.350000000000023],[-81.34193499999998,31.350000000000023],[-81.34218650000003,31.350000000000023],[-81.35133810000002,31.350000000000023],[-81.3722419,31.350000000000023],[-81.375,31.350000000000023],[-81.375,31.338015600000006],[-81.375,31.337588700000026],[-81.375,31.336668799999984],[-81.375,31.330256700000007],[-81.375,31.329138699999987],[-81.375,31.32907],[-81.375,31.32837139999998],[-81.375,31.327707099999998],[-81.375,31.322628800000018],[-81.375,31.322142799999995],[-81.375,31.32155640000002],[-81.375,31.321346100000028],[-81.375,31.32113750000002],[-81.375,31.320624500000008],[-81.375,31.319501000000002],[-81.375,31.31772319999999],[-81.375,31.316560400000014],[-81.375,31.315943000000004],[-81.375,31.314940200000024],[-81.375,31.314806299999987],[-81.375,31.314623799999993],[-81.375,31.314572],[-81.375,31.3135403],[-81.375,31.313088100000016],[-81.375,31.302788599999985],[-81.375,31.301316699999973],[-81.375,31.296898],[-81.375,31.286973400000022],[-81.375,31.286648500000013],[-81.375,31.2789262],[-81.375,31.27867889999999],[-81.375,31.274999999999977],[-81.36038009999999,31.274999999999977],[-81.35250400000001,31.274999999999977],[-81.35186340000001,31.274999999999977],[-81.343658,31.274999999999977],[-81.3418605,31.274999999999977]]]}},{"type":"Feature","properties":{},"geometry":{"type":"Polygon","coordinates":[[[-81.44999999999999,31.350000000000023],[-81.4487838,31.350000000000023],[-81.44861300000002,31.350000000000023],[-81.44728029999999,31.350000000000023],[-81.44049919999998,31.350000000000023],[-81.44027060000002,31.350000000000023],[-81.44010680000002,31.350000000000023],[-81.43911109999999,31.350000000000023],[-81.43898309999997,31.350000000000023],[-81.42400140000001,31.350000000000023],[-81.42313660000002,31.350000000000023],[-81.4196589,31.350000000000023],[-81.41953330000001,31.350000000000023],[-81.4189556,31.350000000000023],[-81.41860059999999,31.350000000000023],[-81.41847130000002,31.350000000000023],[-81.41823879999998,31.350000000000023],[-81.41812520000002,31.350000000000023],[-81.41777689999998,31.350000000000023],[-81.4172987,31.350000000000023],[-81.4169956,31.350000000000023],[-81.4169564,31.350000000000023],[-81.4168661,31.350000000000023],[-81.41535599999997,31.350000000000023],[-81.41497709999999,31.350000000000023],[-81.41469000000001,31.350000000000023],[-81.41439200000002,31.350000000000023],[-81.41379640000002,31.350000000000023],[-81.41371299999997,31.350000000000023],[-81.4137068,31.350000000000023],[-81.4135551,31.350000000000023],[-81.41304000000002,31.350000000000023],[-81.38608870000002,31.350000000000023],[-81.38480099999998,31.350000000000023],[-81.38433959999998,31.350000000000023],[-81.375,31.350000000000023],[-81.375,31.356516],[-81.375,31.357193199999983],[-81.375,31.35752530000002],[-81.375,31.35764710000001],[-81.375,31.357978600000024],[-81.375,31.359088799999995],[-81.375,31.360723800000017],[-81.375,31.36083500000001],[-81.375,31.360957799999994],[-81.375,31.368826899999988],[-81.375,31.369186000000013],[-81.375,31.370811300000014],[-81.375,31.371148199999993],[-81.375,31.371316400000012],[-81.375,31.374795399999982],[-81.375,31.375509000000022],[-81.375,31.37735509999999],[-81.375,31.380135999999993],[-81.375,31.3804399],[-81.375,31.383303599999977],[-81.375,31.383847899999978],[-81.375,31.38548350000002],[-81.375,31.386079600000016],[-81.375,31.38651040000002],[-81.375,31.388555199999985],[-81.375,31.389114399999983],[-81.375,31.3914757],[-81.375,31.391980100000012],[-81.375,31.396260400000017],[-81.375,31.396715500000028],[-81.375,31.398638800000015],[-81.375,31.404293699999982],[-81.375,31.404701199999977],[-81.375,31.404993100000013],[-81.375,31.405155499999978],[-81.375,31.405920100000003],[-81.375,31.40638630000001],[-81.375,31.406454999999994],[-81.375,31.408517000000018],[-81.375,31.40906719999998],[-81.375,31.4092043],[-81.375,31.410330499999986],[-81.375,31.411153599999977],[-81.375,31.411336600000027],[-81.375,31.413609699999995],[-81.375,31.413721699999996],[-81.375,31.414675799999998],[-81.375,31.415551900000025],[-81.375,31.422074099999975],[-81.375,31.423413299999993],[-81.375,31.42500000000001],[-81.37507590000001,31.42500000000001],[-81.375677,31.42500000000001],[-81.38529940000001,31.42500000000001],[-81.38560410000002,31.42500000000001],[-81.41897230000001,31.42500000000001],[-81.44150000000002,31.42500000000001],[-81.44999999999999,31.42500000000001],[-81.44999999999999,31.400230000000022],[-81.44999999999999,31.388343399999997],[-81.44999999999999,31.38752390000002],[-81.44999999999999,31.375509000000022],[-81.44999999999999,31.373816499999975],[-81.44999999999999,31.372958100000005],[-81.44999999999999,31.3572178],[-81.44999999999999,31.356044800000006],[-81.44999999999999,31.355437199999983],[-81.44999999999999,31.35137930000002],[-81.44999999999999,31.350000000000023]]]}},{"type":"Feature","properties":{},"geometry":{"type":"Polygon","coordinates":[[[-81.34218650000003,31.350000000000023],[-81.34193499999998,31.350000000000023],[-81.3414644,31.350000000000023],[-81.34023450000001,31.350000000000023],[-81.33992549999999,31.350000000000023],[-81.33531090000002,31.350000000000023],[-81.33274829999999,31.350000000000023],[-81.33108090000002,31.350000000000023],[-81.33053799999999,31.350000000000023],[-81.3293046,31.350000000000023],[-81.32847709999999,31.350000000000023],[-81.32104299999997,31.350000000000023],[-81.3204766,31.350000000000023],[-81.31315569999998,31.350000000000023],[-81.3124502,31.350000000000023],[-81.30807470000002,31.350000000000023],[-81.306085,31.350000000000023],[-81.30000000000001,31.350000000000023],[-81.30000000000001,31.351952700000027],[-81.30000000000001,31.35405639999999],[-81.30000000000001,31.3662736],[-81.30000000000001,31.366385999999977],[-81.30000000000001,31.36680899999999],[-81.30000000000001,31.368007499999976],[-81.30000000000001,31.368368900000007],[-81.30000000000001,31.371362599999998],[-81.30000000000001,31.37183379999999],[-81.30000000000001,31.375509000000022],[-81.30000000000001,31.377955600000007],[-81.30000000000001,31.378854100000012],[-81.30000000000001,31.37894369999998],[-81.30000000000001,31.379064299999982],[-81.30000000000001,31.379422599999998],[-81.30000000000001,31.37959380000001],[-81.30000000000001,31.38003329999998],[-81.30000000000001,31.381435899999985],[-81.30000000000001,31.381702399999995],[-81.30000000000001,31.381824199999983],[-81.30000000000001,31.38196049999999],[-81.30000000000001,31.385385600000006],[-81.30000000000001,31.402409999999975],[-81.30000000000001,31.403385500000013],[-81.30000000000001,31.404950199999973],[-81.30000000000001,31.40877039999998],[-81.30000000000001,31.409242000000006],[-81.30000000000001,31.410181299999977],[-81.30000000000001,31.410889399999974],[-81.30000000000001,31.411668399999996],[-81.30000000000001,31.411776299999985],[-81.30000000000001,31.412635799999975],[-81.30000000000001,31.41381769999998],[-81.30000000000001,31.414082599999972],[-81.30000000000001,31.414817500000026],[-81.30000000000001,31.416702799999996],[-81.30000000000001,31.42058830000002],[-81.30000000000001,31.423631699999987],[-81.30000000000001,31.42500000000001],[-81.30095160000002,31.42500000000001],[-81.3073822,31.42500000000001],[-81.30825340000001,31.42500000000001],[-81.30946849999998,31.42500000000001],[-81.30976170000002,31.42500000000001],[-81.31065100000001,31.42500000000001],[-81.31227430000001,31.42500000000001],[-81.31516920000001,31.42500000000001],[-81.31581899999998,31.42500000000001],[-81.31638220000002,31.42500000000001],[-81.31826560000002,31.42500000000001],[-81.31911860000002,31.42500000000001],[-81.32152309999998,31.42500000000001],[-81.32378799999998,31.42500000000001],[-81.32457269999998,31.42500000000001],[-81.32475540000002,31.42500000000001],[-81.3256053,31.42500000000001],[-81.33506799999998,31.42500000000001],[-81.33514389999999,31.42500000000001],[-81.3356791,31.42500000000001],[-81.33705930000002,31.42500000000001],[-81.33830010000003,31.42500000000001],[-81.33842340000001,31.42500000000001],[-81.3508238,31.42500000000001],[-81.35094559999999,31.42500000000001],[-81.35167669999998,31.42500000000001],[-81.35177879999998,31.42500000000001],[-81.35450320000001,31.42500000000001],[-81.35459450000002,31.42500000000001],[-81.3551756,31.42500000000001],[-81.3552282,31.42500000000001],[-81.3566965,31.42500000000001],[-81.35678360000003,31.42500000000001],[-81.35737169999999,31.42500000000001],[-81.35746180000001,31.42500000000001],[-81.35787040000002,31.42500000000001],[-81.373965,31.42500000000001],[-81.37424479999999,31.42500000000001],[-81.374372,31.42500000000001],[-81.375,31.42500000000001],[-81.375,31.423413299999993],[-81.375,31.422074099999975],[-81.375,31.415551900000025],[-81.375,31.414675799999998],[-81.375,31.413721699999996],[-81.375,31.413609699999995],[-81.375,31.411336600000027],[-81.375,31.411153599999977],[-81.375,31.410330499999986],[-81.375,31.4092043],[-81.375,31.40906719999998],[-81.375,31.408517000000018],[-81.375,31.406454999999994],[-81.375,31.40638630000001],[-81.375,31.405920100000003],[-81.375,31.405155499999978],[-81.375,31.404993100000013],[-81.375,31.404701199999977],[-81.375,31.404293699999982],[-81.375,31.398638800000015],[-81.375,31.396715500000028],[-81.375,31.396260400000017],[-81.375,31.391980100000012],[-81.375,31.3914757],[-81.375,31.389114399999983],[-81.375,31.388555199999985],[-81.375,31.38651040000002],[-81.375,31.386079600000016],[-81.375,31.38548350000002],[-81.375,31.383847899999978],[-81.375,31.383303599999977],[-81.375,31.3804399],[-81.375,31.380135999999993],[-81.375,31.37735509999999],[-81.375,31.375509000000022],[-81.375,31.374795399999982],[-81.375,31.371316400000012],[-81.375,31.371148199999993],[-81.375,31.370811300000014],[-81.375,31.369186000000013],[-81.375,31.368826899999988],[-81.375,31.360957799999994],[-81.375,31.36083500000001],[-81.375,31.360723800000017],[-81.375,31.359088799999995],[-81.375,31.357978600000024],[-81.375,31.35764710000001],[-81.375,31.35752530000002],[-81.375,31.357193199999983],[-81.375,31.356516],[-81.375,31.350000000000023],[-81.3722419,31.350000000000023],[-81.35133810000002,31.350000000000023],[-81.34218650000003,31.350000000000023]]]}},{"type":"Feature","properties":{},"geometry":{"type":"Polygon","coordinates":[[[-81.30000000000001,31.350000000000023],[-81.29107049999999,31.350000000000023],[-81.28810549999997,31.350000000000023],[-81.28752329999998,31.350000000000023],[-81.28639140000001,31.350000000000023],[-81.28582829999999,31.350000000000023],[-81.28489789999998,31.350000000000023],[-81.28479099999998,31.350000000000023],[-81.28465820000002,31.350000000000023],[-81.28416090000002,31.350000000000023],[-81.28407429999999,31.350000000000023],[-81.28311989999997,31.350000000000023],[-81.27945010000002,31.350000000000023],[-81.26854889999998,31.350000000000023],[-81.26677539999997,31.350000000000023],[-81.24466890000002,31.350000000000023],[-81.23413340000002,31.350000000000023],[-81.2270921,31.350000000000023],[-81.22500000000002,31.350000000000023],[-81.22500000000002,31.353392199999973],[-81.22500000000002,31.364566799999977],[-81.22500000000002,31.36662690000003],[-81.22500000000002,31.373354000000006],[-81.22500000000002,31.375509000000022],[-81.22500000000002,31.380088999999998],[-81.22500000000002,31.38350889999998],[-81.22500000000002,31.385011099999986],[-81.22500000000002,31.409112900000025],[-81.22500000000002,31.42500000000001],[-81.23499420000002,31.42500000000001],[-81.23618490000001,31.42500000000001],[-81.24215500000003,31.42500000000001],[-81.2460218,31.42500000000001],[-81.2480731,31.42500000000001],[-81.24992279999998,31.42500000000001],[-81.25360210000002,31.42500000000001],[-81.25492639999999,31.42500000000001],[-81.26784470000001,31.42500000000001],[-81.28541230000002,31.42500000000001],[-81.28609269999998,31.42500000000001],[-81.2888041,31.42500000000001],[-81.2934257,31.42500000000001],[-81.293563,31.42500000000001],[-81.29386549999998,31.42500000000001],[-81.29495539999999,31.42500000000001],[-81.2956696,31.42500000000001],[-81.2959065,31.42500000000001],[-81.30000000000001,31.42500000000001],[-81.30000000000001,31.423631699999987],[-81.30000000000001,31.42058830000002],[-81.30000000000001,31.416702799999996],[-81.30000000000001,31.414817500000026],[-81.30000000000001,31.414082599999972],[-81.30000000000001,31.41381769999998],[-81.30000000000001,31.412635799999975],[-81.30000000000001,31.411776299999985],[-81.30000000000001,31.411668399999996],[-81.30000000000001,31.410889399999974],[-81.30000000000001,31.410181299999977],[-81.30000000000001,31.409242000000006],[-81.30000000000001,31.40877039999998],[-81.30000000000001,31.404950199999973],[-81.30000000000001,31.403385500000013],[-81.30000000000001,31.402409999999975],[-81.30000000000001,31.385385600000006],[-81.30000000000001,31.38196049999999],[-81.30000000000001,31.381824199999983],[-81.30000000000001,31.381702399999995],[-81.30000000000001,31.381435899999985],[-81.30000000000001,31.38003329999998],[-81.30000000000001,31.37959380000001],[-81.30000000000001,31.379422599999998],[-81.30000000000001,31.379064299999982],[-81.30000000000001,31.37894369999998],[-81.30000000000001,31.378854100000012],[-81.30000000000001,31.377955600000007],[-81.30000000000001,31.375509000000022],[-81.30000000000001,31.37183379999999],[-81.30000000000001,31.371362599999998],[-81.30000000000001,31.368368900000007],[-81.30000000000001,31.368007499999976],[-81.30000000000001,31.36680899999999],[-81.30000000000001,31.366385999999977],[-81.30000000000001,31.3662736],[-81.30000000000001,31.35405639999999],[-81.30000000000001,31.351952700000027],[-81.30000000000001,31.350000000000023]]]}},{"type":"Feature","properties":{},"geometry":{"type":"Polygon","coordinates":[[[-81.22500000000002,31.350000000000023],[-81.21866260000002,31.350000000000023],[-81.209993,31.350000000000023],[-81.20349199999998,31.350000000000023],[-81.19059779999998,31.350000000000023],[-81.18922830000002,31.350000000000023],[-81.18541219999997,31.350000000000023],[-81.1808628,31.350000000000023],[-81.18040450000001,31.350000000000023],[-81.18034560000001,31.350000000000023],[-81.14999999999998,31.350000000000023],[-81.14999999999998,31.35515140000001],[-81.14999999999998,31.375509000000022],[-81.14999999999998,31.376222400000017],[-81.14999999999998,31.42500000000001],[-81.16617969999999,31.42500000000001],[-81.16663360000001,31.42500000000001],[-81.17820069999999,31.42500000000001],[-81.1986695,31.42500000000001],[-81.20268499999997,31.42500000000001],[-81.20521609999997,31.42500000000001],[-81.22500000000002,31.42500000000001],[-81.22500000000002,31.409112900000025],[-81.22500000000002,31.385011099999986],[-81.22500000000002,31.38350889999998],[-81.22500000000002,31.380088999999998],[-81.22500000000002,31.375509000000022],[-81.22500000000002,31.373354000000006],[-81.22500000000002,31.36662690000003],[-81.22500000000002,31.364566799999977],[-81.22500000000002,31.353392199999973],[-81.22500000000002,31.350000000000023]]]}},{"type":"Feature","properties":{},"geometry":{"type":"Polygon","coordinates":[[[-81.375,31.42500000000001],[-81.374372,31.42500000000001],[-81.37424479999999,31.42500000000001],[-81.373965,31.42500000000001],[-81.35787040000002,31.42500000000001],[-81.35746180000001,31.42500000000001],[-81.35737169999999,31.42500000000001],[-81.35678360000003,31.42500000000001],[-81.3566965,31.42500000000001],[-81.3552282,31.42500000000001],[-81.3551756,31.42500000000001],[-81.35459450000002,31.42500000000001],[-81.35450320000001,31.42500000000001],[-81.35177879999998,31.42500000000001],[-81.35167669999998,31.42500000000001],[-81.35094559999999,31.42500000000001],[-81.3508238,31.42500000000001],[-81.33842340000001,31.42500000000001],[-81.33830010000003,31.42500000000001],[-81.33705930000002,31.42500000000001],[-81.3356791,31.42500000000001],[-81.33514389999999,31.42500000000001],[-81.33506799999998,31.42500000000001],[-81.3256053,31.42500000000001],[-81.32475540000002,31.42500000000001],[-81.32457269999998,31.42500000000001],[-81.32378799999998,31.42500000000001],[-81.32152309999998,31.42500000000001],[-81.31911860000002,31.42500000000001],[-81.31826560000002,31.42500000000001],[-81.31638220000002,31.42500000000001],[-81.31581899999998,31.42500000000001],[-81.31516920000001,31.42500000000001],[-81.31227430000001,31.42500000000001],[-81.31065100000001,31.42500000000001],[-81.30976170000002,31.42500000000001],[-81.30946849999998,31.42500000000001],[-81.30825340000001,31.42500000000001],[-81.3073822,31.42500000000001],[-81.30095160000002,31.42500000000001],[-81.30000000000001,31.42500000000001],[-81.30000000000001,31.42563389999998],[-81.30000000000001,31.429699200000016],[-81.30000000000001,31.43711350000001],[-81.30000000000001,31.446662800000013],[-81.30000000000001,31.453460099999972],[-81.30000000000001,31.453587000000027],[-81.30000000000001,31.453973599999983],[-81.30000000000001,31.45409940000002],[-81.30000000000001,31.45920269999999],[-81.30000000000001,31.459324200000026],[-81.30000000000001,31.460242499999993],[-81.30000000000001,31.461127799999986],[-81.30000000000001,31.46138739999998],[-81.30000000000001,31.464969300000007],[-81.30000000000001,31.465222700000027],[-81.30000000000001,31.46939900000001],[-81.30000000000001,31.47000750000001],[-81.30000000000001,31.47071360000001],[-81.30000000000001,31.472063600000013],[-81.30000000000001,31.473009900000022],[-81.30000000000001,31.48266289999998],[-81.30000000000001,31.482942100000002],[-81.30000000000001,31.48320530000001],[-81.30000000000001,31.483848899999998],[-81.30000000000001,31.48556500000001],[-81.30000000000001,31.488267399999984],[-81.30000000000001,31.49049880000001],[-81.30000000000001,31.491077899999993],[-81.30000000000001,31.491161799999986],[-81.30000000000001,31.491394200000002],[-81.30000000000001,31.5],[-81.30031780000002,31.5],[-81.3012602,31.5],[-81.3145695,31.5],[-81.31495159999997,31.5],[-81.31559249999998,31.5],[-81.31609220000001,31.5],[-81.31669549999998,31.5],[-81.3171428,31.5],[-81.3173741,31.5],[-81.3175319,31.5],[-81.32285250000001,31.5],[-81.32351499999999,31.5],[-81.32406850000001,31.5],[-81.32446390000001,31.5],[-81.32463419999999,31.5],[-81.3254485,31.5],[-81.32567,31.5],[-81.32651829999998,31.5],[-81.3279637,31.5],[-81.33170919999998,31.5],[-81.33421950000002,31.5],[-81.33443369999998,31.5],[-81.33473629999997,31.5],[-81.33604329999997,31.5],[-81.3371429,31.5],[-81.33731069999999,31.5],[-81.34310199999999,31.5],[-81.34331470000001,31.5],[-81.34400540000001,31.5],[-81.34495140000001,31.5],[-81.3457717,31.5],[-81.3461757,31.5],[-81.34643949999997,31.5],[-81.34700149999998,31.5],[-81.34747959999999,31.5],[-81.34805069999999,31.5],[-81.35018179999997,31.5],[-81.35056100000003,31.5],[-81.3524663,31.5],[-81.35301090000002,31.5],[-81.35419519999999,31.5],[-81.35480339999998,31.5],[-81.35496319999999,31.5],[-81.35634499999998,31.5],[-81.375,31.5],[-81.375,31.44851890000001],[-81.375,31.448099000000013],[-81.375,31.446038799999997],[-81.375,31.441883099999984],[-81.375,31.441422499999987],[-81.375,31.440603199999998],[-81.375,31.440479900000014],[-81.375,31.440286500000013],[-81.375,31.434238800000003],[-81.375,31.43400489999999],[-81.375,31.430261499999972],[-81.375,31.42609540000001],[-81.375,31.42534710000001],[-81.375,31.42500000000001]]]}},{"type":"Feature","properties":{},"geometry":{"type":"Polygon","coordinates":[[[-81.52499999999998,30.975000000000023],[-81.52230909999997,30.975000000000023],[-81.52184019999999,30.975000000000023],[-81.52146440000001,30.975000000000023],[-81.51663980000001,30.975000000000023],[-81.51269719999999,30.975000000000023],[-81.51068729999997,30.975000000000023],[-81.5084096,30.975000000000023],[-81.50682289999997,30.975000000000023],[-81.50592990000001,30.975000000000023],[-81.50382530000002,30.975000000000023],[-81.50314739999999,30.975000000000023],[-81.49755499999998,30.975000000000023],[-81.49697680000003,30.975000000000023],[-81.49556610000002,30.975000000000023],[-81.49501759999998,30.975000000000023],[-81.49408749999998,30.975000000000023],[-81.4887076,30.975000000000023],[-81.48737990000001,30.975000000000023],[-81.48609049999999,30.975000000000023],[-81.4843634,30.975000000000023],[-81.4769478,30.975000000000023],[-81.4748851,30.975000000000023],[-81.4710847,30.975000000000023],[-81.47005050000001,30.975000000000023],[-81.46824029999999,30.975000000000023],[-81.450581,30.975000000000023],[-81.44999999999999,30.975000000000023],[-81.44999999999999,30.975106700000026],[-81.44999999999999,30.97597330000002],[-81.44999999999999,30.97954679999998],[-81.44999999999999,30.981849399999987],[-81.44999999999999,30.982303600000023],[-81.44999999999999,30.984233200000006],[-81.44999999999999,30.98510909999999],[-81.44999999999999,30.98556480000002],[-81.44999999999999,30.986595899999998],[-81.44999999999999,30.98684700000001],[-81.44999999999999,30.991627800000003],[-81.44999999999999,30.994776300000012],[-81.44999999999999,30.995858],[-81.44999999999999,31.0010269],[-81.44999999999999,31.00153769999997],[-81.44999999999999,31.010154100000022],[-81.44999999999999,31.0113872],[-81.44999999999999,31.01324219999998],[-81.44999999999999,31.013913100000025],[-81.44999999999999,31.01755989999998],[-81.44999999999999,31.01827320000001],[-81.44999999999999,31.020145000000014],[-81.44999999999999,31.02079329999998],[-81.44999999999999,31.022213000000022],[-81.44999999999999,31.023603100000003],[-81.44999999999999,31.025479099999984],[-81.44999999999999,31.027090499999986],[-81.44999999999999,31.02718390000001],[-81.44999999999999,31.02758940000001],[-81.44999999999999,31.02805810000001],[-81.44999999999999,31.028891999999985],[-81.44999999999999,31.030114000000026],[-81.44999999999999,31.03037710000001],[-81.44999999999999,31.034137299999998],[-81.44999999999999,31.037380999999982],[-81.44999999999999,31.040216199999975],[-81.44999999999999,31.041742499999998],[-81.44999999999999,31.04467390000002],[-81.44999999999999,31.045288200000016],[-81.44999999999999,31.045569],[-81.44999999999999,31.04775239999998],[-81.44999999999999,31.048110599999973],[-81.44999999999999,31.04975250000001],[-81.44999999999999,31.05000000000001],[-81.45029549999998,31.05000000000001],[-81.45051039999998,31.05000000000001],[-81.46314260000003,31.05000000000001],[-81.46368580000001,31.05000000000001],[-81.46471880000001,31.05000000000001],[-81.4656359,31.05000000000001],[-81.4690339,31.05000000000001],[-81.46950370000002,31.05000000000001],[-81.4697291,31.05000000000001],[-81.47017299999999,31.05000000000001],[-81.47350510000001,31.05000000000001],[-81.47369479999998,31.05000000000001],[-81.47552489999998,31.05000000000001],[-81.4757108,31.05000000000001],[-81.4869339,31.05000000000001],[-81.48772120000001,31.05000000000001],[-81.48957769999998,31.05000000000001],[-81.49096580000003,31.05000000000001],[-81.49109529999998,31.05000000000001],[-81.49166179999997,31.05000000000001],[-81.49955990000001,31.05000000000001],[-81.5000695,31.05000000000001],[-81.50113010000001,31.05000000000001],[-81.5021865,31.05000000000001],[-81.50291170000003,31.05000000000001],[-81.50339029999998,31.05000000000001],[-81.51153090000003,31.05000000000001],[-81.51285139999999,31.05000000000001],[-81.51718019999998,31.05000000000001],[-81.5209274,31.05000000000001],[-81.52154439999998,31.05000000000001],[-81.52274440000002,31.05000000000001],[-81.52295049999998,31.05000000000001],[-81.52348060000003,31.05000000000001],[-81.5241828,31.05000000000001],[-81.52499999999998,31.05000000000001],[-81.52499999999998,31.046895600000028],[-81.52499999999998,31.04486320000001],[-81.52499999999998,31.021468900000002],[-81.52499999999998,31.015827399999978],[-81.52499999999998,31.014970699999992],[-81.52499999999998,31.014175899999998],[-81.52499999999998,31.013673900000015],[-81.52499999999998,31.00503359999999],[-81.52499999999998,31.004735600000004],[-81.52499999999998,31.003696600000012],[-81.52499999999998,30.994417999999996],[-81.52499999999998,30.9933178],[-81.52499999999998,30.991485899999986],[-81.52499999999998,30.989560200000028],[-81.52499999999998,30.98770810000002],[-81.52499999999998,30.985929499999997],[-81.52499999999998,30.985629399999993],[-81.52499999999998,30.984956599999975],[-81.52499999999998,30.984570500000018],[-81.52499999999998,30.98283040000001],[-81.52499999999998,30.981316800000002],[-81.52499999999998,30.98039510000001],[-81.52499999999998,30.9786747],[-81.52499999999998,30.978239299999984],[-81.52499999999998,30.97783720000001],[-81.52499999999998,30.975000000000023]]]}},{"type":"Feature","properties":{},"geometry":{"type":"Polygon","coordinates":[[[-81.44999999999999,30.975000000000023],[-81.44947050000002,30.975000000000023],[-81.44746270000002,30.975000000000023],[-81.44528109999999,30.975000000000023],[-81.440313,30.975000000000023],[-81.43564930000002,30.975000000000023],[-81.42809629999999,30.975000000000023],[-81.4257667,30.975000000000023],[-81.4255182,30.975000000000023],[-81.42525819999997,30.975000000000023],[-81.42006270000002,30.975000000000023],[-81.4196743,30.975000000000023],[-81.41929779999998,30.975000000000023],[-81.41884429999999,30.975000000000023],[-81.4063587,30.975000000000023],[-81.40611799999999,30.975000000000023],[-81.40543200000002,30.975000000000023],[-81.40473259999999,30.975000000000023],[-81.40088909999997,30.975000000000023],[-81.40030410000003,30.975000000000023],[-81.39516889999999,30.975000000000023],[-81.39457290000001,30.975000000000023],[-81.3937209,30.975000000000023],[-81.39235939999998,30.975000000000023],[-81.39191069999998,30.975000000000023],[-81.38445139999999,30.975000000000023],[-81.38270369999998,30.975000000000023],[-81.3815113,30.975000000000023],[-81.3812911,30.975000000000023],[-81.38085610000002,30.975000000000023],[-81.375,30.975000000000023],[-81.375,30.982879700000012],[-81.375,30.984620000000007],[-81.375,30.984878999999978],[-81.375,30.986269400000026],[-81.375,30.98862600000001],[-81.375,31.00448160000002],[-81.375,31.005436499999973],[-81.375,31.006525099999976],[-81.375,31.00877939999998],[-81.375,31.014139699999987],[-81.375,31.01592210000001],[-81.375,31.017580699999996],[-81.375,31.019617600000004],[-81.375,31.022881199999972],[-81.375,31.024943199999996],[-81.375,31.027061300000014],[-81.375,31.029763100000025],[-81.375,31.029923999999994],[-81.375,31.0327274],[-81.375,31.034619599999985],[-81.375,31.037116200000014],[-81.375,31.0404087],[-81.375,31.04260690000001],[-81.375,31.04972909999998],[-81.375,31.05000000000001],[-81.37517009999999,31.05000000000001],[-81.37639730000001,31.05000000000001],[-81.4078728,31.05000000000001],[-81.40871579999998,31.05000000000001],[-81.42150570000001,31.05000000000001],[-81.42182709999997,31.05000000000001],[-81.42200609999998,31.05000000000001],[-81.4227871,31.05000000000001],[-81.42279079999997,31.05000000000001],[-81.42325879999999,31.05000000000001],[-81.42483650000003,31.05000000000001],[-81.42552030000002,31.05000000000001],[-81.42638840000001,31.05000000000001],[-81.4356401,31.05000000000001],[-81.43670580000003,31.05000000000001],[-81.43766470000003,31.05000000000001],[-81.4403206,31.05000000000001],[-81.44309720000001,31.05000000000001],[-81.44425840000002,31.05000000000001],[-81.44541500000003,31.05000000000001],[-81.44603669999998,31.05000000000001],[-81.44716460000001,31.05000000000001],[-81.44843859999997,31.05000000000001],[-81.44922789999998,31.05000000000001],[-81.44988610000001,31.05000000000001],[-81.44999999999999,31.05000000000001],[-81.44999999999999,31.04975250000001],[-81.44999999999999,31.048110599999973],[-81.44999999999999,31.04775239999998],[-81.44999999999999,31.045569],[-81.44999999999999,31.045288200000016],[-81.44999999999999,31.04467390000002],[-81.44999999999999,31.041742499999998],[-81.44999999999999,31.040216199999975],[-81.44999999999999,31.037380999999982],[-81.44999999999999,31.034137299999998],[-81.44999999999999,31.03037710000001],[-81.44999999999999,31.030114000000026],[-81.44999999999999,31.028891999999985],[-81.44999999999999,31.02805810000001],[-81.44999999999999,31.02758940000001],[-81.44999999999999,31.02718390000001],[-81.44999999999999,31.027090499999986],[-81.44999999999999,31.025479099999984],[-81.44999999999999,31.023603100000003],[-81.44999999999999,31.022213000000022],[-81.44999999999999,31.02079329999998],[-81.44999999999999,31.020145000000014],[-81.44999999999999,31.01827320000001],[-81.44999999999999,31.01755989999998],[-81.44999999999999,31.013913100000025],[-81.44999999999999,31.01324219999998],[-81.44999999999999,31.0113872],[-81.44999999999999,31.010154100000022],[-81.44999999999999,31.00153769999997],[-81.44999999999999,31.0010269],[-81.44999999999999,30.995858],[-81.44999999999999,30.994776300000012],[-81.44999999999999,30.991627800000003],[-81.44999999999999,30.98684700000001],[-81.44999999999999,30.986595899999998],[-81.44999999999999,30.98556480000002],[-81.44999999999999,30.98510909999999],[-81.44999999999999,30.984233200000006],[-81.44999999999999,30.982303600000023],[-81.44999999999999,30.981849399999987],[-81.44999999999999,30.97954679999998],[-81.44999999999999,30.97597330000002],[-81.44999999999999,30.975106700000026],[-81.44999999999999,30.975000000000023]]]}},{"type":"Feature","properties":{},"geometry":{"type":"Polygon","coordinates":[[[-81.2982834,30.975000000000023],[-81.27148799999998,30.975000000000023],[-81.22500000000002,30.975000000000023],[-81.22500000000002,30.998210500000027],[-81.22500000000002,31.007438200000024],[-81.22500000000002,31.016294800000026],[-81.22500000000002,31.044408299999986],[-81.22500000000002,31.05000000000001],[-81.24134079999999,31.05000000000001],[-81.24376519999998,31.05000000000001],[-81.24449010000001,31.05000000000001],[-81.24521529999998,31.05000000000001],[-81.24594059999998,31.05000000000001],[-81.24666400000001,31.05000000000001],[-81.24767150000002,31.05000000000001],[-81.2700208,31.05000000000001],[-81.27148799999998,31.05000000000001],[-81.27905879999997,31.05000000000001],[-81.30000000000001,31.05000000000001],[-81.30000000000001,31.02778669999998],[-81.30000000000001,31.0130532],[-81.30000000000001,30.982673499999976],[-81.30000000000001,30.982075599999973],[-81.30000000000001,30.98064549999998],[-81.30000000000001,30.975000000000023],[-81.2987056,30.975000000000023],[-81.2982834,30.975000000000023]]]}},{"type":"Feature","properties":{},"geometry":{"type":"Polygon","coordinates":[[[-81.18415820000001,30.975000000000023],[-81.18176519999997,30.975000000000023],[-81.1727674,30.975000000000023],[-81.14999999999998,30.975000000000023],[-81.14999999999998,30.975047099999983],[-81.14999999999998,30.99804519999998],[-81.14999999999998,31.01366919999998],[-81.14999999999998,31.0428048],[-81.14999999999998,31.05000000000001],[-81.20159899999999,31.05000000000001],[-81.20675210000002,31.05000000000001],[-81.21942689999997,31.05000000000001],[-81.22387989999999,31.05000000000001],[-81.22500000000002,31.05000000000001],[-81.22500000000002,31.044408299999986],[-81.22500000000002,31.016294800000026],[-81.22500000000002,31.007438200000024],[-81.22500000000002,30.998210500000027],[-81.22500000000002,30.975000000000023],[-81.2031849,30.975000000000023],[-81.18415820000001,30.975000000000023]]]}},{"type":"Feature","properties":{},"geometry":{"type":"Polygon","coordinates":[[[-81.53944000000001,31.05000000000001],[-81.53730430000002,31.05000000000001],[-81.53603190000001,31.05000000000001],[-81.53174250000001,31.05000000000001],[-81.5302082,31.05000000000001],[-81.53002529999998,31.05000000000001],[-81.5285414,31.05000000000001],[-81.5279908,31.05000000000001],[-81.52499999999998,31.05000000000001],[-81.52499999999998,31.05047810000002],[-81.52499999999998,31.051029599999993],[-81.52499999999998,31.052054],[-81.52499999999998,31.055430699999988],[-81.52499999999998,31.05589199999997],[-81.52499999999998,31.056722499999978],[-81.52499999999998,31.05717759999999],[-81.52499999999998,31.058224699999982],[-81.52499999999998,31.060974499999986],[-81.52499999999998,31.061951799999974],[-81.52499999999998,31.063853600000016],[-81.52499999999998,31.064004599999976],[-81.52499999999998,31.064195700000028],[-81.52499999999998,31.079784000000018],[-81.52499999999998,31.08973370000001],[-81.52499999999998,31.09000800000001],[-81.52499999999998,31.0906205],[-81.52499999999998,31.094850800000017],[-81.52499999999998,31.095212500000002],[-81.52499999999998,31.101273900000024],[-81.52499999999998,31.101482599999997],[-81.52499999999998,31.10280899999998],[-81.52499999999998,31.103250100000025],[-81.52499999999998,31.107499200000007],[-81.52499999999998,31.109796099999983],[-81.52499999999998,31.110476300000016],[-81.52499999999998,31.110570100000018],[-81.52499999999998,31.111560699999984],[-81.52499999999998,31.11219460000001],[-81.52499999999998,31.119365300000027],[-81.52499999999998,31.119587200000012],[-81.52499999999998,31.119726000000014],[-81.52499999999998,31.125],[-81.5302575,31.125],[-81.5454006,31.125],[-81.54854139999998,31.125],[-81.54957200000001,31.125],[-81.5514015,31.125],[-81.5517633,31.125],[-81.55194499999999,31.125],[-81.55208140000002,31.125],[-81.55242270000002,31.125],[-81.55765029999998,31.125],[-81.5588004,31.125],[-81.57399079999999,31.125],[-81.57549920000002,31.125],[-81.57898499999999,31.125],[-81.59472649999998,31.125],[-81.59981800000003,31.125],[-81.60000000000002,31.125],[-81.60000000000002,31.07245499999999],[-81.60000000000002,31.05000000000001],[-81.54134019999998,31.05000000000001],[-81.53944000000001,31.05000000000001]]]}},{"type":"Feature","properties":{},"geometry":{"type":"Polygon","coordinates":[[[-81.52348060000003,31.05000000000001],[-81.52295049999998,31.05000000000001],[-81.52274440000002,31.05000000000001],[-81.52154439999998,31.05000000000001],[-81.5209274,31.05000000000001],[-81.51718019999998,31.05000000000001],[-81.51285139999999,31.05000000000001],[-81.51153090000003,31.05000000000001],[-81.50339029999998,31.05000000000001],[-81.50291170000003,31.05000000000001],[-81.5021865,31.05000000000001],[-81.50113010000001,31.05000000000001],[-81.5000695,31.05000000000001],[-81.49955990000001,31.05000000000001],[-81.49166179999997,31.05000000000001],[-81.49109529999998,31.05000000000001],[-81.49096580000003,31.05000000000001],[-81.48957769999998,31.05000000000001],[-81.48772120000001,31.05000000000001],[-81.4869339,31.05000000000001],[-81.4757108,31.05000000000001],[-81.47552489999998,31.05000000000001],[-81.47369479999998,31.05000000000001],[-81.47350510000001,31.05000000000001],[-81.47017299999999,31.05000000000001],[-81.4697291,31.05000000000001],[-81.46950370000002,31.05000000000001],[-81.4690339,31.05000000000001],[-81.4656359,31.05000000000001],[-81.46471880000001,31.05000000000001],[-81.46368580000001,31.05000000000001],[-81.46314260000003,31.05000000000001],[-81.45051039999998,31.05000000000001],[-81.45029549999998,31.05000000000001],[-81.44999999999999,31.05000000000001],[-81.44999999999999,31.05116800000002],[-81.44999999999999,31.051922900000022],[-81.44999999999999,31.052200000000028],[-81.44999999999999,31.05589199999997],[-81.44999999999999,31.06061890000001],[-81.44999999999999,31.061325399999987],[-81.44999999999999,31.06210379999999],[-81.44999999999999,31.062398499999972],[-81.44999999999999,31.063126699999998],[-81.44999999999999,31.063247100000012],[-81.44999999999999,31.078510800000004],[-81.44999999999999,31.078890399999977],[-81.44999999999999,31.084062200000005],[-81.44999999999999,31.0853563],[-81.44999999999999,31.092005900000004],[-81.44999999999999,31.093667299999993],[-81.44999999999999,31.098768800000016],[-81.44999999999999,31.099508500000013],[-81.44999999999999,31.103546100000017],[-81.44999999999999,31.103765099999976],[-81.44999999999999,31.10404970000002],[-81.44999999999999,31.104333999999994],[-81.44999999999999,31.10433690000002],[-81.44999999999999,31.104618200000004],[-81.44999999999999,31.104902600000003],[-81.44999999999999,31.104932399999996],[-81.44999999999999,31.106954599999995],[-81.44999999999999,31.107130600000005],[-81.44999999999999,31.108196799999973],[-81.44999999999999,31.108650899999986],[-81.44999999999999,31.10980139999998],[-81.44999999999999,31.110550400000022],[-81.44999999999999,31.110683800000004],[-81.44999999999999,31.11161070000003],[-81.44999999999999,31.117218400000013],[-81.44999999999999,31.117874900000004],[-81.44999999999999,31.119949799999972],[-81.44999999999999,31.122174700000016],[-81.44999999999999,31.12250130000001],[-81.44999999999999,31.125],[-81.45444379999998,31.125],[-81.45603679999999,31.125],[-81.46350380000001,31.125],[-81.46410650000001,31.125],[-81.464268,31.125],[-81.47631710000002,31.125],[-81.47943090000001,31.125],[-81.47961620000001,31.125],[-81.47972379999999,31.125],[-81.48012010000002,31.125],[-81.48752810000002,31.125],[-81.4887182,31.125],[-81.4895568,31.125],[-81.49004339999999,31.125],[-81.49029239999999,31.125],[-81.49037290000001,31.125],[-81.49073850000002,31.125],[-81.490793,31.125],[-81.4909007,31.125],[-81.49092519999999,31.125],[-81.49105309999999,31.125],[-81.4913118,31.125],[-81.49164459999997,31.125],[-81.49169649999999,31.125],[-81.4919774,31.125],[-81.49238380000003,31.125],[-81.49241740000002,31.125],[-81.49324589999998,31.125],[-81.49752269999999,31.125],[-81.4984637,31.125],[-81.49976079999999,31.125],[-81.50020030000002,31.125],[-81.5005971,31.125],[-81.50181609999998,31.125],[-81.5022313,31.125],[-81.5038659,31.125],[-81.5048031,31.125],[-81.50495860000001,31.125],[-81.50719950000001,31.125],[-81.50804,31.125],[-81.50844000000001,31.125],[-81.50886070000001,31.125],[-81.5096815,31.125],[-81.51050650000002,31.125],[-81.51118409999998,31.125],[-81.51661960000001,31.125],[-81.51745,31.125],[-81.51791150000003,31.125],[-81.51886409999997,31.125],[-81.519564,31.125],[-81.52499999999998,31.125],[-81.52499999999998,31.119726000000014],[-81.52499999999998,31.119587200000012],[-81.52499999999998,31.119365300000027],[-81.52499999999998,31.11219460000001],[-81.52499999999998,31.111560699999984],[-81.52499999999998,31.110570100000018],[-81.52499999999998,31.110476300000016],[-81.52499999999998,31.109796099999983],[-81.52499999999998,31.107499200000007],[-81.52499999999998,31.103250100000025],[-81.52499999999998,31.10280899999998],[-81.52499999999998,31.101482599999997],[-81.52499999999998,31.101273900000024],[-81.52499999999998,31.095212500000002],[-81.52499999999998,31.094850800000017],[-81.52499999999998,31.0906205],[-81.52499999999998,31.09000800000001],[-81.52499999999998,31.08973370000001],[-81.52499999999998,31.079784000000018],[-81.52499999999998,31.064195700000028],[-81.52499999999998,31.064004599999976],[-81.52499999999998,31.063853600000016],[-81.52499999999998,31.061951799999974],[-81.52499999999998,31.060974499999986],[-81.52499999999998,31.058224699999982],[-81.52499999999998,31.05717759999999],[-81.52499999999998,31.056722499999978],[-81.52499999999998,31.05589199999997],[-81.52499999999998,31.055430699999988],[-81.52499999999998,31.052054],[-81.52499999999998,31.051029599999993],[-81.52499999999998,31.05047810000002],[-81.52499999999998,31.05000000000001],[-81.5241828,31.05000000000001],[-81.52348060000003,31.05000000000001]]]}},{"type":"Feature","properties":{},"geometry":{"type":"Polygon","coordinates":[[[-81.44922789999998,31.05000000000001],[-81.44843859999997,31.05000000000001],[-81.44716460000001,31.05000000000001],[-81.44603669999998,31.05000000000001],[-81.44541500000003,31.05000000000001],[-81.44425840000002,31.05000000000001],[-81.44309720000001,31.05000000000001],[-81.4403206,31.05000000000001],[-81.43766470000003,31.05000000000001],[-81.43670580000003,31.05000000000001],[-81.4356401,31.05000000000001],[-81.42638840000001,31.05000000000001],[-81.42552030000002,31.05000000000001],[-81.42483650000003,31.05000000000001],[-81.42325879999999,31.05000000000001],[-81.42279079999997,31.05000000000001],[-81.4227871,31.05000000000001],[-81.42200609999998,31.05000000000001],[-81.42182709999997,31.05000000000001],[-81.42150570000001,31.05000000000001],[-81.40871579999998,31.05000000000001],[-81.4078728,31.05000000000001],[-81.37639730000001,31.05000000000001],[-81.37517009999999,31.05000000000001],[-81.375,31.05000000000001],[-81.375,31.050517300000024],[-81.375,31.052416900000026],[-81.375,31.05589199999997],[-81.375,31.080039399999976],[-81.375,31.10027580000002],[-81.375,31.10810459999999],[-81.375,31.1089197],[-81.375,31.109910800000023],[-81.375,31.115856399999984],[-81.375,31.116050599999994],[-81.375,31.1199474],[-81.375,31.12038339999998],[-81.375,31.1209202],[-81.375,31.121733399999982],[-81.375,31.122059999999976],[-81.375,31.122775999999988],[-81.375,31.123187799999982],[-81.375,31.1235992],[-81.375,31.12369430000001],[-81.375,31.123913300000027],[-81.375,31.12419219999998],[-81.375,31.125],[-81.37534399999998,31.125],[-81.3784617,31.125],[-81.37965809999997,31.125],[-81.3808252,31.125],[-81.38087940000003,31.125],[-81.38210099999998,31.125],[-81.38332029999998,31.125],[-81.3839127,31.125],[-81.38540110000002,31.125],[-81.3875961,31.125],[-81.39714420000001,31.125],[-81.39724760000001,31.125],[-81.40366790000002,31.125],[-81.40393610000001,31.125],[-81.40404089999998,31.125],[-81.40814929999999,31.125],[-81.40952149999998,31.125],[-81.41121659999999,31.125],[-81.41376409999998,31.125],[-81.41405420000001,31.125],[-81.41416500000003,31.125],[-81.41456549999998,31.125],[-81.41484960000003,31.125],[-81.41496649999999,31.125],[-81.41537140000003,31.125],[-81.42017570000002,31.125],[-81.42282239999997,31.125],[-81.4229487,31.125],[-81.42480440000003,31.125],[-81.42629670000002,31.125],[-81.42748499999999,31.125],[-81.42941669999999,31.125],[-81.43717670000001,31.125],[-81.44141719999999,31.125],[-81.44213300000001,31.125],[-81.4484842,31.125],[-81.44897370000001,31.125],[-81.44999999999999,31.125],[-81.44999999999999,31.12250130000001],[-81.44999999999999,31.122174700000016],[-81.44999999999999,31.119949799999972],[-81.44999999999999,31.117874900000004],[-81.44999999999999,31.117218400000013],[-81.44999999999999,31.11161070000003],[-81.44999999999999,31.110683800000004],[-81.44999999999999,31.110550400000022],[-81.44999999999999,31.10980139999998],[-81.44999999999999,31.108650899999986],[-81.44999999999999,31.108196799999973],[-81.44999999999999,31.107130600000005],[-81.44999999999999,31.106954599999995],[-81.44999999999999,31.104932399999996],[-81.44999999999999,31.104902600000003],[-81.44999999999999,31.104618200000004],[-81.44999999999999,31.10433690000002],[-81.44999999999999,31.104333999999994],[-81.44999999999999,31.10404970000002],[-81.44999999999999,31.103765099999976],[-81.44999999999999,31.103546100000017],[-81.44999999999999,31.099508500000013],[-81.44999999999999,31.098768800000016],[-81.44999999999999,31.093667299999993],[-81.44999999999999,31.092005900000004],[-81.44999999999999,31.0853563],[-81.44999999999999,31.084062200000005],[-81.44999999999999,31.078890399999977],[-81.44999999999999,31.078510800000004],[-81.44999999999999,31.063247100000012],[-81.44999999999999,31.063126699999998],[-81.44999999999999,31.062398499999972],[-81.44999999999999,31.06210379999999],[-81.44999999999999,31.061325399999987],[-81.44999999999999,31.06061890000001],[-81.44999999999999,31.05589199999997],[-81.44999999999999,31.052200000000028],[-81.44999999999999,31.051922900000022],[-81.44999999999999,31.05116800000002],[-81.44999999999999,31.05000000000001],[-81.44988610000001,31.05000000000001],[-81.44922789999998,31.05000000000001]]]}},{"type":"Feature","properties":{},"geometry":{"type":"Polygon","coordinates":[[[-81.37168430000003,31.05000000000001],[-81.37137289999998,31.05000000000001],[-81.3654062,31.05000000000001],[-81.36444799999998,31.05000000000001],[-81.35663749999998,31.05000000000001],[-81.35578370000002,31.05000000000001],[-81.35514219999999,31.05000000000001],[-81.35343920000003,31.05000000000001],[-81.34520420000001,31.05000000000001],[-81.34478330000002,31.05000000000001],[-81.34107560000001,31.05000000000001],[-81.3399245,31.05000000000001],[-81.3390157,31.05000000000001],[-81.3372559,31.05000000000001],[-81.3348001,31.05000000000001],[-81.333508,31.05000000000001],[-81.3322751,31.05000000000001],[-81.33129580000002,31.05000000000001],[-81.325962,31.05000000000001],[-81.32585699999998,31.05000000000001],[-81.3129639,31.05000000000001],[-81.30000000000001,31.05000000000001],[-81.30000000000001,31.05589199999997],[-81.30000000000001,31.077512300000024],[-81.30000000000001,31.0780977],[-81.30000000000001,31.079765399999985],[-81.30000000000001,31.08026890000002],[-81.30000000000001,31.080679599999996],[-81.30000000000001,31.08109109999998],[-81.30000000000001,31.08150260000002],[-81.30000000000001,31.081913699999973],[-81.30000000000001,31.082306500000016],[-81.30000000000001,31.082403699999986],[-81.30000000000001,31.082863799999984],[-81.30000000000001,31.09049349999998],[-81.30000000000001,31.092341499999975],[-81.30000000000001,31.092409799999984],[-81.30000000000001,31.125],[-81.32372479999998,31.125],[-81.32381199999998,31.125],[-81.3355095,31.125],[-81.3391813,31.125],[-81.34035219999998,31.125],[-81.35095480000001,31.125],[-81.36194599999999,31.125],[-81.36930669999998,31.125],[-81.37171769999998,31.125],[-81.37227280000002,31.125],[-81.37246099999999,31.125],[-81.37349360000002,31.125],[-81.375,31.125],[-81.375,31.12419219999998],[-81.375,31.123913300000027],[-81.375,31.12369430000001],[-81.375,31.1235992],[-81.375,31.123187799999982],[-81.375,31.122775999999988],[-81.375,31.122059999999976],[-81.375,31.121733399999982],[-81.375,31.1209202],[-81.375,31.12038339999998],[-81.375,31.1199474],[-81.375,31.116050599999994],[-81.375,31.115856399999984],[-81.375,31.109910800000023],[-81.375,31.1089197],[-81.375,31.10810459999999],[-81.375,31.10027580000002],[-81.375,31.080039399999976],[-81.375,31.05589199999997],[-81.375,31.052416900000026],[-81.375,31.050517300000024],[-81.375,31.05000000000001],[-81.3740474,31.05000000000001],[-81.37168430000003,31.05000000000001]]]}},{"type":"Feature","properties":{},"geometry":{"type":"Polygon","coordinates":[[[-81.27148799999998,31.05000000000001],[-81.2700208,31.05000000000001],[-81.24767150000002,31.05000000000001],[-81.24666400000001,31.05000000000001],[-81.24594059999998,31.05000000000001],[-81.24521529999998,31.05000000000001],[-81.24449010000001,31.05000000000001],[-81.24376519999998,31.05000000000001],[-81.24134079999999,31.05000000000001],[-81.22500000000002,31.05000000000001],[-81.22500000000002,31.051004200000023],[-81.22500000000002,31.055891900000006],[-81.22500000000002,31.060711200000014],[-81.22500000000002,31.07573500000001],[-81.22500000000002,31.07750520000002],[-81.22500000000002,31.12032959999999],[-81.22500000000002,31.125],[-81.23193759999998,31.125],[-81.23570869999998,31.125],[-81.24512019999997,31.125],[-81.26906409999998,31.125],[-81.27762810000002,31.125],[-81.2899319,31.125],[-81.2903766,31.125],[-81.30000000000001,31.125],[-81.30000000000001,31.092409799999984],[-81.30000000000001,31.092341499999975],[-81.30000000000001,31.09049349999998],[-81.30000000000001,31.082863799999984],[-81.30000000000001,31.082403699999986],[-81.30000000000001,31.082306500000016],[-81.30000000000001,31.081913699999973],[-81.30000000000001,31.08150260000002],[-81.30000000000001,31.08109109999998],[-81.30000000000001,31.080679599999996],[-81.30000000000001,31.08026890000002],[-81.30000000000001,31.079765399999985],[-81.30000000000001,31.0780977],[-81.30000000000001,31.077512300000024],[-81.30000000000001,31.05589199999997],[-81.30000000000001,31.05000000000001],[-81.27905879999997,31.05000000000001],[-81.27148799999998,31.05000000000001]]]}},{"type":"Feature","properties":{},"geometry":{"type":"Polygon","coordinates":[[[-81.21942689999997,31.05000000000001],[-81.20675210000002,31.05000000000001],[-81.20159899999999,31.05000000000001],[-81.14999999999998,31.05000000000001],[-81.14999999999998,31.125],[-81.21696200000002,31.125],[-81.22483269999998,31.125],[-81.22500000000002,31.125],[-81.22500000000002,31.12032959999999],[-81.22500000000002,31.07750520000002],[-81.22500000000002,31.07573500000001],[-81.22500000000002,31.060711200000014],[-81.22500000000002,31.055891900000006],[-81.22500000000002,31.051004200000023],[-81.22500000000002,31.05000000000001],[-81.22387989999999,31.05000000000001],[-81.21942689999997,31.05000000000001]]]}},{"type":"Feature","properties":{},"geometry":{"type":"Polygon","coordinates":[[[-81.57898499999999,31.125],[-81.57549920000002,31.125],[-81.57399079999999,31.125],[-81.5588004,31.125],[-81.55765029999998,31.125],[-81.55242270000002,31.125],[-81.55208140000002,31.125],[-81.55194499999999,31.125],[-81.5517633,31.125],[-81.5514015,31.125],[-81.54957200000001,31.125],[-81.54854139999998,31.125],[-81.5454006,31.125],[-81.5302575,31.125],[-81.52499999999998,31.125],[-81.52499999999998,31.128621699999997],[-81.52499999999998,31.128892300000018],[-81.52499999999998,31.129309200000023],[-81.52499999999998,31.129428500000017],[-81.52499999999998,31.129706899999974],[-81.52499999999998,31.129784299999983],[-81.52499999999998,31.12984419999998],[-81.52499999999998,31.12998520000002],[-81.52499999999998,31.130263500000012],[-81.52499999999998,31.130541900000026],[-81.52499999999998,31.130842900000005],[-81.52499999999998,31.13086629999998],[-81.52499999999998,31.132351500000027],[-81.52499999999998,31.132626700000003],[-81.52499999999998,31.139016700000013],[-81.52499999999998,31.139559399999996],[-81.52499999999998,31.140045799999996],[-81.52499999999998,31.140102300000024],[-81.52499999999998,31.140645600000028],[-81.52499999999998,31.141188],[-81.52499999999998,31.142168000000026],[-81.52499999999998,31.1500269],[-81.52499999999998,31.159915099999978],[-81.52499999999998,31.16813159999998],[-81.52499999999998,31.169322299999976],[-81.52499999999998,31.170200599999987],[-81.52499999999998,31.170512900000006],[-81.52499999999998,31.1717036],[-81.52499999999998,31.17289390000002],[-81.52499999999998,31.17841149999998],[-81.52499999999998,31.17925580000002],[-81.52499999999998,31.180110800000023],[-81.52499999999998,31.180630199999996],[-81.52499999999998,31.181046100000003],[-81.52499999999998,31.18114969999999],[-81.52499999999998,31.181669],[-81.52499999999998,31.184483],[-81.52499999999998,31.184606099999996],[-81.52499999999998,31.18659389999999],[-81.52499999999998,31.18664130000002],[-81.52499999999998,31.187196299999982],[-81.52499999999998,31.18911589999999],[-81.52499999999998,31.1895629],[-81.52499999999998,31.191120300000023],[-81.52499999999998,31.194434],[-81.52499999999998,31.194674399999997],[-81.52499999999998,31.19604129999999],[-81.52499999999998,31.197589800000003],[-81.52499999999998,31.197797700000024],[-81.52499999999998,31.198131699999976],[-81.52499999999998,31.19999999999999],[-81.53114749999997,31.19999999999999],[-81.5323707,31.19999999999999],[-81.5325449,31.19999999999999],[-81.5330811,31.19999999999999],[-81.53320880000001,31.19999999999999],[-81.53377289999997,31.19999999999999],[-81.5348985,31.19999999999999],[-81.5359866,31.19999999999999],[-81.5364118,31.19999999999999],[-81.53913490000002,31.19999999999999],[-81.54823099999999,31.19999999999999],[-81.5486727,31.19999999999999],[-81.5490024,31.19999999999999],[-81.55445780000002,31.19999999999999],[-81.55476279999999,31.19999999999999],[-81.5551767,31.19999999999999],[-81.56583590000002,31.19999999999999],[-81.56726750000001,31.19999999999999],[-81.56790899999999,31.19999999999999],[-81.5681869,31.19999999999999],[-81.57112059999997,31.19999999999999],[-81.57160110000001,31.19999999999999],[-81.57171520000003,31.19999999999999],[-81.57291989999999,31.19999999999999],[-81.5768481,31.19999999999999],[-81.57733710000002,31.19999999999999],[-81.57898499999999,31.19999999999999],[-81.58365300000003,31.19999999999999],[-81.58397880000001,31.19999999999999],[-81.58747799999998,31.19999999999999],[-81.5985154,31.19999999999999],[-81.59981800000003,31.19999999999999],[-81.60000000000002,31.19999999999999],[-81.60000000000002,31.19936610000002],[-81.60000000000002,31.125],[-81.59472649999998,31.125],[-81.57898499999999,31.125]]]}},{"type":"Feature","properties":{},"geometry":{"type":"Polygon","coordinates":[[[-81.51886409999997,31.125],[-81.51791150000003,31.125],[-81.51745,31.125],[-81.51661960000001,31.125],[-81.51118409999998,31.125],[-81.51050650000002,31.125],[-81.5096815,31.125],[-81.50886070000001,31.125],[-81.50844000000001,31.125],[-81.50804,31.125],[-81.50719950000001,31.125],[-81.50495860000001,31.125],[-81.5048031,31.125],[-81.5038659,31.125],[-81.5022313,31.125],[-81.50181609999998,31.125],[-81.5005971,31.125],[-81.50020030000002,31.125],[-81.49976079999999,31.125],[-81.4984637,31.125],[-81.49752269999999,31.125],[-81.49324589999998,31.125],[-81.49241740000002,31.125],[-81.49238380000003,31.125],[-81.4919774,31.125],[-81.49169649999999,31.125],[-81.49164459999997,31.125],[-81.4913118,31.125],[-81.49105309999999,31.125],[-81.49092519999999,31.125],[-81.4909007,31.125],[-81.490793,31.125],[-81.49073850000002,31.125],[-81.49037290000001,31.125],[-81.49029239999999,31.125],[-81.49004339999999,31.125],[-81.4895568,31.125],[-81.4887182,31.125],[-81.48752810000002,31.125],[-81.48012010000002,31.125],[-81.47972379999999,31.125],[-81.47961620000001,31.125],[-81.47943090000001,31.125],[-81.47631710000002,31.125],[-81.464268,31.125],[-81.46410650000001,31.125],[-81.46350380000001,31.125],[-81.45603679999999,31.125],[-81.45444379999998,31.125],[-81.44999999999999,31.125],[-81.44999999999999,31.126061100000015],[-81.44999999999999,31.126522299999976],[-81.44999999999999,31.133760600000016],[-81.44999999999999,31.1341501],[-81.44999999999999,31.135166500000025],[-81.44999999999999,31.14156969999999],[-81.44999999999999,31.14278280000002],[-81.44999999999999,31.152262500000006],[-81.44999999999999,31.152787400000022],[-81.44999999999999,31.162783100000013],[-81.44999999999999,31.163221099999987],[-81.44999999999999,31.163847900000007],[-81.44999999999999,31.16445829999998],[-81.44999999999999,31.16562479999999],[-81.44999999999999,31.167584499999975],[-81.44999999999999,31.169816700000013],[-81.44999999999999,31.170653700000003],[-81.44999999999999,31.175807399999997],[-81.44999999999999,31.17779539999998],[-81.44999999999999,31.184145899999976],[-81.44999999999999,31.184505600000023],[-81.44999999999999,31.185118799999998],[-81.44999999999999,31.186048400000004],[-81.44999999999999,31.1876752],[-81.44999999999999,31.188434700000016],[-81.44999999999999,31.189348100000018],[-81.44999999999999,31.189758900000015],[-81.44999999999999,31.191447600000004],[-81.44999999999999,31.191609900000003],[-81.44999999999999,31.193156699999975],[-81.44999999999999,31.193199100000015],[-81.44999999999999,31.194221099999993],[-81.44999999999999,31.19506150000001],[-81.44999999999999,31.197622799999976],[-81.44999999999999,31.19779219999998],[-81.44999999999999,31.198340700000017],[-81.44999999999999,31.198449400000015],[-81.44999999999999,31.198830999999984],[-81.44999999999999,31.19999999999999],[-81.46705730000002,31.19999999999999],[-81.50585760000001,31.19999999999999],[-81.5067368,31.19999999999999],[-81.508873,31.19999999999999],[-81.51330139999999,31.19999999999999],[-81.51342949999997,31.19999999999999],[-81.51366380000002,31.19999999999999],[-81.51388450000002,31.19999999999999],[-81.51504970000002,31.19999999999999],[-81.52035669999998,31.19999999999999],[-81.52280990000003,31.19999999999999],[-81.52293220000001,31.19999999999999],[-81.52408100000002,31.19999999999999],[-81.52499999999998,31.19999999999999],[-81.52499999999998,31.198131699999976],[-81.52499999999998,31.197797700000024],[-81.52499999999998,31.197589800000003],[-81.52499999999998,31.19604129999999],[-81.52499999999998,31.194674399999997],[-81.52499999999998,31.194434],[-81.52499999999998,31.191120300000023],[-81.52499999999998,31.1895629],[-81.52499999999998,31.18911589999999],[-81.52499999999998,31.187196299999982],[-81.52499999999998,31.18664130000002],[-81.52499999999998,31.18659389999999],[-81.52499999999998,31.184606099999996],[-81.52499999999998,31.184483],[-81.52499999999998,31.181669],[-81.52499999999998,31.18114969999999],[-81.52499999999998,31.181046100000003],[-81.52499999999998,31.180630199999996],[-81.52499999999998,31.180110800000023],[-81.52499999999998,31.17925580000002],[-81.52499999999998,31.17841149999998],[-81.52499999999998,31.17289390000002],[-81.52499999999998,31.1717036],[-81.52499999999998,31.170512900000006],[-81.52499999999998,31.170200599999987],[-81.52499999999998,31.169322299999976],[-81.52499999999998,31.16813159999998],[-81.52499999999998,31.159915099999978],[-81.52499999999998,31.1500269],[-81.52499999999998,31.142168000000026],[-81.52499999999998,31.141188],[-81.52499999999998,31.140645600000028],[-81.52499999999998,31.140102300000024],[-81.52499999999998,31.140045799999996],[-81.52499999999998,31.139559399999996],[-81.52499999999998,31.139016700000013],[-81.52499999999998,31.132626700000003],[-81.52499999999998,31.132351500000027],[-81.52499999999998,31.13086629999998],[-81.52499999999998,31.130842900000005],[-81.52499999999998,31.130541900000026],[-81.52499999999998,31.130263500000012],[-81.52499999999998,31.12998520000002],[-81.52499999999998,31.12984419999998],[-81.52499999999998,31.129784299999983],[-81.52499999999998,31.129706899999974],[-81.52499999999998,31.129428500000017],[-81.52499999999998,31.129309200000023],[-81.52499999999998,31.128892300000018],[-81.52499999999998,31.128621699999997],[-81.52499999999998,31.125],[-81.519564,31.125],[-81.51886409999997,31.125]]]}},{"type":"Feature","properties":{},"geometry":{"type":"Polygon","coordinates":[[[-81.4484842,31.125],[-81.44213300000001,31.125],[-81.44141719999999,31.125],[-81.43717670000001,31.125],[-81.42941669999999,31.125],[-81.42748499999999,31.125],[-81.42629670000002,31.125],[-81.42480440000003,31.125],[-81.4229487,31.125],[-81.42282239999997,31.125],[-81.42017570000002,31.125],[-81.41537140000003,31.125],[-81.41496649999999,31.125],[-81.41484960000003,31.125],[-81.41456549999998,31.125],[-81.41416500000003,31.125],[-81.41405420000001,31.125],[-81.41376409999998,31.125],[-81.41121659999999,31.125],[-81.40952149999998,31.125],[-81.40814929999999,31.125],[-81.40404089999998,31.125],[-81.40393610000001,31.125],[-81.40366790000002,31.125],[-81.39724760000001,31.125],[-81.39714420000001,31.125],[-81.3875961,31.125],[-81.38540110000002,31.125],[-81.3839127,31.125],[-81.38332029999998,31.125],[-81.38210099999998,31.125],[-81.38087940000003,31.125],[-81.3808252,31.125],[-81.37965809999997,31.125],[-81.3784617,31.125],[-81.37534399999998,31.125],[-81.375,31.125],[-81.375,31.125526499999978],[-81.375,31.12594009999998],[-81.375,31.1262246],[-81.375,31.126848800000005],[-81.375,31.1268781],[-81.375,31.12730449999998],[-81.375,31.127970000000005],[-81.375,31.12833840000002],[-81.375,31.12886500000002],[-81.375,31.133554800000013],[-81.375,31.134429599999976],[-81.375,31.13478980000002],[-81.375,31.135613200000023],[-81.375,31.135872099999972],[-81.375,31.140606100000014],[-81.375,31.140942100000018],[-81.375,31.141096800000014],[-81.375,31.142540499999996],[-81.375,31.142851399999984],[-81.375,31.14623210000002],[-81.375,31.146723599999973],[-81.375,31.14703370000001],[-81.375,31.147228400000017],[-81.375,31.147448199999985],[-81.375,31.15553729999999],[-81.375,31.155723000000023],[-81.375,31.156586199999992],[-81.375,31.157008899999994],[-81.375,31.166194899999994],[-81.375,31.167114500000025],[-81.375,31.167725200000007],[-81.375,31.16976299999999],[-81.375,31.17057269999998],[-81.375,31.170850299999984],[-81.375,31.171023600000012],[-81.375,31.17168909999998],[-81.375,31.171797000000026],[-81.375,31.17201940000001],[-81.375,31.173037099999988],[-81.375,31.17417949999998],[-81.375,31.174493700000028],[-81.375,31.175916299999983],[-81.375,31.175924599999973],[-81.375,31.17624410000002],[-81.375,31.18340189999998],[-81.375,31.1864827],[-81.375,31.188539600000013],[-81.375,31.19999999999999],[-81.3837689,31.19999999999999],[-81.3885247,31.19999999999999],[-81.38939590000001,31.19999999999999],[-81.3911933,31.19999999999999],[-81.39185989999999,31.19999999999999],[-81.3937128,31.19999999999999],[-81.39443110000002,31.19999999999999],[-81.41243739999999,31.19999999999999],[-81.41257710000002,31.19999999999999],[-81.41270839999999,31.19999999999999],[-81.4142445,31.19999999999999],[-81.4147898,31.19999999999999],[-81.41686229999999,31.19999999999999],[-81.41931390000002,31.19999999999999],[-81.4203109,31.19999999999999],[-81.42110409999998,31.19999999999999],[-81.43110250000001,31.19999999999999],[-81.4319787,31.19999999999999],[-81.43246160000001,31.19999999999999],[-81.43268219999999,31.19999999999999],[-81.43313610000001,31.19999999999999],[-81.43349899999998,31.19999999999999],[-81.43427930000001,31.19999999999999],[-81.4345533,31.19999999999999],[-81.43477669999999,31.19999999999999],[-81.43523549999998,31.19999999999999],[-81.44617440000002,31.19999999999999],[-81.44639590000003,31.19999999999999],[-81.44651340000001,31.19999999999999],[-81.4475018,31.19999999999999],[-81.44785839999997,31.19999999999999],[-81.4480307,31.19999999999999],[-81.44999999999999,31.19999999999999],[-81.44999999999999,31.198830999999984],[-81.44999999999999,31.198449400000015],[-81.44999999999999,31.198340700000017],[-81.44999999999999,31.19779219999998],[-81.44999999999999,31.197622799999976],[-81.44999999999999,31.19506150000001],[-81.44999999999999,31.194221099999993],[-81.44999999999999,31.193199100000015],[-81.44999999999999,31.193156699999975],[-81.44999999999999,31.191609900000003],[-81.44999999999999,31.191447600000004],[-81.44999999999999,31.189758900000015],[-81.44999999999999,31.189348100000018],[-81.44999999999999,31.188434700000016],[-81.44999999999999,31.1876752],[-81.44999999999999,31.186048400000004],[-81.44999999999999,31.185118799999998],[-81.44999999999999,31.184505600000023],[-81.44999999999999,31.184145899999976],[-81.44999999999999,31.17779539999998],[-81.44999999999999,31.175807399999997],[-81.44999999999999,31.170653700000003],[-81.44999999999999,31.169816700000013],[-81.44999999999999,31.167584499999975],[-81.44999999999999,31.16562479999999],[-81.44999999999999,31.16445829999998],[-81.44999999999999,31.163847900000007],[-81.44999999999999,31.163221099999987],[-81.44999999999999,31.162783100000013],[-81.44999999999999,31.152787400000022],[-81.44999999999999,31.152262500000006],[-81.44999999999999,31.14278280000002],[-81.44999999999999,31.14156969999999],[-81.44999999999999,31.135166500000025],[-81.44999999999999,31.1341501],[-81.44999999999999,31.133760600000016],[-81.44999999999999,31.126522299999976],[-81.44999999999999,31.126061100000015],[-81.44999999999999,31.125],[-81.44897370000001,31.125],[-81.4484842,31.125]]]}},{"type":"Feature","properties":{},"geometry":{"type":"Polygon","coordinates":[[[-81.37246099999999,31.125],[-81.37227280000002,31.125],[-81.37171769999998,31.125],[-81.36930669999998,31.125],[-81.36194599999999,31.125],[-81.35095480000001,31.125],[-81.34035219999998,31.125],[-81.3391813,31.125],[-81.3355095,31.125],[-81.32381199999998,31.125],[-81.32372479999998,31.125],[-81.30000000000001,31.125],[-81.30000000000001,31.14945069999999],[-81.30000000000001,31.151802400000008],[-81.30000000000001,31.166394700000012],[-81.30000000000001,31.166892700000005],[-81.30000000000001,31.171559300000013],[-81.30000000000001,31.184108200000026],[-81.30000000000001,31.18832309999999],[-81.30000000000001,31.188704200000018],[-81.30000000000001,31.195953099999997],[-81.30000000000001,31.196696499999973],[-81.30000000000001,31.19971290000001],[-81.30000000000001,31.19999999999999],[-81.300385,31.19999999999999],[-81.30545030000002,31.19999999999999],[-81.30868240000001,31.19999999999999],[-81.31036719999997,31.19999999999999],[-81.31172350000003,31.19999999999999],[-81.3122166,31.19999999999999],[-81.3268668,31.19999999999999],[-81.32708789999998,31.19999999999999],[-81.32872459999999,31.19999999999999],[-81.3343362,31.19999999999999],[-81.33604939999998,31.19999999999999],[-81.33635120000002,31.19999999999999],[-81.33714909999998,31.19999999999999],[-81.33736829999998,31.19999999999999],[-81.33863029999998,31.19999999999999],[-81.3389072,31.19999999999999],[-81.34041819999999,31.19999999999999],[-81.34146600000003,31.19999999999999],[-81.34279099999998,31.19999999999999],[-81.34314060000003,31.19999999999999],[-81.34314360000002,31.19999999999999],[-81.34334230000002,31.19999999999999],[-81.3470322,31.19999999999999],[-81.34746289999998,31.19999999999999],[-81.3477188,31.19999999999999],[-81.3480755,31.19999999999999],[-81.34947260000001,31.19999999999999],[-81.3495605,31.19999999999999],[-81.35000289999999,31.19999999999999],[-81.35097009999998,31.19999999999999],[-81.3516424,31.19999999999999],[-81.35251169999998,31.19999999999999],[-81.3525343,31.19999999999999],[-81.3539462,31.19999999999999],[-81.35463349999998,31.19999999999999],[-81.35539929999999,31.19999999999999],[-81.35566510000001,31.19999999999999],[-81.36517570000001,31.19999999999999],[-81.36738930000001,31.19999999999999],[-81.375,31.19999999999999],[-81.375,31.188539600000013],[-81.375,31.1864827],[-81.375,31.18340189999998],[-81.375,31.17624410000002],[-81.375,31.175924599999973],[-81.375,31.175916299999983],[-81.375,31.174493700000028],[-81.375,31.17417949999998],[-81.375,31.173037099999988],[-81.375,31.17201940000001],[-81.375,31.171797000000026],[-81.375,31.17168909999998],[-81.375,31.171023600000012],[-81.375,31.170850299999984],[-81.375,31.17057269999998],[-81.375,31.16976299999999],[-81.375,31.167725200000007],[-81.375,31.167114500000025],[-81.375,31.166194899999994],[-81.375,31.157008899999994],[-81.375,31.156586199999992],[-81.375,31.155723000000023],[-81.375,31.15553729999999],[-81.375,31.147448199999985],[-81.375,31.147228400000017],[-81.375,31.14703370000001],[-81.375,31.146723599999973],[-81.375,31.14623210000002],[-81.375,31.142851399999984],[-81.375,31.142540499999996],[-81.375,31.141096800000014],[-81.375,31.140942100000018],[-81.375,31.140606100000014],[-81.375,31.135872099999972],[-81.375,31.135613200000023],[-81.375,31.13478980000002],[-81.375,31.134429599999976],[-81.375,31.133554800000013],[-81.375,31.12886500000002],[-81.375,31.12833840000002],[-81.375,31.127970000000005],[-81.375,31.12730449999998],[-81.375,31.1268781],[-81.375,31.126848800000005],[-81.375,31.1262246],[-81.375,31.12594009999998],[-81.375,31.125526499999978],[-81.375,31.125],[-81.37349360000002,31.125],[-81.37246099999999,31.125]]]}},{"type":"Feature","properties":{},"geometry":{"type":"Polygon","coordinates":[[[-81.2899319,31.125],[-81.27762810000002,31.125],[-81.26906409999998,31.125],[-81.24512019999997,31.125],[-81.23570869999998,31.125],[-81.23193759999998,31.125],[-81.22500000000002,31.125],[-81.22500000000002,31.140262899999982],[-81.22500000000002,31.14964759999998],[-81.22500000000002,31.16690699999998],[-81.22500000000002,31.170710199999974],[-81.22500000000002,31.174115099999995],[-81.22500000000002,31.18614839999998],[-81.22500000000002,31.186631299999988],[-81.22500000000002,31.18958470000001],[-81.22500000000002,31.196973200000002],[-81.22500000000002,31.19999999999999],[-81.2351964,31.19999999999999],[-81.24834340000001,31.19999999999999],[-81.25207019999999,31.19999999999999],[-81.2654336,31.19999999999999],[-81.2696095,31.19999999999999],[-81.28006909999999,31.19999999999999],[-81.29247659999999,31.19999999999999],[-81.29835120000001,31.19999999999999],[-81.30000000000001,31.19999999999999],[-81.30000000000001,31.19971290000001],[-81.30000000000001,31.196696499999973],[-81.30000000000001,31.195953099999997],[-81.30000000000001,31.188704200000018],[-81.30000000000001,31.18832309999999],[-81.30000000000001,31.184108200000026],[-81.30000000000001,31.171559300000013],[-81.30000000000001,31.166892700000005],[-81.30000000000001,31.166394700000012],[-81.30000000000001,31.151802400000008],[-81.30000000000001,31.14945069999999],[-81.30000000000001,31.125],[-81.2903766,31.125],[-81.2899319,31.125]]]}},{"type":"Feature","properties":{},"geometry":{"type":"Polygon","coordinates":[[[-81.21696200000002,31.125],[-81.14999999999998,31.125],[-81.14999999999998,31.150605299999995],[-81.14999999999998,31.153222900000003],[-81.14999999999998,31.17014130000001],[-81.14999999999998,31.19999999999999],[-81.18141229999998,31.19999999999999],[-81.2122569,31.19999999999999],[-81.21273000000002,31.19999999999999],[-81.21786689999999,31.19999999999999],[-81.2221174,31.19999999999999],[-81.22483299999999,31.19999999999999],[-81.22500000000002,31.19999999999999],[-81.22500000000002,31.196973200000002],[-81.22500000000002,31.18958470000001],[-81.22500000000002,31.186631299999988],[-81.22500000000002,31.18614839999998],[-81.22500000000002,31.174115099999995],[-81.22500000000002,31.170710199999974],[-81.22500000000002,31.16690699999998],[-81.22500000000002,31.14964759999998],[-81.22500000000002,31.140262899999982],[-81.22500000000002,31.125],[-81.22483269999998,31.125],[-81.21696200000002,31.125]]]}}]}