{"type":"FeatureCollection","features":[{"type":"Feature","properties":{},"geometry":{"type":"Polygon","coordinates":[[[-80.63905799999998,28.125],[-80.6373231,28.125],[-80.63464499999998,28.125],[-80.63430740000001,28.125],[-80.63331920000002,28.125],[-80.63240510000003,28.125],[-80.63226730000002,28.125],[-80.63226639999999,28.125],[-80.6319906,28.125],[-80.62878920000003,28.125],[-80.62851640000002,28.125],[-80.62842069999999,28.125],[-80.62718530000001,28.125],[-80.62668289999999,28.125],[-80.62618420000001,28.125],[-80.625,28.125],[-80.625,28.125140499999986],[-80.625,28.125169299999982],[-80.625,28.125478600000008],[-80.625,28.12582470000001],[-80.625,28.126127999999994],[-80.625,28.1312863],[-80.625,28.132179699999995],[-80.625,28.13340579999999],[-80.625,28.13438769999999],[-80.625,28.149151099999983],[-80.625,28.1770535],[-80.625,28.178320100000008],[-80.625,28.179509999999993],[-80.625,28.1858613],[-80.625,28.191461600000025],[-80.625,28.193513499999995],[-80.625,28.19999999999999],[-80.62780049999998,28.19999999999999],[-80.628307,28.19999999999999],[-80.63329049999999,28.19999999999999],[-80.63388930000002,28.19999999999999],[-80.6359003,28.19999999999999],[-80.6374318,28.19999999999999],[-80.64174229999998,28.19999999999999],[-80.64264809999997,28.19999999999999],[-80.6471482,28.19999999999999],[-80.6536605,28.19999999999999],[-80.6597428,28.19999999999999],[-80.67791599999998,28.19999999999999],[-80.69999999999999,28.19999999999999],[-80.69999999999999,28.125],[-80.6679684,28.125],[-80.64667600000001,28.125],[-80.64418769999997,28.125],[-80.64079290000001,28.125],[-80.63915589999999,28.125],[-80.63905799999998,28.125]]]}},{"type":"Feature","properties":{},"geometry":{"type":"Polygon","coordinates":[[[-80.625,28.125],[-80.62479710000002,28.125],[-80.62429300000002,28.125],[-80.6236437,28.125],[-80.62180319999999,28.125],[-80.61377590000001,28.125],[-80.61356990000002,28.125],[-80.61336940000001,28.125],[-80.59478610000002,28.125],[-80.59124409999998,28.125],[-80.57679730000001,28.125],[-80.57598289999999,28.125],[-80.57526200000001,28.125],[-80.57290999999998,28.125],[-80.57152839999998,28.125],[-80.56764670000001,28.125],[-80.55248920000002,28.125],[-80.55000000000001,28.125],[-80.55000000000001,28.183333300000015],[-80.55000000000001,28.19999999999999],[-80.58588500000002,28.19999999999999],[-80.5895069,28.19999999999999],[-80.59039109999998,28.19999999999999],[-80.59227900000002,28.19999999999999],[-80.59332010000003,28.19999999999999],[-80.5934638,28.19999999999999],[-80.5944629,28.19999999999999],[-80.59472490000002,28.19999999999999],[-80.60738839999999,28.19999999999999],[-80.6078445,28.19999999999999],[-80.6092918,28.19999999999999],[-80.61062559999999,28.19999999999999],[-80.61227029999998,28.19999999999999],[-80.6123991,28.19999999999999],[-80.61294859999998,28.19999999999999],[-80.61428649999999,28.19999999999999],[-80.61457159999998,28.19999999999999],[-80.61600010000001,28.19999999999999],[-80.625,28.19999999999999],[-80.625,28.193513499999995],[-80.625,28.191461600000025],[-80.625,28.1858613],[-80.625,28.179509999999993],[-80.625,28.178320100000008],[-80.625,28.1770535],[-80.625,28.149151099999983],[-80.625,28.13438769999999],[-80.625,28.13340579999999],[-80.625,28.132179699999995],[-80.625,28.1312863],[-80.625,28.126127999999994],[-80.625,28.12582470000001],[-80.625,28.125478600000008],[-80.625,28.125169299999982],[-80.625,28.125140499999986],[-80.625,28.125]]]}},{"type":"Feature","properties":{},"geometry":{"type":"Polygon","coordinates":[[[-80.6597428,28.19999999999999],[-80.6536605,28.19999999999999],[-80.6471482,28.19999999999999],[-80.64264809999997,28.19999999999999],[-80.64174229999998,28.19999999999999],[-80.6374318,28.19999999999999],[-80.6359003,28.19999999999999],[-80.63388930000002,28.19999999999999],[-80.63329049999999,28.19999999999999],[-80.628307,28.19999999999999],[-80.62780049999998,28.19999999999999],[-80.625,28.19999999999999],[-80.625,28.20322679999998],[-80.625,28.208041200000025],[-80.625,28.208560499999976],[-80.625,28.209425099999976],[-80.625,28.210015499999997],[-80.625,28.210585200000025],[-80.625,28.211426000000017],[-80.625,28.21675829999998],[-80.625,28.237911499999996],[-80.625,28.2398326],[-80.625,28.262937599999987],[-80.625,28.274999999999977],[-80.64680229999999,28.274999999999977],[-80.65168510000001,28.274999999999977],[-80.66497820000001,28.274999999999977],[-80.66504730000003,28.274999999999977],[-80.67310350000002,28.274999999999977],[-80.67471089999998,28.274999999999977],[-80.68314400000003,28.274999999999977],[-80.68594430000002,28.274999999999977],[-80.6880122,28.274999999999977],[-80.69999999999999,28.274999999999977],[-80.69999999999999,28.259670500000027],[-80.69999999999999,28.19999999999999],[-80.67791599999998,28.19999999999999],[-80.6597428,28.19999999999999]]]}},{"type":"Feature","properties":{},"geometry":{"type":"Polygon","coordinates":[[[-80.625,28.20322679999998],[-80.625,28.19999999999999],[-80.61600010000001,28.19999999999999],[-80.61457159999998,28.19999999999999],[-80.61428649999999,28.19999999999999],[-80.61294859999998,28.19999999999999],[-80.6123991,28.19999999999999],[-80.61227029999998,28.19999999999999],[-80.61062559999999,28.19999999999999],[-80.6092918,28.19999999999999],[-80.6078445,28.19999999999999],[-80.60738839999999,28.19999999999999],[-80.59472490000002,28.19999999999999],[-80.5944629,28.19999999999999],[-80.5934638,28.19999999999999],[-80.59332010000003,28.19999999999999],[-80.59227900000002,28.19999999999999],[-80.59039109999998,28.19999999999999],[-80.5895069,28.19999999999999],[-80.58588500000002,28.19999999999999],[-80.55000000000001,28.19999999999999],[-80.55000000000001,28.264164100000016],[-80.55000000000001,28.2711276],[-80.55000000000001,28.274999999999977],[-80.56582739999999,28.274999999999977],[-80.5953925,28.274999999999977],[-80.59991810000002,28.274999999999977],[-80.60196830000001,28.274999999999977],[-80.60503019999999,28.274999999999977],[-80.60546119999998,28.274999999999977],[-80.60618349999999,28.274999999999977],[-80.608204,28.274999999999977],[-80.61024470000001,28.274999999999977],[-80.61490029999999,28.274999999999977],[-80.625,28.274999999999977],[-80.625,28.262937599999987],[-80.625,28.2398326],[-80.625,28.237911499999996],[-80.625,28.21675829999998],[-80.625,28.211426200000005],[-80.625,28.211426000000017],[-80.625,28.210585200000025],[-80.625,28.210015499999997],[-80.625,28.209425099999976],[-80.625,28.208560499999976],[-80.625,28.208041200000025],[-80.625,28.20322679999998]]]}},{"type":"Feature","properties":{},"geometry":{"type":"Polygon","coordinates":[[[-80.69999999999999,28.274999999999977],[-80.69999999999999,28.301024900000016],[-80.69999999999999,28.301733300000024],[-80.69999999999999,28.316224299999988],[-80.69999999999999,28.316703200000006],[-80.69999999999999,28.31706170000001],[-80.69999999999999,28.318839700000012],[-80.69999999999999,28.323082399999976],[-80.69999999999999,28.324313700000005],[-80.69999999999999,28.327951799999994],[-80.69999999999999,28.32858010000001],[-80.69999999999999,28.336101499999984],[-80.69999999999999,28.350000000000023],[-80.70478509999998,28.350000000000023],[-80.70536670000001,28.350000000000023],[-80.7123689,28.350000000000023],[-80.71561709999997,28.350000000000023],[-80.72136719999997,28.350000000000023],[-80.72273180000002,28.350000000000023],[-80.73343080000001,28.350000000000023],[-80.74292489999999,28.350000000000023],[-80.77499999999998,28.350000000000023],[-80.77499999999998,28.274999999999977],[-80.70567340000002,28.274999999999977],[-80.69999999999999,28.274999999999977]]]}},{"type":"Feature","properties":{},"geometry":{"type":"Polygon","coordinates":[[[-80.73343080000001,28.350000000000023],[-80.72273180000002,28.350000000000023],[-80.72136719999997,28.350000000000023],[-80.71561709999997,28.350000000000023],[-80.7123689,28.350000000000023],[-80.70536670000001,28.350000000000023],[-80.70478509999998,28.350000000000023],[-80.69999999999999,28.350000000000023],[-80.69999999999999,28.381034199999988],[-80.69999999999999,28.3812236],[-80.69999999999999,28.386817199999996],[-80.69999999999999,28.387125000000026],[-80.69999999999999,28.40164249999998],[-80.69999999999999,28.4019007],[-80.69999999999999,28.40814660000001],[-80.69999999999999,28.40886260000002],[-80.69999999999999,28.42500000000001],[-80.7210397,28.42500000000001],[-80.72221200000001,28.42500000000001],[-80.72269010000002,28.42500000000001],[-80.7246604,28.42500000000001],[-80.73418479999998,28.42500000000001],[-80.7392805,28.42500000000001],[-80.74043929999999,28.42500000000001],[-80.7406095,28.42500000000001],[-80.7407657,28.42500000000001],[-80.74098959999998,28.42500000000001],[-80.74114150000003,28.42500000000001],[-80.7532415,28.42500000000001],[-80.76118830000001,28.42500000000001],[-80.77499999999998,28.42500000000001],[-80.77499999999998,28.3502785],[-80.77499999999998,28.350000000000023],[-80.74292489999999,28.350000000000023],[-80.73343080000001,28.350000000000023]]]}},{"type":"Feature","properties":{},"geometry":{"type":"Polygon","coordinates":[[[-80.7532415,28.42500000000001],[-80.74114150000003,28.42500000000001],[-80.74098959999998,28.42500000000001],[-80.7407657,28.42500000000001],[-80.7406095,28.42500000000001],[-80.74043929999999,28.42500000000001],[-80.7392805,28.42500000000001],[-80.73418479999998,28.42500000000001],[-80.7246604,28.42500000000001],[-80.72269010000002,28.42500000000001],[-80.72221200000001,28.42500000000001],[-80.7210397,28.42500000000001],[-80.69999999999999,28.42500000000001],[-80.69999999999999,28.46719680000001],[-80.69999999999999,28.485102700000027],[-80.69999999999999,28.5],[-80.7041812,28.5],[-80.70879880000001,28.5],[-80.7112118,28.5],[-80.71213069999999,28.5],[-80.72168390000002,28.5],[-80.72673309999999,28.5],[-80.72695979999997,28.5],[-80.72796779999999,28.5],[-80.73120649999998,28.5],[-80.75829970000001,28.5],[-80.75951090000001,28.5],[-80.75972250000001,28.5],[-80.75990200000001,28.5],[-80.7621962,28.5],[-80.76304119999998,28.5],[-80.76969550000001,28.5],[-80.77499999999998,28.5],[-80.77499999999998,28.49347180000001],[-80.77499999999998,28.493137999999988],[-80.77499999999998,28.492688299999998],[-80.77499999999998,28.492344899999978],[-80.77499999999998,28.462319200000024],[-80.77499999999998,28.42500000000001],[-80.76118830000001,28.42500000000001],[-80.7532415,28.42500000000001]]]}},{"type":"Feature","properties":{},"geometry":{"type":"Polygon","coordinates":[[[-80.77499999999998,28.5],[-80.76969550000001,28.5],[-80.76304119999998,28.5],[-80.7621962,28.5],[-80.75990200000001,28.5],[-80.75972250000001,28.5],[-80.75951090000001,28.5],[-80.75829970000001,28.5],[-80.73177679999998,28.5],[-80.73120649999998,28.5],[-80.72796779999999,28.5],[-80.72695979999997,28.5],[-80.72673309999999,28.5],[-80.72168390000002,28.5],[-80.71213069999999,28.5],[-80.7112118,28.5],[-80.70879880000001,28.5],[-80.7041812,28.5],[-80.69999999999999,28.5],[-80.69999999999999,28.522970799999996],[-80.69999999999999,28.533963900000003],[-80.69999999999999,28.551421300000015],[-80.69999999999999,28.55375989999999],[-80.69999999999999,28.561875199999974],[-80.69999999999999,28.57499999999999],[-80.70100919999999,28.57499999999999],[-80.70574690000001,28.57499999999999],[-80.70709970000001,28.57499999999999],[-80.7077372,28.57499999999999],[-80.71118790000003,28.57499999999999],[-80.71708919999998,28.57499999999999],[-80.71811059999999,28.57499999999999],[-80.739866,28.57499999999999],[-80.74119769999999,28.57499999999999],[-80.77162399999997,28.57499999999999],[-80.77499999999998,28.57499999999999],[-80.77499999999998,28.56706109999999],[-80.77499999999998,28.56642979999998],[-80.77499999999998,28.55749270000001],[-80.77499999999998,28.557128200000022],[-80.77499999999998,28.556550300000026],[-80.77499999999998,28.531184699999983],[-80.77499999999998,28.529252100000008],[-80.77499999999998,28.528753100000017],[-80.77499999999998,28.528313799999978],[-80.77499999999998,28.52794610000001],[-80.77499999999998,28.527178400000025],[-80.77499999999998,28.526797699999975],[-80.77499999999998,28.526776700000028],[-80.77499999999998,28.5265402],[-80.77499999999998,28.520319099999995],[-80.77499999999998,28.516946099999984],[-80.77499999999998,28.5]]]}},{"type":"Feature","properties":{},"geometry":{"type":"Polygon","coordinates":[[[-80.77499999999998,28.57499999999999],[-80.77162399999997,28.57499999999999],[-80.74119769999999,28.57499999999999],[-80.739866,28.57499999999999],[-80.71811059999999,28.57499999999999],[-80.71708919999998,28.57499999999999],[-80.71118790000003,28.57499999999999],[-80.7077372,28.57499999999999],[-80.70709970000001,28.57499999999999],[-80.70574690000001,28.57499999999999],[-80.70100919999999,28.57499999999999],[-80.69999999999999,28.57499999999999],[-80.69999999999999,28.5761885],[-80.69999999999999,28.579097100000013],[-80.69999999999999,28.584268699999996],[-80.69999999999999,28.585791700000016],[-80.69999999999999,28.589631499999996],[-80.69999999999999,28.59896839999999],[-80.69999999999999,28.649999999999977],[-80.71701430000002,28.649999999999977],[-80.71865659999997,28.649999999999977],[-80.72866900000002,28.649999999999977],[-80.73075549999999,28.649999999999977],[-80.74022760000003,28.649999999999977],[-80.74998060000001,28.649999999999977],[-80.75362860000001,28.649999999999977],[-80.75787689999999,28.649999999999977],[-80.7665953,28.649999999999977],[-80.76760139999999,28.649999999999977],[-80.77323419999999,28.649999999999977],[-80.7739937,28.649999999999977],[-80.77457800000002,28.649999999999977],[-80.77499999999998,28.649999999999977],[-80.77499999999998,28.64997390000002],[-80.77499999999998,28.64219250000002],[-80.77499999999998,28.64192270000001],[-80.77499999999998,28.633360900000014],[-80.77499999999998,28.63333130000001],[-80.77499999999998,28.630395899999996],[-80.77499999999998,28.62624340000002],[-80.77499999999998,28.626227700000015],[-80.77499999999998,28.6209389],[-80.77499999999998,28.620936099999994],[-80.77499999999998,28.6192231],[-80.77499999999998,28.614893499999994],[-80.77499999999998,28.61486180000003],[-80.77499999999998,28.613902699999983],[-80.77499999999998,28.57499999999999]]]}},{"type":"Feature","properties":{},"geometry":{"type":"Polygon","coordinates":[[[-80.69999999999999,28.649999999999977],[-80.69999999999999,28.67023690000002],[-80.69999999999999,28.680147999999974],[-80.69999999999999,28.686084100000016],[-80.69999999999999,28.725000000000023],[-80.70991859999998,28.725000000000023],[-80.73883439999997,28.725000000000023],[-80.74646410000003,28.725000000000023],[-80.74748690000001,28.725000000000023],[-80.75077019999998,28.725000000000023],[-80.75140329999999,28.725000000000023],[-80.75408399999998,28.725000000000023],[-80.76572729999998,28.725000000000023],[-80.76614569999998,28.725000000000023],[-80.7664633,28.725000000000023],[-80.76661790000003,28.725000000000023],[-80.77047149999999,28.725000000000023],[-80.7704842,28.725000000000023],[-80.77074479999999,28.725000000000023],[-80.77112829999999,28.725000000000023],[-80.77499999999998,28.725000000000023],[-80.77499999999998,28.721063700000002],[-80.77499999999998,28.72073899999998],[-80.77499999999998,28.71797509999999],[-80.77499999999998,28.717752500000017],[-80.77499999999998,28.717495799999995],[-80.77499999999998,28.717280000000017],[-80.77499999999998,28.693687599999976],[-80.77499999999998,28.690313000000003],[-80.77499999999998,28.6775222],[-80.77499999999998,28.677129999999977],[-80.77499999999998,28.670007],[-80.77499999999998,28.669625600000018],[-80.77499999999998,28.66288209999999],[-80.77499999999998,28.662686599999972],[-80.77499999999998,28.651395200000024],[-80.77499999999998,28.65109369999999],[-80.77499999999998,28.650740900000017],[-80.77499999999998,28.649999999999977],[-80.77457800000002,28.649999999999977],[-80.7739937,28.649999999999977],[-80.77323419999999,28.649999999999977],[-80.76760139999999,28.649999999999977],[-80.7665953,28.649999999999977],[-80.75787689999999,28.649999999999977],[-80.75362860000001,28.649999999999977],[-80.74998060000001,28.649999999999977],[-80.74022760000003,28.649999999999977],[-80.73075549999999,28.649999999999977],[-80.72866900000002,28.649999999999977],[-80.71865659999997,28.649999999999977],[-80.71701430000002,28.649999999999977],[-80.69999999999999,28.649999999999977]]]}},{"type":"Feature","properties":{},"geometry":{"type":"Polygon","coordinates":[[[-80.77499999999998,28.725000000000023],[-80.77112829999999,28.725000000000023],[-80.77074479999999,28.725000000000023],[-80.7704842,28.725000000000023],[-80.77047149999999,28.725000000000023],[-80.76661790000003,28.725000000000023],[-80.7664633,28.725000000000023],[-80.76614569999998,28.725000000000023],[-80.76572729999998,28.725000000000023],[-80.75408399999998,28.725000000000023],[-80.75140329999999,28.725000000000023],[-80.75077019999998,28.725000000000023],[-80.74748690000001,28.725000000000023],[-80.74646410000003,28.725000000000023],[-80.73883439999997,28.725000000000023],[-80.70991859999998,28.725000000000023],[-80.69999999999999,28.725000000000023],[-80.69999999999999,28.74088169999999],[-80.69999999999999,28.7409859],[-80.69999999999999,28.741468999999995],[-80.69999999999999,28.743607300000008],[-80.69999999999999,28.743833300000006],[-80.69999999999999,28.74392560000001],[-80.69999999999999,28.74632009999999],[-80.69999999999999,28.74994909999998],[-80.69999999999999,28.752324699999974],[-80.69999999999999,28.774814100000015],[-80.69999999999999,28.80000000000001],[-80.7165043,28.80000000000001],[-80.72650440000001,28.80000000000001],[-80.73101179999998,28.80000000000001],[-80.73393279999999,28.80000000000001],[-80.73646680000002,28.80000000000001],[-80.73885150000001,28.80000000000001],[-80.74114989999998,28.80000000000001],[-80.74278880000003,28.80000000000001],[-80.74394619999998,28.80000000000001],[-80.7497133,28.80000000000001],[-80.75030479999998,28.80000000000001],[-80.7528767,28.80000000000001],[-80.75469829999997,28.80000000000001],[-80.75566780000003,28.80000000000001],[-80.75651649999998,28.80000000000001],[-80.77499999999998,28.80000000000001],[-80.77499999999998,28.779600000000016],[-80.77499999999998,28.779273499999988],[-80.77499999999998,28.7788812],[-80.77499999999998,28.775430700000015],[-80.77499999999998,28.773265100000003],[-80.77499999999998,28.769676199999992],[-80.77499999999998,28.76960009999999],[-80.77499999999998,28.754692799999987],[-80.77499999999998,28.753769999999975],[-80.77499999999998,28.753477999999973],[-80.77499999999998,28.752674000000013],[-80.77499999999998,28.75045640000002],[-80.77499999999998,28.725000000000023]]]}},{"type":"Feature","properties":{},"geometry":{"type":"Polygon","coordinates":[[[-80.77499999999998,28.80000000000001],[-80.75651649999998,28.80000000000001],[-80.75566780000003,28.80000000000001],[-80.75469829999997,28.80000000000001],[-80.7528767,28.80000000000001],[-80.75030479999998,28.80000000000001],[-80.7497133,28.80000000000001],[-80.74394619999998,28.80000000000001],[-80.74278880000003,28.80000000000001],[-80.74114989999998,28.80000000000001],[-80.73885150000001,28.80000000000001],[-80.73646680000002,28.80000000000001],[-80.73393279999999,28.80000000000001],[-80.73101179999998,28.80000000000001],[-80.72650440000001,28.80000000000001],[-80.7165043,28.80000000000001],[-80.69999999999999,28.80000000000001],[-80.69999999999999,28.837655499999983],[-80.69999999999999,28.84109890000002],[-80.69999999999999,28.841852399999993],[-80.69999999999999,28.847181200000023],[-80.69999999999999,28.875],[-80.71951899999999,28.875],[-80.72095519999999,28.875],[-80.7214275,28.875],[-80.7354082,28.875],[-80.74308960000002,28.875],[-80.7656518,28.875],[-80.77499999999998,28.875],[-80.77499999999998,28.871313799999996],[-80.77499999999998,28.866076700000008],[-80.77499999999998,28.862980900000025],[-80.77499999999998,28.85893729999998],[-80.77499999999998,28.856709299999977],[-80.77499999999998,28.853598599999998],[-80.77499999999998,28.852812200000017],[-80.77499999999998,28.852095599999984],[-80.77499999999998,28.85056739999999],[-80.77499999999998,28.850174100000004],[-80.77499999999998,28.844831399999975],[-80.77499999999998,28.843725199999994],[-80.77499999999998,28.843059299999993],[-80.77499999999998,28.839802599999985],[-80.77499999999998,28.838074600000027],[-80.77499999999998,28.826153299999987],[-80.77499999999998,28.824069500000007],[-80.77499999999998,28.818532500000003],[-80.77499999999998,28.81751989999998],[-80.77499999999998,28.80000000000001]]]}},{"type":"Feature","properties":{},"geometry":{"type":"Polygon","coordinates":[[[-80.68594430000002,28.274999999999977],[-80.68314400000003,28.274999999999977],[-80.67471089999998,28.274999999999977],[-80.67310350000002,28.274999999999977],[-80.66497820000001,28.274999999999977],[-80.65168510000001,28.274999999999977],[-80.64680229999999,28.274999999999977],[-80.625,28.274999999999977],[-80.625,28.286205499999994],[-80.625,28.29499900000002],[-80.625,28.297476899999992],[-80.625,28.29824830000001],[-80.625,28.299519799999985],[-80.625,28.300087299999973],[-80.625,28.304921200000024],[-80.625,28.306934300000023],[-80.625,28.307238299999995],[-80.625,28.31168789999998],[-80.625,28.311843099999976],[-80.625,28.3143422],[-80.625,28.314844600000015],[-80.625,28.315023999999994],[-80.625,28.31581299999999],[-80.625,28.316517299999987],[-80.625,28.317825900000003],[-80.625,28.318205999999975],[-80.625,28.318579699999987],[-80.625,28.31922639999999],[-80.625,28.321836599999983],[-80.625,28.32204230000002],[-80.625,28.32234360000001],[-80.625,28.323303899999985],[-80.625,28.32540419999998],[-80.625,28.326305600000012],[-80.625,28.326514799999984],[-80.625,28.32826799999998],[-80.625,28.328861000000018],[-80.625,28.329441400000007],[-80.625,28.331302199999982],[-80.625,28.33465769999998],[-80.625,28.336315800000023],[-80.625,28.337047199999972],[-80.625,28.338223599999992],[-80.625,28.338587200000006],[-80.625,28.339543900000024],[-80.625,28.33971409999998],[-80.625,28.339850800000022],[-80.625,28.34041780000001],[-80.625,28.341452199999992],[-80.625,28.346020599999974],[-80.625,28.346255999999983],[-80.625,28.350000000000023],[-80.62689490000002,28.350000000000023],[-80.6610248,28.350000000000023],[-80.66833400000002,28.350000000000023],[-80.6686598,28.350000000000023],[-80.66917130000002,28.350000000000023],[-80.67749429999998,28.350000000000023],[-80.68059310000001,28.350000000000023],[-80.68322269999999,28.350000000000023],[-80.68638850000002,28.350000000000023],[-80.69999999999999,28.350000000000023],[-80.69999999999999,28.336101499999984],[-80.69999999999999,28.32858010000001],[-80.69999999999999,28.327951799999994],[-80.69999999999999,28.324313700000005],[-80.69999999999999,28.323082399999976],[-80.69999999999999,28.318839700000012],[-80.69999999999999,28.31706170000001],[-80.69999999999999,28.316703200000006],[-80.69999999999999,28.316224299999988],[-80.69999999999999,28.301733300000024],[-80.69999999999999,28.301024900000016],[-80.69999999999999,28.274999999999977],[-80.6880122,28.274999999999977],[-80.68594430000002,28.274999999999977]]]}},{"type":"Feature","properties":{},"geometry":{"type":"Polygon","coordinates":[[[-80.61024470000001,28.274999999999977],[-80.608204,28.274999999999977],[-80.60626209999998,28.274999999999977],[-80.60618349999999,28.274999999999977],[-80.60546119999998,28.274999999999977],[-80.60503019999999,28.274999999999977],[-80.60196830000001,28.274999999999977],[-80.59991810000002,28.274999999999977],[-80.5953925,28.274999999999977],[-80.56582739999999,28.274999999999977],[-80.55000000000001,28.274999999999977],[-80.55000000000001,28.289818700000012],[-80.55000000000001,28.29499900000002],[-80.55000000000001,28.302538000000027],[-80.55000000000001,28.304177100000004],[-80.55000000000001,28.32067669999998],[-80.55000000000001,28.32514629999997],[-80.55000000000001,28.325964399999975],[-80.55000000000001,28.331788300000028],[-80.55000000000001,28.350000000000023],[-80.58223989999999,28.350000000000023],[-80.59283879999998,28.350000000000023],[-80.597421,28.350000000000023],[-80.59898379999998,28.350000000000023],[-80.59960389999998,28.350000000000023],[-80.60226990000001,28.350000000000023],[-80.60295150000002,28.350000000000023],[-80.60464730000001,28.350000000000023],[-80.605209,28.350000000000023],[-80.6052343,28.350000000000023],[-80.6065352,28.350000000000023],[-80.61232030000002,28.350000000000023],[-80.61267800000002,28.350000000000023],[-80.61356219999999,28.350000000000023],[-80.6140977,28.350000000000023],[-80.625,28.350000000000023],[-80.625,28.34626880000002],[-80.625,28.346255999999983],[-80.625,28.346020599999974],[-80.625,28.34415389999998],[-80.625,28.343616699999984],[-80.625,28.341452199999992],[-80.625,28.34041780000001],[-80.625,28.339850800000022],[-80.625,28.33971409999998],[-80.625,28.339543900000024],[-80.625,28.339338899999973],[-80.625,28.338587200000006],[-80.625,28.338223599999992],[-80.625,28.337047199999972],[-80.625,28.336315800000023],[-80.625,28.33465769999998],[-80.625,28.331302199999982],[-80.625,28.329441400000007],[-80.625,28.328861000000018],[-80.625,28.32826799999998],[-80.625,28.326514799999984],[-80.625,28.326305600000012],[-80.625,28.32540419999998],[-80.625,28.323303899999985],[-80.625,28.32234360000001],[-80.625,28.32204230000002],[-80.625,28.321836599999983],[-80.625,28.31922639999999],[-80.625,28.318579699999987],[-80.625,28.318459700000005],[-80.625,28.318205999999975],[-80.625,28.317825900000003],[-80.625,28.316517299999987],[-80.625,28.31581299999999],[-80.625,28.315357500000005],[-80.625,28.315023999999994],[-80.625,28.314844600000015],[-80.625,28.3143422],[-80.625,28.311843099999976],[-80.625,28.31168789999998],[-80.625,28.307238299999995],[-80.625,28.306934300000023],[-80.625,28.304921200000024],[-80.625,28.300087299999973],[-80.625,28.299536199999977],[-80.625,28.299519799999985],[-80.625,28.29824830000001],[-80.625,28.297476899999992],[-80.625,28.296829000000002],[-80.625,28.29499900000002],[-80.625,28.286205499999994],[-80.625,28.274999999999977],[-80.61490029999999,28.274999999999977],[-80.61024470000001,28.274999999999977]]]}},{"type":"Feature","properties":{},"geometry":{"type":"Polygon","coordinates":[[[-80.5484907,28.274999999999977],[-80.5466376,28.274999999999977],[-80.5199786,28.274999999999977],[-80.51666669999997,28.274999999999977],[-80.51475640000001,28.274999999999977],[-80.47500000000002,28.274999999999977],[-80.47500000000002,28.285361599999987],[-80.47500000000002,28.29499900000002],[-80.47500000000002,28.29664120000001],[-80.47500000000002,28.309068000000025],[-80.47500000000002,28.311160400000006],[-80.47500000000002,28.350000000000023],[-80.48951369999997,28.350000000000023],[-80.5000253,28.350000000000023],[-80.51666669999997,28.350000000000023],[-80.52280139999999,28.350000000000023],[-80.52652239999998,28.350000000000023],[-80.54412029999997,28.350000000000023],[-80.5474643,28.350000000000023],[-80.54785620000001,28.350000000000023],[-80.54996119999998,28.350000000000023],[-80.55000000000001,28.350000000000023],[-80.55000000000001,28.331788300000028],[-80.55000000000001,28.325964399999975],[-80.55000000000001,28.32514629999997],[-80.55000000000001,28.32067669999998],[-80.55000000000001,28.304177100000004],[-80.55000000000001,28.302538000000027],[-80.55000000000001,28.29499900000002],[-80.55000000000001,28.289818700000012],[-80.55000000000001,28.274999999999977],[-80.54890060000002,28.274999999999977],[-80.5484907,28.274999999999977]]]}},{"type":"Feature","properties":{},"geometry":{"type":"Polygon","coordinates":[[[-80.43249350000002,28.274999999999977],[-80.41292179999999,28.274999999999977],[-80.41215549999998,28.274999999999977],[-80.4103341,28.274999999999977],[-80.4075896,28.274999999999977],[-80.4070213,28.274999999999977],[-80.39999999999998,28.274999999999977],[-80.39999999999998,28.282958899999983],[-80.39999999999998,28.283341899999982],[-80.39999999999998,28.286517800000013],[-80.39999999999998,28.28667999999999],[-80.39999999999998,28.29499900000002],[-80.39999999999998,28.298966199999995],[-80.39999999999998,28.310912799999983],[-80.39999999999998,28.31445150000002],[-80.39999999999998,28.315071999999986],[-80.39999999999998,28.322891500000026],[-80.39999999999998,28.334605699999997],[-80.39999999999998,28.336698599999977],[-80.39999999999998,28.339744999999994],[-80.39999999999998,28.350000000000023],[-80.43345090000003,28.350000000000023],[-80.45623510000001,28.350000000000023],[-80.47500000000002,28.350000000000023],[-80.47500000000002,28.311160400000006],[-80.47500000000002,28.309071500000016],[-80.47500000000002,28.29664120000001],[-80.47500000000002,28.29499900000002],[-80.47500000000002,28.285361599999987],[-80.47500000000002,28.274999999999977],[-80.44411109999999,28.274999999999977],[-80.4335203,28.274999999999977],[-80.43249350000002,28.274999999999977]]]}},{"type":"Feature","properties":{},"geometry":{"type":"Polygon","coordinates":[[[-80.38372170000002,28.274999999999977],[-80.37738510000003,28.274999999999977],[-80.3769729,28.274999999999977],[-80.37696030000001,28.274999999999977],[-80.37578580000002,28.274999999999977],[-80.37561629999999,28.274999999999977],[-80.37478529999998,28.274999999999977],[-80.3599304,28.274999999999977],[-80.34455559999998,28.274999999999977],[-80.34096069999998,28.274999999999977],[-80.32499999999999,28.274999999999977],[-80.32499999999999,28.350000000000023],[-80.33061800000002,28.350000000000023],[-80.33109159999998,28.350000000000023],[-80.36006809999998,28.350000000000023],[-80.36072589999998,28.350000000000023],[-80.36606289999997,28.350000000000023],[-80.36616070000002,28.350000000000023],[-80.36616329999998,28.350000000000023],[-80.36937160000002,28.350000000000023],[-80.37284640000001,28.350000000000023],[-80.38465889999998,28.350000000000023],[-80.38494659999998,28.350000000000023],[-80.384999,28.350000000000023],[-80.38582459999998,28.350000000000023],[-80.38815060000002,28.350000000000023],[-80.39999999999998,28.350000000000023],[-80.39999999999998,28.339744999999994],[-80.39999999999998,28.336698599999977],[-80.39999999999998,28.334605699999997],[-80.39999999999998,28.322891500000026],[-80.39999999999998,28.315071999999986],[-80.39999999999998,28.31445150000002],[-80.39999999999998,28.310912799999983],[-80.39999999999998,28.299205099999995],[-80.39999999999998,28.298966199999995],[-80.39999999999998,28.29499900000002],[-80.39999999999998,28.28667999999999],[-80.39999999999998,28.286517800000013],[-80.39999999999998,28.283341899999982],[-80.39999999999998,28.282958899999983],[-80.39999999999998,28.274999999999977],[-80.38420489999999,28.274999999999977],[-80.38372170000002,28.274999999999977]]]}},{"type":"Feature","properties":{},"geometry":{"type":"Polygon","coordinates":[[[-80.68322269999999,28.350000000000023],[-80.68059310000001,28.350000000000023],[-80.67749429999998,28.350000000000023],[-80.66917130000002,28.350000000000023],[-80.6686598,28.350000000000023],[-80.66833400000002,28.350000000000023],[-80.6610248,28.350000000000023],[-80.62689490000002,28.350000000000023],[-80.625,28.350000000000023],[-80.625,28.355762400000003],[-80.625,28.35701769999997],[-80.625,28.357521799999972],[-80.625,28.35828429999998],[-80.625,28.359555699999987],[-80.625,28.360858699999994],[-80.625,28.362892999999985],[-80.625,28.36398969999999],[-80.625,28.380836999999985],[-80.625,28.39136289999999],[-80.625,28.391404299999977],[-80.625,28.391611599999976],[-80.625,28.391665400000022],[-80.625,28.40535060000002],[-80.625,28.4085647],[-80.625,28.40870990000002],[-80.625,28.4087447],[-80.625,28.40893890000001],[-80.625,28.408997699999986],[-80.625,28.4090908],[-80.625,28.40946150000002],[-80.625,28.409531300000026],[-80.625,28.409832300000005],[-80.625,28.4099329],[-80.625,28.409945100000016],[-80.625,28.410203000000024],[-80.625,28.410573699999986],[-80.625,28.412385500000028],[-80.625,28.41385919999999],[-80.625,28.41498280000002],[-80.625,28.41554050000002],[-80.625,28.416109199999994],[-80.625,28.417801300000008],[-80.625,28.41813669999999],[-80.625,28.41819529999998],[-80.625,28.418224500000008],[-80.625,28.418297900000027],[-80.625,28.418305900000007],[-80.625,28.418410900000026],[-80.625,28.41852590000002],[-80.625,28.419072299999982],[-80.625,28.420586300000025],[-80.625,28.420804599999997],[-80.625,28.420866199999978],[-80.625,28.42500000000001],[-80.63882380000001,28.42500000000001],[-80.63929330000002,28.42500000000001],[-80.64116150000001,28.42500000000001],[-80.64319339999997,28.42500000000001],[-80.64344590000002,28.42500000000001],[-80.64347980000002,28.42500000000001],[-80.64348560000002,28.42500000000001],[-80.64387049999999,28.42500000000001],[-80.6470802,28.42500000000001],[-80.65393979999999,28.42500000000001],[-80.66102380000001,28.42500000000001],[-80.66108709999997,28.42500000000001],[-80.66116060000002,28.42500000000001],[-80.66833400000002,28.42500000000001],[-80.67546620000002,28.42500000000001],[-80.68439540000003,28.42500000000001],[-80.68832689999999,28.42500000000001],[-80.68919799999998,28.42500000000001],[-80.68939180000001,28.42500000000001],[-80.69064159999999,28.42500000000001],[-80.6911361,28.42500000000001],[-80.69217379999998,28.42500000000001],[-80.69282270000002,28.42500000000001],[-80.69629120000002,28.42500000000001],[-80.69999999999999,28.42500000000001],[-80.69999999999999,28.40886260000002],[-80.69999999999999,28.40814660000001],[-80.69999999999999,28.4019007],[-80.69999999999999,28.40164249999998],[-80.69999999999999,28.387125000000026],[-80.69999999999999,28.386817199999996],[-80.69999999999999,28.3812236],[-80.69999999999999,28.381034199999988],[-80.69999999999999,28.350000000000023],[-80.68638850000002,28.350000000000023],[-80.68322269999999,28.350000000000023]]]}},{"type":"Feature","properties":{},"geometry":{"type":"Polygon","coordinates":[[[-80.605209,28.350000000000023],[-80.60464730000001,28.350000000000023],[-80.60295150000002,28.350000000000023],[-80.60226990000001,28.350000000000023],[-80.59960389999998,28.350000000000023],[-80.59898379999998,28.350000000000023],[-80.597421,28.350000000000023],[-80.59283879999998,28.350000000000023],[-80.58223989999999,28.350000000000023],[-80.55000000000001,28.350000000000023],[-80.55000000000001,28.350097199999993],[-80.55000000000001,28.354252299999985],[-80.55000000000001,28.37794919999999],[-80.55000000000001,28.380836999999985],[-80.55000000000001,28.38416189999998],[-80.55000000000001,28.384543899999983],[-80.55000000000001,28.385680200000024],[-80.55000000000001,28.386543500000016],[-80.55000000000001,28.38927339999998],[-80.55000000000001,28.3896977],[-80.55000000000001,28.39065549999998],[-80.55000000000001,28.391013999999984],[-80.55000000000001,28.39137249999999],[-80.55000000000001,28.391384099999982],[-80.55000000000001,28.391730999999993],[-80.55000000000001,28.392089],[-80.55000000000001,28.399417900000003],[-80.55000000000001,28.400411899999995],[-80.55000000000001,28.403191400000026],[-80.55000000000001,28.404385900000023],[-80.55000000000001,28.406166100000007],[-80.55000000000001,28.406573400000013],[-80.55000000000001,28.414750000000026],[-80.55000000000001,28.417733800000008],[-80.55000000000001,28.423891700000013],[-80.55000000000001,28.42500000000001],[-80.55040819999999,28.42500000000001],[-80.56165720000001,28.42500000000001],[-80.57024200000001,28.42500000000001],[-80.57109509999998,28.42500000000001],[-80.57485439999999,28.42500000000001],[-80.57637190000003,28.42500000000001],[-80.57645880000001,28.42500000000001],[-80.59551169999997,28.42500000000001],[-80.60310959999998,28.42500000000001],[-80.60927609999999,28.42500000000001],[-80.61805559999999,28.42500000000001],[-80.625,28.42500000000001],[-80.625,28.420866199999978],[-80.625,28.420804599999997],[-80.625,28.420586300000025],[-80.625,28.419072299999982],[-80.625,28.41852590000002],[-80.625,28.418410900000026],[-80.625,28.418305900000007],[-80.625,28.418297900000027],[-80.625,28.418224500000008],[-80.625,28.41819529999998],[-80.625,28.41813669999999],[-80.625,28.417801300000008],[-80.625,28.416109199999994],[-80.625,28.41554050000002],[-80.625,28.41498280000002],[-80.625,28.41385919999999],[-80.625,28.412385500000028],[-80.625,28.410573699999986],[-80.625,28.410203000000024],[-80.625,28.409945100000016],[-80.625,28.4099329],[-80.625,28.409832300000005],[-80.625,28.409531300000026],[-80.625,28.40946150000002],[-80.625,28.4090908],[-80.625,28.408997699999986],[-80.625,28.40893890000001],[-80.625,28.4087447],[-80.625,28.40870990000002],[-80.625,28.4085647],[-80.625,28.40535060000002],[-80.625,28.391665400000022],[-80.625,28.391611599999976],[-80.625,28.391404299999977],[-80.625,28.39136289999999],[-80.625,28.380836999999985],[-80.625,28.36398969999999],[-80.625,28.362892999999985],[-80.625,28.360858699999994],[-80.625,28.359555699999987],[-80.625,28.35828429999998],[-80.625,28.357521799999972],[-80.625,28.35701769999997],[-80.625,28.355762400000003],[-80.625,28.350000000000023],[-80.61232030000002,28.350000000000023],[-80.605209,28.350000000000023]]]}},{"type":"Feature","properties":{},"geometry":{"type":"Polygon","coordinates":[[[-80.54785620000001,28.350000000000023],[-80.5474643,28.350000000000023],[-80.54412029999997,28.350000000000023],[-80.52651959999997,28.350000000000023],[-80.52280139999999,28.350000000000023],[-80.51666669999997,28.350000000000023],[-80.5000253,28.350000000000023],[-80.48951369999997,28.350000000000023],[-80.47500000000002,28.350000000000023],[-80.47500000000002,28.363042899999982],[-80.47500000000002,28.372189300000002],[-80.47500000000002,28.37506350000001],[-80.47500000000002,28.38108699999998],[-80.47500000000002,28.381250000000023],[-80.47500000000002,28.383688199999995],[-80.47500000000002,28.392684700000018],[-80.47500000000002,28.392824099999984],[-80.47500000000002,28.39363850000001],[-80.47500000000002,28.395373500000005],[-80.47500000000002,28.39618619999999],[-80.47500000000002,28.39710309999998],[-80.47500000000002,28.398098800000014],[-80.47500000000002,28.402567599999998],[-80.47500000000002,28.416457100000002],[-80.47500000000002,28.422372699999983],[-80.47500000000002,28.42500000000001],[-80.477666,28.42500000000001],[-80.478161,28.42500000000001],[-80.47842980000001,28.42500000000001],[-80.4786613,28.42500000000001],[-80.4821604,28.42500000000001],[-80.48616270000002,28.42500000000001],[-80.4974848,28.42500000000001],[-80.51998559999998,28.42500000000001],[-80.52747970000001,28.42500000000001],[-80.53433239999998,28.42500000000001],[-80.53518489999999,28.42500000000001],[-80.53640810000002,28.42500000000001],[-80.54578980000002,28.42500000000001],[-80.5463795,28.42500000000001],[-80.54977300000002,28.42500000000001],[-80.55000000000001,28.42500000000001],[-80.55000000000001,28.423891700000013],[-80.55000000000001,28.417733800000008],[-80.55000000000001,28.414750000000026],[-80.55000000000001,28.404385900000023],[-80.55000000000001,28.403191400000026],[-80.55000000000001,28.400411899999995],[-80.55000000000001,28.399417900000003],[-80.55000000000001,28.392089],[-80.55000000000001,28.391730999999993],[-80.55000000000001,28.391384099999982],[-80.55000000000001,28.39137249999999],[-80.55000000000001,28.391013999999984],[-80.55000000000001,28.39065549999998],[-80.55000000000001,28.389654199999995],[-80.55000000000001,28.3892745],[-80.55000000000001,28.386543500000016],[-80.55000000000001,28.385680200000024],[-80.55000000000001,28.384543899999983],[-80.55000000000001,28.38416189999998],[-80.55000000000001,28.380836999999985],[-80.55000000000001,28.37794919999999],[-80.55000000000001,28.354252299999985],[-80.55000000000001,28.350097199999993],[-80.55000000000001,28.350000000000023],[-80.54996119999998,28.350000000000023],[-80.54785620000001,28.350000000000023]]]}},{"type":"Feature","properties":{},"geometry":{"type":"Polygon","coordinates":[[[-80.43345090000003,28.350000000000023],[-80.42991710000001,28.350000000000023],[-80.42948539999998,28.350000000000023],[-80.4290264,28.350000000000023],[-80.39999999999998,28.350000000000023],[-80.39999999999998,28.3502785],[-80.39999999999998,28.394002],[-80.39999999999998,28.395226400000013],[-80.39999999999998,28.403973500000006],[-80.39999999999998,28.416775599999994],[-80.39999999999998,28.42500000000001],[-80.40310069999998,28.42500000000001],[-80.41682880000002,28.42500000000001],[-80.4169867,28.42500000000001],[-80.42513960000002,28.42500000000001],[-80.42520560000003,28.42500000000001],[-80.42548169999998,28.42500000000001],[-80.44375000000002,28.42500000000001],[-80.44560489999998,28.42500000000001],[-80.44691599999999,28.42500000000001],[-80.44852639999999,28.42500000000001],[-80.44912549999998,28.42500000000001],[-80.45023880000002,28.42500000000001],[-80.45165789999999,28.42500000000001],[-80.4523825,28.42500000000001],[-80.45508999999998,28.42500000000001],[-80.45844090000003,28.42500000000001],[-80.46078019999999,28.42500000000001],[-80.4632143,28.42500000000001],[-80.4643092,28.42500000000001],[-80.4651389,28.42500000000001],[-80.4690895,28.42500000000001],[-80.47026010000002,28.42500000000001],[-80.4708536,28.42500000000001],[-80.47399960000001,28.42500000000001],[-80.47500000000002,28.42500000000001],[-80.47500000000002,28.422372699999983],[-80.47500000000002,28.416457100000002],[-80.47500000000002,28.402567599999998],[-80.47500000000002,28.398098800000014],[-80.47500000000002,28.39710309999998],[-80.47500000000002,28.39618619999999],[-80.47500000000002,28.395373500000005],[-80.47500000000002,28.39363850000001],[-80.47500000000002,28.392824099999984],[-80.47500000000002,28.392684700000018],[-80.47500000000002,28.388071200000013],[-80.47500000000002,28.385880900000018],[-80.47500000000002,28.383688199999995],[-80.47500000000002,28.381250000000023],[-80.47500000000002,28.38108699999998],[-80.47500000000002,28.375551099999996],[-80.47500000000002,28.375135100000023],[-80.47500000000002,28.37506350000001],[-80.47500000000002,28.372189300000002],[-80.47500000000002,28.363042899999982],[-80.47500000000002,28.3502785],[-80.47500000000002,28.350000000000023],[-80.45623510000001,28.350000000000023],[-80.4340631,28.350000000000023],[-80.43345090000003,28.350000000000023]]]}},{"type":"Feature","properties":{},"geometry":{"type":"Polygon","coordinates":[[[-80.38582459999998,28.350000000000023],[-80.384999,28.350000000000023],[-80.38494659999998,28.350000000000023],[-80.38465889999998,28.350000000000023],[-80.37284640000001,28.350000000000023],[-80.36937160000002,28.350000000000023],[-80.36616070000002,28.350000000000023],[-80.36072589999998,28.350000000000023],[-80.36006809999998,28.350000000000023],[-80.3340349,28.350000000000023],[-80.33109159999998,28.350000000000023],[-80.33061800000002,28.350000000000023],[-80.32499999999999,28.350000000000023],[-80.32499999999999,28.3502785],[-80.32499999999999,28.358768499999996],[-80.32499999999999,28.358771100000013],[-80.32499999999999,28.359551699999997],[-80.32499999999999,28.42500000000001],[-80.3705756,28.42500000000001],[-80.38047740000002,28.42500000000001],[-80.384999,28.42500000000001],[-80.3884926,28.42500000000001],[-80.39435459999999,28.42500000000001],[-80.39844640000001,28.42500000000001],[-80.39999999999998,28.42500000000001],[-80.39999999999998,28.416775599999994],[-80.39999999999998,28.404202899999973],[-80.39999999999998,28.395226400000013],[-80.39999999999998,28.39414959999999],[-80.39999999999998,28.394002],[-80.39999999999998,28.3502785],[-80.39999999999998,28.350000000000023],[-80.38815060000002,28.350000000000023],[-80.38582459999998,28.350000000000023]]]}},{"type":"Feature","properties":{},"geometry":{"type":"Polygon","coordinates":[[[-80.69282270000002,28.42500000000001],[-80.69217379999998,28.42500000000001],[-80.6911361,28.42500000000001],[-80.69064159999999,28.42500000000001],[-80.68939180000001,28.42500000000001],[-80.68919799999998,28.42500000000001],[-80.68832689999999,28.42500000000001],[-80.68439540000003,28.42500000000001],[-80.67546620000002,28.42500000000001],[-80.66833400000002,28.42500000000001],[-80.66116060000002,28.42500000000001],[-80.66108709999997,28.42500000000001],[-80.66102380000001,28.42500000000001],[-80.65393979999999,28.42500000000001],[-80.6470802,28.42500000000001],[-80.64387049999999,28.42500000000001],[-80.64348560000002,28.42500000000001],[-80.64347980000002,28.42500000000001],[-80.64344590000002,28.42500000000001],[-80.64319339999997,28.42500000000001],[-80.64116150000001,28.42500000000001],[-80.63929330000002,28.42500000000001],[-80.63882380000001,28.42500000000001],[-80.625,28.42500000000001],[-80.625,28.465832999999975],[-80.625,28.466395799999987],[-80.625,28.474852],[-80.625,28.47653509999998],[-80.625,28.476803099999984],[-80.625,28.484098399999993],[-80.625,28.484525200000007],[-80.625,28.485771199999988],[-80.625,28.5],[-80.63058339999998,28.5],[-80.6360434,28.5],[-80.63628039999998,28.5],[-80.63650719999998,28.5],[-80.64236499999998,28.5],[-80.66009789999998,28.5],[-80.66876350000001,28.5],[-80.68789950000001,28.5],[-80.69243319999998,28.5],[-80.69404739999999,28.5],[-80.69999999999999,28.5],[-80.69999999999999,28.485102700000027],[-80.69999999999999,28.46719680000001],[-80.69999999999999,28.44999999999999],[-80.69999999999999,28.42500000000001],[-80.69629120000002,28.42500000000001],[-80.69282270000002,28.42500000000001]]]}},{"type":"Feature","properties":{},"geometry":{"type":"Polygon","coordinates":[[[-80.60927609999999,28.42500000000001],[-80.60310959999998,28.42500000000001],[-80.60307069999999,28.42500000000001],[-80.59551169999997,28.42500000000001],[-80.58554570000001,28.42500000000001],[-80.5775855,28.42500000000001],[-80.57645880000001,28.42500000000001],[-80.57637190000003,28.42500000000001],[-80.57485439999999,28.42500000000001],[-80.57109509999998,28.42500000000001],[-80.57024200000001,28.42500000000001],[-80.56165720000001,28.42500000000001],[-80.55040819999999,28.42500000000001],[-80.55000000000001,28.42500000000001],[-80.55000000000001,28.42805900000002],[-80.55000000000001,28.428789400000028],[-80.55000000000001,28.4321822],[-80.55000000000001,28.434719599999994],[-80.55000000000001,28.435965899999985],[-80.55000000000001,28.4398956],[-80.55000000000001,28.44249880000001],[-80.55000000000001,28.442595200000028],[-80.55000000000001,28.442702300000008],[-80.55000000000001,28.443193399999984],[-80.55000000000001,28.443248900000015],[-80.55000000000001,28.44391089999999],[-80.55000000000001,28.44656199999997],[-80.55000000000001,28.44999999999999],[-80.55000000000001,28.463062700000023],[-80.55000000000001,28.465832999999975],[-80.55000000000001,28.49499129999998],[-80.55000000000001,28.5],[-80.5850029,28.5],[-80.5859408,28.5],[-80.58819979999998,28.5],[-80.58947719999998,28.5],[-80.59175420000003,28.5],[-80.59275129999997,28.5],[-80.61555170000003,28.5],[-80.61824200000001,28.5],[-80.61854870000002,28.5],[-80.61879160000001,28.5],[-80.625,28.5],[-80.625,28.485771199999988],[-80.625,28.484525200000007],[-80.625,28.484098399999993],[-80.625,28.476803099999984],[-80.625,28.47653509999998],[-80.625,28.474852],[-80.625,28.466395799999987],[-80.625,28.465832999999975],[-80.625,28.42500000000001],[-80.61805559999999,28.42500000000001],[-80.60927609999999,28.42500000000001]]]}},{"type":"Feature","properties":{},"geometry":{"type":"Polygon","coordinates":[[[-80.53518489999999,28.42500000000001],[-80.53433239999998,28.42500000000001],[-80.52747970000001,28.42500000000001],[-80.51998559999998,28.42500000000001],[-80.4974848,28.42500000000001],[-80.48616270000002,28.42500000000001],[-80.4821604,28.42500000000001],[-80.4786613,28.42500000000001],[-80.47842980000001,28.42500000000001],[-80.478161,28.42500000000001],[-80.477666,28.42500000000001],[-80.47500000000002,28.42500000000001],[-80.47500000000002,28.42630170000001],[-80.47500000000002,28.429690199999982],[-80.47500000000002,28.430108899999993],[-80.47500000000002,28.4304712],[-80.47500000000002,28.43127420000002],[-80.47500000000002,28.432270099999982],[-80.47500000000002,28.436695499999985],[-80.47500000000002,28.440077299999984],[-80.47500000000002,28.445153300000015],[-80.47500000000002,28.445542999999986],[-80.47500000000002,28.44727610000001],[-80.47500000000002,28.44829729999998],[-80.47500000000002,28.449957400000017],[-80.47500000000002,28.450639599999988],[-80.47500000000002,28.45129689999999],[-80.47500000000002,28.45238519999998],[-80.47500000000002,28.452466700000002],[-80.47500000000002,28.45560039999998],[-80.47500000000002,28.4588617],[-80.47500000000002,28.46081079999999],[-80.47500000000002,28.462047600000005],[-80.47500000000002,28.46360729999998],[-80.47500000000002,28.465832999999975],[-80.47500000000002,28.4669313],[-80.47500000000002,28.48254220000001],[-80.47500000000002,28.483701199999985],[-80.47500000000002,28.483901899999978],[-80.47500000000002,28.484674400000017],[-80.47500000000002,28.5],[-80.48497020000002,28.5],[-80.4854181,28.5],[-80.48557699999998,28.5],[-80.48987340000002,28.5],[-80.50848889999997,28.5],[-80.51579450000003,28.5],[-80.52103899999997,28.5],[-80.5282537,28.5],[-80.54024290000001,28.5],[-80.54526240000001,28.5],[-80.5470166,28.5],[-80.55000000000001,28.5],[-80.55000000000001,28.49499129999998],[-80.55000000000001,28.465832999999975],[-80.55000000000001,28.463062700000023],[-80.55000000000001,28.44656199999997],[-80.55000000000001,28.443193399999984],[-80.55000000000001,28.442702300000008],[-80.55000000000001,28.442595200000028],[-80.55000000000001,28.44249880000001],[-80.55000000000001,28.4398956],[-80.55000000000001,28.435965899999985],[-80.55000000000001,28.434719599999994],[-80.55000000000001,28.4321822],[-80.55000000000001,28.428789400000028],[-80.55000000000001,28.42805900000002],[-80.55000000000001,28.42500000000001],[-80.54977300000002,28.42500000000001],[-80.5463795,28.42500000000001],[-80.54578980000002,28.42500000000001],[-80.53640810000002,28.42500000000001],[-80.53518489999999,28.42500000000001]]]}},{"type":"Feature","properties":{},"geometry":{"type":"Polygon","coordinates":[[[-80.4708536,28.42500000000001],[-80.47026010000002,28.42500000000001],[-80.4690895,28.42500000000001],[-80.4651389,28.42500000000001],[-80.4643092,28.42500000000001],[-80.4632143,28.42500000000001],[-80.46078019999999,28.42500000000001],[-80.45844090000003,28.42500000000001],[-80.45508999999998,28.42500000000001],[-80.4523825,28.42500000000001],[-80.45165789999999,28.42500000000001],[-80.45023880000002,28.42500000000001],[-80.44912549999998,28.42500000000001],[-80.44852639999999,28.42500000000001],[-80.44691599999999,28.42500000000001],[-80.44560489999998,28.42500000000001],[-80.44375000000002,28.42500000000001],[-80.42548169999998,28.42500000000001],[-80.42520560000003,28.42500000000001],[-80.42513960000002,28.42500000000001],[-80.4169867,28.42500000000001],[-80.41682880000002,28.42500000000001],[-80.40310069999998,28.42500000000001],[-80.39999999999998,28.42500000000001],[-80.39999999999998,28.44999999999999],[-80.39999999999998,28.450177999999994],[-80.39999999999998,28.450241300000016],[-80.39999999999998,28.450733000000014],[-80.39999999999998,28.45230049999998],[-80.39999999999998,28.455715399999974],[-80.39999999999998,28.4613344],[-80.39999999999998,28.465832999999975],[-80.39999999999998,28.470302300000014],[-80.39999999999998,28.47224970000002],[-80.39999999999998,28.475015900000017],[-80.39999999999998,28.5],[-80.40547780000003,28.5],[-80.41469819999998,28.5],[-80.42732160000003,28.5],[-80.43472259999999,28.5],[-80.44666669999998,28.5],[-80.45300759999998,28.5],[-80.47358730000002,28.5],[-80.47500000000002,28.5],[-80.47500000000002,28.484674400000017],[-80.47500000000002,28.483901899999978],[-80.47500000000002,28.483701199999985],[-80.47500000000002,28.48254220000001],[-80.47500000000002,28.478436499999987],[-80.47500000000002,28.4669313],[-80.47500000000002,28.465832999999975],[-80.47500000000002,28.46499510000001],[-80.47500000000002,28.46360729999998],[-80.47500000000002,28.462047600000005],[-80.47500000000002,28.46081079999999],[-80.47500000000002,28.4588617],[-80.47500000000002,28.45560039999998],[-80.47500000000002,28.452466700000002],[-80.47500000000002,28.45238519999998],[-80.47500000000002,28.45129689999999],[-80.47500000000002,28.450639599999988],[-80.47500000000002,28.44999999999999],[-80.47500000000002,28.449957400000017],[-80.47500000000002,28.44829729999998],[-80.47500000000002,28.44727610000001],[-80.47500000000002,28.445542999999986],[-80.47500000000002,28.445153300000015],[-80.47500000000002,28.44309629999998],[-80.47500000000002,28.440077299999984],[-80.47500000000002,28.436695499999985],[-80.47500000000002,28.432270099999982],[-80.47500000000002,28.43127420000002],[-80.47500000000002,28.4304712],[-80.47500000000002,28.430108899999993],[-80.47500000000002,28.429690199999982],[-80.47500000000002,28.42630170000001],[-80.47500000000002,28.42540550000001],[-80.47500000000002,28.42500000000001],[-80.47399960000001,28.42500000000001],[-80.4708536,28.42500000000001]]]}},{"type":"Feature","properties":{},"geometry":{"type":"Polygon","coordinates":[[[-80.39435459999999,28.42500000000001],[-80.3884926,28.42500000000001],[-80.384999,28.42500000000001],[-80.38047740000002,28.42500000000001],[-80.3705756,28.42500000000001],[-80.32499999999999,28.42500000000001],[-80.32499999999999,28.427536799999984],[-80.32499999999999,28.44999999999999],[-80.32499999999999,28.458964200000025],[-80.32499999999999,28.5],[-80.34543609999997,28.5],[-80.35000000000002,28.5],[-80.3502813,28.5],[-80.35394659999997,28.5],[-80.35623679999998,28.5],[-80.362886,28.5],[-80.37432619999998,28.5],[-80.38258480000002,28.5],[-80.39999999999998,28.5],[-80.39999999999998,28.475015900000017],[-80.39999999999998,28.47224970000002],[-80.39999999999998,28.470302300000014],[-80.39999999999998,28.465832999999975],[-80.39999999999998,28.4613344],[-80.39999999999998,28.455715399999974],[-80.39999999999998,28.45230049999998],[-80.39999999999998,28.450733000000014],[-80.39999999999998,28.450241300000016],[-80.39999999999998,28.450177999999994],[-80.39999999999998,28.44999999999999],[-80.39999999999998,28.42500000000001],[-80.39844640000001,28.42500000000001],[-80.39435459999999,28.42500000000001]]]}},{"type":"Feature","properties":{},"geometry":{"type":"Polygon","coordinates":[[[-80.63650719999998,28.5],[-80.6360434,28.5],[-80.63058339999998,28.5],[-80.625,28.5],[-80.625,28.514124700000025],[-80.625,28.51491229999999],[-80.625,28.51738549999999],[-80.625,28.51920050000001],[-80.625,28.57499999999999],[-80.66849280000002,28.57499999999999],[-80.67299609999998,28.57499999999999],[-80.67671009999998,28.57499999999999],[-80.67947079999999,28.57499999999999],[-80.68134620000001,28.57499999999999],[-80.68275060000002,28.57499999999999],[-80.68450689999997,28.57499999999999],[-80.68701149999998,28.57499999999999],[-80.69113069999997,28.57499999999999],[-80.69999999999999,28.57499999999999],[-80.69999999999999,28.561875199999974],[-80.69999999999999,28.55375989999999],[-80.69999999999999,28.551421300000015],[-80.69999999999999,28.533963900000003],[-80.69999999999999,28.522970799999996],[-80.69999999999999,28.5],[-80.69404739999999,28.5],[-80.69243319999998,28.5],[-80.68789950000001,28.5],[-80.66009789999998,28.5],[-80.64236499999998,28.5],[-80.63650719999998,28.5]]]}},{"type":"Feature","properties":{},"geometry":{"type":"Polygon","coordinates":[[[-80.625,28.5],[-80.61879160000001,28.5],[-80.61854870000002,28.5],[-80.61824200000001,28.5],[-80.61555170000003,28.5],[-80.59275129999997,28.5],[-80.59175420000003,28.5],[-80.58947719999998,28.5],[-80.5859408,28.5],[-80.55000000000001,28.5],[-80.55000000000001,28.504856000000018],[-80.55000000000001,28.508081100000027],[-80.55000000000001,28.509433600000023],[-80.55000000000001,28.509968800000024],[-80.55000000000001,28.51251309999998],[-80.55000000000001,28.517218800000023],[-80.55000000000001,28.51841109999998],[-80.55000000000001,28.533189800000002],[-80.55000000000001,28.53596299999998],[-80.55000000000001,28.545961299999988],[-80.55000000000001,28.57499999999999],[-80.5607233,28.57499999999999],[-80.563895,28.57499999999999],[-80.5671461,28.57499999999999],[-80.5693556,28.57499999999999],[-80.5698519,28.57499999999999],[-80.57161939999997,28.57499999999999],[-80.57240300000001,28.57499999999999],[-80.58233849999999,28.57499999999999],[-80.5876586,28.57499999999999],[-80.58813780000003,28.57499999999999],[-80.5896136,28.57499999999999],[-80.59444250000001,28.57499999999999],[-80.59500050000003,28.57499999999999],[-80.59762769999998,28.57499999999999],[-80.60190599999999,28.57499999999999],[-80.60489580000001,28.57499999999999],[-80.60568610000001,28.57499999999999],[-80.60576049999997,28.57499999999999],[-80.60619919999999,28.57499999999999],[-80.60759439999998,28.57499999999999],[-80.6124127,28.57499999999999],[-80.61246569999997,28.57499999999999],[-80.61628619999999,28.57499999999999],[-80.625,28.57499999999999],[-80.625,28.51920050000001],[-80.625,28.51738549999999],[-80.625,28.51491229999999],[-80.625,28.514124700000025],[-80.625,28.5]]]}},{"type":"Feature","properties":{},"geometry":{"type":"Polygon","coordinates":[[[-80.625,28.57499999999999],[-80.625,28.590988700000025],[-80.625,28.591436299999998],[-80.625,28.59602380000001],[-80.625,28.598654399999987],[-80.625,28.60090580000002],[-80.625,28.607044499999972],[-80.625,28.614838599999985],[-80.625,28.617117300000018],[-80.625,28.618802800000026],[-80.625,28.6233297],[-80.625,28.628900499999986],[-80.625,28.630100000000027],[-80.625,28.637621000000024],[-80.625,28.64087790000002],[-80.625,28.645302500000014],[-80.625,28.646451599999978],[-80.625,28.649667099999988],[-80.625,28.649999999999977],[-80.62520389999997,28.649999999999977],[-80.62760500000002,28.649999999999977],[-80.62812969999999,28.649999999999977],[-80.62816830000003,28.649999999999977],[-80.62818870000001,28.649999999999977],[-80.62931859999998,28.649999999999977],[-80.63419800000003,28.649999999999977],[-80.63991920000001,28.649999999999977],[-80.6423919,28.649999999999977],[-80.6449212,28.649999999999977],[-80.64596,28.649999999999977],[-80.64617950000002,28.649999999999977],[-80.6529433,28.649999999999977],[-80.65322750000001,28.649999999999977],[-80.66059310000003,28.649999999999977],[-80.6725399,28.649999999999977],[-80.6736735,28.649999999999977],[-80.6756282,28.649999999999977],[-80.67689209999998,28.649999999999977],[-80.67766010000003,28.649999999999977],[-80.69332229999998,28.649999999999977],[-80.69999999999999,28.649999999999977],[-80.69999999999999,28.59896839999999],[-80.69999999999999,28.589631499999996],[-80.69999999999999,28.585791700000016],[-80.69999999999999,28.584268699999996],[-80.69999999999999,28.579097100000013],[-80.69999999999999,28.5761885],[-80.69999999999999,28.57499999999999],[-80.69113069999997,28.57499999999999],[-80.68701149999998,28.57499999999999],[-80.68450689999997,28.57499999999999],[-80.68275060000002,28.57499999999999],[-80.68134620000001,28.57499999999999],[-80.67947079999999,28.57499999999999],[-80.67671009999998,28.57499999999999],[-80.67299609999998,28.57499999999999],[-80.66849280000002,28.57499999999999],[-80.625,28.57499999999999]]]}},{"type":"Feature","properties":{},"geometry":{"type":"Polygon","coordinates":[[[-80.61246569999997,28.57499999999999],[-80.6124127,28.57499999999999],[-80.60759439999998,28.57499999999999],[-80.60619919999999,28.57499999999999],[-80.60576049999997,28.57499999999999],[-80.60568610000001,28.57499999999999],[-80.60489580000001,28.57499999999999],[-80.60190599999999,28.57499999999999],[-80.59762769999998,28.57499999999999],[-80.59500050000003,28.57499999999999],[-80.59444250000001,28.57499999999999],[-80.5896136,28.57499999999999],[-80.58813780000003,28.57499999999999],[-80.5876586,28.57499999999999],[-80.58233849999999,28.57499999999999],[-80.57240300000001,28.57499999999999],[-80.57161939999997,28.57499999999999],[-80.5698519,28.57499999999999],[-80.5693556,28.57499999999999],[-80.5671461,28.57499999999999],[-80.563895,28.57499999999999],[-80.5607233,28.57499999999999],[-80.55000000000001,28.57499999999999],[-80.55000000000001,28.577863999999977],[-80.55000000000001,28.58519100000001],[-80.55000000000001,28.591723399999978],[-80.55000000000001,28.59475759999998],[-80.55000000000001,28.595094500000016],[-80.55000000000001,28.597037899999975],[-80.55000000000001,28.5997481],[-80.55000000000001,28.60329619999999],[-80.55000000000001,28.611430199999973],[-80.55000000000001,28.625047999999992],[-80.55000000000001,28.631357999999977],[-80.55000000000001,28.639700500000004],[-80.55000000000001,28.63983730000001],[-80.55000000000001,28.640456500000028],[-80.55000000000001,28.64441340000002],[-80.55000000000001,28.649999999999977],[-80.55778070000002,28.649999999999977],[-80.55828609999998,28.649999999999977],[-80.55844330000002,28.649999999999977],[-80.5798011,28.649999999999977],[-80.5813968,28.649999999999977],[-80.5853454,28.649999999999977],[-80.58605720000003,28.649999999999977],[-80.59431560000002,28.649999999999977],[-80.59796390000002,28.649999999999977],[-80.6000348,28.649999999999977],[-80.61136529999999,28.649999999999977],[-80.625,28.649999999999977],[-80.625,28.649667099999988],[-80.625,28.646451599999978],[-80.625,28.645302500000014],[-80.625,28.64087790000002],[-80.625,28.637621000000024],[-80.625,28.630100000000027],[-80.625,28.628900499999986],[-80.625,28.6233297],[-80.625,28.618802800000026],[-80.625,28.617117300000018],[-80.625,28.614838599999985],[-80.625,28.607044499999972],[-80.625,28.60090580000002],[-80.625,28.598654399999987],[-80.625,28.59602380000001],[-80.625,28.591436299999998],[-80.625,28.590988700000025],[-80.625,28.57499999999999],[-80.61628619999999,28.57499999999999],[-80.61246569999997,28.57499999999999]]]}},{"type":"Feature","properties":{},"geometry":{"type":"Polygon","coordinates":[[[-80.80494540000001,28.57499999999999],[-80.8167029,28.57499999999999],[-80.85000000000002,28.57499999999999],[-80.85000000000002,28.5],[-80.78894559999998,28.5],[-80.78215940000001,28.5],[-80.77714659999998,28.5],[-80.77707379999998,28.5],[-80.77499999999998,28.5],[-80.77499999999998,28.516946099999984],[-80.77499999999998,28.520319099999995],[-80.77499999999998,28.5265402],[-80.77499999999998,28.526776700000028],[-80.77499999999998,28.526797699999975],[-80.77499999999998,28.527178400000025],[-80.77499999999998,28.52794610000001],[-80.77499999999998,28.528313799999978],[-80.77499999999998,28.528753100000017],[-80.77499999999998,28.529252100000008],[-80.77499999999998,28.531184699999983],[-80.77499999999998,28.556550300000026],[-80.77499999999998,28.557128200000022],[-80.77499999999998,28.55749270000001],[-80.77499999999998,28.56642979999998],[-80.77499999999998,28.56706109999999],[-80.77499999999998,28.57499999999999],[-80.78141360000001,28.57499999999999],[-80.7825899,28.57499999999999],[-80.7827413,28.57499999999999],[-80.78300089999999,28.57499999999999],[-80.78888219999999,28.57499999999999],[-80.79822990000002,28.57499999999999],[-80.79859809999999,28.57499999999999],[-80.80494540000001,28.57499999999999]]]}},{"type":"Feature","properties":{},"geometry":{"type":"Polygon","coordinates":[[[-80.79822990000002,28.57499999999999],[-80.78888219999999,28.57499999999999],[-80.78300089999999,28.57499999999999],[-80.7827413,28.57499999999999],[-80.7825899,28.57499999999999],[-80.78141360000001,28.57499999999999],[-80.77499999999998,28.57499999999999],[-80.77499999999998,28.613902699999983],[-80.77499999999998,28.61486180000003],[-80.77499999999998,28.614893499999994],[-80.77499999999998,28.6192231],[-80.77499999999998,28.620936099999994],[-80.77499999999998,28.6209389],[-80.77499999999998,28.626227700000015],[-80.77499999999998,28.62624340000002],[-80.77499999999998,28.630395899999996],[-80.77499999999998,28.63333130000001],[-80.77499999999998,28.633360900000014],[-80.77499999999998,28.64192270000001],[-80.77499999999998,28.64219250000002],[-80.77499999999998,28.64997390000002],[-80.77499999999998,28.649999999999977],[-80.77524920000002,28.649999999999977],[-80.77768750000001,28.649999999999977],[-80.77926630000002,28.649999999999977],[-80.7857861,28.649999999999977],[-80.78593419999999,28.649999999999977],[-80.79125399999998,28.649999999999977],[-80.7923811,28.649999999999977],[-80.79341440000002,28.649999999999977],[-80.80056830000001,28.649999999999977],[-80.80158349999999,28.649999999999977],[-80.8031287,28.649999999999977],[-80.80487440000002,28.649999999999977],[-80.80666250000002,28.649999999999977],[-80.80685979999998,28.649999999999977],[-80.80704930000002,28.649999999999977],[-80.80836,28.649999999999977],[-80.8197515,28.649999999999977],[-80.84446029999998,28.649999999999977],[-80.85000000000002,28.649999999999977],[-80.85000000000002,28.57499999999999],[-80.8167029,28.57499999999999],[-80.80494540000001,28.57499999999999],[-80.79859809999999,28.57499999999999],[-80.79822990000002,28.57499999999999]]]}},{"type":"Feature","properties":{},"geometry":{"type":"Polygon","coordinates":[[[-80.80836,28.649999999999977],[-80.80704930000002,28.649999999999977],[-80.80685979999998,28.649999999999977],[-80.80666250000002,28.649999999999977],[-80.80487440000002,28.649999999999977],[-80.8031287,28.649999999999977],[-80.80158349999999,28.649999999999977],[-80.80056830000001,28.649999999999977],[-80.79341440000002,28.649999999999977],[-80.7923811,28.649999999999977],[-80.79125399999998,28.649999999999977],[-80.78593419999999,28.649999999999977],[-80.7857861,28.649999999999977],[-80.77926630000002,28.649999999999977],[-80.77768750000001,28.649999999999977],[-80.77524920000002,28.649999999999977],[-80.77499999999998,28.649999999999977],[-80.77499999999998,28.650740900000017],[-80.77499999999998,28.65109369999999],[-80.77499999999998,28.651395200000024],[-80.77499999999998,28.662686599999972],[-80.77499999999998,28.66288209999999],[-80.77499999999998,28.669625600000018],[-80.77499999999998,28.670007],[-80.77499999999998,28.677129999999977],[-80.77499999999998,28.6775222],[-80.77499999999998,28.690313000000003],[-80.77499999999998,28.693687599999976],[-80.77499999999998,28.717280000000017],[-80.77499999999998,28.717495799999995],[-80.77499999999998,28.717752500000017],[-80.77499999999998,28.71797509999999],[-80.77499999999998,28.72073899999998],[-80.77499999999998,28.721063700000002],[-80.77499999999998,28.725000000000023],[-80.83542110000002,28.725000000000023],[-80.8376662,28.725000000000023],[-80.83906910000002,28.725000000000023],[-80.85000000000002,28.725000000000023],[-80.85000000000002,28.685804500000017],[-80.85000000000002,28.664968299999998],[-80.85000000000002,28.649999999999977],[-80.84446029999998,28.649999999999977],[-80.8197515,28.649999999999977],[-80.80836,28.649999999999977]]]}},{"type":"Feature","properties":{},"geometry":{"type":"Polygon","coordinates":[[[-80.85000000000002,28.773688300000003],[-80.85000000000002,28.725000000000023],[-80.83906910000002,28.725000000000023],[-80.8376662,28.725000000000023],[-80.83542110000002,28.725000000000023],[-80.77499999999998,28.725000000000023],[-80.77499999999998,28.75045640000002],[-80.77499999999998,28.752674000000013],[-80.77499999999998,28.753477999999973],[-80.77499999999998,28.753769999999975],[-80.77499999999998,28.754692799999987],[-80.77499999999998,28.76960009999999],[-80.77499999999998,28.769676199999992],[-80.77499999999998,28.773265100000003],[-80.77499999999998,28.775430700000015],[-80.77499999999998,28.7788812],[-80.77499999999998,28.779273499999988],[-80.77499999999998,28.779600000000016],[-80.77499999999998,28.80000000000001],[-80.78753119999999,28.80000000000001],[-80.78768430000002,28.80000000000001],[-80.7879739,28.80000000000001],[-80.79158910000001,28.80000000000001],[-80.79181870000002,28.80000000000001],[-80.79389839999999,28.80000000000001],[-80.7943922,28.80000000000001],[-80.7952497,28.80000000000001],[-80.8015021,28.80000000000001],[-80.81631579999998,28.80000000000001],[-80.8375216,28.80000000000001],[-80.8408432,28.80000000000001],[-80.84340780000002,28.80000000000001],[-80.84644229999998,28.80000000000001],[-80.84672870000003,28.80000000000001],[-80.85000000000002,28.80000000000001],[-80.85000000000002,28.799479200000007],[-80.85000000000002,28.78788320000001],[-80.85000000000002,28.786828200000002],[-80.85000000000002,28.785479599999974],[-80.85000000000002,28.784958200000005],[-80.85000000000002,28.77884069999999],[-80.85000000000002,28.778696500000024],[-80.85000000000002,28.778504899999973],[-80.85000000000002,28.778375400000016],[-80.85000000000002,28.77547290000001],[-80.85000000000002,28.773688300000003]]]}},{"type":"Feature","properties":{},"geometry":{"type":"Polygon","coordinates":[[[-80.84644229999998,28.80000000000001],[-80.84340780000002,28.80000000000001],[-80.8408432,28.80000000000001],[-80.8375216,28.80000000000001],[-80.81631579999998,28.80000000000001],[-80.8015021,28.80000000000001],[-80.7952497,28.80000000000001],[-80.7943922,28.80000000000001],[-80.79389839999999,28.80000000000001],[-80.79181870000002,28.80000000000001],[-80.79158910000001,28.80000000000001],[-80.7879739,28.80000000000001],[-80.78768430000002,28.80000000000001],[-80.78753119999999,28.80000000000001],[-80.77499999999998,28.80000000000001],[-80.77499999999998,28.81751989999998],[-80.77499999999998,28.818532500000003],[-80.77499999999998,28.824069500000007],[-80.77499999999998,28.826153299999987],[-80.77499999999998,28.838074600000027],[-80.77499999999998,28.839802599999985],[-80.77499999999998,28.843059299999993],[-80.77499999999998,28.843725199999994],[-80.77499999999998,28.844831399999975],[-80.77499999999998,28.850174100000004],[-80.77499999999998,28.85056739999999],[-80.77499999999998,28.852095599999984],[-80.77499999999998,28.852812200000017],[-80.77499999999998,28.853598599999998],[-80.77499999999998,28.856709299999977],[-80.77499999999998,28.85893729999998],[-80.77499999999998,28.862980900000025],[-80.77499999999998,28.866076700000008],[-80.77499999999998,28.871313799999996],[-80.77499999999998,28.875],[-80.77644509999999,28.875],[-80.7807699,28.875],[-80.7821773,28.875],[-80.78440599999999,28.875],[-80.7867837,28.875],[-80.79481249999998,28.875],[-80.79713220000002,28.875],[-80.79814520000002,28.875],[-80.79991849999999,28.875],[-80.80084349999998,28.875],[-80.80924540000001,28.875],[-80.81102520000002,28.875],[-80.81173319999999,28.875],[-80.81266879999998,28.875],[-80.82458600000001,28.875],[-80.8255021,28.875],[-80.83294910000001,28.875],[-80.83373089999998,28.875],[-80.83605130000001,28.875],[-80.836254,28.875],[-80.83635299999997,28.875],[-80.83649739999998,28.875],[-80.84050880000001,28.875],[-80.84078950000003,28.875],[-80.84169580000002,28.875],[-80.85000000000002,28.875],[-80.85000000000002,28.87403089999998],[-80.85000000000002,28.80890499999998],[-80.85000000000002,28.804528100000027],[-80.85000000000002,28.80000000000001],[-80.84672870000003,28.80000000000001],[-80.84644229999998,28.80000000000001]]]}},{"type":"Feature","properties":{},"geometry":{"type":"Polygon","coordinates":[[[-80.87717570000001,28.94999999999999],[-80.89976769999998,28.94999999999999],[-80.92500000000001,28.94999999999999],[-80.92500000000001,28.875],[-80.85063489999999,28.875],[-80.85000000000002,28.875],[-80.85000000000002,28.893601400000023],[-80.85000000000002,28.893606499999976],[-80.85000000000002,28.895188500000017],[-80.85000000000002,28.8958528],[-80.85000000000002,28.896289000000024],[-80.85000000000002,28.89664829999998],[-80.85000000000002,28.898044500000026],[-80.85000000000002,28.901145600000007],[-80.85000000000002,28.907341499999973],[-80.85000000000002,28.91243209999999],[-80.85000000000002,28.915383700000007],[-80.85000000000002,28.916952999999978],[-80.85000000000002,28.918903699999987],[-80.85000000000002,28.919950900000003],[-80.85000000000002,28.920247300000028],[-80.85000000000002,28.921684000000027],[-80.85000000000002,28.922344699999996],[-80.85000000000002,28.92559590000002],[-80.85000000000002,28.925976400000025],[-80.85000000000002,28.926750500000026],[-80.85000000000002,28.927101100000016],[-80.85000000000002,28.929822399999978],[-80.85000000000002,28.93030110000001],[-80.85000000000002,28.931197499999996],[-80.85000000000002,28.93401510000001],[-80.85000000000002,28.935428100000024],[-80.85000000000002,28.936488800000006],[-80.85000000000002,28.939178000000027],[-80.85000000000002,28.945004200000028],[-80.85000000000002,28.945210900000006],[-80.85000000000002,28.9455016],[-80.85000000000002,28.945948499999986],[-80.85000000000002,28.947229100000015],[-80.85000000000002,28.94791029999999],[-80.85000000000002,28.94999999999999],[-80.85040780000003,28.94999999999999],[-80.8518201,28.94999999999999],[-80.8533706,28.94999999999999],[-80.85551800000002,28.94999999999999],[-80.85623040000002,28.94999999999999],[-80.85654360000001,28.94999999999999],[-80.85678619999999,28.94999999999999],[-80.85823900000003,28.94999999999999],[-80.85837830000003,28.94999999999999],[-80.8585478,28.94999999999999],[-80.85977839999998,28.94999999999999],[-80.8607824,28.94999999999999],[-80.8610228,28.94999999999999],[-80.86143040000002,28.94999999999999],[-80.8621288,28.94999999999999],[-80.86367360000003,28.94999999999999],[-80.86542709999998,28.94999999999999],[-80.86608539999997,28.94999999999999],[-80.86663900000002,28.94999999999999],[-80.86699599999997,28.94999999999999],[-80.8671521,28.94999999999999],[-80.86755299999999,28.94999999999999],[-80.86814600000002,28.94999999999999],[-80.86987549999998,28.94999999999999],[-80.87095310000001,28.94999999999999],[-80.8710385,28.94999999999999],[-80.87205499999999,28.94999999999999],[-80.8723756,28.94999999999999],[-80.87349440000003,28.94999999999999],[-80.8737739,28.94999999999999],[-80.87447359999999,28.94999999999999],[-80.87495710000002,28.94999999999999],[-80.87508759999997,28.94999999999999],[-80.87520990000002,28.94999999999999],[-80.87553700000001,28.94999999999999],[-80.87653260000002,28.94999999999999],[-80.87717570000001,28.94999999999999]]]}},{"type":"Feature","properties":{},"geometry":{"type":"Polygon","coordinates":[[[-80.84050880000001,28.875],[-80.83649739999998,28.875],[-80.83635299999997,28.875],[-80.836254,28.875],[-80.83605130000001,28.875],[-80.83373089999998,28.875],[-80.83294910000001,28.875],[-80.8255021,28.875],[-80.82458600000001,28.875],[-80.81266879999998,28.875],[-80.81173319999999,28.875],[-80.81102520000002,28.875],[-80.80924540000001,28.875],[-80.80084349999998,28.875],[-80.79991849999999,28.875],[-80.79814520000002,28.875],[-80.79713220000002,28.875],[-80.79481249999998,28.875],[-80.7867837,28.875],[-80.78440599999999,28.875],[-80.7821773,28.875],[-80.7807699,28.875],[-80.77644509999999,28.875],[-80.77499999999998,28.875],[-80.77499999999998,28.889265500000022],[-80.77499999999998,28.94999999999999],[-80.8147993,28.94999999999999],[-80.83023480000003,28.94999999999999],[-80.83267439999997,28.94999999999999],[-80.83400799999998,28.94999999999999],[-80.8361875,28.94999999999999],[-80.8376662,28.94999999999999],[-80.8382143,28.94999999999999],[-80.84159640000001,28.94999999999999],[-80.84257530000002,28.94999999999999],[-80.84348729999999,28.94999999999999],[-80.84392000000003,28.94999999999999],[-80.84465640000002,28.94999999999999],[-80.84600840000002,28.94999999999999],[-80.84637509999999,28.94999999999999],[-80.85000000000002,28.94999999999999],[-80.85000000000002,28.94791029999999],[-80.85000000000002,28.947229100000015],[-80.85000000000002,28.945948499999986],[-80.85000000000002,28.9455016],[-80.85000000000002,28.945210900000006],[-80.85000000000002,28.945004200000028],[-80.85000000000002,28.939178000000027],[-80.85000000000002,28.936488800000006],[-80.85000000000002,28.935428100000024],[-80.85000000000002,28.93401510000001],[-80.85000000000002,28.931197499999996],[-80.85000000000002,28.93030110000001],[-80.85000000000002,28.929822399999978],[-80.85000000000002,28.927101100000016],[-80.85000000000002,28.926750500000026],[-80.85000000000002,28.925976400000025],[-80.85000000000002,28.92559590000002],[-80.85000000000002,28.922344699999996],[-80.85000000000002,28.921684000000027],[-80.85000000000002,28.920247300000028],[-80.85000000000002,28.919950900000003],[-80.85000000000002,28.918903699999987],[-80.85000000000002,28.916952999999978],[-80.85000000000002,28.915383700000007],[-80.85000000000002,28.91243209999999],[-80.85000000000002,28.907341499999973],[-80.85000000000002,28.901145600000007],[-80.85000000000002,28.898044500000026],[-80.85000000000002,28.89664829999998],[-80.85000000000002,28.896289000000024],[-80.85000000000002,28.8958528],[-80.85000000000002,28.895188500000017],[-80.85000000000002,28.893606499999976],[-80.85000000000002,28.893601400000023],[-80.85000000000002,28.875],[-80.84169580000002,28.875],[-80.84078950000003,28.875],[-80.84050880000001,28.875]]]}},{"type":"Feature","properties":{},"geometry":{"type":"Polygon","coordinates":[[[-80.87717570000001,28.94999999999999],[-80.87653260000002,28.94999999999999],[-80.87553700000001,28.94999999999999],[-80.87520990000002,28.94999999999999],[-80.87510259999999,28.94999999999999],[-80.87495710000002,28.94999999999999],[-80.87450969999998,28.94999999999999],[-80.8737739,28.94999999999999],[-80.87349440000003,28.94999999999999],[-80.8723756,28.94999999999999],[-80.87205499999999,28.94999999999999],[-80.8710385,28.94999999999999],[-80.87095310000001,28.94999999999999],[-80.86987549999998,28.94999999999999],[-80.86814600000002,28.94999999999999],[-80.86755299999999,28.94999999999999],[-80.8671521,28.94999999999999],[-80.86699599999997,28.94999999999999],[-80.86663900000002,28.94999999999999],[-80.86608539999997,28.94999999999999],[-80.86542709999998,28.94999999999999],[-80.86367360000003,28.94999999999999],[-80.8621288,28.94999999999999],[-80.86143040000002,28.94999999999999],[-80.8610228,28.94999999999999],[-80.8607824,28.94999999999999],[-80.85977839999998,28.94999999999999],[-80.8585478,28.94999999999999],[-80.85837830000003,28.94999999999999],[-80.85823900000003,28.94999999999999],[-80.85678619999999,28.94999999999999],[-80.85654360000001,28.94999999999999],[-80.85623040000002,28.94999999999999],[-80.85551800000002,28.94999999999999],[-80.8533706,28.94999999999999],[-80.8518201,28.94999999999999],[-80.85040780000003,28.94999999999999],[-80.85000000000002,28.94999999999999],[-80.85000000000002,28.95266140000001],[-80.85000000000002,28.953117399999996],[-80.85000000000002,28.954863699999976],[-80.85000000000002,28.956030499999997],[-80.85000000000002,28.957058599999982],[-80.85000000000002,28.957532200000003],[-80.85000000000002,28.958552899999972],[-80.85000000000002,28.958621499999992],[-80.85000000000002,28.958836399999996],[-80.85000000000002,28.959050900000022],[-80.85000000000002,28.959739000000013],[-80.85000000000002,28.960168599999975],[-80.85000000000002,28.96302800000001],[-80.85000000000002,28.96341819999998],[-80.85000000000002,28.964635299999998],[-80.85000000000002,28.964877300000012],[-80.85000000000002,28.967118700000015],[-80.85000000000002,28.96781249999998],[-80.85000000000002,28.970559400000013],[-80.85000000000002,28.972970999999973],[-80.85000000000002,28.97540700000002],[-80.85000000000002,28.97863799999999],[-80.85000000000002,29.003716899999972],[-80.85000000000002,29.024999999999977],[-80.86394680000001,29.024999999999977],[-80.87665429999998,29.024999999999977],[-80.88061090000002,29.024999999999977],[-80.8817957,29.024999999999977],[-80.88426579999998,29.024999999999977],[-80.88646499999999,29.024999999999977],[-80.88706660000003,29.024999999999977],[-80.89505200000002,29.024999999999977],[-80.90264230000002,29.024999999999977],[-80.9028563,29.024999999999977],[-80.90615020000001,29.024999999999977],[-80.90708089999998,29.024999999999977],[-80.91371559999999,29.024999999999977],[-80.91416529999998,29.024999999999977],[-80.91510790000001,29.024999999999977],[-80.91547400000002,29.024999999999977],[-80.91588150000001,29.024999999999977],[-80.916269,29.024999999999977],[-80.91632900000002,29.024999999999977],[-80.9166002,29.024999999999977],[-80.91738379999998,29.024999999999977],[-80.9182298,29.024999999999977],[-80.91846329999998,29.024999999999977],[-80.91859729999999,29.024999999999977],[-80.9190145,29.024999999999977],[-80.91925579999997,29.024999999999977],[-80.92500000000001,29.024999999999977],[-80.92500000000001,29.020759800000008],[-80.92500000000001,28.988516500000003],[-80.92500000000001,28.94999999999999],[-80.89976769999998,28.94999999999999],[-80.87717570000001,28.94999999999999]]]}}]}