{"type":"FeatureCollection","features":[{"type":"Feature","properties":{},"geometry":{"type":"Polygon","coordinates":[[[-78.07499999999999,33.97500000000002],[-78.00863609999999,33.97500000000002],[-78.00708309999999,33.97500000000002],[-78.00707469999998,33.97500000000002],[-78.00306669999998,33.97500000000002],[-78.0,33.97500000000002],[-78.0,33.97117079999998],[-78.0,33.97007989999997],[-78.0,33.96980150000002],[-78.0,33.9696505],[-78.0,33.96863769999999],[-78.0,33.96766960000002],[-78.0,33.963695400000006],[-78.0,33.962710800000025],[-78.0,33.937745800000016],[-78.0,33.93641839999998],[-78.0,33.93],[-78.07499999999999,33.93],[-78.07499999999999,33.97500000000002]]]}},{"type":"Feature","properties":{},"geometry":{"type":"Polygon","coordinates":[[[-78.0,33.93641839999998],[-78.0,33.937745800000016],[-78.0,33.962710800000025],[-78.0,33.963695400000006],[-78.0,33.96766960000002],[-78.0,33.96863769999999],[-78.0,33.9696505],[-78.0,33.96980150000002],[-78.0,33.97007989999997],[-78.0,33.97117079999998],[-78.0,33.97500000000002],[-77.99836970000001,33.97500000000002],[-77.99793349999999,33.97500000000002],[-77.99761239999998,33.97500000000002],[-77.99635369999999,33.97500000000002],[-77.99616959999997,33.97500000000002],[-77.99578079999998,33.97500000000002],[-77.9954889,33.97500000000002],[-77.99463939999998,33.97500000000002],[-77.994167,33.97500000000002],[-77.991577,33.97500000000002],[-77.9908193,33.97500000000002],[-77.99058780000001,33.97500000000002],[-77.99013739999998,33.97500000000002],[-77.9888302,33.97500000000002],[-77.9880991,33.97500000000002],[-77.98581230000002,33.97500000000002],[-77.98524259999999,33.97500000000002],[-77.97963040000002,33.97500000000002],[-77.97742010000002,33.97500000000002],[-77.9770102,33.97500000000002],[-77.97525259999998,33.97500000000002],[-77.97407529999998,33.97500000000002],[-77.96926989999997,33.97500000000002],[-77.95938869999998,33.97500000000002],[-77.95530120000001,33.97500000000002],[-77.95430820000001,33.97500000000002],[-77.95334430000003,33.97500000000002],[-77.9528436,33.97500000000002],[-77.95195059999998,33.97500000000002],[-77.95102220000001,33.97500000000002],[-77.95024590000003,33.97500000000002],[-77.94994559999998,33.97500000000002],[-77.94940709999997,33.97500000000002],[-77.94910379999999,33.97500000000002],[-77.94893889999997,33.97500000000002],[-77.94860770000003,33.97500000000002],[-77.94828519999999,33.97500000000002],[-77.94827800000002,33.97500000000002],[-77.94827650000002,33.97500000000002],[-77.94794530000001,33.97500000000002],[-77.94761399999999,33.97500000000002],[-77.94703629999998,33.97500000000002],[-77.9468708,33.97500000000002],[-77.94652919999999,33.97500000000002],[-77.94618439999999,33.97500000000002],[-77.94555589999999,33.97500000000002],[-77.94433079999999,33.97500000000002],[-77.94412440000002,33.97500000000002],[-77.943105,33.97500000000002],[-77.94197259999999,33.97500000000002],[-77.94140809999999,33.97500000000002],[-77.92500000000001,33.97500000000002],[-77.92500000000001,33.973546],[-77.92500000000001,33.970035300000006],[-77.92500000000001,33.96782480000002],[-77.92500000000001,33.96080669999998],[-77.92500000000001,33.96052100000003],[-77.92500000000001,33.96041300000002],[-77.92500000000001,33.95986110000001],[-77.92500000000001,33.957819900000004],[-77.92500000000001,33.957683599999996],[-77.92500000000001,33.95693590000002],[-77.92500000000001,33.95387779999999],[-77.92500000000001,33.946883300000025],[-77.92500000000001,33.94188129999998],[-77.92500000000001,33.94101439999997],[-77.92500000000001,33.934818800000016],[-77.92500000000001,33.934737600000005],[-77.92500000000001,33.93085480000002],[-77.92500000000001,33.93],[-78.0,33.93],[-78.0,33.93641839999998]]]}},{"type":"Feature","properties":{},"geometry":{"type":"Polygon","coordinates":[[[-77.92500000000001,33.93085480000002],[-77.92500000000001,33.934737600000005],[-77.92500000000001,33.934818800000016],[-77.92500000000001,33.94101439999997],[-77.92500000000001,33.94188129999998],[-77.92500000000001,33.946883300000025],[-77.92500000000001,33.95387779999999],[-77.92500000000001,33.95693590000002],[-77.92500000000001,33.957683599999996],[-77.92500000000001,33.957819900000004],[-77.92500000000001,33.95986110000001],[-77.92500000000001,33.96041300000002],[-77.92500000000001,33.96052100000003],[-77.92500000000001,33.96080669999998],[-77.92500000000001,33.96782480000002],[-77.92500000000001,33.970035300000006],[-77.92500000000001,33.973546],[-77.92500000000001,33.97500000000002],[-77.9215259,33.97500000000002],[-77.92020760000003,33.97500000000002],[-77.91330590000001,33.97500000000002],[-77.91231019999998,33.97500000000002],[-77.9111221,33.97500000000002],[-77.91057890000002,33.97500000000002],[-77.90911210000002,33.97500000000002],[-77.90400649999998,33.97500000000002],[-77.89970870000002,33.97500000000002],[-77.89913619999999,33.97500000000002],[-77.89561650000002,33.97500000000002],[-77.88173970000003,33.97500000000002],[-77.87636650000002,33.97500000000002],[-77.87284770000002,33.97500000000002],[-77.85000000000002,33.97500000000002],[-77.85000000000002,33.974541999999985],[-77.85000000000002,33.93],[-77.92500000000001,33.93],[-77.92500000000001,33.93085480000002]]]}},{"type":"Feature","properties":{},"geometry":{"type":"Polygon","coordinates":[[[-77.99836970000001,33.97500000000002],[-78.0,33.97500000000002],[-78.0,33.9752244],[-78.0,33.9768416],[-78.0,33.978214700000024],[-78.0,33.97836619999998],[-78.0,33.97914700000001],[-78.0,33.9807222],[-78.0,34.05000000000001],[-77.9480714,34.05000000000001],[-77.944234,34.05000000000001],[-77.94398130000002,34.05000000000001],[-77.94354609999999,34.05000000000001],[-77.94319439999998,34.05000000000001],[-77.94191799999999,34.05000000000001],[-77.9410254,34.05000000000001],[-77.94092469999998,34.05000000000001],[-77.94041770000001,34.05000000000001],[-77.94030329999998,34.05000000000001],[-77.93995360000002,34.05000000000001],[-77.93991060000002,34.05000000000001],[-77.93940350000003,34.05000000000001],[-77.93889639999998,34.05000000000001],[-77.93871030000003,34.05000000000001],[-77.9386265,34.05000000000001],[-77.93861770000001,34.05000000000001],[-77.9385739,34.05000000000001],[-77.93852520000002,34.05000000000001],[-77.93846489999999,34.05000000000001],[-77.9365426,34.05000000000001],[-77.93553600000001,34.05000000000001],[-77.93462950000003,34.05000000000001],[-77.9323822,34.05000000000001],[-77.9280086,34.05000000000001],[-77.92500000000001,34.05000000000001],[-77.92500000000001,34.04965979999997],[-77.92500000000001,34.04961350000002],[-77.92500000000001,34.04951190000003],[-77.92500000000001,34.049338499999976],[-77.92500000000001,34.049239899999975],[-77.92500000000001,34.04913579999999],[-77.92500000000001,34.0490274],[-77.92500000000001,34.034391400000004],[-77.92500000000001,34.02043400000002],[-77.92500000000001,34.01739309999999],[-77.92500000000001,33.97500000000002],[-77.94140809999999,33.97500000000002],[-77.94197259999999,33.97500000000002],[-77.943105,33.97500000000002],[-77.94412440000002,33.97500000000002],[-77.94433079999999,33.97500000000002],[-77.94555589999999,33.97500000000002],[-77.94618439999999,33.97500000000002],[-77.94652919999999,33.97500000000002],[-77.9468708,33.97500000000002],[-77.94703629999998,33.97500000000002],[-77.94761399999999,33.97500000000002],[-77.94794530000001,33.97500000000002],[-77.94827650000002,33.97500000000002],[-77.94827800000002,33.97500000000002],[-77.94828519999999,33.97500000000002],[-77.94860770000003,33.97500000000002],[-77.94893889999997,33.97500000000002],[-77.94910379999999,33.97500000000002],[-77.94940709999997,33.97500000000002],[-77.94994559999998,33.97500000000002],[-77.95024590000003,33.97500000000002],[-77.95102220000001,33.97500000000002],[-77.95195059999998,33.97500000000002],[-77.9528436,33.97500000000002],[-77.95334430000003,33.97500000000002],[-77.95430820000001,33.97500000000002],[-77.95530120000001,33.97500000000002],[-77.95938869999998,33.97500000000002],[-77.96926989999997,33.97500000000002],[-77.97407529999998,33.97500000000002],[-77.97525259999998,33.97500000000002],[-77.9770102,33.97500000000002],[-77.97742010000002,33.97500000000002],[-77.97963040000002,33.97500000000002],[-77.98524259999999,33.97500000000002],[-77.98581230000002,33.97500000000002],[-77.9880991,33.97500000000002],[-77.9888302,33.97500000000002],[-77.99013739999998,33.97500000000002],[-77.99058780000001,33.97500000000002],[-77.9908193,33.97500000000002],[-77.991577,33.97500000000002],[-77.994167,33.97500000000002],[-77.99463939999998,33.97500000000002],[-77.9954889,33.97500000000002],[-77.99578079999998,33.97500000000002],[-77.99616959999997,33.97500000000002],[-77.99635369999999,33.97500000000002],[-77.99761239999998,33.97500000000002],[-77.99793349999999,33.97500000000002],[-77.99836970000001,33.97500000000002]]]}},{"type":"Feature","properties":{},"geometry":{"type":"Polygon","coordinates":[[[-77.9480714,34.05000000000001],[-78.0,34.05000000000001],[-78.0,34.125],[-77.9565829,34.125],[-77.95562080000002,34.125],[-77.9534319,34.125],[-77.95304399999998,34.125],[-77.95246580000003,34.125],[-77.9510214,34.125],[-77.94947969999998,34.125],[-77.94725089999997,34.125],[-77.9460373,34.125],[-77.94271400000002,34.125],[-77.9420821,34.125],[-77.94182469999998,34.125],[-77.94030320000002,34.125],[-77.9392259,34.125],[-77.93826510000002,34.125],[-77.93703049999999,34.125],[-77.93685160000001,34.125],[-77.9367363,34.125],[-77.93666489999998,34.125],[-77.9360997,34.125],[-77.93555129999999,34.125],[-77.93513489999998,34.125],[-77.93501780000003,34.125],[-77.93459660000002,34.125],[-77.93449729999998,34.125],[-77.93438079999999,34.125],[-77.93412180000001,34.125],[-77.93374879999999,34.125],[-77.93180310000002,34.125],[-77.931533,34.125],[-77.93055559999999,34.125],[-77.93037040000002,34.125],[-77.92896200000001,34.125],[-77.92844120000001,34.125],[-77.92569029999999,34.125],[-77.92500000000001,34.125],[-77.92500000000001,34.12449529999998],[-77.92500000000001,34.12414990000002],[-77.92500000000001,34.12082650000002],[-77.92500000000001,34.11784069999999],[-77.92500000000001,34.117347499999994],[-77.92500000000001,34.115972399999976],[-77.92500000000001,34.11432989999997],[-77.92500000000001,34.11346179999998],[-77.92500000000001,34.1126208],[-77.92500000000001,34.11224099999998],[-77.92500000000001,34.1117567],[-77.92500000000001,34.11164439999999],[-77.92500000000001,34.111489199999994],[-77.92500000000001,34.110193400000014],[-77.92500000000001,34.10984810000002],[-77.92500000000001,34.10979689999999],[-77.92500000000001,34.10885730000001],[-77.92500000000001,34.107993599999986],[-77.92500000000001,34.107941600000004],[-77.92500000000001,34.10772400000002],[-77.92500000000001,34.1039232],[-77.92500000000001,34.10285090000002],[-77.92500000000001,34.0998616],[-77.92500000000001,34.09925700000002],[-77.92500000000001,34.09878789999999],[-77.92500000000001,34.09859970000002],[-77.92500000000001,34.097223799999995],[-77.92500000000001,34.093032100000016],[-77.92500000000001,34.09266009999999],[-77.92500000000001,34.09241960000003],[-77.92500000000001,34.09177840000001],[-77.92500000000001,34.09012990000002],[-77.92500000000001,34.089596099999994],[-77.92500000000001,34.088200099999995],[-77.92500000000001,34.08532339999999],[-77.92500000000001,34.08492439999998],[-77.92500000000001,34.082685000000026],[-77.92500000000001,34.08222660000001],[-77.92500000000001,34.08127400000001],[-77.92500000000001,34.079789600000026],[-77.92500000000001,34.07734799999997],[-77.92500000000001,34.076018999999974],[-77.92500000000001,34.07082329999997],[-77.92500000000001,34.06855580000001],[-77.92500000000001,34.06808000000001],[-77.92500000000001,34.067436499999985],[-77.92500000000001,34.06504669999998],[-77.92500000000001,34.06492159999999],[-77.92500000000001,34.05911759999998],[-77.92500000000001,34.05677939999998],[-77.92500000000001,34.05641639999999],[-77.92500000000001,34.05380539999999],[-77.92500000000001,34.05288410000003],[-77.92500000000001,34.05000000000001],[-77.9280086,34.05000000000001],[-77.9323822,34.05000000000001],[-77.93462950000003,34.05000000000001],[-77.93553600000001,34.05000000000001],[-77.9365426,34.05000000000001],[-77.93846489999999,34.05000000000001],[-77.93852520000002,34.05000000000001],[-77.9385739,34.05000000000001],[-77.93861770000001,34.05000000000001],[-77.9386265,34.05000000000001],[-77.93871030000003,34.05000000000001],[-77.93889639999998,34.05000000000001],[-77.93940350000003,34.05000000000001],[-77.93991060000002,34.05000000000001],[-77.93995360000002,34.05000000000001],[-77.94030329999998,34.05000000000001],[-77.94041770000001,34.05000000000001],[-77.94092469999998,34.05000000000001],[-77.9410254,34.05000000000001],[-77.94191799999999,34.05000000000001],[-77.94319439999998,34.05000000000001],[-77.94354609999999,34.05000000000001],[-77.94398130000002,34.05000000000001],[-77.944234,34.05000000000001],[-77.9480714,34.05000000000001]]]}},{"type":"Feature","properties":{},"geometry":{"type":"Polygon","coordinates":[[[-77.9565829,34.125],[-78.0,34.125],[-78.0,34.136246099999994],[-78.0,34.136550899999975],[-78.0,34.19999999999999],[-77.98306930000001,34.19999999999999],[-77.98295760000002,34.19999999999999],[-77.98286510000003,34.19999999999999],[-77.9806906,34.19999999999999],[-77.98048060000002,34.19999999999999],[-77.97893110000001,34.19999999999999],[-77.97719319999999,34.19999999999999],[-77.97654649999998,34.19999999999999],[-77.97639179999999,34.19999999999999],[-77.97511300000002,34.19999999999999],[-77.97390910000001,34.19999999999999],[-77.9733104,34.19999999999999],[-77.9724895,34.19999999999999],[-77.9721184,34.19999999999999],[-77.97068280000002,34.19999999999999],[-77.9695221,34.19999999999999],[-77.96916249999998,34.19999999999999],[-77.96839449999999,34.19999999999999],[-77.96138450000001,34.19999999999999],[-77.9603295,34.19999999999999],[-77.9587646,34.19999999999999],[-77.95803799999999,34.19999999999999],[-77.95779279999999,34.19999999999999],[-77.95733569999999,34.19999999999999],[-77.95687859999998,34.19999999999999],[-77.95642149999998,34.19999999999999],[-77.95596440000003,34.19999999999999],[-77.95586809999998,34.19999999999999],[-77.95573430000002,34.19999999999999],[-77.95517080000002,34.19999999999999],[-77.95391999999998,34.19999999999999],[-77.95268290000001,34.19999999999999],[-77.95093480000003,34.19999999999999],[-77.93616159999999,34.19999999999999],[-77.935723,34.19999999999999],[-77.9351762,34.19999999999999],[-77.93418059999999,34.19999999999999],[-77.9288517,34.19999999999999],[-77.92500000000001,34.19999999999999],[-77.92500000000001,34.198521400000004],[-77.92500000000001,34.196248200000014],[-77.92500000000001,34.16274290000001],[-77.92500000000001,34.160955],[-77.92500000000001,34.15918820000002],[-77.92500000000001,34.15784289999999],[-77.92500000000001,34.15768539999999],[-77.92500000000001,34.156909299999995],[-77.92500000000001,34.128376],[-77.92500000000001,34.126479200000006],[-77.92500000000001,34.12647249999998],[-77.92500000000001,34.126470100000006],[-77.92500000000001,34.125],[-77.92569029999999,34.125],[-77.92844120000001,34.125],[-77.92896200000001,34.125],[-77.93037040000002,34.125],[-77.93055559999999,34.125],[-77.931533,34.125],[-77.93180310000002,34.125],[-77.93374879999999,34.125],[-77.93412180000001,34.125],[-77.93438079999999,34.125],[-77.93449729999998,34.125],[-77.93459660000002,34.125],[-77.93501780000003,34.125],[-77.93513489999998,34.125],[-77.93555129999999,34.125],[-77.9360997,34.125],[-77.93666489999998,34.125],[-77.9367363,34.125],[-77.93685160000001,34.125],[-77.93703049999999,34.125],[-77.93826510000002,34.125],[-77.9392259,34.125],[-77.94030320000002,34.125],[-77.94182469999998,34.125],[-77.9420821,34.125],[-77.94271400000002,34.125],[-77.9460373,34.125],[-77.94725089999997,34.125],[-77.94947969999998,34.125],[-77.9510214,34.125],[-77.95246580000003,34.125],[-77.95304399999998,34.125],[-77.9534319,34.125],[-77.95562080000002,34.125],[-77.9565829,34.125]]]}},{"type":"Feature","properties":{},"geometry":{"type":"Polygon","coordinates":[[[-78.00526730000001,34.27499999999998],[-78.00258259999998,34.27499999999998],[-78.00197070000002,34.27499999999998],[-78.00115060000002,34.27499999999998],[-78.0001881,34.27499999999998],[-78.0,34.27499999999998],[-78.0,34.27169170000002],[-78.0,34.27163589999998],[-78.0,34.27057359999998],[-78.0,34.2692098],[-78.0,34.2666524],[-78.0,34.26638730000002],[-78.0,34.2453256],[-78.0,34.2448091],[-78.0,34.19999999999999],[-78.00526730000001,34.19999999999999],[-78.07499999999999,34.19999999999999],[-78.07499999999999,34.27499999999998],[-78.00595240000001,34.27499999999998],[-78.00526730000001,34.27499999999998]]]}},{"type":"Feature","properties":{},"geometry":{"type":"Polygon","coordinates":[[[-77.97719319999999,34.19999999999999],[-77.97893110000001,34.19999999999999],[-77.98048060000002,34.19999999999999],[-77.9806906,34.19999999999999],[-77.98286510000003,34.19999999999999],[-77.98295760000002,34.19999999999999],[-77.98306930000001,34.19999999999999],[-78.0,34.19999999999999],[-78.0,34.2448091],[-78.0,34.2453256],[-78.0,34.26638730000002],[-78.0,34.2666524],[-78.0,34.2692098],[-78.0,34.27057359999998],[-78.0,34.27163589999998],[-78.0,34.27169170000002],[-78.0,34.27499999999998],[-77.98840489999998,34.27499999999998],[-77.98808989999998,34.27499999999998],[-77.9871804,34.27499999999998],[-77.9519967,34.27499999999998],[-77.95195840000002,34.27499999999998],[-77.95138700000001,34.27499999999998],[-77.9512173,34.27499999999998],[-77.95104759999998,34.27499999999998],[-77.95087790000002,34.27499999999998],[-77.95070820000001,34.27499999999998],[-77.94789580000003,34.27499999999998],[-77.94784379999999,34.27499999999998],[-77.94347099999999,34.27499999999998],[-77.92500000000001,34.27499999999998],[-77.92500000000001,34.2589888],[-77.92500000000001,34.258448999999985],[-77.92500000000001,34.257629699999995],[-77.92500000000001,34.2571274],[-77.92500000000001,34.24847970000002],[-77.92500000000001,34.19999999999999],[-77.9288517,34.19999999999999],[-77.93418059999999,34.19999999999999],[-77.9351762,34.19999999999999],[-77.935723,34.19999999999999],[-77.93616159999999,34.19999999999999],[-77.95093480000003,34.19999999999999],[-77.95268290000001,34.19999999999999],[-77.95391999999998,34.19999999999999],[-77.95517080000002,34.19999999999999],[-77.95573430000002,34.19999999999999],[-77.95586809999998,34.19999999999999],[-77.95596440000003,34.19999999999999],[-77.95642149999998,34.19999999999999],[-77.95687859999998,34.19999999999999],[-77.95733569999999,34.19999999999999],[-77.95779279999999,34.19999999999999],[-77.95803799999999,34.19999999999999],[-77.9587646,34.19999999999999],[-77.9603295,34.19999999999999],[-77.96138450000001,34.19999999999999],[-77.96839449999999,34.19999999999999],[-77.96916249999998,34.19999999999999],[-77.9695221,34.19999999999999],[-77.97068280000002,34.19999999999999],[-77.9721184,34.19999999999999],[-77.9724895,34.19999999999999],[-77.9733104,34.19999999999999],[-77.97390910000001,34.19999999999999],[-77.97511300000002,34.19999999999999],[-77.97639179999999,34.19999999999999],[-77.97654649999998,34.19999999999999],[-77.97719319999999,34.19999999999999]]]}},{"type":"Feature","properties":{},"geometry":{"type":"Polygon","coordinates":[[[-78.0,34.28393490000002],[-78.0,34.281944099999976],[-78.0,34.2770256],[-78.0,34.27687550000002],[-78.0,34.27595930000001],[-78.0,34.27514550000001],[-78.0,34.27499999999998],[-78.0001881,34.27499999999998],[-78.00115060000002,34.27499999999998],[-78.00197070000002,34.27499999999998],[-78.00258259999998,34.27499999999998],[-78.00526730000001,34.27499999999998],[-78.00595240000001,34.27499999999998],[-78.07499999999999,34.27499999999998],[-78.07499999999999,34.32],[-78.0,34.32],[-78.0,34.28393490000002]]]}},{"type":"Feature","properties":{},"geometry":{"type":"Polygon","coordinates":[[[-77.92500000000001,34.28017369999998],[-77.92500000000001,34.27499999999998],[-77.94347099999999,34.27499999999998],[-77.94784379999999,34.27499999999998],[-77.94789580000003,34.27499999999998],[-77.95070820000001,34.27499999999998],[-77.95087790000002,34.27499999999998],[-77.95104759999998,34.27499999999998],[-77.9512173,34.27499999999998],[-77.95138700000001,34.27499999999998],[-77.95195840000002,34.27499999999998],[-77.9519967,34.27499999999998],[-77.9871804,34.27499999999998],[-77.98808989999998,34.27499999999998],[-77.98840489999998,34.27499999999998],[-78.0,34.27499999999998],[-78.0,34.27514550000001],[-78.0,34.27595930000001],[-78.0,34.27687550000002],[-78.0,34.2770256],[-78.0,34.281944099999976],[-78.0,34.28393490000002],[-78.0,34.32],[-77.92500000000001,34.32],[-77.92500000000001,34.28017369999998]]]}},{"type":"Feature","properties":{},"geometry":{"type":"Polygon","coordinates":[[[-78.1149878,33.97500000000002],[-78.07499999999999,33.97500000000002],[-78.07499999999999,33.93],[-78.11999999999999,33.93],[-78.11999999999999,33.97500000000002],[-78.1149878,33.97500000000002]]]}},{"type":"Feature","properties":{},"geometry":{"type":"Polygon","coordinates":[[[-77.9215259,33.97500000000002],[-77.92500000000001,33.97500000000002],[-77.92500000000001,34.01739309999999],[-77.92500000000001,34.02043400000002],[-77.92500000000001,34.034391400000004],[-77.92500000000001,34.0490274],[-77.92500000000001,34.04913579999999],[-77.92500000000001,34.049239899999975],[-77.92500000000001,34.049338499999976],[-77.92500000000001,34.04951190000003],[-77.92500000000001,34.04961350000002],[-77.92500000000001,34.04965979999997],[-77.92500000000001,34.05000000000001],[-77.9240699,34.05000000000001],[-77.9240466,34.05000000000001],[-77.92371020000002,34.05000000000001],[-77.92331949999999,34.05000000000001],[-77.92299200000002,34.05000000000001],[-77.92254789999998,34.05000000000001],[-77.92251499999998,34.05000000000001],[-77.92243509999997,34.05000000000001],[-77.919806,34.05000000000001],[-77.91963099999998,34.05000000000001],[-77.91929779999998,34.05000000000001],[-77.91875850000002,34.05000000000001],[-77.91855270000002,34.05000000000001],[-77.89152510000002,34.05000000000001],[-77.89038779999998,34.05000000000001],[-77.89006339999997,34.05000000000001],[-77.88777349999998,34.05000000000001],[-77.88747640000003,34.05000000000001],[-77.88667090000001,34.05000000000001],[-77.8837598,34.05000000000001],[-77.88228020000003,34.05000000000001],[-77.8805615,34.05000000000001],[-77.87630630000001,34.05000000000001],[-77.875719,34.05000000000001],[-77.87103000000002,34.05000000000001],[-77.86725719999998,34.05000000000001],[-77.85932100000002,34.05000000000001],[-77.85000000000002,34.05000000000001],[-77.85000000000002,34.03607529999999],[-77.85000000000002,34.035086999999976],[-77.85000000000002,33.9835056],[-77.85000000000002,33.97744239999997],[-77.85000000000002,33.97572170000001],[-77.85000000000002,33.97500000000002],[-77.85022579999998,33.97500000000002],[-77.85067299999997,33.97500000000002],[-77.87284770000002,33.97500000000002],[-77.87636650000002,33.97500000000002],[-77.88173970000003,33.97500000000002],[-77.89561650000002,33.97500000000002],[-77.89913619999999,33.97500000000002],[-77.89970870000002,33.97500000000002],[-77.90400649999998,33.97500000000002],[-77.90911210000002,33.97500000000002],[-77.91057890000002,33.97500000000002],[-77.9111221,33.97500000000002],[-77.91231019999998,33.97500000000002],[-77.91330590000001,33.97500000000002],[-77.92020760000003,33.97500000000002],[-77.9215259,33.97500000000002]]]}},{"type":"Feature","properties":{},"geometry":{"type":"Polygon","coordinates":[[[-77.9240699,34.05000000000001],[-77.92500000000001,34.05000000000001],[-77.92500000000001,34.05288410000003],[-77.92500000000001,34.05380539999999],[-77.92500000000001,34.05641639999999],[-77.92500000000001,34.05677939999998],[-77.92500000000001,34.05911759999998],[-77.92500000000001,34.06492159999999],[-77.92500000000001,34.06504669999998],[-77.92500000000001,34.067436499999985],[-77.92500000000001,34.06808000000001],[-77.92500000000001,34.06855580000001],[-77.92500000000001,34.07082329999997],[-77.92500000000001,34.076018999999974],[-77.92500000000001,34.07734799999997],[-77.92500000000001,34.079789600000026],[-77.92500000000001,34.08127400000001],[-77.92500000000001,34.08222660000001],[-77.92500000000001,34.082685000000026],[-77.92500000000001,34.08492439999998],[-77.92500000000001,34.08532339999999],[-77.92500000000001,34.088200099999995],[-77.92500000000001,34.089596099999994],[-77.92500000000001,34.09012990000002],[-77.92500000000001,34.09177840000001],[-77.92500000000001,34.09241960000003],[-77.92500000000001,34.09266009999999],[-77.92500000000001,34.093032100000016],[-77.92500000000001,34.097223799999995],[-77.92500000000001,34.09859970000002],[-77.92500000000001,34.09878789999999],[-77.92500000000001,34.09925700000002],[-77.92500000000001,34.0998616],[-77.92500000000001,34.10285090000002],[-77.92500000000001,34.1039232],[-77.92500000000001,34.10772400000002],[-77.92500000000001,34.107941600000004],[-77.92500000000001,34.107993599999986],[-77.92500000000001,34.10885730000001],[-77.92500000000001,34.10979689999999],[-77.92500000000001,34.10984810000002],[-77.92500000000001,34.110193400000014],[-77.92500000000001,34.111489199999994],[-77.92500000000001,34.11164439999999],[-77.92500000000001,34.1117567],[-77.92500000000001,34.11224099999998],[-77.92500000000001,34.1126208],[-77.92500000000001,34.11346179999998],[-77.92500000000001,34.11432989999997],[-77.92500000000001,34.115972399999976],[-77.92500000000001,34.117347499999994],[-77.92500000000001,34.11784069999999],[-77.92500000000001,34.12082650000002],[-77.92500000000001,34.12414990000002],[-77.92500000000001,34.12449529999998],[-77.92500000000001,34.125],[-77.92369919999999,34.125],[-77.9233289,34.125],[-77.92323929999998,34.125],[-77.92288930000001,34.125],[-77.91952850000001,34.125],[-77.869774,34.125],[-77.86924040000002,34.125],[-77.8681967,34.125],[-77.86804590000003,34.125],[-77.8678822,34.125],[-77.86747930000001,34.125],[-77.866938,34.125],[-77.86616559999999,34.125],[-77.86550540000002,34.125],[-77.85413499999999,34.125],[-77.85178560000003,34.125],[-77.85114600000003,34.125],[-77.85000000000002,34.125],[-77.85000000000002,34.12470239999999],[-77.85000000000002,34.124184300000024],[-77.85000000000002,34.12326539999998],[-77.85000000000002,34.11799480000002],[-77.85000000000002,34.11662639999997],[-77.85000000000002,34.114457000000016],[-77.85000000000002,34.0997825],[-77.85000000000002,34.0806025],[-77.85000000000002,34.05287440000001],[-77.85000000000002,34.05000000000001],[-77.85932100000002,34.05000000000001],[-77.86725719999998,34.05000000000001],[-77.87103000000002,34.05000000000001],[-77.875719,34.05000000000001],[-77.87630630000001,34.05000000000001],[-77.8805615,34.05000000000001],[-77.88228020000003,34.05000000000001],[-77.8837598,34.05000000000001],[-77.88667090000001,34.05000000000001],[-77.88747640000003,34.05000000000001],[-77.88777349999998,34.05000000000001],[-77.89006339999997,34.05000000000001],[-77.89038779999998,34.05000000000001],[-77.89152510000002,34.05000000000001],[-77.91855270000002,34.05000000000001],[-77.91875850000002,34.05000000000001],[-77.91929779999998,34.05000000000001],[-77.91963099999998,34.05000000000001],[-77.919806,34.05000000000001],[-77.92243509999997,34.05000000000001],[-77.92251499999998,34.05000000000001],[-77.92254789999998,34.05000000000001],[-77.92299200000002,34.05000000000001],[-77.92331949999999,34.05000000000001],[-77.92371020000002,34.05000000000001],[-77.9240466,34.05000000000001],[-77.9240699,34.05000000000001]]]}},{"type":"Feature","properties":{},"geometry":{"type":"Polygon","coordinates":[[[-77.92500000000001,34.128376],[-77.92500000000001,34.156909299999995],[-77.92500000000001,34.15768539999999],[-77.92500000000001,34.15784289999999],[-77.92500000000001,34.15918820000002],[-77.92500000000001,34.160955],[-77.92500000000001,34.16274290000001],[-77.92500000000001,34.196248200000014],[-77.92500000000001,34.198521400000004],[-77.92500000000001,34.19999999999999],[-77.88526730000001,34.19999999999999],[-77.85672770000002,34.19999999999999],[-77.85000000000002,34.19999999999999],[-77.85000000000002,34.18979860000002],[-77.85000000000002,34.18585969999998],[-77.85000000000002,34.17208210000001],[-77.85000000000002,34.17162689999998],[-77.85000000000002,34.166288699999996],[-77.85000000000002,34.16549629999997],[-77.85000000000002,34.16506529999998],[-77.85000000000002,34.16458929999999],[-77.85000000000002,34.16443600000002],[-77.85000000000002,34.164241000000004],[-77.85000000000002,34.16343490000003],[-77.85000000000002,34.163212699999974],[-77.85000000000002,34.16252930000002],[-77.85000000000002,34.160832500000026],[-77.85000000000002,34.16036329999997],[-77.85000000000002,34.159468100000026],[-77.85000000000002,34.1581716],[-77.85000000000002,34.1569892],[-77.85000000000002,34.15684449999998],[-77.85000000000002,34.1562318],[-77.85000000000002,34.155694600000004],[-77.85000000000002,34.15490169999998],[-77.85000000000002,34.15168110000002],[-77.85000000000002,34.14781799999997],[-77.85000000000002,34.14704390000003],[-77.85000000000002,34.14614069999999],[-77.85000000000002,34.14541430000003],[-77.85000000000002,34.145364099999995],[-77.85000000000002,34.14461060000002],[-77.85000000000002,34.143647999999985],[-77.85000000000002,34.139896299999975],[-77.85000000000002,34.13974300000001],[-77.85000000000002,34.137754099999995],[-77.85000000000002,34.13725520000003],[-77.85000000000002,34.136897499999975],[-77.85000000000002,34.13607969999998],[-77.85000000000002,34.12763699999999],[-77.85000000000002,34.12762359999999],[-77.85000000000002,34.125],[-77.85114600000003,34.125],[-77.85178560000003,34.125],[-77.85413499999999,34.125],[-77.86550540000002,34.125],[-77.86616559999999,34.125],[-77.866938,34.125],[-77.86747930000001,34.125],[-77.8678822,34.125],[-77.86804590000003,34.125],[-77.8681967,34.125],[-77.86924040000002,34.125],[-77.869774,34.125],[-77.91952850000001,34.125],[-77.92288930000001,34.125],[-77.92323929999998,34.125],[-77.9233289,34.125],[-77.92369919999999,34.125],[-77.92500000000001,34.125],[-77.92500000000001,34.126470100000006],[-77.92500000000001,34.12647249999998],[-77.92500000000001,34.126479200000006],[-77.92500000000001,34.128376]]]}},{"type":"Feature","properties":{},"geometry":{"type":"Polygon","coordinates":[[[-77.8498682,34.125],[-77.85000000000002,34.125],[-77.85000000000002,34.12762359999999],[-77.85000000000002,34.12763699999999],[-77.85000000000002,34.13607969999998],[-77.85000000000002,34.136897499999975],[-77.85000000000002,34.13725520000003],[-77.85000000000002,34.137754099999995],[-77.85000000000002,34.13974300000001],[-77.85000000000002,34.139896299999975],[-77.85000000000002,34.143647999999985],[-77.85000000000002,34.14461060000002],[-77.85000000000002,34.145364099999995],[-77.85000000000002,34.14541430000003],[-77.85000000000002,34.14614069999999],[-77.85000000000002,34.14704390000003],[-77.85000000000002,34.14781799999997],[-77.85000000000002,34.15168110000002],[-77.85000000000002,34.15490169999998],[-77.85000000000002,34.155694600000004],[-77.85000000000002,34.1562318],[-77.85000000000002,34.15684449999998],[-77.85000000000002,34.1569892],[-77.85000000000002,34.1581716],[-77.85000000000002,34.159468100000026],[-77.85000000000002,34.15998710000002],[-77.85000000000002,34.16036329999997],[-77.85000000000002,34.160832500000026],[-77.85000000000002,34.161242300000026],[-77.85000000000002,34.16252930000002],[-77.85000000000002,34.163212699999974],[-77.85000000000002,34.16343490000003],[-77.85000000000002,34.164241000000004],[-77.85000000000002,34.16443600000002],[-77.85000000000002,34.16458929999999],[-77.85000000000002,34.16506529999998],[-77.85000000000002,34.16549629999997],[-77.85000000000002,34.166288699999996],[-77.85000000000002,34.17162689999998],[-77.85000000000002,34.17208210000001],[-77.85000000000002,34.18585969999998],[-77.85000000000002,34.18979860000002],[-77.85000000000002,34.19999999999999],[-77.82442980000002,34.19999999999999],[-77.82386919999999,34.19999999999999],[-77.823623,34.19999999999999],[-77.8223453,34.19999999999999],[-77.82222100000001,34.19999999999999],[-77.82202369999999,34.19999999999999],[-77.8219092,34.19999999999999],[-77.82166560000002,34.19999999999999],[-77.81592419999998,34.19999999999999],[-77.80728499999998,34.19999999999999],[-77.80687870000003,34.19999999999999],[-77.8057402,34.19999999999999],[-77.80486869999999,34.19999999999999],[-77.80456559999999,34.19999999999999],[-77.80429609999999,34.19999999999999],[-77.8035749,34.19999999999999],[-77.8032202,34.19999999999999],[-77.8030746,34.19999999999999],[-77.80284649999999,34.19999999999999],[-77.80253019999998,34.19999999999999],[-77.79938379999999,34.19999999999999],[-77.79908419999998,34.19999999999999],[-77.79895649999997,34.19999999999999],[-77.7979795,34.19999999999999],[-77.79746269999998,34.19999999999999],[-77.79711989999998,34.19999999999999],[-77.79698009999998,34.19999999999999],[-77.78564490000002,34.19999999999999],[-77.77914709999999,34.19999999999999],[-77.77499999999998,34.19999999999999],[-77.77499999999998,34.179019600000004],[-77.77499999999998,34.139915299999984],[-77.77499999999998,34.13546580000002],[-77.77499999999998,34.13504990000001],[-77.77499999999998,34.13464399999998],[-77.77499999999998,34.125],[-77.78285640000001,34.125],[-77.78331530000003,34.125],[-77.78378809999998,34.125],[-77.832809,34.125],[-77.8328095,34.125],[-77.84075869999998,34.125],[-77.84326750000002,34.125],[-77.8450666,34.125],[-77.8451255,34.125],[-77.84512560000002,34.125],[-77.8458018,34.125],[-77.8458622,34.125],[-77.84595409999997,34.125],[-77.84639229999999,34.125],[-77.8466436,34.125],[-77.84668749999997,34.125],[-77.8495699,34.125],[-77.8498682,34.125]]]}},{"type":"Feature","properties":{},"geometry":{"type":"Polygon","coordinates":[[[-77.79800940000001,34.27499999999998],[-77.79766660000001,34.27499999999998],[-77.79342980000001,34.27499999999998],[-77.79034410000003,34.27499999999998],[-77.78706219999998,34.27499999999998],[-77.77630870000002,34.27499999999998],[-77.77554889999999,34.27499999999998],[-77.77499999999998,34.27499999999998],[-77.77499999999998,34.27314260000003],[-77.77499999999998,34.2727481],[-77.77499999999998,34.27242269999999],[-77.77499999999998,34.271855800000026],[-77.77499999999998,34.26100409999998],[-77.77499999999998,34.25954840000003],[-77.77499999999998,34.258293400000014],[-77.77499999999998,34.25813249999999],[-77.77499999999998,34.25791099999998],[-77.77499999999998,34.2577182],[-77.77499999999998,34.25743010000002],[-77.77499999999998,34.256491400000016],[-77.77499999999998,34.256073000000015],[-77.77499999999998,34.255064300000015],[-77.77499999999998,34.25287880000002],[-77.77499999999998,34.2521423],[-77.77499999999998,34.251041199999975],[-77.77499999999998,34.250855100000024],[-77.77499999999998,34.25034629999999],[-77.77499999999998,34.248468],[-77.77499999999998,34.247262999999975],[-77.77499999999998,34.24593390000001],[-77.77499999999998,34.24566149999998],[-77.77499999999998,34.244924000000026],[-77.77499999999998,34.244394],[-77.77499999999998,34.2439043],[-77.77499999999998,34.24365949999998],[-77.77499999999998,34.243058399999995],[-77.77499999999998,34.24275510000001],[-77.77499999999998,34.242285100000004],[-77.77499999999998,34.24042559999998],[-77.77499999999998,34.239914999999996],[-77.77499999999998,34.23801930000002],[-77.77499999999998,34.2373192],[-77.77499999999998,34.23630739999999],[-77.77499999999998,34.23576489999999],[-77.77499999999998,34.23343310000001],[-77.77499999999998,34.23261280000003],[-77.77499999999998,34.23215970000001],[-77.77499999999998,34.23064019999998],[-77.77499999999998,34.2305154],[-77.77499999999998,34.229726200000016],[-77.77499999999998,34.22854460000002],[-77.77499999999998,34.21679280000001],[-77.77499999999998,34.20555519999999],[-77.77499999999998,34.19999999999999],[-77.77914709999999,34.19999999999999],[-77.78564490000002,34.19999999999999],[-77.79698009999998,34.19999999999999],[-77.79711989999998,34.19999999999999],[-77.79746269999998,34.19999999999999],[-77.7979795,34.19999999999999],[-77.79895649999997,34.19999999999999],[-77.79908419999998,34.19999999999999],[-77.79938379999999,34.19999999999999],[-77.80253019999998,34.19999999999999],[-77.80284649999999,34.19999999999999],[-77.8030746,34.19999999999999],[-77.8032202,34.19999999999999],[-77.8035749,34.19999999999999],[-77.80429609999999,34.19999999999999],[-77.80456559999999,34.19999999999999],[-77.80486869999999,34.19999999999999],[-77.8057402,34.19999999999999],[-77.80687870000003,34.19999999999999],[-77.80728499999998,34.19999999999999],[-77.81592419999998,34.19999999999999],[-77.82166560000002,34.19999999999999],[-77.8219092,34.19999999999999],[-77.82202369999999,34.19999999999999],[-77.82222100000001,34.19999999999999],[-77.8223453,34.19999999999999],[-77.823623,34.19999999999999],[-77.82386919999999,34.19999999999999],[-77.82442980000002,34.19999999999999],[-77.85000000000002,34.19999999999999],[-77.85000000000002,34.206274399999984],[-77.85000000000002,34.27499999999998],[-77.800772,34.27499999999998],[-77.79800940000001,34.27499999999998]]]}},{"type":"Feature","properties":{},"geometry":{"type":"Polygon","coordinates":[[[-77.75254769999998,34.19999999999999],[-77.77499999999998,34.19999999999999],[-77.77499999999998,34.20555519999999],[-77.77499999999998,34.21679280000001],[-77.77499999999998,34.22854460000002],[-77.77499999999998,34.229726200000016],[-77.77499999999998,34.2305154],[-77.77499999999998,34.23064019999998],[-77.77499999999998,34.23215970000001],[-77.77499999999998,34.23261280000003],[-77.77499999999998,34.23343310000001],[-77.77499999999998,34.23576489999999],[-77.77499999999998,34.23630739999999],[-77.77499999999998,34.2373192],[-77.77499999999998,34.23801930000002],[-77.77499999999998,34.239914999999996],[-77.77499999999998,34.24042559999998],[-77.77499999999998,34.242285100000004],[-77.77499999999998,34.24275510000001],[-77.77499999999998,34.243058399999995],[-77.77499999999998,34.24365949999998],[-77.77499999999998,34.2439043],[-77.77499999999998,34.244394],[-77.77499999999998,34.244924000000026],[-77.77499999999998,34.24566149999998],[-77.77499999999998,34.24593390000001],[-77.77499999999998,34.247262999999975],[-77.77499999999998,34.248468],[-77.77499999999998,34.25034629999999],[-77.77499999999998,34.250855100000024],[-77.77499999999998,34.251041199999975],[-77.77499999999998,34.2521423],[-77.77499999999998,34.25287880000002],[-77.77499999999998,34.255064300000015],[-77.77499999999998,34.256073000000015],[-77.77499999999998,34.256491400000016],[-77.77499999999998,34.25743010000002],[-77.77499999999998,34.2577182],[-77.77499999999998,34.25791099999998],[-77.77499999999998,34.25813249999999],[-77.77499999999998,34.258293400000014],[-77.77499999999998,34.25954840000003],[-77.77499999999998,34.26100409999998],[-77.77499999999998,34.271855800000026],[-77.77499999999998,34.27242269999999],[-77.77499999999998,34.2727481],[-77.77499999999998,34.27314260000003],[-77.77499999999998,34.27499999999998],[-77.77353470000003,34.27499999999998],[-77.77301920000002,34.27499999999998],[-77.76234920000002,34.27499999999998],[-77.76194520000001,34.27499999999998],[-77.76139790000002,34.27499999999998],[-77.76097870000001,34.27499999999998],[-77.76049410000002,34.27499999999998],[-77.7603676,34.27499999999998],[-77.7599717,34.27499999999998],[-77.75979030000002,34.27499999999998],[-77.75961009999997,34.27499999999998],[-77.75820199999998,34.27499999999998],[-77.75766049999999,34.27499999999998],[-77.75588620000002,34.27499999999998],[-77.75480879999998,34.27499999999998],[-77.75442650000002,34.27499999999998],[-77.7542947,34.27499999999998],[-77.753446,34.27499999999998],[-77.753175,34.27499999999998],[-77.75248099999999,34.27499999999998],[-77.74915720000001,34.27499999999998],[-77.74881210000001,34.27499999999998],[-77.74478599999998,34.27499999999998],[-77.74342560000002,34.27499999999998],[-77.74276709999998,34.27499999999998],[-77.74253879999998,34.27499999999998],[-77.7422909,34.27499999999998],[-77.74196810000001,34.27499999999998],[-77.74132780000002,34.27499999999998],[-77.74093729999998,34.27499999999998],[-77.7398076,34.27499999999998],[-77.7394519,34.27499999999998],[-77.7369579,34.27499999999998],[-77.73613769999997,34.27499999999998],[-77.73594129999998,34.27499999999998],[-77.73574289999999,34.27499999999998],[-77.73430669999999,34.27499999999998],[-77.73345599999999,34.27499999999998],[-77.7324774,34.27499999999998],[-77.73,34.27499999999998],[-77.73,34.19999999999999],[-77.75254769999998,34.19999999999999]]]}},{"type":"Feature","properties":{},"geometry":{"type":"Polygon","coordinates":[[[-77.7324774,34.27499999999998],[-77.73345599999999,34.27499999999998],[-77.73430669999999,34.27499999999998],[-77.73574289999999,34.27499999999998],[-77.73594129999998,34.27499999999998],[-77.73613769999997,34.27499999999998],[-77.7369579,34.27499999999998],[-77.7394519,34.27499999999998],[-77.7398076,34.27499999999998],[-77.74093729999998,34.27499999999998],[-77.74132780000002,34.27499999999998],[-77.74196810000001,34.27499999999998],[-77.7422909,34.27499999999998],[-77.74253879999998,34.27499999999998],[-77.74276709999998,34.27499999999998],[-77.74342560000002,34.27499999999998],[-77.74478599999998,34.27499999999998],[-77.74881210000001,34.27499999999998],[-77.74915720000001,34.27499999999998],[-77.75248099999999,34.27499999999998],[-77.753175,34.27499999999998],[-77.753446,34.27499999999998],[-77.7542947,34.27499999999998],[-77.75442650000002,34.27499999999998],[-77.75480879999998,34.27499999999998],[-77.75588620000002,34.27499999999998],[-77.75766049999999,34.27499999999998],[-77.75820199999998,34.27499999999998],[-77.75961009999997,34.27499999999998],[-77.75979030000002,34.27499999999998],[-77.7599717,34.27499999999998],[-77.7603676,34.27499999999998],[-77.76049410000002,34.27499999999998],[-77.76097870000001,34.27499999999998],[-77.76139790000002,34.27499999999998],[-77.76194520000001,34.27499999999998],[-77.76234920000002,34.27499999999998],[-77.77301920000002,34.27499999999998],[-77.77353470000003,34.27499999999998],[-77.77499999999998,34.27499999999998],[-77.77499999999998,34.27581930000002],[-77.77499999999998,34.27622059999999],[-77.77499999999998,34.32],[-77.73,34.32],[-77.73,34.27499999999998],[-77.7324774,34.27499999999998]]]}}]}