{"type":"FeatureCollection","features":[{"type":"Feature","properties":{},"geometry":{"type":"Polygon","coordinates":[[[-75.25231739999998,38.85000000000002],[-75.25231289999999,38.85000000000002],[-75.2518986,38.85000000000002],[-75.2513581,38.85000000000002],[-75.2512496,38.85000000000002],[-75.25066329999999,38.85000000000002],[-75.25033530000002,38.85000000000002],[-75.2494878,38.85000000000002],[-75.2494112,38.85000000000002],[-75.2459457,38.85000000000002],[-75.24580220000001,38.85000000000002],[-75.2456793,38.85000000000002],[-75.2441053,38.85000000000002],[-75.24076450000001,38.85000000000002],[-75.24065990000003,38.85000000000002],[-75.2405655,38.85000000000002],[-75.23771979999998,38.85000000000002],[-75.23691209999998,38.85000000000002],[-75.22680309999998,38.85000000000002],[-75.22500000000002,38.85000000000002],[-75.22500000000002,38.84871420000002],[-75.22500000000002,38.839862600000004],[-75.22500000000002,38.83953700000001],[-75.22500000000002,38.8361774],[-75.22500000000002,38.83600910000001],[-75.22500000000002,38.83523439999999],[-75.22500000000002,38.835000200000025],[-75.22500000000002,38.8336736],[-75.22500000000002,38.83354400000002],[-75.22500000000002,38.83317699999998],[-75.22500000000002,38.83286650000002],[-75.22500000000002,38.83253669999999],[-75.22500000000002,38.83148590000002],[-75.22500000000002,38.8310156],[-75.22500000000002,38.83014539999999],[-75.22500000000002,38.82360540000002],[-75.22500000000002,38.81974789999998],[-75.22500000000002,38.81957649999998],[-75.22500000000002,38.81896499999999],[-75.22500000000002,38.81882519999999],[-75.22500000000002,38.809963400000015],[-75.22500000000002,38.80928879999999],[-75.22500000000002,38.8057857],[-75.22500000000002,38.80546859999998],[-75.22500000000002,38.800119300000006],[-75.22500000000002,38.794999999999995],[-75.255,38.794999999999995],[-75.255,38.85000000000002],[-75.25231739999998,38.85000000000002]]]}},{"type":"Feature","properties":{},"geometry":{"type":"Polygon","coordinates":[[[-75.22500000000002,38.800119300000006],[-75.22500000000002,38.80546859999998],[-75.22500000000002,38.8057857],[-75.22500000000002,38.80928879999999],[-75.22500000000002,38.809963400000015],[-75.22500000000002,38.81882519999999],[-75.22500000000002,38.81896499999999],[-75.22500000000002,38.81957649999998],[-75.22500000000002,38.81974789999998],[-75.22500000000002,38.82360540000002],[-75.22500000000002,38.83014539999999],[-75.22500000000002,38.8310156],[-75.22500000000002,38.83148590000002],[-75.22500000000002,38.83253669999999],[-75.22500000000002,38.83286650000002],[-75.22500000000002,38.83317699999998],[-75.22500000000002,38.83354400000002],[-75.22500000000002,38.8336736],[-75.22500000000002,38.835000200000025],[-75.22500000000002,38.83523439999999],[-75.22500000000002,38.83600910000001],[-75.22500000000002,38.8361774],[-75.22500000000002,38.83953700000001],[-75.22500000000002,38.839862600000004],[-75.22500000000002,38.84871420000002],[-75.22500000000002,38.85000000000002],[-75.200064,38.85000000000002],[-75.19820040000002,38.85000000000002],[-75.18092419999999,38.85000000000002],[-75.17415799999998,38.85000000000002],[-75.16774950000001,38.85000000000002],[-75.1666356,38.85000000000002],[-75.1584365,38.85000000000002],[-75.15130729999998,38.85000000000002],[-75.14999999999998,38.85000000000002],[-75.14999999999998,38.84830290000002],[-75.14999999999998,38.8434924],[-75.14999999999998,38.8422463],[-75.14999999999998,38.84058240000002],[-75.14999999999998,38.839624000000015],[-75.14999999999998,38.825906499999974],[-75.14999999999998,38.821318700000006],[-75.14999999999998,38.7961942],[-75.14999999999998,38.794999999999995],[-75.22500000000002,38.794999999999995],[-75.22500000000002,38.800119300000006]]]}},{"type":"Feature","properties":{},"geometry":{"type":"Polygon","coordinates":[[[-75.14999999999998,38.7961942],[-75.14999999999998,38.821318700000006],[-75.14999999999998,38.825906499999974],[-75.14999999999998,38.839624000000015],[-75.14999999999998,38.84058240000002],[-75.14999999999998,38.8422463],[-75.14999999999998,38.8434924],[-75.14999999999998,38.84830290000002],[-75.14999999999998,38.85000000000002],[-75.14605799999998,38.85000000000002],[-75.11911529999998,38.85000000000002],[-75.11766369999998,38.85000000000002],[-75.11516160000002,38.85000000000002],[-75.1084042,38.85000000000002],[-75.10326579999997,38.85000000000002],[-75.09271940000002,38.85000000000002],[-75.07499999999999,38.85000000000002],[-75.07499999999999,38.835052899999994],[-75.07499999999999,38.83017410000002],[-75.07499999999999,38.83006690000002],[-75.07499999999999,38.83006449999999],[-75.07499999999999,38.82992630000001],[-75.07499999999999,38.824749999999995],[-75.07499999999999,38.821846300000004],[-75.07499999999999,38.81905979999999],[-75.07499999999999,38.816554999999994],[-75.07499999999999,38.816040199999975],[-75.07499999999999,38.815854100000024],[-75.07499999999999,38.80299630000002],[-75.07499999999999,38.796033799999975],[-75.07499999999999,38.794999999999995],[-75.14999999999998,38.794999999999995],[-75.14999999999998,38.7961942]]]}},{"type":"Feature","properties":{},"geometry":{"type":"Polygon","coordinates":[[[-75.07499999999999,38.796033799999975],[-75.07499999999999,38.80299630000002],[-75.07499999999999,38.815854100000024],[-75.07499999999999,38.816040199999975],[-75.07499999999999,38.816554999999994],[-75.07499999999999,38.81905979999999],[-75.07499999999999,38.821846300000004],[-75.07499999999999,38.824749999999995],[-75.07499999999999,38.82992630000001],[-75.07499999999999,38.83006449999999],[-75.07499999999999,38.83006690000002],[-75.07499999999999,38.83017410000002],[-75.07499999999999,38.835052899999994],[-75.07499999999999,38.85000000000002],[-75.05291160000002,38.85000000000002],[-75.05278929999997,38.85000000000002],[-75.05259510000002,38.85000000000002],[-75.05209939999997,38.85000000000002],[-75.04471969999997,38.85000000000002],[-75.04445429999998,38.85000000000002],[-75.03867050000002,38.85000000000002],[-75.03645719999997,38.85000000000002],[-75.0343158,38.85000000000002],[-75.03310970000001,38.85000000000002],[-75.03246469999999,38.85000000000002],[-75.02899589999998,38.85000000000002],[-75.02821319999998,38.85000000000002],[-75.02778940000002,38.85000000000002],[-75.01831069999997,38.85000000000002],[-75.01618480000002,38.85000000000002],[-75.00972910000002,38.85000000000002],[-75.00669779999998,38.85000000000002],[-75.00033880000001,38.85000000000002],[-75.0,38.85000000000002],[-75.0,38.84933380000001],[-75.0,38.8351988],[-75.0,38.834346400000015],[-75.0,38.82912049999999],[-75.0,38.82799],[-75.0,38.82571089999999],[-75.0,38.82016429999999],[-75.0,38.817073300000004],[-75.0,38.809322699999996],[-75.0,38.80907079999997],[-75.0,38.80495380000002],[-75.0,38.80444840000001],[-75.0,38.80020339999999],[-75.0,38.80011630000001],[-75.0,38.79547960000002],[-75.0,38.794999999999995],[-75.07499999999999,38.794999999999995],[-75.07499999999999,38.796033799999975]]]}},{"type":"Feature","properties":{},"geometry":{"type":"Polygon","coordinates":[[[-75.14605799999998,38.85000000000002],[-75.14999999999998,38.85000000000002],[-75.14999999999998,38.85011400000002],[-75.14999999999998,38.85223780000001],[-75.14999999999998,38.86274159999999],[-75.14999999999998,38.86962369999998],[-75.14999999999998,38.87058189999999],[-75.14999999999998,38.873813600000005],[-75.14999999999998,38.87434409999997],[-75.14999999999998,38.885584800000004],[-75.14999999999998,38.89201459999998],[-75.14999999999998,38.89289659999997],[-75.14999999999998,38.89901600000002],[-75.14999999999998,38.9053457],[-75.14999999999998,38.92201720000003],[-75.14999999999998,38.92427420000001],[-75.14999999999998,38.92500000000001],[-75.14931890000003,38.92500000000001],[-75.1463607,38.92500000000001],[-75.13932269999998,38.92500000000001],[-75.1007773,38.92500000000001],[-75.0998224,38.92500000000001],[-75.09886749999998,38.92500000000001],[-75.09852940000002,38.92500000000001],[-75.09791259999997,38.92500000000001],[-75.09695770000002,38.92500000000001],[-75.07499999999999,38.92500000000001],[-75.07499999999999,38.88171540000002],[-75.07499999999999,38.85011400000002],[-75.07499999999999,38.85000000000002],[-75.09271940000002,38.85000000000002],[-75.10048740000002,38.85000000000002],[-75.10158769999998,38.85000000000002],[-75.10326579999997,38.85000000000002],[-75.1084042,38.85000000000002],[-75.11516160000002,38.85000000000002],[-75.11745000000002,38.85000000000002],[-75.11766369999998,38.85000000000002],[-75.11911529999998,38.85000000000002],[-75.14605799999998,38.85000000000002]]]}},{"type":"Feature","properties":{},"geometry":{"type":"Polygon","coordinates":[[[-75.05718430000002,38.85000000000002],[-75.07499999999999,38.85000000000002],[-75.07499999999999,38.85011400000002],[-75.07499999999999,38.88171540000002],[-75.07499999999999,38.92500000000001],[-75.0679619,38.92500000000001],[-75.02856980000001,38.92500000000001],[-75.02818810000002,38.92500000000001],[-75.01823180000002,38.92500000000001],[-75.01198690000001,38.92500000000001],[-75.00521809999998,38.92500000000001],[-75.00469320000002,38.92500000000001],[-75.00305120000002,38.92500000000001],[-75.00281610000002,38.92500000000001],[-75.0,38.92500000000001],[-75.0,38.92013639999999],[-75.0,38.91626230000003],[-75.0,38.911004100000014],[-75.0,38.9105649],[-75.0,38.90423959999998],[-75.0,38.9022473],[-75.0,38.9021295],[-75.0,38.901602000000025],[-75.0,38.90052639999999],[-75.0,38.89931610000002],[-75.0,38.897888799999976],[-75.0,38.89749169999999],[-75.0,38.89738190000003],[-75.0,38.89502620000002],[-75.0,38.89447849999999],[-75.0,38.89369420000003],[-75.0,38.89233139999999],[-75.0,38.89189160000001],[-75.0,38.89150480000001],[-75.0,38.889321499999994],[-75.0,38.888200900000015],[-75.0,38.88381720000001],[-75.0,38.882886799999994],[-75.0,38.87873780000001],[-75.0,38.87643459999998],[-75.0,38.87591950000001],[-75.0,38.87480119999998],[-75.0,38.869527800000014],[-75.0,38.869166500000006],[-75.0,38.86707150000001],[-75.0,38.85501390000002],[-75.0,38.85011400000002],[-75.0,38.85000000000002],[-75.00033880000001,38.85000000000002],[-75.00669779999998,38.85000000000002],[-75.00972910000002,38.85000000000002],[-75.01618480000002,38.85000000000002],[-75.01831069999997,38.85000000000002],[-75.02778940000002,38.85000000000002],[-75.02821319999998,38.85000000000002],[-75.02899589999998,38.85000000000002],[-75.03246469999999,38.85000000000002],[-75.03310970000001,38.85000000000002],[-75.0343158,38.85000000000002],[-75.03645719999997,38.85000000000002],[-75.03867050000002,38.85000000000002],[-75.04445429999998,38.85000000000002],[-75.04471969999997,38.85000000000002],[-75.05209939999997,38.85000000000002],[-75.05259510000002,38.85000000000002],[-75.05278929999997,38.85000000000002],[-75.05291160000002,38.85000000000002],[-75.05718430000002,38.85000000000002]]]}},{"type":"Feature","properties":{},"geometry":{"type":"Polygon","coordinates":[[[-75.21571060000002,38.92500000000001],[-75.22500000000002,38.92500000000001],[-75.22500000000002,38.93186530000003],[-75.22500000000002,38.934580700000026],[-75.22500000000002,38.937396999999976],[-75.22500000000002,38.94094639999997],[-75.22500000000002,38.94445910000002],[-75.22500000000002,38.956307700000025],[-75.22500000000002,38.978882899999974],[-75.22500000000002,38.981133399999976],[-75.22500000000002,38.98187819999998],[-75.22500000000002,38.98188640000001],[-75.22500000000002,38.98469979999999],[-75.22500000000002,38.985939599999995],[-75.22500000000002,38.9985198],[-75.22500000000002,39.0],[-75.21870360000003,39.0],[-75.21210989999997,39.0],[-75.20937839999999,39.0],[-75.20655219999998,39.0],[-75.2056781,39.0],[-75.20550229999998,39.0],[-75.2047346,39.0],[-75.20429130000002,39.0],[-75.20359939999997,39.0],[-75.2031599,39.0],[-75.20257090000001,39.0],[-75.20206530000002,39.0],[-75.19866180000002,39.0],[-75.19576519999998,39.0],[-75.19341220000001,39.0],[-75.19024739999998,39.0],[-75.14999999999998,39.0],[-75.14999999999998,38.962892899999986],[-75.14999999999998,38.95326180000001],[-75.14999999999998,38.95190489999999],[-75.14999999999998,38.94615090000002],[-75.14999999999998,38.94540599999999],[-75.14999999999998,38.94421319999998],[-75.14999999999998,38.939885000000004],[-75.14999999999998,38.93209280000002],[-75.14999999999998,38.92967859999999],[-75.14999999999998,38.927907800000014],[-75.14999999999998,38.9259194],[-75.14999999999998,38.92500000000001],[-75.15187250000002,38.92500000000001],[-75.15217940000002,38.92500000000001],[-75.15584610000002,38.92500000000001],[-75.1697795,38.92500000000001],[-75.17013229999998,38.92500000000001],[-75.17900700000001,38.92500000000001],[-75.18324469999999,38.92500000000001],[-75.18339939999998,38.92500000000001],[-75.18407000000002,38.92500000000001],[-75.18478750000003,38.92500000000001],[-75.19298839999999,38.92500000000001],[-75.19848050000002,38.92500000000001],[-75.20436380000001,38.92500000000001],[-75.21096879999999,38.92500000000001],[-75.21278080000002,38.92500000000001],[-75.21571060000002,38.92500000000001]]]}},{"type":"Feature","properties":{},"geometry":{"type":"Polygon","coordinates":[[[-75.14931890000003,38.92500000000001],[-75.14999999999998,38.92500000000001],[-75.14999999999998,38.9259194],[-75.14999999999998,38.927907800000014],[-75.14999999999998,38.92967859999999],[-75.14999999999998,38.93209280000002],[-75.14999999999998,38.939885000000004],[-75.14999999999998,38.94421319999998],[-75.14999999999998,38.94540599999999],[-75.14999999999998,38.94615090000002],[-75.14999999999998,38.95190489999999],[-75.14999999999998,38.95326180000001],[-75.14999999999998,38.962892899999986],[-75.14999999999998,39.0],[-75.1476136,39.0],[-75.14159519999998,39.0],[-75.14063950000002,39.0],[-75.13968390000002,39.0],[-75.1387282,39.0],[-75.13777249999998,39.0],[-75.13154170000001,39.0],[-75.1311528,39.0],[-75.13069230000002,39.0],[-75.12987850000002,39.0],[-75.12980720000002,39.0],[-75.12645099999997,39.0],[-75.12404270000002,39.0],[-75.12252380000001,39.0],[-75.1197669,39.0],[-75.0970213,39.0],[-75.08566939999997,39.0],[-75.0819004,39.0],[-75.07961499999999,39.0],[-75.07819719999998,39.0],[-75.07499999999999,39.0],[-75.07499999999999,38.992422799999986],[-75.07499999999999,38.9868568],[-75.07499999999999,38.9758008],[-75.07499999999999,38.9735771],[-75.07499999999999,38.9717172],[-75.07499999999999,38.9695165],[-75.07499999999999,38.9595458],[-75.07499999999999,38.92585120000001],[-75.07499999999999,38.92500000000001],[-75.09695770000002,38.92500000000001],[-75.09791259999997,38.92500000000001],[-75.09852940000002,38.92500000000001],[-75.09886749999998,38.92500000000001],[-75.0998224,38.92500000000001],[-75.1007773,38.92500000000001],[-75.13932269999998,38.92500000000001],[-75.1463607,38.92500000000001],[-75.14931890000003,38.92500000000001]]]}},{"type":"Feature","properties":{},"geometry":{"type":"Polygon","coordinates":[[[-75.0679619,38.92500000000001],[-75.07499999999999,38.92500000000001],[-75.07499999999999,38.92585120000001],[-75.07499999999999,38.9595458],[-75.07499999999999,38.9695165],[-75.07499999999999,38.9717172],[-75.07499999999999,38.9735771],[-75.07499999999999,38.9758008],[-75.07499999999999,38.9868568],[-75.07499999999999,38.992422799999986],[-75.07499999999999,39.0],[-75.07355209999997,39.0],[-75.06878799999998,39.0],[-75.06794980000001,39.0],[-75.04387329999997,39.0],[-75.0343671,39.0],[-75.03014999999999,39.0],[-75.02751569999998,39.0],[-75.02499399999999,39.0],[-75.02346640000002,39.0],[-75.01248090000001,39.0],[-75.0069077,39.0],[-75.0024439,39.0],[-75.0,39.0],[-75.0,38.992616999999996],[-75.0,38.974339999999984],[-75.0,38.96554839999999],[-75.0,38.9651073],[-75.0,38.9630952],[-75.0,38.962602100000026],[-75.0,38.959720000000004],[-75.0,38.959103200000015],[-75.0,38.95044580000001],[-75.0,38.947359000000006],[-75.0,38.94701309999999],[-75.0,38.945391099999995],[-75.0,38.943115999999975],[-75.0,38.931696699999975],[-75.0,38.92972780000002],[-75.0,38.92895229999999],[-75.0,38.9282839],[-75.0,38.92500000000001],[-75.00281610000002,38.92500000000001],[-75.00305120000002,38.92500000000001],[-75.00469320000002,38.92500000000001],[-75.00521809999998,38.92500000000001],[-75.01198690000001,38.92500000000001],[-75.01823180000002,38.92500000000001],[-75.02818810000002,38.92500000000001],[-75.02856980000001,38.92500000000001],[-75.0679619,38.92500000000001]]]}},{"type":"Feature","properties":{},"geometry":{"type":"Polygon","coordinates":[[[-75.21870360000003,39.0],[-75.22500000000002,39.0],[-75.22500000000002,39.00659569999999],[-75.22500000000002,39.021844499999986],[-75.22500000000002,39.02343059999998],[-75.22500000000002,39.02499],[-75.22500000000002,39.0294131],[-75.22500000000002,39.034479499999975],[-75.22500000000002,39.04140050000001],[-75.22500000000002,39.045477500000004],[-75.22500000000002,39.047025399999995],[-75.22500000000002,39.047528899999975],[-75.22500000000002,39.06041920000001],[-75.22500000000002,39.06457130000001],[-75.22500000000002,39.07499999999999],[-75.21740920000002,39.07499999999999],[-75.18658920000001,39.07499999999999],[-75.18241319999998,39.07499999999999],[-75.18145670000001,39.07499999999999],[-75.18050019999998,39.07499999999999],[-75.17954370000001,39.07499999999999],[-75.17858719999998,39.07499999999999],[-75.17489,39.07499999999999],[-75.1642761,39.07499999999999],[-75.15789389999998,39.07499999999999],[-75.15262739999997,39.07499999999999],[-75.14999999999998,39.07499999999999],[-75.14999999999998,39.07317599999999],[-75.14999999999998,39.062214600000004],[-75.14999999999998,39.05029400000001],[-75.14999999999998,39.039077599999985],[-75.14999999999998,39.03429699999998],[-75.14999999999998,39.02499],[-75.14999999999998,39.023899400000005],[-75.14999999999998,39.022469],[-75.14999999999998,39.02071239999998],[-75.14999999999998,39.01895589999998],[-75.14999999999998,39.017199500000004],[-75.14999999999998,39.015443300000015],[-75.14999999999998,39.015224699999976],[-75.14999999999998,39.004982600000005],[-75.14999999999998,39.0],[-75.19024739999998,39.0],[-75.19341220000001,39.0],[-75.19576519999998,39.0],[-75.19866180000002,39.0],[-75.20206530000002,39.0],[-75.20257090000001,39.0],[-75.2031599,39.0],[-75.20359939999997,39.0],[-75.20429130000002,39.0],[-75.2047346,39.0],[-75.20550229999998,39.0],[-75.2056781,39.0],[-75.20655219999998,39.0],[-75.20937839999999,39.0],[-75.21210989999997,39.0],[-75.21870360000003,39.0]]]}},{"type":"Feature","properties":{},"geometry":{"type":"Polygon","coordinates":[[[-75.1476136,39.0],[-75.14999999999998,39.0],[-75.14999999999998,39.004982600000005],[-75.14999999999998,39.015224699999976],[-75.14999999999998,39.015443300000015],[-75.14999999999998,39.017199500000004],[-75.14999999999998,39.01895589999998],[-75.14999999999998,39.02071239999998],[-75.14999999999998,39.022469],[-75.14999999999998,39.023899400000005],[-75.14999999999998,39.02499],[-75.14999999999998,39.03429699999998],[-75.14999999999998,39.039077599999985],[-75.14999999999998,39.05029400000001],[-75.14999999999998,39.062214600000004],[-75.14999999999998,39.07317599999999],[-75.14999999999998,39.07499999999999],[-75.14789769999999,39.07499999999999],[-75.13085310000002,39.07499999999999],[-75.12796259999999,39.07499999999999],[-75.10096659999999,39.07499999999999],[-75.08992660000001,39.07499999999999],[-75.07499999999999,39.07499999999999],[-75.07499999999999,39.055150000000026],[-75.07499999999999,39.03828329999999],[-75.07499999999999,39.03028419999998],[-75.07499999999999,39.02952140000002],[-75.07499999999999,39.02499],[-75.07499999999999,39.01840549999997],[-75.07499999999999,39.013115200000016],[-75.07499999999999,39.00946670000002],[-75.07499999999999,39.007279100000005],[-75.07499999999999,39.005996100000004],[-75.07499999999999,39.00498110000001],[-75.07499999999999,39.00319089999999],[-75.07499999999999,39.0],[-75.07819719999998,39.0],[-75.07961499999999,39.0],[-75.0819004,39.0],[-75.08566939999997,39.0],[-75.0970213,39.0],[-75.1197669,39.0],[-75.12252380000001,39.0],[-75.12404270000002,39.0],[-75.12645099999997,39.0],[-75.12980720000002,39.0],[-75.12987850000002,39.0],[-75.13069230000002,39.0],[-75.1311528,39.0],[-75.13154170000001,39.0],[-75.13777240000002,39.0],[-75.1387282,39.0],[-75.13968390000002,39.0],[-75.14063950000002,39.0],[-75.14159519999998,39.0],[-75.1476136,39.0]]]}},{"type":"Feature","properties":{},"geometry":{"type":"Polygon","coordinates":[[[-75.2538859,39.14999999999998],[-75.24801939999998,39.14999999999998],[-75.24780040000002,39.14999999999998],[-75.24643250000003,39.14999999999998],[-75.2453696,39.14999999999998],[-75.24429479999998,39.14999999999998],[-75.24322009999997,39.14999999999998],[-75.2421453,39.14999999999998],[-75.2337703,39.14999999999998],[-75.2332844,39.14999999999998],[-75.2289467,39.14999999999998],[-75.2287187,39.14999999999998],[-75.2272802,39.14999999999998],[-75.22602920000003,39.14999999999998],[-75.22500000000002,39.14999999999998],[-75.22500000000002,39.147602199999994],[-75.22500000000002,39.14669249999997],[-75.22500000000002,39.14619060000001],[-75.22500000000002,39.143253200000004],[-75.22500000000002,39.14149570000001],[-75.22500000000002,39.14025190000001],[-75.22500000000002,39.13085530000001],[-75.22500000000002,39.12965550000001],[-75.22500000000002,39.12845570000002],[-75.22500000000002,39.12725590000002],[-75.22500000000002,39.12606469999997],[-75.22500000000002,39.1239248],[-75.22500000000002,39.12150650000001],[-75.22500000000002,39.10041639999997],[-75.22500000000002,39.0968757],[-75.22500000000002,39.094387100000006],[-75.22500000000002,39.08929280000001],[-75.22500000000002,39.08906830000001],[-75.22500000000002,39.08601820000001],[-75.22500000000002,39.07499999999999],[-75.23545200000001,39.07499999999999],[-75.25208809999998,39.07499999999999],[-75.255,39.07499999999999],[-75.255,39.14999999999998],[-75.2538859,39.14999999999998]]]}},{"type":"Feature","properties":{},"geometry":{"type":"Polygon","coordinates":[[[-75.21740920000002,39.07499999999999],[-75.22500000000002,39.07499999999999],[-75.22500000000002,39.08601820000001],[-75.22500000000002,39.08906830000001],[-75.22500000000002,39.08929280000001],[-75.22500000000002,39.094387100000006],[-75.22500000000002,39.0968757],[-75.22500000000002,39.10041639999997],[-75.22500000000002,39.12150650000001],[-75.22500000000002,39.1239248],[-75.22500000000002,39.12606469999997],[-75.22500000000002,39.12725590000002],[-75.22500000000002,39.12845570000002],[-75.22500000000002,39.12965550000001],[-75.22500000000002,39.13085530000001],[-75.22500000000002,39.14025190000001],[-75.22500000000002,39.14149570000001],[-75.22500000000002,39.143253200000004],[-75.22500000000002,39.14619060000001],[-75.22500000000002,39.14669249999997],[-75.22500000000002,39.147602199999994],[-75.22500000000002,39.14999999999998],[-75.21065370000002,39.14999999999998],[-75.20821489999997,39.14999999999998],[-75.20567269999998,39.14999999999998],[-75.20456990000002,39.14999999999998],[-75.1954399,39.14999999999998],[-75.19404450000002,39.14999999999998],[-75.1864923,39.14999999999998],[-75.17298269999998,39.14999999999998],[-75.1714,39.14999999999998],[-75.16836940000002,39.14999999999998],[-75.16527769999999,39.14999999999998],[-75.16360650000001,39.14999999999998],[-75.16079289999999,39.14999999999998],[-75.15640990000003,39.14999999999998],[-75.15542909999999,39.14999999999998],[-75.14999999999998,39.14999999999998],[-75.14999999999998,39.12864330000002],[-75.14999999999998,39.127756999999974],[-75.14999999999998,39.10138389999997],[-75.14999999999998,39.07499999999999],[-75.15262739999997,39.07499999999999],[-75.15789389999998,39.07499999999999],[-75.1642761,39.07499999999999],[-75.17489,39.07499999999999],[-75.17858719999998,39.07499999999999],[-75.17954370000001,39.07499999999999],[-75.18050019999998,39.07499999999999],[-75.18145670000001,39.07499999999999],[-75.18241319999998,39.07499999999999],[-75.18658920000001,39.07499999999999],[-75.21740920000002,39.07499999999999]]]}},{"type":"Feature","properties":{},"geometry":{"type":"Polygon","coordinates":[[[-75.14789769999999,39.07499999999999],[-75.14999999999998,39.07499999999999],[-75.14999999999998,39.10138389999997],[-75.14999999999998,39.127756999999974],[-75.14999999999998,39.12864330000002],[-75.14999999999998,39.14999999999998],[-75.09957500000002,39.14999999999998],[-75.07499999999999,39.14999999999998],[-75.07499999999999,39.13846460000002],[-75.07499999999999,39.0925618],[-75.07499999999999,39.09220749999997],[-75.07499999999999,39.08906539999998],[-75.07499999999999,39.07499999999999],[-75.08992660000001,39.07499999999999],[-75.10096659999999,39.07499999999999],[-75.12796259999999,39.07499999999999],[-75.13085310000002,39.07499999999999],[-75.14789769999999,39.07499999999999]]]}},{"type":"Feature","properties":{},"geometry":{"type":"Polygon","coordinates":[[[-75.2487365,39.22500000000002],[-75.2350965,39.22500000000002],[-75.23299129999998,39.22500000000002],[-75.22500000000002,39.22500000000002],[-75.22500000000002,39.220327],[-75.22500000000002,39.21794990000001],[-75.22500000000002,39.21361780000001],[-75.22500000000002,39.212115900000015],[-75.22500000000002,39.208184200000005],[-75.22500000000002,39.20513140000003],[-75.22500000000002,39.20013899999998],[-75.22500000000002,39.17690670000002],[-75.22500000000002,39.17330040000002],[-75.22500000000002,39.17267529999998],[-75.22500000000002,39.16421759999997],[-75.22500000000002,39.14999999999998],[-75.22602920000003,39.14999999999998],[-75.2272802,39.14999999999998],[-75.2287187,39.14999999999998],[-75.2289467,39.14999999999998],[-75.2332844,39.14999999999998],[-75.2337703,39.14999999999998],[-75.2421453,39.14999999999998],[-75.24322009999997,39.14999999999998],[-75.24429479999998,39.14999999999998],[-75.2453696,39.14999999999998],[-75.24643250000003,39.14999999999998],[-75.24780040000002,39.14999999999998],[-75.24801939999998,39.14999999999998],[-75.2538859,39.14999999999998],[-75.255,39.14999999999998],[-75.255,39.22500000000002],[-75.2487365,39.22500000000002]]]}},{"type":"Feature","properties":{},"geometry":{"type":"Polygon","coordinates":[[[-75.25489499999998,39.30000000000001],[-75.2524965,39.30000000000001],[-75.250677,39.30000000000001],[-75.24776609999998,39.30000000000001],[-75.24510750000002,39.30000000000001],[-75.23877499999998,39.30000000000001],[-75.23312229999999,39.30000000000001],[-75.23002129999998,39.30000000000001],[-75.22953990000002,39.30000000000001],[-75.22815530000003,39.30000000000001],[-75.22800810000001,39.30000000000001],[-75.22500000000002,39.30000000000001],[-75.22500000000002,39.2957907],[-75.22500000000002,39.2936287],[-75.22500000000002,39.28747609999999],[-75.22500000000002,39.286665700000015],[-75.22500000000002,39.286638400000015],[-75.22500000000002,39.2859704],[-75.22500000000002,39.285114299999975],[-75.22500000000002,39.283962299999985],[-75.22500000000002,39.28295129999998],[-75.22500000000002,39.281671500000016],[-75.22500000000002,39.2796821],[-75.22500000000002,39.27945649999998],[-75.22500000000002,39.2791459],[-75.22500000000002,39.27874559999998],[-75.22500000000002,39.27796480000001],[-75.22500000000002,39.276657399999976],[-75.22500000000002,39.276556700000015],[-75.22500000000002,39.27581570000001],[-75.22500000000002,39.27481949999998],[-75.22500000000002,39.272554300000024],[-75.22500000000002,39.27237680000002],[-75.22500000000002,39.26830860000001],[-75.22500000000002,39.2682332],[-75.22500000000002,39.26722569999998],[-75.22500000000002,39.264709700000026],[-75.22500000000002,39.26392440000001],[-75.22500000000002,39.25521309999999],[-75.22500000000002,39.250153599999976],[-75.22500000000002,39.2441685],[-75.22500000000002,39.23984280000002],[-75.22500000000002,39.229850399999975],[-75.22500000000002,39.22554109999999],[-75.22500000000002,39.22500000000002],[-75.23299129999998,39.22500000000002],[-75.2350965,39.22500000000002],[-75.2487365,39.22500000000002],[-75.255,39.22500000000002],[-75.255,39.30000000000001],[-75.25489499999998,39.30000000000001]]]}},{"type":"Feature","properties":{},"geometry":{"type":"Polygon","coordinates":[[[-75.0,38.79547960000002],[-75.0,38.79753529999999],[-75.0,38.80011630000001],[-75.0,38.80020339999999],[-75.0,38.80444840000001],[-75.0,38.80495380000002],[-75.0,38.805676300000016],[-75.0,38.80888169999997],[-75.0,38.80907079999997],[-75.0,38.809322699999996],[-75.0,38.80977710000002],[-75.0,38.817073300000004],[-75.0,38.8172644],[-75.0,38.81807379999998],[-75.0,38.82016429999999],[-75.0,38.820272699999975],[-75.0,38.82171319999998],[-75.0,38.82571089999999],[-75.0,38.82799],[-75.0,38.82912049999999],[-75.0,38.83038929999998],[-75.0,38.834346400000015],[-75.0,38.8351988],[-75.0,38.84933380000001],[-75.0,38.85000000000002],[-74.9996294,38.85000000000002],[-74.99844109999998,38.85000000000002],[-74.99736569999999,38.85000000000002],[-74.9950624,38.85000000000002],[-74.9844094,38.85000000000002],[-74.982752,38.85000000000002],[-74.97988229999999,38.85000000000002],[-74.97727370000001,38.85000000000002],[-74.97609670000003,38.85000000000002],[-74.94737049999998,38.85000000000002],[-74.94708639999999,38.85000000000002],[-74.94460279999998,38.85000000000002],[-74.94354579999998,38.85000000000002],[-74.94290969999997,38.85000000000002],[-74.93739599999998,38.85000000000002],[-74.92856920000003,38.85000000000002],[-74.92500000000001,38.85000000000002],[-74.92500000000001,38.849686399999996],[-74.92500000000001,38.848800600000004],[-74.92500000000001,38.8377802],[-74.92500000000001,38.81285150000002],[-74.92500000000001,38.811978099999976],[-74.92500000000001,38.80643950000001],[-74.92500000000001,38.8050121],[-74.92500000000001,38.800267099999985],[-74.92500000000001,38.797272899999996],[-74.92500000000001,38.794999999999995],[-75.0,38.794999999999995],[-75.0,38.79547960000002]]]}},{"type":"Feature","properties":{},"geometry":{"type":"Polygon","coordinates":[[[-74.92500000000001,38.797272899999996],[-74.92500000000001,38.800267099999985],[-74.92500000000001,38.8050121],[-74.92500000000001,38.80643950000001],[-74.92500000000001,38.811978099999976],[-74.92500000000001,38.81285150000002],[-74.92500000000001,38.8377802],[-74.92500000000001,38.848800600000004],[-74.92500000000001,38.849686399999996],[-74.92500000000001,38.85000000000002],[-74.92339900000002,38.85000000000002],[-74.9183061,38.85000000000002],[-74.90864479999999,38.85000000000002],[-74.90784539999999,38.85000000000002],[-74.9059054,38.85000000000002],[-74.88386960000003,38.85000000000002],[-74.877837,38.85000000000002],[-74.87129199999998,38.85000000000002],[-74.85000000000002,38.85000000000002],[-74.85000000000002,38.843923700000005],[-74.85000000000002,38.83743329999999],[-74.85000000000002,38.8296186],[-74.85000000000002,38.81129420000002],[-74.85000000000002,38.810457299999996],[-74.85000000000002,38.80828439999999],[-74.85000000000002,38.800143100000014],[-74.85000000000002,38.79994049999999],[-74.85000000000002,38.79620829999999],[-74.85000000000002,38.794999999999995],[-74.92500000000001,38.794999999999995],[-74.92500000000001,38.797272899999996]]]}},{"type":"Feature","properties":{},"geometry":{"type":"Polygon","coordinates":[[[-74.85000000000002,38.79620829999999],[-74.85000000000002,38.79994049999999],[-74.85000000000002,38.800143100000014],[-74.85000000000002,38.80828439999999],[-74.85000000000002,38.810457299999996],[-74.85000000000002,38.81129420000002],[-74.85000000000002,38.8296186],[-74.85000000000002,38.83743329999999],[-74.85000000000002,38.843923700000005],[-74.85000000000002,38.85000000000002],[-74.83417120000001,38.85000000000002],[-74.82986690000001,38.85000000000002],[-74.81590820000002,38.85000000000002],[-74.77499999999998,38.85000000000002],[-74.77499999999998,38.8158196],[-74.77499999999998,38.81203670000002],[-74.77499999999998,38.811069499999974],[-74.77499999999998,38.80937510000001],[-74.77499999999998,38.80244240000002],[-74.77499999999998,38.794999999999995],[-74.85000000000002,38.794999999999995],[-74.85000000000002,38.79620829999999]]]}},{"type":"Feature","properties":{},"geometry":{"type":"Polygon","coordinates":[[[-74.77499999999998,38.80244240000002],[-74.77499999999998,38.80937510000001],[-74.77499999999998,38.811069499999974],[-74.77499999999998,38.81203670000002],[-74.77499999999998,38.8158196],[-74.77499999999998,38.85000000000002],[-74.72139650000003,38.85000000000002],[-74.71579969999999,38.85000000000002],[-74.69999999999999,38.85000000000002],[-74.69999999999999,38.845421499999986],[-74.69999999999999,38.83881220000001],[-74.69999999999999,38.8338134],[-74.69999999999999,38.833405700000014],[-74.69999999999999,38.82118200000002],[-74.69999999999999,38.80986309999997],[-74.69999999999999,38.80601300000001],[-74.69999999999999,38.7979186],[-74.69999999999999,38.797597499999995],[-74.69999999999999,38.794999999999995],[-74.77499999999998,38.794999999999995],[-74.77499999999998,38.80244240000002]]]}},{"type":"Feature","properties":{},"geometry":{"type":"Polygon","coordinates":[[[-74.9996294,38.85000000000002],[-75.0,38.85000000000002],[-75.0,38.85011400000002],[-75.0,38.85501390000002],[-75.0,38.86707150000001],[-75.0,38.869166500000006],[-75.0,38.869527800000014],[-75.0,38.87480119999998],[-75.0,38.87591950000001],[-75.0,38.87643459999998],[-75.0,38.87873780000001],[-75.0,38.882886799999994],[-75.0,38.88381720000001],[-75.0,38.888200900000015],[-75.0,38.889321499999994],[-75.0,38.89150480000001],[-75.0,38.89189160000001],[-75.0,38.89233139999999],[-75.0,38.89369420000003],[-75.0,38.89447849999999],[-75.0,38.89502620000002],[-75.0,38.89738190000003],[-75.0,38.89749169999999],[-75.0,38.897888799999976],[-75.0,38.89931610000002],[-75.0,38.90052639999999],[-75.0,38.901602000000025],[-75.0,38.9021295],[-75.0,38.9022473],[-75.0,38.90423959999998],[-75.0,38.9105649],[-75.0,38.911004100000014],[-75.0,38.91626230000003],[-75.0,38.92013639999999],[-75.0,38.92500000000001],[-74.98876680000001,38.92500000000001],[-74.98867819999998,38.92500000000001],[-74.97580909999999,38.92500000000001],[-74.97545760000003,38.92500000000001],[-74.97462910000002,38.92500000000001],[-74.97417630000001,38.92500000000001],[-74.97111050000001,38.92500000000001],[-74.96954240000002,38.92500000000001],[-74.96935230000003,38.92500000000001],[-74.96922999999998,38.92500000000001],[-74.9686352,38.92500000000001],[-74.96572789999999,38.92500000000001],[-74.96072400000003,38.92500000000001],[-74.95988770000002,38.92500000000001],[-74.9589555,38.92500000000001],[-74.9580808,38.92500000000001],[-74.9573767,38.92500000000001],[-74.95657410000001,38.92500000000001],[-74.9547063,38.92500000000001],[-74.95293720000001,38.92500000000001],[-74.95109339999999,38.92500000000001],[-74.94126540000002,38.92500000000001],[-74.93917110000001,38.92500000000001],[-74.93852579999998,38.92500000000001],[-74.93053600000002,38.92500000000001],[-74.93031780000001,38.92500000000001],[-74.9256633,38.92500000000001],[-74.92500000000001,38.92500000000001],[-74.92500000000001,38.92483570000002],[-74.92500000000001,38.92309640000002],[-74.92500000000001,38.92125520000002],[-74.92500000000001,38.920451300000025],[-74.92500000000001,38.918293800000015],[-74.92500000000001,38.91305840000001],[-74.92500000000001,38.882052699999974],[-74.92500000000001,38.87268719999997],[-74.92500000000001,38.87039629999998],[-74.92500000000001,38.86609920000001],[-74.92500000000001,38.864798199999996],[-74.92500000000001,38.86428999999998],[-74.92500000000001,38.86388419999997],[-74.92500000000001,38.855526499999996],[-74.92500000000001,38.85000000000002],[-74.92856920000003,38.85000000000002],[-74.93739599999998,38.85000000000002],[-74.94290969999997,38.85000000000002],[-74.94354579999998,38.85000000000002],[-74.94460279999998,38.85000000000002],[-74.94708639999999,38.85000000000002],[-74.94737040000001,38.85000000000002],[-74.97609670000003,38.85000000000002],[-74.97727370000001,38.85000000000002],[-74.97988229999999,38.85000000000002],[-74.982752,38.85000000000002],[-74.9844094,38.85000000000002],[-74.9950624,38.85000000000002],[-74.99736569999999,38.85000000000002],[-74.99844109999998,38.85000000000002],[-74.9996294,38.85000000000002]]]}},{"type":"Feature","properties":{},"geometry":{"type":"Polygon","coordinates":[[[-74.92339900000002,38.85000000000002],[-74.92500000000001,38.85000000000002],[-74.92500000000001,38.855526499999996],[-74.92500000000001,38.86388419999997],[-74.92500000000001,38.86428999999998],[-74.92500000000001,38.864798199999996],[-74.92500000000001,38.86609920000001],[-74.92500000000001,38.87039629999998],[-74.92500000000001,38.87268719999997],[-74.92500000000001,38.882052699999974],[-74.92500000000001,38.91305840000001],[-74.92500000000001,38.918293800000015],[-74.92500000000001,38.920451300000025],[-74.92500000000001,38.92125520000002],[-74.92500000000001,38.92309640000002],[-74.92500000000001,38.92483570000002],[-74.92500000000001,38.92500000000001],[-74.91925029999999,38.92500000000001],[-74.9089654,38.92500000000001],[-74.89962880000002,38.92500000000001],[-74.89754110000001,38.92500000000001],[-74.8921795,38.92500000000001],[-74.89165910000003,38.92500000000001],[-74.88638889999999,38.92500000000001],[-74.88055659999998,38.92500000000001],[-74.85000000000002,38.92500000000001],[-74.85000000000002,38.89654230000002],[-74.85000000000002,38.89152300000001],[-74.85000000000002,38.8896302],[-74.85000000000002,38.888467100000014],[-74.85000000000002,38.8877301],[-74.85000000000002,38.88736260000002],[-74.85000000000002,38.881509900000026],[-74.85000000000002,38.88116230000003],[-74.85000000000002,38.88014240000001],[-74.85000000000002,38.86938650000002],[-74.85000000000002,38.85827089999998],[-74.85000000000002,38.85000000000002],[-74.87129199999998,38.85000000000002],[-74.877837,38.85000000000002],[-74.88386960000003,38.85000000000002],[-74.9059054,38.85000000000002],[-74.90784539999999,38.85000000000002],[-74.90864479999999,38.85000000000002],[-74.9183061,38.85000000000002],[-74.92339900000002,38.85000000000002]]]}},{"type":"Feature","properties":{},"geometry":{"type":"Polygon","coordinates":[[[-74.85000000000002,38.85827089999998],[-74.85000000000002,38.86938650000002],[-74.85000000000002,38.88014240000001],[-74.85000000000002,38.88116230000003],[-74.85000000000002,38.881509900000026],[-74.85000000000002,38.88736260000002],[-74.85000000000002,38.8877301],[-74.85000000000002,38.888467100000014],[-74.85000000000002,38.8896302],[-74.85000000000002,38.89152300000001],[-74.85000000000002,38.89654230000002],[-74.85000000000002,38.92500000000001],[-74.81081849999998,38.92500000000001],[-74.7970575,38.92500000000001],[-74.79644780000001,38.92500000000001],[-74.77499999999998,38.92500000000001],[-74.77499999999998,38.9061648],[-74.77499999999998,38.8922],[-74.77499999999998,38.86380250000002],[-74.77499999999998,38.85000000000002],[-74.81590820000002,38.85000000000002],[-74.82986690000001,38.85000000000002],[-74.83417120000001,38.85000000000002],[-74.85000000000002,38.85000000000002],[-74.85000000000002,38.85827089999998]]]}},{"type":"Feature","properties":{},"geometry":{"type":"Polygon","coordinates":[[[-74.72139650000003,38.85000000000002],[-74.77499999999998,38.85000000000002],[-74.77499999999998,38.86380250000002],[-74.77499999999998,38.8922],[-74.77499999999998,38.9061648],[-74.77499999999998,38.92500000000001],[-74.75660010000001,38.92500000000001],[-74.74320410000001,38.92500000000001],[-74.71835370000002,38.92500000000001],[-74.69999999999999,38.92500000000001],[-74.69999999999999,38.876188300000024],[-74.69999999999999,38.8692767],[-74.69999999999999,38.86142289999998],[-74.69999999999999,38.85000000000002],[-74.71579969999999,38.85000000000002],[-74.72139650000003,38.85000000000002]]]}},{"type":"Feature","properties":{},"geometry":{"type":"Polygon","coordinates":[[[-74.98876680000001,38.92500000000001],[-75.0,38.92500000000001],[-75.0,38.9282839],[-75.0,38.92895229999999],[-75.0,38.92972780000002],[-75.0,38.931696699999975],[-75.0,38.943115999999975],[-75.0,38.945391099999995],[-75.0,38.94701309999999],[-75.0,38.947359000000006],[-75.0,38.95044580000001],[-75.0,38.959103200000015],[-75.0,38.959720000000004],[-75.0,38.962602100000026],[-75.0,38.9630952],[-75.0,38.9651073],[-75.0,38.96554839999999],[-75.0,38.974339999999984],[-75.0,38.992616999999996],[-75.0,39.0],[-74.99920309999999,39.0],[-74.9764791,39.0],[-74.9690367,39.0],[-74.9667144,39.0],[-74.9603285,39.0],[-74.95933200000002,39.0],[-74.95696520000001,39.0],[-74.95583010000001,39.0],[-74.95113479999998,39.0],[-74.92500000000001,39.0],[-74.92500000000001,38.96303069999999],[-74.92500000000001,38.96287109999997],[-74.92500000000001,38.962740499999995],[-74.92500000000001,38.962722799999995],[-74.92500000000001,38.9627021],[-74.92500000000001,38.96266489999999],[-74.92500000000001,38.962624500000004],[-74.92500000000001,38.96251419999999],[-74.92500000000001,38.962478799999985],[-74.92500000000001,38.962438399999996],[-74.92500000000001,38.96239600000001],[-74.92500000000001,38.96216900000002],[-74.92500000000001,38.96210530000002],[-74.92500000000001,38.9400923],[-74.92500000000001,38.93709030000002],[-74.92500000000001,38.92877770000001],[-74.92500000000001,38.92863490000002],[-74.92500000000001,38.92818629999999],[-74.92500000000001,38.926891599999976],[-74.92500000000001,38.92500000000001],[-74.9256633,38.92500000000001],[-74.93031780000001,38.92500000000001],[-74.93053600000002,38.92500000000001],[-74.93852579999998,38.92500000000001],[-74.93917110000001,38.92500000000001],[-74.94126540000002,38.92500000000001],[-74.95109339999999,38.92500000000001],[-74.95293720000001,38.92500000000001],[-74.9547063,38.92500000000001],[-74.95657410000001,38.92500000000001],[-74.9573767,38.92500000000001],[-74.9580808,38.92500000000001],[-74.9589555,38.92500000000001],[-74.95988770000002,38.92500000000001],[-74.96072400000003,38.92500000000001],[-74.96572789999999,38.92500000000001],[-74.9686352,38.92500000000001],[-74.96922999999998,38.92500000000001],[-74.96926560000003,38.92500000000001],[-74.96935230000003,38.92500000000001],[-74.96954240000002,38.92500000000001],[-74.9695428,38.92500000000001],[-74.97111050000001,38.92500000000001],[-74.97417630000001,38.92500000000001],[-74.97462910000002,38.92500000000001],[-74.97545760000003,38.92500000000001],[-74.97580909999999,38.92500000000001],[-74.98867819999998,38.92500000000001],[-74.98876680000001,38.92500000000001]]]}},{"type":"Feature","properties":{},"geometry":{"type":"Polygon","coordinates":[[[-74.91925029999999,38.92500000000001],[-74.92500000000001,38.92500000000001],[-74.92500000000001,38.926891599999976],[-74.92500000000001,38.92818629999999],[-74.92500000000001,38.92863490000002],[-74.92500000000001,38.92877770000001],[-74.92500000000001,38.93709030000002],[-74.92500000000001,38.9400923],[-74.92500000000001,38.96210530000002],[-74.92500000000001,38.96216900000002],[-74.92500000000001,38.96239600000001],[-74.92500000000001,38.962438399999996],[-74.92500000000001,38.962478799999985],[-74.92500000000001,38.96251419999999],[-74.92500000000001,38.962624500000004],[-74.92500000000001,38.96266489999999],[-74.92500000000001,38.9627021],[-74.92500000000001,38.962722799999995],[-74.92500000000001,38.962740499999995],[-74.92500000000001,38.96287109999997],[-74.92500000000001,38.96303069999999],[-74.92500000000001,39.0],[-74.87221890000001,39.0],[-74.8689617,39.0],[-74.8684657,39.0],[-74.86554080000002,39.0],[-74.86505540000002,39.0],[-74.86275640000002,39.0],[-74.86226160000001,39.0],[-74.86061999999998,39.0],[-74.85974440000001,39.0],[-74.8575596,39.0],[-74.85702049999998,39.0],[-74.85464400000001,39.0],[-74.85241710000003,39.0],[-74.85145360000001,39.0],[-74.85101939999998,39.0],[-74.85000000000002,39.0],[-74.85000000000002,38.99902400000002],[-74.85000000000002,38.9986586],[-74.85000000000002,38.99655960000001],[-74.85000000000002,38.995795999999984],[-74.85000000000002,38.995378200000005],[-74.85000000000002,38.995091100000025],[-74.85000000000002,38.995032700000024],[-74.85000000000002,38.9865135],[-74.85000000000002,38.98605909999998],[-74.85000000000002,38.982649400000014],[-74.85000000000002,38.982175600000005],[-74.85000000000002,38.98133790000003],[-74.85000000000002,38.981201999999996],[-74.85000000000002,38.98099359999998],[-74.85000000000002,38.980600400000014],[-74.85000000000002,38.9804489],[-74.85000000000002,38.980231100000026],[-74.85000000000002,38.98011359999998],[-74.85000000000002,38.9794943],[-74.85000000000002,38.97931870000002],[-74.85000000000002,38.978797199999974],[-74.85000000000002,38.97828900000002],[-74.85000000000002,38.9779542],[-74.85000000000002,38.96899029999997],[-74.85000000000002,38.96861089999999],[-74.85000000000002,38.96729979999998],[-74.85000000000002,38.9651389],[-74.85000000000002,38.953723500000024],[-74.85000000000002,38.95366039999999],[-74.85000000000002,38.95309409999999],[-74.85000000000002,38.9518008],[-74.85000000000002,38.95170969999998],[-74.85000000000002,38.951245099999994],[-74.85000000000002,38.95118880000001],[-74.85000000000002,38.95080810000002],[-74.85000000000002,38.94986669999997],[-74.85000000000002,38.948554],[-74.85000000000002,38.93222609999998],[-74.85000000000002,38.92594439999999],[-74.85000000000002,38.92500000000001],[-74.88055659999998,38.92500000000001],[-74.88638889999999,38.92500000000001],[-74.89165910000003,38.92500000000001],[-74.8921795,38.92500000000001],[-74.89754110000001,38.92500000000001],[-74.89962880000002,38.92500000000001],[-74.9089654,38.92500000000001],[-74.91925029999999,38.92500000000001]]]}},{"type":"Feature","properties":{},"geometry":{"type":"Polygon","coordinates":[[[-74.81081849999998,38.92500000000001],[-74.85000000000002,38.92500000000001],[-74.85000000000002,38.92594439999999],[-74.85000000000002,38.93222609999998],[-74.85000000000002,38.948554],[-74.85000000000002,38.94986669999997],[-74.85000000000002,38.95080810000002],[-74.85000000000002,38.95118880000001],[-74.85000000000002,38.951245099999994],[-74.85000000000002,38.95170969999998],[-74.85000000000002,38.9518008],[-74.85000000000002,38.95309409999999],[-74.85000000000002,38.95366039999999],[-74.85000000000002,38.953723500000024],[-74.85000000000002,38.9651389],[-74.85000000000002,38.96729979999998],[-74.85000000000002,38.96861089999999],[-74.85000000000002,38.96899029999997],[-74.85000000000002,38.9779542],[-74.85000000000002,38.97828900000002],[-74.85000000000002,38.978797199999974],[-74.85000000000002,38.97931870000002],[-74.85000000000002,38.9794943],[-74.85000000000002,38.98011359999998],[-74.85000000000002,38.980231100000026],[-74.85000000000002,38.9804489],[-74.85000000000002,38.980600400000014],[-74.85000000000002,38.98099359999998],[-74.85000000000002,38.981201999999996],[-74.85000000000002,38.98133790000003],[-74.85000000000002,38.982175600000005],[-74.85000000000002,38.982649400000014],[-74.85000000000002,38.98605909999998],[-74.85000000000002,38.9865135],[-74.85000000000002,38.995032700000024],[-74.85000000000002,38.995091100000025],[-74.85000000000002,38.995378200000005],[-74.85000000000002,38.995795999999984],[-74.85000000000002,38.99655960000001],[-74.85000000000002,38.9986586],[-74.85000000000002,38.99902400000002],[-74.85000000000002,39.0],[-74.8459636,39.0],[-74.8457894,39.0],[-74.84251649999999,39.0],[-74.83791100000002,39.0],[-74.83732789999999,39.0],[-74.83722740000002,39.0],[-74.8370309,39.0],[-74.8362022,39.0],[-74.83590939999999,39.0],[-74.83370980000001,39.0],[-74.833462,39.0],[-74.83282639999999,39.0],[-74.82811729999997,39.0],[-74.81926320000002,39.0],[-74.81842499999999,39.0],[-74.81764909999998,39.0],[-74.81032679999998,39.0],[-74.7889424,39.0],[-74.7875277,39.0],[-74.78651780000001,39.0],[-74.78480180000003,39.0],[-74.78452779999998,39.0],[-74.77751569999998,39.0],[-74.77499999999998,39.0],[-74.77499999999998,38.998528599999986],[-74.77499999999998,38.99812209999999],[-74.77499999999998,38.98863770000003],[-74.77499999999998,38.98684960000003],[-74.77499999999998,38.967134999999985],[-74.77499999999998,38.965056000000004],[-74.77499999999998,38.964478299999996],[-74.77499999999998,38.959393999999975],[-74.77499999999998,38.95739200000003],[-74.77499999999998,38.94212909999999],[-74.77499999999998,38.94172329999998],[-74.77499999999998,38.92500000000001],[-74.79644780000001,38.92500000000001],[-74.7970575,38.92500000000001],[-74.81081849999998,38.92500000000001]]]}},{"type":"Feature","properties":{},"geometry":{"type":"Polygon","coordinates":[[[-74.71835370000002,38.92500000000001],[-74.74320410000001,38.92500000000001],[-74.75660010000001,38.92500000000001],[-74.77499999999998,38.92500000000001],[-74.77499999999998,38.94172329999998],[-74.77499999999998,38.94212909999999],[-74.77499999999998,38.95739200000003],[-74.77499999999998,38.959393999999975],[-74.77499999999998,38.964478299999996],[-74.77499999999998,38.965056000000004],[-74.77499999999998,38.967134999999985],[-74.77499999999998,38.98684960000003],[-74.77499999999998,38.98863770000003],[-74.77499999999998,38.99812209999999],[-74.77499999999998,38.998528599999986],[-74.77499999999998,39.0],[-74.77453359999998,39.0],[-74.77271739999998,39.0],[-74.76834689999998,39.0],[-74.76641039999998,39.0],[-74.74662719999998,39.0],[-74.74370929999998,39.0],[-74.73417419999998,39.0],[-74.71913230000001,39.0],[-74.71862709999999,39.0],[-74.69999999999999,39.0],[-74.69999999999999,38.98293899999999],[-74.69999999999999,38.9734828],[-74.69999999999999,38.969568400000014],[-74.69999999999999,38.96651800000001],[-74.69999999999999,38.951100999999994],[-74.69999999999999,38.92500000000001],[-74.71835370000002,38.92500000000001]]]}},{"type":"Feature","properties":{},"geometry":{"type":"Polygon","coordinates":[[[-74.87221890000001,39.0],[-74.92500000000001,39.0],[-74.92500000000001,39.0291699],[-74.92500000000001,39.03466580000003],[-74.92500000000001,39.03659329999999],[-74.92500000000001,39.041082200000005],[-74.92500000000001,39.04698430000002],[-74.92500000000001,39.050055499999985],[-74.92500000000001,39.050808700000005],[-74.92500000000001,39.05411179999999],[-74.92500000000001,39.063331500000004],[-74.92500000000001,39.06612610000002],[-74.92500000000001,39.07280859999997],[-74.92500000000001,39.07499999999999],[-74.9224772,39.07499999999999],[-74.91973059999998,39.07499999999999],[-74.91809380000001,39.07499999999999],[-74.91731390000001,39.07499999999999],[-74.9115324,39.07499999999999],[-74.90860679999997,39.07499999999999],[-74.88393860000002,39.07499999999999],[-74.85000000000002,39.07499999999999],[-74.85000000000002,39.029043],[-74.85000000000002,39.028684399999975],[-74.85000000000002,39.0283379],[-74.85000000000002,39.0269849],[-74.85000000000002,39.02668160000002],[-74.85000000000002,39.02121649999998],[-74.85000000000002,39.02060669999997],[-74.85000000000002,39.01917309999999],[-74.85000000000002,39.01890800000001],[-74.85000000000002,39.01763699999998],[-74.85000000000002,39.01691740000001],[-74.85000000000002,39.01335719999997],[-74.85000000000002,39.01306699999998],[-74.85000000000002,39.010630400000025],[-74.85000000000002,39.006085600000006],[-74.85000000000002,39.00450039999998],[-74.85000000000002,39.00417399999998],[-74.85000000000002,39.00416469999999],[-74.85000000000002,39.003917],[-74.85000000000002,39.001645800000006],[-74.85000000000002,39.00122829999998],[-74.85000000000002,39.0],[-74.85101939999998,39.0],[-74.85145360000001,39.0],[-74.85241710000003,39.0],[-74.85464400000001,39.0],[-74.85702049999998,39.0],[-74.8575596,39.0],[-74.85974440000001,39.0],[-74.86061999999998,39.0],[-74.86226160000001,39.0],[-74.86275640000002,39.0],[-74.86505540000002,39.0],[-74.86554080000002,39.0],[-74.8684657,39.0],[-74.8689617,39.0],[-74.87221890000001,39.0]]]}},{"type":"Feature","properties":{},"geometry":{"type":"Polygon","coordinates":[[[-74.8459636,39.0],[-74.85000000000002,39.0],[-74.85000000000002,39.00122829999998],[-74.85000000000002,39.001645800000006],[-74.85000000000002,39.003917],[-74.85000000000002,39.00416469999999],[-74.85000000000002,39.00417399999998],[-74.85000000000002,39.00450039999998],[-74.85000000000002,39.006085600000006],[-74.85000000000002,39.010630400000025],[-74.85000000000002,39.01306699999998],[-74.85000000000002,39.01335719999997],[-74.85000000000002,39.01691740000001],[-74.85000000000002,39.01763699999998],[-74.85000000000002,39.01890800000001],[-74.85000000000002,39.01917309999999],[-74.85000000000002,39.02060669999997],[-74.85000000000002,39.02121649999998],[-74.85000000000002,39.02668160000002],[-74.85000000000002,39.0269849],[-74.85000000000002,39.0283379],[-74.85000000000002,39.028684399999975],[-74.85000000000002,39.029043],[-74.85000000000002,39.07499999999999],[-74.81532520000002,39.07499999999999],[-74.8009189,39.07499999999999],[-74.80048090000003,39.07499999999999],[-74.80034940000002,39.07499999999999],[-74.79997450000002,39.07499999999999],[-74.7990873,39.07499999999999],[-74.7969981,39.07499999999999],[-74.7966275,39.07499999999999],[-74.7948192,39.07499999999999],[-74.7937038,39.07499999999999],[-74.78801090000002,39.07499999999999],[-74.7874415,39.07499999999999],[-74.78492770000003,39.07499999999999],[-74.78457609999998,39.07499999999999],[-74.78447249999999,39.07499999999999],[-74.78413180000001,39.07499999999999],[-74.7835508,39.07499999999999],[-74.78348699999998,39.07499999999999],[-74.78329819999999,39.07499999999999],[-74.7750494,39.07499999999999],[-74.77499999999998,39.07499999999999],[-74.77499999999998,39.0748696],[-74.77499999999998,39.07276919999998],[-74.77499999999998,39.07267230000002],[-74.77499999999998,39.0725415],[-74.77499999999998,39.07173540000002],[-74.77499999999998,39.0715639],[-74.77499999999998,39.071275000000014],[-74.77499999999998,39.07100869999999],[-74.77499999999998,39.0687782],[-74.77499999999998,39.06746529999998],[-74.77499999999998,39.06726120000002],[-74.77499999999998,39.06284449999998],[-74.77499999999998,39.062436400000024],[-74.77499999999998,39.05833710000002],[-74.77499999999998,39.05774059999999],[-74.77499999999998,39.05756480000002],[-74.77499999999998,39.057390699999985],[-74.77499999999998,39.05675580000002],[-74.77499999999998,39.056683599999985],[-74.77499999999998,39.052695400000005],[-74.77499999999998,39.05144680000001],[-74.77499999999998,39.051086699999985],[-74.77499999999998,39.050477899999976],[-74.77499999999998,39.049128499999995],[-74.77499999999998,39.04897410000001],[-74.77499999999998,39.048358500000006],[-74.77499999999998,39.04794679999998],[-74.77499999999998,39.047049800000025],[-74.77499999999998,39.04675659999998],[-74.77499999999998,39.046576500000015],[-74.77499999999998,39.045535099999995],[-74.77499999999998,39.04527139999999],[-74.77499999999998,39.04234109999999],[-74.77499999999998,39.04100729999999],[-74.77499999999998,39.0408377],[-74.77499999999998,39.04014460000002],[-74.77499999999998,39.03946000000002],[-74.77499999999998,39.0387892],[-74.77499999999998,39.03837340000001],[-74.77499999999998,39.03797420000001],[-74.77499999999998,39.03681],[-74.77499999999998,39.03547320000001],[-74.77499999999998,39.029603899999984],[-74.77499999999998,39.02921309999999],[-74.77499999999998,39.02897660000002],[-74.77499999999998,39.028765599999986],[-74.77499999999998,39.028222099999994],[-74.77499999999998,39.02421880000003],[-74.77499999999998,39.0047816],[-74.77499999999998,39.00292030000003],[-74.77499999999998,39.0],[-74.77751569999998,39.0],[-74.78452779999998,39.0],[-74.78480180000003,39.0],[-74.78651780000001,39.0],[-74.7875277,39.0],[-74.7889424,39.0],[-74.81032679999998,39.0],[-74.81764909999998,39.0],[-74.81842499999999,39.0],[-74.81926320000002,39.0],[-74.82811729999997,39.0],[-74.83282639999999,39.0],[-74.833462,39.0],[-74.83370980000001,39.0],[-74.83590939999999,39.0],[-74.8362022,39.0],[-74.8370309,39.0],[-74.83722740000002,39.0],[-74.83732789999999,39.0],[-74.83791100000002,39.0],[-74.84251649999999,39.0],[-74.8457894,39.0],[-74.8459636,39.0]]]}},{"type":"Feature","properties":{},"geometry":{"type":"Polygon","coordinates":[[[-74.77453359999998,39.0],[-74.77499999999998,39.0],[-74.77499999999998,39.00292030000003],[-74.77499999999998,39.0047816],[-74.77499999999998,39.02421880000003],[-74.77499999999998,39.028222099999994],[-74.77499999999998,39.028765599999986],[-74.77499999999998,39.02897660000002],[-74.77499999999998,39.02921309999999],[-74.77499999999998,39.029603899999984],[-74.77499999999998,39.03547320000001],[-74.77499999999998,39.03681],[-74.77499999999998,39.03797420000001],[-74.77499999999998,39.03837340000001],[-74.77499999999998,39.0387892],[-74.77499999999998,39.03946000000002],[-74.77499999999998,39.04014460000002],[-74.77499999999998,39.0408377],[-74.77499999999998,39.04100729999999],[-74.77499999999998,39.04234109999999],[-74.77499999999998,39.04527139999999],[-74.77499999999998,39.045535099999995],[-74.77499999999998,39.046576500000015],[-74.77499999999998,39.04675659999998],[-74.77499999999998,39.047049800000025],[-74.77499999999998,39.04794679999998],[-74.77499999999998,39.048358500000006],[-74.77499999999998,39.04897410000001],[-74.77499999999998,39.049128499999995],[-74.77499999999998,39.050477899999976],[-74.77499999999998,39.051086699999985],[-74.77499999999998,39.05144680000001],[-74.77499999999998,39.052695400000005],[-74.77499999999998,39.056683599999985],[-74.77499999999998,39.05675580000002],[-74.77499999999998,39.057390699999985],[-74.77499999999998,39.05756480000002],[-74.77499999999998,39.05774059999999],[-74.77499999999998,39.05833710000002],[-74.77499999999998,39.062436400000024],[-74.77499999999998,39.06284449999998],[-74.77499999999998,39.06726120000002],[-74.77499999999998,39.06746529999998],[-74.77499999999998,39.0687782],[-74.77499999999998,39.07100869999999],[-74.77499999999998,39.071275000000014],[-74.77499999999998,39.0715639],[-74.77499999999998,39.07173540000002],[-74.77499999999998,39.0725415],[-74.77499999999998,39.07267230000002],[-74.77499999999998,39.07276919999998],[-74.77499999999998,39.0748696],[-74.77499999999998,39.07499999999999],[-74.77297709999999,39.07499999999999],[-74.77240419999998,39.07499999999999],[-74.7699619,39.07499999999999],[-74.7698009,39.07499999999999],[-74.7689585,39.07499999999999],[-74.76795879999997,39.07499999999999],[-74.76442909999997,39.07499999999999],[-74.76388809999997,39.07499999999999],[-74.76366789999997,39.07499999999999],[-74.75734510000001,39.07499999999999],[-74.7567072,39.07499999999999],[-74.74886420000001,39.07499999999999],[-74.7484584,39.07499999999999],[-74.74631440000002,39.07499999999999],[-74.7459389,39.07499999999999],[-74.7453486,39.07499999999999],[-74.74493810000001,39.07499999999999],[-74.73578500000002,39.07499999999999],[-74.7350103,39.07499999999999],[-74.73387389999999,39.07499999999999],[-74.73202989999999,39.07499999999999],[-74.73022379999998,39.07499999999999],[-74.72427570000002,39.07499999999999],[-74.72387550000002,39.07499999999999],[-74.71278569999998,39.07499999999999],[-74.7111721,39.07499999999999],[-74.69999999999999,39.07499999999999],[-74.69999999999999,39.04880730000002],[-74.69999999999999,39.03710389999998],[-74.69999999999999,39.034994900000015],[-74.69999999999999,39.030546000000015],[-74.69999999999999,39.026498100000026],[-74.69999999999999,39.02584580000001],[-74.69999999999999,39.02499],[-74.69999999999999,39.0],[-74.71862709999999,39.0],[-74.71913230000001,39.0],[-74.73417419999998,39.0],[-74.74370929999998,39.0],[-74.74662719999998,39.0],[-74.76641039999998,39.0],[-74.76834689999998,39.0],[-74.77271739999998,39.0],[-74.77453359999998,39.0]]]}},{"type":"Feature","properties":{},"geometry":{"type":"Polygon","coordinates":[[[-74.81532520000002,39.07499999999999],[-74.85000000000002,39.07499999999999],[-74.85000000000002,39.112880099999984],[-74.85000000000002,39.11304560000002],[-74.85000000000002,39.114948700000014],[-74.85000000000002,39.11781350000001],[-74.85000000000002,39.14999999999998],[-74.83395560000002,39.14999999999998],[-74.83277800000002,39.14999999999998],[-74.81674240000001,39.14999999999998],[-74.80344819999999,39.14999999999998],[-74.77499999999998,39.14999999999998],[-74.77499999999998,39.120534899999996],[-74.77499999999998,39.12008789999999],[-74.77499999999998,39.11969210000001],[-74.77499999999998,39.11604790000001],[-74.77499999999998,39.115205100000026],[-74.77499999999998,39.11377379999999],[-74.77499999999998,39.11346639999999],[-74.77499999999998,39.11305090000002],[-74.77499999999998,39.112728000000004],[-74.77499999999998,39.11128409999998],[-74.77499999999998,39.1110367],[-74.77499999999998,39.108382500000005],[-74.77499999999998,39.10785850000002],[-74.77499999999998,39.10774980000002],[-74.77499999999998,39.10673109999999],[-74.77499999999998,39.10011459999998],[-74.77499999999998,39.09781320000002],[-74.77499999999998,39.09078119999998],[-74.77499999999998,39.08862720000002],[-74.77499999999998,39.08769590000003],[-74.77499999999998,39.08741789999999],[-74.77499999999998,39.087131899999974],[-74.77499999999998,39.08597839999999],[-74.77499999999998,39.08481840000002],[-74.77499999999998,39.08469919999999],[-74.77499999999998,39.084644200000014],[-74.77499999999998,39.083583499999975],[-74.77499999999998,39.08054959999998],[-74.77499999999998,39.080402900000024],[-74.77499999999998,39.07499999999999],[-74.7750494,39.07499999999999],[-74.78329819999999,39.07499999999999],[-74.78348699999998,39.07499999999999],[-74.7835508,39.07499999999999],[-74.78413180000001,39.07499999999999],[-74.78447249999999,39.07499999999999],[-74.78457609999998,39.07499999999999],[-74.78492770000003,39.07499999999999],[-74.7874415,39.07499999999999],[-74.78801090000002,39.07499999999999],[-74.7937038,39.07499999999999],[-74.7948192,39.07499999999999],[-74.7966275,39.07499999999999],[-74.7969981,39.07499999999999],[-74.7990873,39.07499999999999],[-74.79997450000002,39.07499999999999],[-74.80034940000002,39.07499999999999],[-74.80048090000003,39.07499999999999],[-74.8009189,39.07499999999999],[-74.81532520000002,39.07499999999999]]]}},{"type":"Feature","properties":{},"geometry":{"type":"Polygon","coordinates":[[[-74.77297709999999,39.07499999999999],[-74.77499999999998,39.07499999999999],[-74.77499999999998,39.080402900000024],[-74.77499999999998,39.08054959999998],[-74.77499999999998,39.083583499999975],[-74.77499999999998,39.084644200000014],[-74.77499999999998,39.08469919999999],[-74.77499999999998,39.08481840000002],[-74.77499999999998,39.08597839999999],[-74.77499999999998,39.087131899999974],[-74.77499999999998,39.08741789999999],[-74.77499999999998,39.08769590000003],[-74.77499999999998,39.08862720000002],[-74.77499999999998,39.09078119999998],[-74.77499999999998,39.09781320000002],[-74.77499999999998,39.10011459999998],[-74.77499999999998,39.10673109999999],[-74.77499999999998,39.10774980000002],[-74.77499999999998,39.10785850000002],[-74.77499999999998,39.108382500000005],[-74.77499999999998,39.1110367],[-74.77499999999998,39.11128409999998],[-74.77499999999998,39.112728000000004],[-74.77499999999998,39.11305090000002],[-74.77499999999998,39.11346639999999],[-74.77499999999998,39.11377379999999],[-74.77499999999998,39.115205100000026],[-74.77499999999998,39.11604790000001],[-74.77499999999998,39.11969210000001],[-74.77499999999998,39.12008789999999],[-74.77499999999998,39.120534899999996],[-74.77499999999998,39.14999999999998],[-74.75386379999998,39.14999999999998],[-74.75120179999999,39.14999999999998],[-74.75079010000002,39.14999999999998],[-74.74792880000001,39.14999999999998],[-74.74380930000001,39.14999999999998],[-74.73389250000002,39.14999999999998],[-74.73302969999997,39.14999999999998],[-74.73254179999998,39.14999999999998],[-74.72453389999998,39.14999999999998],[-74.72361690000002,39.14999999999998],[-74.72310090000002,39.14999999999998],[-74.71357230000001,39.14999999999998],[-74.7126237,39.14999999999998],[-74.71244089999999,39.14999999999998],[-74.71197760000001,39.14999999999998],[-74.711637,39.14999999999998],[-74.71088359999999,39.14999999999998],[-74.70860449999998,39.14999999999998],[-74.70808950000003,39.14999999999998],[-74.7074356,39.14999999999998],[-74.70725729999998,39.14999999999998],[-74.70703839999999,39.14999999999998],[-74.70030730000002,39.14999999999998],[-74.69999999999999,39.14999999999998],[-74.69999999999999,39.149577299999976],[-74.69999999999999,39.14931610000002],[-74.69999999999999,39.1395081],[-74.69999999999999,39.138546099999985],[-74.69999999999999,39.13239390000001],[-74.69999999999999,39.12899329999999],[-74.69999999999999,39.115478499999995],[-74.69999999999999,39.11048740000001],[-74.69999999999999,39.10438119999998],[-74.69999999999999,39.09480400000001],[-74.69999999999999,39.08957400000003],[-74.69999999999999,39.08904899999999],[-74.69999999999999,39.08736929999998],[-74.69999999999999,39.08714400000002],[-74.69999999999999,39.07499999999999],[-74.7111721,39.07499999999999],[-74.71278569999998,39.07499999999999],[-74.72387550000002,39.07499999999999],[-74.72427570000002,39.07499999999999],[-74.73022379999998,39.07499999999999],[-74.73202989999999,39.07499999999999],[-74.73387389999999,39.07499999999999],[-74.7350103,39.07499999999999],[-74.73578500000002,39.07499999999999],[-74.74493810000001,39.07499999999999],[-74.7453486,39.07499999999999],[-74.7459389,39.07499999999999],[-74.74631440000002,39.07499999999999],[-74.7484584,39.07499999999999],[-74.74886420000001,39.07499999999999],[-74.7567072,39.07499999999999],[-74.75734510000001,39.07499999999999],[-74.76366789999997,39.07499999999999],[-74.76388809999997,39.07499999999999],[-74.76442909999997,39.07499999999999],[-74.76795879999997,39.07499999999999],[-74.7689585,39.07499999999999],[-74.7698009,39.07499999999999],[-74.7699619,39.07499999999999],[-74.77240419999998,39.07499999999999],[-74.77297709999999,39.07499999999999]]]}},{"type":"Feature","properties":{},"geometry":{"type":"Polygon","coordinates":[[[-74.68485149999998,39.07499999999999],[-74.69999999999999,39.07499999999999],[-74.69999999999999,39.08714400000002],[-74.69999999999999,39.08736929999998],[-74.69999999999999,39.08904899999999],[-74.69999999999999,39.08957400000003],[-74.69999999999999,39.09480400000001],[-74.69999999999999,39.10438119999998],[-74.69999999999999,39.11048740000001],[-74.69999999999999,39.115478499999995],[-74.69999999999999,39.12899329999999],[-74.69999999999999,39.13239390000001],[-74.69999999999999,39.138546099999985],[-74.69999999999999,39.1395081],[-74.69999999999999,39.14931610000002],[-74.69999999999999,39.149577299999976],[-74.69999999999999,39.14999999999998],[-74.6929207,39.14999999999998],[-74.69191239999998,39.14999999999998],[-74.69154400000002,39.14999999999998],[-74.6915093,39.14999999999998],[-74.6893624,39.14999999999998],[-74.6882397,39.14999999999998],[-74.68651840000001,39.14999999999998],[-74.68295460000002,39.14999999999998],[-74.67930940000002,39.14999999999998],[-74.67675279999997,39.14999999999998],[-74.66536159999998,39.14999999999998],[-74.65993220000001,39.14999999999998],[-74.65782130000002,39.14999999999998],[-74.65474510000001,39.14999999999998],[-74.625,39.14999999999998],[-74.625,39.140509699999996],[-74.625,39.13970979999999],[-74.625,39.132540500000005],[-74.625,39.1232397],[-74.625,39.1185112],[-74.625,39.11678710000001],[-74.625,39.11290550000001],[-74.625,39.105459999999994],[-74.625,39.10430880000001],[-74.625,39.07504510000001],[-74.625,39.07499999999999],[-74.64939320000002,39.07499999999999],[-74.64993820000001,39.07499999999999],[-74.66136920000002,39.07499999999999],[-74.6765431,39.07499999999999],[-74.68485149999998,39.07499999999999]]]}},{"type":"Feature","properties":{},"geometry":{"type":"Polygon","coordinates":[[[-74.75386379999998,39.14999999999998],[-74.77499999999998,39.14999999999998],[-74.77499999999998,39.155541200000016],[-74.77499999999998,39.22500000000002],[-74.69999999999999,39.22500000000002],[-74.69999999999999,39.200716399999976],[-74.69999999999999,39.19726220000001],[-74.69999999999999,39.192630099999974],[-74.69999999999999,39.19203920000001],[-74.69999999999999,39.18953449999998],[-74.69999999999999,39.18617339999997],[-74.69999999999999,39.18533830000001],[-74.69999999999999,39.18522159999998],[-74.69999999999999,39.18463939999998],[-74.69999999999999,39.184210500000006],[-74.69999999999999,39.184038199999975],[-74.69999999999999,39.183242199999995],[-74.69999999999999,39.182941099999994],[-74.69999999999999,39.18164949999999],[-74.69999999999999,39.18111470000002],[-74.69999999999999,39.1771177],[-74.69999999999999,39.173255100000006],[-74.69999999999999,39.1712043],[-74.69999999999999,39.170764899999995],[-74.69999999999999,39.17038150000002],[-74.69999999999999,39.168413699999974],[-74.69999999999999,39.16753189999997],[-74.69999999999999,39.167024200000014],[-74.69999999999999,39.166742399999976],[-74.69999999999999,39.16635600000001],[-74.69999999999999,39.1615989],[-74.69999999999999,39.16138110000003],[-74.69999999999999,39.16008369999997],[-74.69999999999999,39.1595499],[-74.69999999999999,39.15891420000003],[-74.69999999999999,39.158327799999995],[-74.69999999999999,39.15830570000003],[-74.69999999999999,39.1570289],[-74.69999999999999,39.15690569999998],[-74.69999999999999,39.156717300000025],[-74.69999999999999,39.15642969999999],[-74.69999999999999,39.155709],[-74.69999999999999,39.15504679999998],[-74.69999999999999,39.15429080000001],[-74.69999999999999,39.1539477],[-74.69999999999999,39.153143899999975],[-74.69999999999999,39.152694699999984],[-74.69999999999999,39.15029679999998],[-74.69999999999999,39.14999999999998],[-74.70030730000002,39.14999999999998],[-74.70703839999999,39.14999999999998],[-74.70725729999998,39.14999999999998],[-74.7074356,39.14999999999998],[-74.70808950000003,39.14999999999998],[-74.70860449999998,39.14999999999998],[-74.71088359999999,39.14999999999998],[-74.711637,39.14999999999998],[-74.71197760000001,39.14999999999998],[-74.71244089999999,39.14999999999998],[-74.7126237,39.14999999999998],[-74.71357230000001,39.14999999999998],[-74.72310090000002,39.14999999999998],[-74.72361690000002,39.14999999999998],[-74.72453389999998,39.14999999999998],[-74.73254179999998,39.14999999999998],[-74.73302969999997,39.14999999999998],[-74.73389250000002,39.14999999999998],[-74.74380930000001,39.14999999999998],[-74.74792880000001,39.14999999999998],[-74.75079010000002,39.14999999999998],[-74.75120179999999,39.14999999999998],[-74.75386379999998,39.14999999999998]]]}},{"type":"Feature","properties":{},"geometry":{"type":"Polygon","coordinates":[[[-74.69999999999999,39.15029679999998],[-74.69999999999999,39.152694699999984],[-74.69999999999999,39.153143899999975],[-74.69999999999999,39.1539477],[-74.69999999999999,39.15429080000001],[-74.69999999999999,39.15504679999998],[-74.69999999999999,39.155709],[-74.69999999999999,39.15642969999999],[-74.69999999999999,39.156717300000025],[-74.69999999999999,39.15690569999998],[-74.69999999999999,39.1570289],[-74.69999999999999,39.15830570000003],[-74.69999999999999,39.158327799999995],[-74.69999999999999,39.15891420000003],[-74.69999999999999,39.1595499],[-74.69999999999999,39.16008369999997],[-74.69999999999999,39.16138110000003],[-74.69999999999999,39.1615989],[-74.69999999999999,39.16635600000001],[-74.69999999999999,39.166742399999976],[-74.69999999999999,39.167024200000014],[-74.69999999999999,39.16753189999997],[-74.69999999999999,39.168413699999974],[-74.69999999999999,39.17038150000002],[-74.69999999999999,39.170764899999995],[-74.69999999999999,39.1712043],[-74.69999999999999,39.173255100000006],[-74.69999999999999,39.1771177],[-74.69999999999999,39.18111470000002],[-74.69999999999999,39.18164949999999],[-74.69999999999999,39.182941099999994],[-74.69999999999999,39.183242199999995],[-74.69999999999999,39.184038199999975],[-74.69999999999999,39.184210500000006],[-74.69999999999999,39.18463939999998],[-74.69999999999999,39.18522159999998],[-74.69999999999999,39.18533830000001],[-74.69999999999999,39.18617339999997],[-74.69999999999999,39.18953449999998],[-74.69999999999999,39.19203920000001],[-74.69999999999999,39.192630099999974],[-74.69999999999999,39.19726220000001],[-74.69999999999999,39.200716399999976],[-74.69999999999999,39.22500000000002],[-74.67626810000002,39.22500000000002],[-74.6750288,39.22500000000002],[-74.66816360000001,39.22500000000002],[-74.66786639999998,39.22500000000002],[-74.66583659999998,39.22500000000002],[-74.66365029999997,39.22500000000002],[-74.6632955,39.22500000000002],[-74.66232559999997,39.22500000000002],[-74.65524440000002,39.22500000000002],[-74.65502249999997,39.22500000000002],[-74.65453209999998,39.22500000000002],[-74.65415230000002,39.22500000000002],[-74.65407490000001,39.22500000000002],[-74.65393160000002,39.22500000000002],[-74.65221960000002,39.22500000000002],[-74.64932219999997,39.22500000000002],[-74.64907490000002,39.22500000000002],[-74.6406043,39.22500000000002],[-74.6321888,39.22500000000002],[-74.63165190000001,39.22500000000002],[-74.62651169999998,39.22500000000002],[-74.6259895,39.22500000000002],[-74.625,39.22500000000002],[-74.625,39.22204690000001],[-74.625,39.22160680000002],[-74.625,39.22102810000001],[-74.625,39.22042219999997],[-74.625,39.2039724],[-74.625,39.20226919999999],[-74.625,39.14999999999998],[-74.65474510000001,39.14999999999998],[-74.65782130000002,39.14999999999998],[-74.65993220000001,39.14999999999998],[-74.66536159999998,39.14999999999998],[-74.67675279999997,39.14999999999998],[-74.67930940000002,39.14999999999998],[-74.68295460000002,39.14999999999998],[-74.68651840000001,39.14999999999998],[-74.6882397,39.14999999999998],[-74.6893624,39.14999999999998],[-74.69154400000002,39.14999999999998],[-74.69191239999998,39.14999999999998],[-74.6929207,39.14999999999998],[-74.69999999999999,39.14999999999998],[-74.69999999999999,39.15029679999998]]]}},{"type":"Feature","properties":{},"geometry":{"type":"Polygon","coordinates":[[[-74.61751959999998,39.14999999999998],[-74.61807679999998,39.14999999999998],[-74.625,39.14999999999998],[-74.625,39.20226919999999],[-74.625,39.2039724],[-74.625,39.22042219999997],[-74.625,39.22102810000001],[-74.625,39.22160680000002],[-74.625,39.22204690000001],[-74.625,39.22500000000002],[-74.62264599999997,39.22500000000002],[-74.6223286,39.22500000000002],[-74.61140970000002,39.22500000000002],[-74.60780720000002,39.22500000000002],[-74.59915489999997,39.22500000000002],[-74.55021629999999,39.22500000000002],[-74.55000000000001,39.22500000000002],[-74.55000000000001,39.22466029999998],[-74.55000000000001,39.21612329999999],[-74.55000000000001,39.20770470000002],[-74.55000000000001,39.183032200000014],[-74.55000000000001,39.173232600000006],[-74.55000000000001,39.15415009999998],[-74.55000000000001,39.14999999999998],[-74.55094680000002,39.14999999999998],[-74.59286989999998,39.14999999999998],[-74.60933340000003,39.14999999999998],[-74.61751959999998,39.14999999999998]]]}},{"type":"Feature","properties":{},"geometry":{"type":"Polygon","coordinates":[[[-74.72066899999999,39.30000000000001],[-74.7011933,39.30000000000001],[-74.69999999999999,39.30000000000001],[-74.69999999999999,39.2997967],[-74.69999999999999,39.299331300000006],[-74.69999999999999,39.297606099999996],[-74.69999999999999,39.291947100000016],[-74.69999999999999,39.288979299999994],[-74.69999999999999,39.26441829999999],[-74.69999999999999,39.25883859999999],[-74.69999999999999,39.255516],[-74.69999999999999,39.22500000000002],[-74.77499999999998,39.22500000000002],[-74.77499999999998,39.30000000000001],[-74.74766890000001,39.30000000000001],[-74.72066899999999,39.30000000000001]]]}},{"type":"Feature","properties":{},"geometry":{"type":"Polygon","coordinates":[[[-74.67626810000002,39.22500000000002],[-74.69999999999999,39.22500000000002],[-74.69999999999999,39.255516],[-74.69999999999999,39.25883859999999],[-74.69999999999999,39.26441829999999],[-74.69999999999999,39.288979299999994],[-74.69999999999999,39.291947100000016],[-74.69999999999999,39.297606099999996],[-74.69999999999999,39.299331300000006],[-74.69999999999999,39.2997967],[-74.69999999999999,39.30000000000001],[-74.69075279999998,39.30000000000001],[-74.68664969999998,39.30000000000001],[-74.68606219999998,39.30000000000001],[-74.68578350000001,39.30000000000001],[-74.68404570000001,39.30000000000001],[-74.68375939999999,39.30000000000001],[-74.6816933,39.30000000000001],[-74.68121960000002,39.30000000000001],[-74.68079619999997,39.30000000000001],[-74.68040500000001,39.30000000000001],[-74.677411,39.30000000000001],[-74.67640669999997,39.30000000000001],[-74.67632429999998,39.30000000000001],[-74.67591950000002,39.30000000000001],[-74.66988120000002,39.30000000000001],[-74.6695353,39.30000000000001],[-74.6481377,39.30000000000001],[-74.6466481,39.30000000000001],[-74.64612840000001,39.30000000000001],[-74.6457135,39.30000000000001],[-74.6454607,39.30000000000001],[-74.64118409999998,39.30000000000001],[-74.64099349999998,39.30000000000001],[-74.63551539999997,39.30000000000001],[-74.63549899999998,39.30000000000001],[-74.63175790000003,39.30000000000001],[-74.62939060000002,39.30000000000001],[-74.62512529999998,39.30000000000001],[-74.625,39.30000000000001],[-74.625,39.29900509999999],[-74.625,39.29893870000001],[-74.625,39.295913900000016],[-74.625,39.295563000000016],[-74.625,39.29505610000001],[-74.625,39.29376810000002],[-74.625,39.29356439999998],[-74.625,39.291522199999974],[-74.625,39.291462000000024],[-74.625,39.290100499999994],[-74.625,39.28945599999997],[-74.625,39.288384699999995],[-74.625,39.288171999999975],[-74.625,39.28692289999998],[-74.625,39.28360809999998],[-74.625,39.278914499999985],[-74.625,39.27455839999999],[-74.625,39.27258819999997],[-74.625,39.26044289999999],[-74.625,39.25798150000003],[-74.625,39.257261700000015],[-74.625,39.25514700000002],[-74.625,39.253999299999975],[-74.625,39.253272200000026],[-74.625,39.251176999999984],[-74.625,39.24883870000002],[-74.625,39.2484632],[-74.625,39.24085029999998],[-74.625,39.23761489999998],[-74.625,39.234446400000024],[-74.625,39.232996300000025],[-74.625,39.232461899999976],[-74.625,39.227854200000024],[-74.625,39.22614090000002],[-74.625,39.22500000000002],[-74.6259895,39.22500000000002],[-74.62651169999998,39.22500000000002],[-74.63165190000001,39.22500000000002],[-74.6321888,39.22500000000002],[-74.6406043,39.22500000000002],[-74.64907490000002,39.22500000000002],[-74.64932219999997,39.22500000000002],[-74.65221960000002,39.22500000000002],[-74.65393160000002,39.22500000000002],[-74.65407490000001,39.22500000000002],[-74.65415230000002,39.22500000000002],[-74.65453209999998,39.22500000000002],[-74.65502249999997,39.22500000000002],[-74.65524440000002,39.22500000000002],[-74.66232559999997,39.22500000000002],[-74.6632955,39.22500000000002],[-74.66365029999997,39.22500000000002],[-74.66583659999998,39.22500000000002],[-74.66786639999998,39.22500000000002],[-74.66816360000001,39.22500000000002],[-74.6750288,39.22500000000002],[-74.67626810000002,39.22500000000002]]]}},{"type":"Feature","properties":{},"geometry":{"type":"Polygon","coordinates":[[[-74.62264599999997,39.22500000000002],[-74.625,39.22500000000002],[-74.625,39.22614090000002],[-74.625,39.227854200000024],[-74.625,39.232461899999976],[-74.625,39.232996300000025],[-74.625,39.234446400000024],[-74.625,39.23761489999998],[-74.625,39.24085029999998],[-74.625,39.2484632],[-74.625,39.24883870000002],[-74.625,39.251176999999984],[-74.625,39.253272200000026],[-74.625,39.253999299999975],[-74.625,39.25514700000002],[-74.625,39.257261700000015],[-74.625,39.25798150000003],[-74.625,39.26044289999999],[-74.625,39.27258819999997],[-74.625,39.27455839999999],[-74.625,39.278914499999985],[-74.625,39.28360809999998],[-74.625,39.28692289999998],[-74.625,39.288171999999975],[-74.625,39.288384699999995],[-74.625,39.28945599999997],[-74.625,39.290100499999994],[-74.625,39.291462000000024],[-74.625,39.291522199999974],[-74.625,39.29356439999998],[-74.625,39.29376810000002],[-74.625,39.29505610000001],[-74.625,39.295563000000016],[-74.625,39.295913900000016],[-74.625,39.29893870000001],[-74.625,39.29900509999999],[-74.625,39.30000000000001],[-74.62446670000003,39.30000000000001],[-74.6236634,39.30000000000001],[-74.62316809999999,39.30000000000001],[-74.62230929999998,39.30000000000001],[-74.62110910000001,39.30000000000001],[-74.62024689999998,39.30000000000001],[-74.61356030000002,39.30000000000001],[-74.61179010000001,39.30000000000001],[-74.610839,39.30000000000001],[-74.60992420000002,39.30000000000001],[-74.60846220000002,39.30000000000001],[-74.60604439999997,39.30000000000001],[-74.60507430000001,39.30000000000001],[-74.59851629999997,39.30000000000001],[-74.59424159999998,39.30000000000001],[-74.5918987,39.30000000000001],[-74.59113280000003,39.30000000000001],[-74.58069640000002,39.30000000000001],[-74.58019890000003,39.30000000000001],[-74.57985259999998,39.30000000000001],[-74.57742139999999,39.30000000000001],[-74.575043,39.30000000000001],[-74.57481940000002,39.30000000000001],[-74.57383770000001,39.30000000000001],[-74.5724892,39.30000000000001],[-74.57142270000003,39.30000000000001],[-74.57092010000002,39.30000000000001],[-74.56942900000001,39.30000000000001],[-74.5688824,39.30000000000001],[-74.56664089999998,39.30000000000001],[-74.56265380000002,39.30000000000001],[-74.56100520000001,39.30000000000001],[-74.5596524,39.30000000000001],[-74.55964230000001,39.30000000000001],[-74.558989,39.30000000000001],[-74.55860410000003,39.30000000000001],[-74.55824639999997,39.30000000000001],[-74.55715120000002,39.30000000000001],[-74.5570174,39.30000000000001],[-74.55699340000001,39.30000000000001],[-74.55685,39.30000000000001],[-74.55670650000002,39.30000000000001],[-74.555451,39.30000000000001],[-74.5554406,39.30000000000001],[-74.55460749999997,39.30000000000001],[-74.55445359999999,39.30000000000001],[-74.55391600000002,39.30000000000001],[-74.55170140000001,39.30000000000001],[-74.5506226,39.30000000000001],[-74.55000000000001,39.30000000000001],[-74.55000000000001,39.299835900000005],[-74.55000000000001,39.297624299999995],[-74.55000000000001,39.29696610000002],[-74.55000000000001,39.29581150000001],[-74.55000000000001,39.29497020000002],[-74.55000000000001,39.29452140000001],[-74.55000000000001,39.29439309999998],[-74.55000000000001,39.29401580000001],[-74.55000000000001,39.292591300000026],[-74.55000000000001,39.29240900000002],[-74.55000000000001,39.2910316],[-74.55000000000001,39.28111819999998],[-74.55000000000001,39.2705229],[-74.55000000000001,39.26886760000002],[-74.55000000000001,39.26592699999998],[-74.55000000000001,39.26536920000001],[-74.55000000000001,39.258693300000004],[-74.55000000000001,39.229545900000005],[-74.55000000000001,39.22516510000003],[-74.55000000000001,39.22500000000002],[-74.55021629999999,39.22500000000002],[-74.59915489999997,39.22500000000002],[-74.60780720000002,39.22500000000002],[-74.61140970000002,39.22500000000002],[-74.6223286,39.22500000000002],[-74.62264599999997,39.22500000000002]]]}},{"type":"Feature","properties":{},"geometry":{"type":"Polygon","coordinates":[[[-74.69999999999999,39.07499999999999],[-74.68485149999998,39.07499999999999],[-74.6765431,39.07499999999999],[-74.68054489999997,39.07053139999999],[-74.69999999999999,39.04880730000002],[-74.69999999999999,39.07499999999999]]]}},{"type":"Feature","properties":{},"geometry":{"type":"Polygon","coordinates":[[[-74.625,39.13970979999999],[-74.625,39.140509699999996],[-74.625,39.14999999999998],[-74.61807679999998,39.14999999999998],[-74.61751959999998,39.14999999999998],[-74.60933340000003,39.14999999999998],[-74.625,39.132540500000005],[-74.625,39.13970979999999]]]}}]}