{"type":"FeatureCollection","features":[{"type":"Feature","properties":{},"geometry":{"type":"Polygon","coordinates":[[[-78.84922990000001,33.75],[-78.84854510000002,33.75],[-78.84837440000001,33.75],[-78.8473601,33.75],[-78.82499999999999,33.75],[-78.82499999999999,33.7423948],[-78.82499999999999,33.73596680000003],[-78.82499999999999,33.734732699999995],[-78.82499999999999,33.73414120000001],[-78.82499999999999,33.733269199999995],[-78.82499999999999,33.73249299999998],[-78.82499999999999,33.731030499999974],[-78.82499999999999,33.724999999999994],[-78.85499999999999,33.724999999999994],[-78.85499999999999,33.75],[-78.84922990000001,33.75]]]}},{"type":"Feature","properties":{},"geometry":{"type":"Polygon","coordinates":[[[-78.82499999999999,33.82499999999999],[-78.82499999999999,33.7611478],[-78.82499999999999,33.76072579999999],[-78.82499999999999,33.76071940000003],[-78.82499999999999,33.76029349999999],[-78.82499999999999,33.75],[-78.8473601,33.75],[-78.84837440000001,33.75],[-78.84854510000002,33.75],[-78.84922990000001,33.75],[-78.85499999999999,33.75],[-78.85499999999999,33.82499999999999],[-78.82499999999999,33.82499999999999]]]}},{"type":"Feature","properties":{},"geometry":{"type":"Polygon","coordinates":[[[-78.82499999999999,33.76029349999999],[-78.82499999999999,33.76071940000003],[-78.82499999999999,33.76072579999999],[-78.82499999999999,33.7611478],[-78.82499999999999,33.82499999999999],[-78.79652679999998,33.82499999999999],[-78.75,33.82499999999999],[-78.75,33.80075040000003],[-78.75,33.80025360000002],[-78.75,33.7999231],[-78.75,33.7951415],[-78.75,33.78750719999999],[-78.75,33.781860300000005],[-78.75,33.7811471],[-78.75,33.7801053],[-78.75,33.77967610000002],[-78.75,33.778449799999976],[-78.75,33.76955529999998],[-78.75,33.75],[-78.7969167,33.75],[-78.80187740000002,33.75],[-78.80275610000001,33.75],[-78.81002080000002,33.75],[-78.82499999999999,33.75],[-78.82499999999999,33.76029349999999]]]}},{"type":"Feature","properties":{},"geometry":{"type":"Polygon","coordinates":[[[-78.75,33.76955529999998],[-78.75,33.778449799999976],[-78.75,33.77967610000002],[-78.75,33.7801053],[-78.75,33.7811471],[-78.75,33.781860300000005],[-78.75,33.78750719999999],[-78.75,33.7951415],[-78.75,33.7999231],[-78.75,33.80025360000002],[-78.75,33.80075040000003],[-78.75,33.82499999999999],[-78.71315249999998,33.82499999999999],[-78.7121818,33.82499999999999],[-78.71116719999998,33.82499999999999],[-78.69926120000002,33.82499999999999],[-78.68470239999999,33.82499999999999],[-78.68377379999998,33.82499999999999],[-78.6789741,33.82499999999999],[-78.67805659999999,33.82499999999999],[-78.67500000000001,33.82499999999999],[-78.67500000000001,33.81797019999999],[-78.67500000000001,33.81639310000003],[-78.67500000000001,33.81569990000003],[-78.67500000000001,33.815177199999994],[-78.67500000000001,33.81433629999998],[-78.67500000000001,33.81320340000002],[-78.67500000000001,33.78986209999999],[-78.67500000000001,33.77647669999999],[-78.67500000000001,33.76071839999997],[-78.67500000000001,33.76030939999998],[-78.67500000000001,33.75],[-78.69681000000003,33.75],[-78.69758940000003,33.75],[-78.73511889999997,33.75],[-78.75,33.75],[-78.75,33.76955529999998]]]}},{"type":"Feature","properties":{},"geometry":{"type":"Polygon","coordinates":[[[-78.71315249999998,33.82499999999999],[-78.75,33.82499999999999],[-78.75,33.83757209999999],[-78.75,33.89999999999998],[-78.67500000000001,33.89999999999998],[-78.67500000000001,33.83898499999998],[-78.67500000000001,33.838515099999995],[-78.67500000000001,33.83791710000003],[-78.67500000000001,33.82818099999997],[-78.67500000000001,33.82499999999999],[-78.67805659999999,33.82499999999999],[-78.6789741,33.82499999999999],[-78.68377379999998,33.82499999999999],[-78.68470239999999,33.82499999999999],[-78.69926120000002,33.82499999999999],[-78.71116719999998,33.82499999999999],[-78.7121818,33.82499999999999],[-78.71315249999998,33.82499999999999]]]}},{"type":"Feature","properties":{},"geometry":{"type":"Polygon","coordinates":[[[-78.65468729999998,33.82499999999999],[-78.66028560000001,33.82499999999999],[-78.67241990000002,33.82499999999999],[-78.67500000000001,33.82499999999999],[-78.67500000000001,33.82818099999997],[-78.67500000000001,33.83791710000003],[-78.67500000000001,33.838515099999995],[-78.67500000000001,33.83898499999998],[-78.67500000000001,33.89999999999998],[-78.62070640000002,33.89999999999998],[-78.60000000000002,33.89999999999998],[-78.60000000000002,33.872513000000026],[-78.60000000000002,33.87189269999999],[-78.60000000000002,33.87137369999999],[-78.60000000000002,33.870725300000004],[-78.60000000000002,33.86684680000002],[-78.60000000000002,33.85117539999999],[-78.60000000000002,33.847570700000006],[-78.60000000000002,33.845664399999976],[-78.60000000000002,33.84307919999998],[-78.60000000000002,33.842220399999974],[-78.60000000000002,33.84067679999998],[-78.60000000000002,33.840347099999974],[-78.60000000000002,33.840326000000005],[-78.60000000000002,33.84025329999997],[-78.60000000000002,33.83892609999998],[-78.60000000000002,33.83636560000002],[-78.60000000000002,33.835614599999985],[-78.60000000000002,33.83352480000002],[-78.60000000000002,33.82499999999999],[-78.60164129999998,33.82499999999999],[-78.63207849999998,33.82499999999999],[-78.64053799999999,33.82499999999999],[-78.6440925,33.82499999999999],[-78.64726159999998,33.82499999999999],[-78.64942810000002,33.82499999999999],[-78.65468729999998,33.82499999999999]]]}},{"type":"Feature","properties":{},"geometry":{"type":"Polygon","coordinates":[[[-78.54522400000002,33.82499999999999],[-78.55238329999997,33.82499999999999],[-78.60000000000002,33.82499999999999],[-78.60000000000002,33.83352480000002],[-78.60000000000002,33.835614599999985],[-78.60000000000002,33.83636560000002],[-78.60000000000002,33.83892609999998],[-78.60000000000002,33.84025329999997],[-78.60000000000002,33.840326000000005],[-78.60000000000002,33.840347099999974],[-78.60000000000002,33.84067679999998],[-78.60000000000002,33.842220399999974],[-78.60000000000002,33.84307919999998],[-78.60000000000002,33.845664399999976],[-78.60000000000002,33.847570700000006],[-78.60000000000002,33.85117539999999],[-78.60000000000002,33.86684680000002],[-78.60000000000002,33.870725300000004],[-78.60000000000002,33.87137369999999],[-78.60000000000002,33.87189269999999],[-78.60000000000002,33.872513000000026],[-78.60000000000002,33.89999999999998],[-78.59811860000002,33.89999999999998],[-78.52499999999998,33.89999999999998],[-78.52499999999998,33.89837],[-78.52499999999998,33.88018249999999],[-78.52499999999998,33.87907689999997],[-78.52499999999998,33.878662299999974],[-78.52499999999998,33.878221499999995],[-78.52499999999998,33.87812489999999],[-78.52499999999998,33.8779634],[-78.52499999999998,33.87752590000002],[-78.52499999999998,33.87609459999999],[-78.52499999999998,33.875001],[-78.52499999999998,33.8746271],[-78.52499999999998,33.873070900000016],[-78.52499999999998,33.87109770000001],[-78.52499999999998,33.86144100000001],[-78.52499999999998,33.85916780000002],[-78.52499999999998,33.85850859999999],[-78.52499999999998,33.85723780000001],[-78.52499999999998,33.8530169],[-78.52499999999998,33.8487586],[-78.52499999999998,33.83047579999999],[-78.52499999999998,33.82973700000002],[-78.52499999999998,33.82499999999999],[-78.52834949999999,33.82499999999999],[-78.53733349999999,33.82499999999999],[-78.54522400000002,33.82499999999999]]]}},{"type":"Feature","properties":{},"geometry":{"type":"Polygon","coordinates":[[[-78.67500000000001,33.81320340000002],[-78.67500000000001,33.81433629999998],[-78.67500000000001,33.815177199999994],[-78.67500000000001,33.81569990000003],[-78.67500000000001,33.81639310000003],[-78.67500000000001,33.81797019999999],[-78.67500000000001,33.82499999999999],[-78.67241990000002,33.82499999999999],[-78.66028560000001,33.82499999999999],[-78.65468729999998,33.82499999999999],[-78.64942810000002,33.82499999999999],[-78.64726159999998,33.82499999999999],[-78.6440925,33.82499999999999],[-78.64053799999999,33.82499999999999],[-78.63207849999998,33.82499999999999],[-78.60164129999998,33.82499999999999],[-78.60000000000002,33.82499999999999],[-78.55238329999997,33.82499999999999],[-78.54522400000002,33.82499999999999],[-78.55671869999998,33.82188769999999],[-78.59800200000001,33.810709900000006],[-78.67500000000001,33.78986209999999],[-78.67500000000001,33.81320340000002]]]}},{"type":"Feature","properties":{},"geometry":{"type":"Polygon","coordinates":[[[-78.82499999999999,33.731030499999974],[-78.82499999999999,33.73249299999998],[-78.82499999999999,33.733269199999995],[-78.82499999999999,33.73414120000001],[-78.82499999999999,33.734732699999995],[-78.82499999999999,33.73596680000003],[-78.82499999999999,33.7423948],[-78.82499999999999,33.75],[-78.81002080000002,33.75],[-78.80834349999998,33.74743990000002],[-78.8081315,33.747116500000004],[-78.80776700000001,33.746560199999976],[-78.80753579999998,33.74620729999998],[-78.8071706,33.745649800000024],[-78.80695170000001,33.745315600000026],[-78.8064086,33.744486800000004],[-78.79364133719004,33.724999999999994],[-78.82499999999999,33.724999999999994],[-78.82499999999999,33.731030499999974]]]}},{"type":"Feature","properties":{},"geometry":{"type":"Polygon","coordinates":[[[-78.52137879999998,33.82499999999999],[-78.52499999999998,33.82499999999999],[-78.52499999999998,33.82973700000002],[-78.52499999999998,33.83047579999999],[-78.52499999999998,33.8487586],[-78.52499999999998,33.8530169],[-78.52499999999998,33.85723780000001],[-78.52499999999998,33.85850859999999],[-78.52499999999998,33.85916780000002],[-78.52499999999998,33.86144100000001],[-78.52499999999998,33.87109770000001],[-78.52499999999998,33.873070900000016],[-78.52499999999998,33.8746271],[-78.52499999999998,33.875001],[-78.52499999999998,33.87609459999999],[-78.52499999999998,33.87752590000002],[-78.52499999999998,33.8779634],[-78.52499999999998,33.87812489999999],[-78.52499999999998,33.878221499999995],[-78.52499999999998,33.878662299999974],[-78.52499999999998,33.87907689999997],[-78.52499999999998,33.88018249999999],[-78.52499999999998,33.89837],[-78.52499999999998,33.89999999999998],[-78.5189676,33.89999999999998],[-78.44999999999999,33.89999999999998],[-78.44999999999999,33.89483940000002],[-78.44999999999999,33.89455509999999],[-78.44999999999999,33.89390420000001],[-78.44999999999999,33.893779300000006],[-78.44999999999999,33.893649900000014],[-78.44999999999999,33.893002000000024],[-78.44999999999999,33.89172960000002],[-78.44999999999999,33.88868170000001],[-78.44999999999999,33.88712090000001],[-78.44999999999999,33.88299139999998],[-78.44999999999999,33.88227899999998],[-78.44999999999999,33.88157469999999],[-78.44999999999999,33.880225300000006],[-78.44999999999999,33.87874799999997],[-78.44999999999999,33.86678330000001],[-78.44999999999999,33.850782700000025],[-78.44999999999999,33.82946930000003],[-78.44999999999999,33.82908550000002],[-78.44999999999999,33.82499999999999],[-78.4621429,33.82499999999999],[-78.46343719999999,33.82499999999999],[-78.46534220000001,33.82499999999999],[-78.49424870000001,33.82499999999999],[-78.49425380000002,33.82499999999999],[-78.51638609999998,33.82499999999999],[-78.51955320000002,33.82499999999999],[-78.52137879999998,33.82499999999999]]]}},{"type":"Feature","properties":{},"geometry":{"type":"Polygon","coordinates":[[[-78.07499999999999,33.741284699999994],[-78.07499999999999,33.745156899999984],[-78.07499999999999,33.75],[-78.05168629999997,33.75],[-78.0466667,33.75],[-78.01666879999999,33.75],[-78.01666669999997,33.75],[-78.0,33.75],[-78.0,33.741284699999994],[-78.0,33.724999999999994],[-78.07499999999999,33.724999999999994],[-78.07499999999999,33.741284699999994]]]}},{"type":"Feature","properties":{},"geometry":{"type":"Polygon","coordinates":[[[-78.0,33.741284699999994],[-78.0,33.75],[-77.96876420000001,33.75],[-77.94900660000002,33.75],[-77.94138420000002,33.75],[-77.94008550000001,33.75],[-77.93605659999997,33.75],[-77.92661679999998,33.75],[-77.92500000000001,33.75],[-77.92500000000001,33.7472229],[-77.92500000000001,33.741284699999994],[-77.92500000000001,33.726640599999996],[-77.92500000000001,33.724999999999994],[-78.0,33.724999999999994],[-78.0,33.741284699999994]]]}},{"type":"Feature","properties":{},"geometry":{"type":"Polygon","coordinates":[[[-77.92500000000001,33.726640599999996],[-77.92500000000001,33.741284699999994],[-77.92500000000001,33.7472229],[-77.92500000000001,33.75],[-77.92349489999998,33.75],[-77.9203683,33.75],[-77.91854030000002,33.75],[-77.90838289999999,33.75],[-77.89970870000002,33.75],[-77.89432160000001,33.75],[-77.85000000000002,33.75],[-77.85000000000002,33.724999999999994],[-77.92500000000001,33.724999999999994],[-77.92500000000001,33.726640599999996]]]}},{"type":"Feature","properties":{},"geometry":{"type":"Polygon","coordinates":[[[-78.01666669999997,33.75],[-78.01666879999999,33.75],[-78.0466667,33.75],[-78.05168629999997,33.75],[-78.07499999999999,33.75],[-78.07499999999999,33.79073949999997],[-78.07499999999999,33.801946199999975],[-78.07499999999999,33.80224679999998],[-78.07499999999999,33.82499999999999],[-78.0523743,33.82499999999999],[-78.05223430000001,33.82499999999999],[-78.05188859999998,33.82499999999999],[-78.0516667,33.82499999999999],[-78.05098240000001,33.82499999999999],[-78.04908699999999,33.82499999999999],[-78.03661010000002,33.82499999999999],[-78.03491079999998,33.82499999999999],[-78.0344857,33.82499999999999],[-78.03406100000001,33.82499999999999],[-78.03404749999999,33.82499999999999],[-78.03363630000001,33.82499999999999],[-78.03321190000003,33.82499999999999],[-78.00876520000003,33.82499999999999],[-78.0,33.82499999999999],[-78.0,33.81667709999999],[-78.0,33.78119579999998],[-78.0,33.75],[-78.01666669999997,33.75]]]}},{"type":"Feature","properties":{},"geometry":{"type":"Polygon","coordinates":[[[-78.0,33.78119579999998],[-78.0,33.81667709999999],[-78.0,33.82499999999999],[-77.97790099999997,33.82499999999999],[-77.9702011,33.82499999999999],[-77.9690683,33.82499999999999],[-77.96712120000001,33.82499999999999],[-77.95941540000001,33.82499999999999],[-77.95783519999998,33.82499999999999],[-77.9510904,33.82499999999999],[-77.94615620000002,33.82499999999999],[-77.94247960000001,33.82499999999999],[-77.93000640000002,33.82499999999999],[-77.9265054,33.82499999999999],[-77.92500000000001,33.82499999999999],[-77.92500000000001,33.80504589999998],[-77.92500000000001,33.80385769999998],[-77.92500000000001,33.78327089999999],[-77.92500000000001,33.77735769999998],[-77.92500000000001,33.76381889999999],[-77.92500000000001,33.75047119999999],[-77.92500000000001,33.75],[-77.92661679999998,33.75],[-77.93605659999997,33.75],[-77.94008550000001,33.75],[-77.94138420000002,33.75],[-77.94900660000002,33.75],[-78.0,33.75],[-78.0,33.78119579999998]]]}},{"type":"Feature","properties":{},"geometry":{"type":"Polygon","coordinates":[[[-77.92500000000001,33.75047119999999],[-77.92500000000001,33.76381889999999],[-77.92500000000001,33.77735769999998],[-77.92500000000001,33.78327089999999],[-77.92500000000001,33.80385769999998],[-77.92500000000001,33.80504589999998],[-77.92500000000001,33.82499999999999],[-77.920121,33.82499999999999],[-77.91961579999997,33.82499999999999],[-77.89970870000002,33.82499999999999],[-77.89670430000001,33.82499999999999],[-77.85000000000002,33.82499999999999],[-77.85000000000002,33.78212239999999],[-77.85000000000002,33.75],[-77.89432160000001,33.75],[-77.89970870000002,33.75],[-77.90838289999999,33.75],[-77.91854030000002,33.75],[-77.9203683,33.75],[-77.92349489999998,33.75],[-77.92500000000001,33.75],[-77.92500000000001,33.75047119999999]]]}},{"type":"Feature","properties":{},"geometry":{"type":"Polygon","coordinates":[[[-78.05223430000001,33.82499999999999],[-78.0523743,33.82499999999999],[-78.07499999999999,33.82499999999999],[-78.07499999999999,33.846034599999996],[-78.07499999999999,33.84649539999998],[-78.07499999999999,33.847421999999995],[-78.07499999999999,33.8717638],[-78.07499999999999,33.89574110000001],[-78.07499999999999,33.898635300000024],[-78.07499999999999,33.89941640000001],[-78.07499999999999,33.89999999999998],[-78.07117840000001,33.89999999999998],[-78.06879550000002,33.89999999999998],[-78.06723260000001,33.89999999999998],[-78.0577422,33.89999999999998],[-78.0570224,33.89999999999998],[-78.05534929999999,33.89999999999998],[-78.04958829999998,33.89999999999998],[-78.04943259999999,33.89999999999998],[-78.03622050000001,33.89999999999998],[-78.03568630000001,33.89999999999998],[-78.03432529999998,33.89999999999998],[-78.03032350000001,33.89999999999998],[-78.029992,33.89999999999998],[-78.02885359999999,33.89999999999998],[-78.0283397,33.89999999999998],[-78.02755339999999,33.89999999999998],[-78.02532230000003,33.89999999999998],[-78.02359230000002,33.89999999999998],[-78.02235990000003,33.89999999999998],[-78.02023830000002,33.89999999999998],[-78.01974180000002,33.89999999999998],[-78.01969960000002,33.89999999999998],[-78.01876629999998,33.89999999999998],[-78.01853410000001,33.89999999999998],[-78.01693060000002,33.89999999999998],[-78.01633989999999,33.89999999999998],[-78.0160684,33.89999999999998],[-78.01575400000002,33.89999999999998],[-78.01517289999998,33.89999999999998],[-78.0145971,33.89999999999998],[-78.01377300000001,33.89999999999998],[-78.01246459999999,33.89999999999998],[-78.01226209999999,33.89999999999998],[-78.01200440000002,33.89999999999998],[-78.01131299999997,33.89999999999998],[-78.0089094,33.89999999999998],[-78.0059559,33.89999999999998],[-78.0032837,33.89999999999998],[-78.0016817,33.89999999999998],[-78.0,33.89999999999998],[-78.0,33.893315900000005],[-78.0,33.89232129999999],[-78.0,33.88879680000002],[-78.0,33.8882352],[-78.0,33.88105860000002],[-78.0,33.88101039999998],[-78.0,33.88019889999998],[-78.0,33.879848200000026],[-78.0,33.87982649999998],[-78.0,33.879442400000016],[-78.0,33.8777369],[-78.0,33.8758469],[-78.0,33.87232610000001],[-78.0,33.85588769999998],[-78.0,33.8556959],[-78.0,33.8549653],[-78.0,33.84987030000002],[-78.0,33.84977570000001],[-78.0,33.84254520000002],[-78.0,33.82499999999999],[-78.00876520000003,33.82499999999999],[-78.03321190000003,33.82499999999999],[-78.03363630000001,33.82499999999999],[-78.03404749999999,33.82499999999999],[-78.03406100000001,33.82499999999999],[-78.0344857,33.82499999999999],[-78.03491079999998,33.82499999999999],[-78.03661010000002,33.82499999999999],[-78.04908699999999,33.82499999999999],[-78.05098240000001,33.82499999999999],[-78.05113269999998,33.82499999999999],[-78.05188859999998,33.82499999999999],[-78.05191910000002,33.82499999999999],[-78.05223430000001,33.82499999999999]]]}},{"type":"Feature","properties":{},"geometry":{"type":"Polygon","coordinates":[[[-78.0,33.84254520000002],[-78.0,33.84977570000001],[-78.0,33.84987030000002],[-78.0,33.8549653],[-78.0,33.8556959],[-78.0,33.85588769999998],[-78.0,33.87232610000001],[-78.0,33.8758469],[-78.0,33.8777369],[-78.0,33.879442400000016],[-78.0,33.87982649999998],[-78.0,33.879848200000026],[-78.0,33.88019889999998],[-78.0,33.88101039999998],[-78.0,33.88105860000002],[-78.0,33.8882352],[-78.0,33.88879680000002],[-78.0,33.89232129999999],[-78.0,33.893315900000005],[-78.0,33.89999999999998],[-77.9957948,33.89999999999998],[-77.98660749999999,33.89999999999998],[-77.98472420000002,33.89999999999998],[-77.98404420000003,33.89999999999998],[-77.98351339999999,33.89999999999998],[-77.9818737,33.89999999999998],[-77.98116010000001,33.89999999999998],[-77.98064779999999,33.89999999999998],[-77.98047179999998,33.89999999999998],[-77.97805119999998,33.89999999999998],[-77.97752889999998,33.89999999999998],[-77.97156189999998,33.89999999999998],[-77.97093469999999,33.89999999999998],[-77.96918950000003,33.89999999999998],[-77.9663835,33.89999999999998],[-77.96531099999999,33.89999999999998],[-77.9577941,33.89999999999998],[-77.95365600000002,33.89999999999998],[-77.94991520000002,33.89999999999998],[-77.948961,33.89999999999998],[-77.94799949999998,33.89999999999998],[-77.94181329999998,33.89999999999998],[-77.93031159999998,33.89999999999998],[-77.92836749999998,33.89999999999998],[-77.92574209999998,33.89999999999998],[-77.92500000000001,33.89999999999998],[-77.92500000000001,33.882364199999984],[-77.92500000000001,33.8463213],[-77.92500000000001,33.82831629999998],[-77.92500000000001,33.82739120000002],[-77.92500000000001,33.82499999999999],[-77.9265054,33.82499999999999],[-77.93000640000002,33.82499999999999],[-77.94247960000001,33.82499999999999],[-77.94615620000002,33.82499999999999],[-77.9510904,33.82499999999999],[-77.95783519999998,33.82499999999999],[-77.95941540000001,33.82499999999999],[-77.96712120000001,33.82499999999999],[-77.9690683,33.82499999999999],[-77.9702011,33.82499999999999],[-77.97790099999997,33.82499999999999],[-78.0,33.82499999999999],[-78.0,33.84254520000002]]]}},{"type":"Feature","properties":{},"geometry":{"type":"Polygon","coordinates":[[[-77.92500000000001,33.82739120000002],[-77.92500000000001,33.82831629999998],[-77.92500000000001,33.8463213],[-77.92500000000001,33.882364199999984],[-77.92500000000001,33.89999999999998],[-77.91212510000003,33.89999999999998],[-77.90918749999997,33.89999999999998],[-77.89970870000002,33.89999999999998],[-77.88316509999999,33.89999999999998],[-77.85000000000002,33.89999999999998],[-77.85000000000002,33.82499999999999],[-77.89670430000001,33.82499999999999],[-77.89970870000002,33.82499999999999],[-77.91961579999997,33.82499999999999],[-77.920121,33.82499999999999],[-77.92500000000001,33.82499999999999],[-77.92500000000001,33.82739120000002]]]}},{"type":"Feature","properties":{},"geometry":{"type":"Polygon","coordinates":[[[-78.07117840000001,33.89999999999998],[-78.07499999999999,33.89999999999998],[-78.07499999999999,33.90055580000001],[-78.07499999999999,33.90156539999998],[-78.07499999999999,33.90199389999998],[-78.07499999999999,33.9034853],[-78.07499999999999,33.90475980000002],[-78.07499999999999,33.90510180000001],[-78.07499999999999,33.91144539999999],[-78.07499999999999,33.9123783],[-78.07499999999999,33.92003],[-78.07499999999999,33.92095310000002],[-78.07499999999999,33.92158260000002],[-78.07499999999999,33.921855600000015],[-78.07499999999999,33.921932200000015],[-78.07499999999999,33.92193780000002],[-78.07499999999999,33.92196999999999],[-78.07499999999999,33.922110499999974],[-78.07499999999999,33.92221999999998],[-78.07499999999999,33.92232539999998],[-78.07499999999999,33.922330699999975],[-78.07499999999999,33.922404099999994],[-78.07499999999999,33.92292250000003],[-78.07499999999999,33.92871280000003],[-78.07499999999999,33.929901599999994],[-78.07499999999999,33.97500000000002],[-78.00863609999999,33.97500000000002],[-78.00708309999999,33.97500000000002],[-78.00707469999998,33.97500000000002],[-78.00306669999998,33.97500000000002],[-78.0,33.97500000000002],[-78.0,33.97117079999998],[-78.0,33.97007989999997],[-78.0,33.96980150000002],[-78.0,33.9696505],[-78.0,33.96863769999999],[-78.0,33.96766960000002],[-78.0,33.963695400000006],[-78.0,33.962710800000025],[-78.0,33.937745800000016],[-78.0,33.93641839999998],[-78.0,33.92630539999999],[-78.0,33.92555379999999],[-78.0,33.92520000000002],[-78.0,33.92434909999997],[-78.0,33.923923100000025],[-78.0,33.92345019999999],[-78.0,33.92289790000001],[-78.0,33.92256550000002],[-78.0,33.922250399999996],[-78.0,33.922233000000006],[-78.0,33.92222170000002],[-78.0,33.92190049999999],[-78.0,33.921567900000014],[-78.0,33.9200773],[-78.0,33.919842500000016],[-78.0,33.919320700000014],[-78.0,33.9192463],[-78.0,33.918788199999995],[-78.0,33.9142248],[-78.0,33.91044099999999],[-78.0,33.9026748],[-78.0,33.89999999999998],[-78.0016817,33.89999999999998],[-78.0032837,33.89999999999998],[-78.0059559,33.89999999999998],[-78.0089094,33.89999999999998],[-78.01131299999997,33.89999999999998],[-78.01200440000002,33.89999999999998],[-78.01226209999999,33.89999999999998],[-78.01246459999999,33.89999999999998],[-78.01377300000001,33.89999999999998],[-78.0145971,33.89999999999998],[-78.01517289999998,33.89999999999998],[-78.01575400000002,33.89999999999998],[-78.0160684,33.89999999999998],[-78.01633989999999,33.89999999999998],[-78.01693060000002,33.89999999999998],[-78.01853410000001,33.89999999999998],[-78.01876629999998,33.89999999999998],[-78.01969960000002,33.89999999999998],[-78.01974180000002,33.89999999999998],[-78.02023830000002,33.89999999999998],[-78.02235990000003,33.89999999999998],[-78.02359230000002,33.89999999999998],[-78.02532230000003,33.89999999999998],[-78.02755339999999,33.89999999999998],[-78.0283397,33.89999999999998],[-78.02885359999999,33.89999999999998],[-78.029992,33.89999999999998],[-78.03032350000001,33.89999999999998],[-78.03432529999998,33.89999999999998],[-78.03568630000001,33.89999999999998],[-78.03622050000001,33.89999999999998],[-78.04943259999999,33.89999999999998],[-78.04958829999998,33.89999999999998],[-78.05534929999999,33.89999999999998],[-78.0570224,33.89999999999998],[-78.0577422,33.89999999999998],[-78.06723260000001,33.89999999999998],[-78.06879550000002,33.89999999999998],[-78.07117840000001,33.89999999999998]]]}},{"type":"Feature","properties":{},"geometry":{"type":"Polygon","coordinates":[[[-77.9957948,33.89999999999998],[-78.0,33.89999999999998],[-78.0,33.9026748],[-78.0,33.91044099999999],[-78.0,33.9142248],[-78.0,33.918788199999995],[-78.0,33.9192463],[-78.0,33.919320700000014],[-78.0,33.919842500000016],[-78.0,33.9200773],[-78.0,33.921567900000014],[-78.0,33.92190049999999],[-78.0,33.92222170000002],[-78.0,33.922233000000006],[-78.0,33.922250399999996],[-78.0,33.92256550000002],[-78.0,33.92289790000001],[-78.0,33.92345019999999],[-78.0,33.923923100000025],[-78.0,33.92434909999997],[-78.0,33.92520000000002],[-78.0,33.92555379999999],[-78.0,33.92630539999999],[-78.0,33.93641839999998],[-78.0,33.937745800000016],[-78.0,33.962710800000025],[-78.0,33.963695400000006],[-78.0,33.96766960000002],[-78.0,33.96863769999999],[-78.0,33.9696505],[-78.0,33.96980150000002],[-78.0,33.97007989999997],[-78.0,33.97117079999998],[-78.0,33.97500000000002],[-77.99836970000001,33.97500000000002],[-77.99793349999999,33.97500000000002],[-77.99761239999998,33.97500000000002],[-77.99635369999999,33.97500000000002],[-77.99616959999997,33.97500000000002],[-77.99578079999998,33.97500000000002],[-77.9954889,33.97500000000002],[-77.99463939999998,33.97500000000002],[-77.994167,33.97500000000002],[-77.991577,33.97500000000002],[-77.9908193,33.97500000000002],[-77.99058780000001,33.97500000000002],[-77.99013739999998,33.97500000000002],[-77.9888302,33.97500000000002],[-77.9880991,33.97500000000002],[-77.98581230000002,33.97500000000002],[-77.98524259999999,33.97500000000002],[-77.97963040000002,33.97500000000002],[-77.97742010000002,33.97500000000002],[-77.9770102,33.97500000000002],[-77.97525259999998,33.97500000000002],[-77.97407529999998,33.97500000000002],[-77.96926989999997,33.97500000000002],[-77.95938869999998,33.97500000000002],[-77.95530120000001,33.97500000000002],[-77.95430820000001,33.97500000000002],[-77.95334430000003,33.97500000000002],[-77.9528436,33.97500000000002],[-77.95195059999998,33.97500000000002],[-77.95102220000001,33.97500000000002],[-77.95024590000003,33.97500000000002],[-77.94994559999998,33.97500000000002],[-77.94940709999997,33.97500000000002],[-77.94910379999999,33.97500000000002],[-77.94893889999997,33.97500000000002],[-77.94860770000003,33.97500000000002],[-77.94828519999999,33.97500000000002],[-77.94827800000002,33.97500000000002],[-77.94827650000002,33.97500000000002],[-77.94794530000001,33.97500000000002],[-77.94761399999999,33.97500000000002],[-77.94703629999998,33.97500000000002],[-77.9468708,33.97500000000002],[-77.94652919999999,33.97500000000002],[-77.94618439999999,33.97500000000002],[-77.94555589999999,33.97500000000002],[-77.94433079999999,33.97500000000002],[-77.94412440000002,33.97500000000002],[-77.943105,33.97500000000002],[-77.94197259999999,33.97500000000002],[-77.94140809999999,33.97500000000002],[-77.92500000000001,33.97500000000002],[-77.92500000000001,33.973546],[-77.92500000000001,33.970035300000006],[-77.92500000000001,33.96782480000002],[-77.92500000000001,33.96080669999998],[-77.92500000000001,33.96052100000003],[-77.92500000000001,33.96041300000002],[-77.92500000000001,33.95986110000001],[-77.92500000000001,33.957819900000004],[-77.92500000000001,33.957683599999996],[-77.92500000000001,33.95693590000002],[-77.92500000000001,33.95387779999999],[-77.92500000000001,33.946883300000025],[-77.92500000000001,33.94188129999998],[-77.92500000000001,33.94101439999997],[-77.92500000000001,33.934818800000016],[-77.92500000000001,33.934737600000005],[-77.92500000000001,33.93085480000002],[-77.92500000000001,33.92223259999997],[-77.92500000000001,33.92070380000001],[-77.92500000000001,33.91395560000001],[-77.92500000000001,33.900699599999996],[-77.92500000000001,33.89999999999998],[-77.92574209999998,33.89999999999998],[-77.92836749999998,33.89999999999998],[-77.93031159999998,33.89999999999998],[-77.94181329999998,33.89999999999998],[-77.94799949999998,33.89999999999998],[-77.948961,33.89999999999998],[-77.94991520000002,33.89999999999998],[-77.95365600000002,33.89999999999998],[-77.9577941,33.89999999999998],[-77.96531099999999,33.89999999999998],[-77.9663835,33.89999999999998],[-77.96918950000003,33.89999999999998],[-77.97093469999999,33.89999999999998],[-77.97156189999998,33.89999999999998],[-77.97752889999998,33.89999999999998],[-77.97805119999998,33.89999999999998],[-77.98047179999998,33.89999999999998],[-77.98064779999999,33.89999999999998],[-77.98116010000001,33.89999999999998],[-77.9818737,33.89999999999998],[-77.98351339999999,33.89999999999998],[-77.98404420000003,33.89999999999998],[-77.98472420000002,33.89999999999998],[-77.98660749999999,33.89999999999998],[-77.9957948,33.89999999999998]]]}},{"type":"Feature","properties":{},"geometry":{"type":"Polygon","coordinates":[[[-77.92500000000001,33.900699599999996],[-77.92500000000001,33.91395560000001],[-77.92500000000001,33.92070380000001],[-77.92500000000001,33.92223259999997],[-77.92500000000001,33.93085480000002],[-77.92500000000001,33.934737600000005],[-77.92500000000001,33.934818800000016],[-77.92500000000001,33.94101439999997],[-77.92500000000001,33.94188129999998],[-77.92500000000001,33.946883300000025],[-77.92500000000001,33.95387779999999],[-77.92500000000001,33.95693590000002],[-77.92500000000001,33.957683599999996],[-77.92500000000001,33.957819900000004],[-77.92500000000001,33.95986110000001],[-77.92500000000001,33.96041300000002],[-77.92500000000001,33.96052100000003],[-77.92500000000001,33.96080669999998],[-77.92500000000001,33.96782480000002],[-77.92500000000001,33.970035300000006],[-77.92500000000001,33.973546],[-77.92500000000001,33.97500000000002],[-77.9215259,33.97500000000002],[-77.92020760000003,33.97500000000002],[-77.91330590000001,33.97500000000002],[-77.91231019999998,33.97500000000002],[-77.9111221,33.97500000000002],[-77.91057890000002,33.97500000000002],[-77.90911210000002,33.97500000000002],[-77.90400649999998,33.97500000000002],[-77.89970870000002,33.97500000000002],[-77.89913619999999,33.97500000000002],[-77.89561650000002,33.97500000000002],[-77.88173970000003,33.97500000000002],[-77.87636650000002,33.97500000000002],[-77.87284770000002,33.97500000000002],[-77.85000000000002,33.97500000000002],[-77.85000000000002,33.974541999999985],[-77.85000000000002,33.89999999999998],[-77.88316509999999,33.89999999999998],[-77.89970870000002,33.89999999999998],[-77.90918749999997,33.89999999999998],[-77.91212510000003,33.89999999999998],[-77.92500000000001,33.89999999999998],[-77.92500000000001,33.900699599999996]]]}},{"type":"Feature","properties":{},"geometry":{"type":"Polygon","coordinates":[[[-77.99836970000001,33.97500000000002],[-78.0,33.97500000000002],[-78.0,33.9752244],[-78.0,33.9768416],[-78.0,33.978214700000024],[-78.0,33.97836619999998],[-78.0,33.97914700000001],[-78.0,33.9807222],[-78.0,34.05000000000001],[-77.9480714,34.05000000000001],[-77.944234,34.05000000000001],[-77.94398130000002,34.05000000000001],[-77.94354609999999,34.05000000000001],[-77.94319439999998,34.05000000000001],[-77.94191799999999,34.05000000000001],[-77.9410254,34.05000000000001],[-77.94092469999998,34.05000000000001],[-77.94041770000001,34.05000000000001],[-77.94030329999998,34.05000000000001],[-77.93995360000002,34.05000000000001],[-77.93991060000002,34.05000000000001],[-77.93940350000003,34.05000000000001],[-77.93889639999998,34.05000000000001],[-77.93871030000003,34.05000000000001],[-77.9386265,34.05000000000001],[-77.93861770000001,34.05000000000001],[-77.9385739,34.05000000000001],[-77.93852520000002,34.05000000000001],[-77.93846489999999,34.05000000000001],[-77.9365426,34.05000000000001],[-77.93553600000001,34.05000000000001],[-77.93462950000003,34.05000000000001],[-77.9323822,34.05000000000001],[-77.9280086,34.05000000000001],[-77.92500000000001,34.05000000000001],[-77.92500000000001,34.04965979999997],[-77.92500000000001,34.04961350000002],[-77.92500000000001,34.04951190000003],[-77.92500000000001,34.049338499999976],[-77.92500000000001,34.049239899999975],[-77.92500000000001,34.04913579999999],[-77.92500000000001,34.0490274],[-77.92500000000001,34.034391400000004],[-77.92500000000001,34.02043400000002],[-77.92500000000001,34.01739309999999],[-77.92500000000001,33.97500000000002],[-77.94140809999999,33.97500000000002],[-77.94197259999999,33.97500000000002],[-77.943105,33.97500000000002],[-77.94412440000002,33.97500000000002],[-77.94433079999999,33.97500000000002],[-77.94555589999999,33.97500000000002],[-77.94618439999999,33.97500000000002],[-77.94652919999999,33.97500000000002],[-77.9468708,33.97500000000002],[-77.94703629999998,33.97500000000002],[-77.94761399999999,33.97500000000002],[-77.94794530000001,33.97500000000002],[-77.94827650000002,33.97500000000002],[-77.94827800000002,33.97500000000002],[-77.94828519999999,33.97500000000002],[-77.94860770000003,33.97500000000002],[-77.94893889999997,33.97500000000002],[-77.94910379999999,33.97500000000002],[-77.94940709999997,33.97500000000002],[-77.94994559999998,33.97500000000002],[-77.95024590000003,33.97500000000002],[-77.95102220000001,33.97500000000002],[-77.95195059999998,33.97500000000002],[-77.9528436,33.97500000000002],[-77.95334430000003,33.97500000000002],[-77.95430820000001,33.97500000000002],[-77.95530120000001,33.97500000000002],[-77.95938869999998,33.97500000000002],[-77.96926989999997,33.97500000000002],[-77.97407529999998,33.97500000000002],[-77.97525259999998,33.97500000000002],[-77.9770102,33.97500000000002],[-77.97742010000002,33.97500000000002],[-77.97963040000002,33.97500000000002],[-77.98524259999999,33.97500000000002],[-77.98581230000002,33.97500000000002],[-77.9880991,33.97500000000002],[-77.9888302,33.97500000000002],[-77.99013739999998,33.97500000000002],[-77.99058780000001,33.97500000000002],[-77.9908193,33.97500000000002],[-77.991577,33.97500000000002],[-77.994167,33.97500000000002],[-77.99463939999998,33.97500000000002],[-77.9954889,33.97500000000002],[-77.99578079999998,33.97500000000002],[-77.99616959999997,33.97500000000002],[-77.99635369999999,33.97500000000002],[-77.99761239999998,33.97500000000002],[-77.99793349999999,33.97500000000002],[-77.99836970000001,33.97500000000002]]]}},{"type":"Feature","properties":{},"geometry":{"type":"Polygon","coordinates":[[[-77.9215259,33.97500000000002],[-77.92500000000001,33.97500000000002],[-77.92500000000001,34.01739309999999],[-77.92500000000001,34.02043400000002],[-77.92500000000001,34.034391400000004],[-77.92500000000001,34.0490274],[-77.92500000000001,34.04913579999999],[-77.92500000000001,34.049239899999975],[-77.92500000000001,34.049338499999976],[-77.92500000000001,34.04951190000003],[-77.92500000000001,34.04961350000002],[-77.92500000000001,34.04965979999997],[-77.92500000000001,34.05000000000001],[-77.9240699,34.05000000000001],[-77.9240466,34.05000000000001],[-77.92371020000002,34.05000000000001],[-77.92331949999999,34.05000000000001],[-77.92299200000002,34.05000000000001],[-77.92254789999998,34.05000000000001],[-77.92251499999998,34.05000000000001],[-77.92243509999997,34.05000000000001],[-77.919806,34.05000000000001],[-77.91963099999998,34.05000000000001],[-77.91929779999998,34.05000000000001],[-77.91875850000002,34.05000000000001],[-77.91855270000002,34.05000000000001],[-77.89152510000002,34.05000000000001],[-77.89038779999998,34.05000000000001],[-77.89006339999997,34.05000000000001],[-77.88777349999998,34.05000000000001],[-77.88747640000003,34.05000000000001],[-77.88667090000001,34.05000000000001],[-77.8837598,34.05000000000001],[-77.88228020000003,34.05000000000001],[-77.8805615,34.05000000000001],[-77.87630630000001,34.05000000000001],[-77.875719,34.05000000000001],[-77.87103000000002,34.05000000000001],[-77.86725719999998,34.05000000000001],[-77.85932100000002,34.05000000000001],[-77.85000000000002,34.05000000000001],[-77.85000000000002,34.03607529999999],[-77.85000000000002,34.035086999999976],[-77.85000000000002,33.9835056],[-77.85000000000002,33.97744239999997],[-77.85000000000002,33.97572170000001],[-77.85000000000002,33.97500000000002],[-77.85022579999998,33.97500000000002],[-77.85067299999997,33.97500000000002],[-77.87284770000002,33.97500000000002],[-77.87636650000002,33.97500000000002],[-77.88173970000003,33.97500000000002],[-77.89561650000002,33.97500000000002],[-77.89913619999999,33.97500000000002],[-77.89970870000002,33.97500000000002],[-77.90400649999998,33.97500000000002],[-77.90911210000002,33.97500000000002],[-77.91057890000002,33.97500000000002],[-77.9111221,33.97500000000002],[-77.91231019999998,33.97500000000002],[-77.91330590000001,33.97500000000002],[-77.92020760000003,33.97500000000002],[-77.9215259,33.97500000000002]]]}},{"type":"Feature","properties":{},"geometry":{"type":"Polygon","coordinates":[[[-78.14999999999998,33.73844559999998],[-78.14999999999998,33.744216900000026],[-78.14999999999998,33.75],[-78.14547959999999,33.75],[-78.1362186,33.75],[-78.1149878,33.75],[-78.1110969,33.75],[-78.08470340000002,33.75],[-78.08101749999997,33.75],[-78.07499999999999,33.75],[-78.07499999999999,33.745156899999984],[-78.07499999999999,33.741284699999994],[-78.07499999999999,33.724999999999994],[-78.14999999999998,33.724999999999994],[-78.14999999999998,33.73844559999998]]]}},{"type":"Feature","properties":{},"geometry":{"type":"Polygon","coordinates":[[[-78.14547959999999,33.75],[-78.14999999999998,33.75],[-78.14999999999998,33.767005600000005],[-78.14999999999998,33.79974720000001],[-78.14999999999998,33.80152939999999],[-78.14999999999998,33.82499999999999],[-78.1149878,33.82499999999999],[-78.07499999999999,33.82499999999999],[-78.07499999999999,33.80224679999998],[-78.07499999999999,33.801946199999975],[-78.07499999999999,33.79073949999997],[-78.07499999999999,33.75],[-78.08101749999997,33.75],[-78.08470340000002,33.75],[-78.1110969,33.75],[-78.1149878,33.75],[-78.1362186,33.75],[-78.14547959999999,33.75]]]}},{"type":"Feature","properties":{},"geometry":{"type":"Polygon","coordinates":[[[-78.1149878,33.82499999999999],[-78.14999999999998,33.82499999999999],[-78.14999999999998,33.85431699999998],[-78.14999999999998,33.862583599999994],[-78.14999999999998,33.87535100000002],[-78.14999999999998,33.898557900000014],[-78.14999999999998,33.89999999999998],[-78.1149878,33.89999999999998],[-78.09139590000001,33.89999999999998],[-78.07789789999998,33.89999999999998],[-78.07549030000001,33.89999999999998],[-78.07499999999999,33.89999999999998],[-78.07499999999999,33.89941640000001],[-78.07499999999999,33.898635300000024],[-78.07499999999999,33.89574110000001],[-78.07499999999999,33.8717638],[-78.07499999999999,33.846034599999996],[-78.07499999999999,33.82499999999999],[-78.1149878,33.82499999999999]]]}},{"type":"Feature","properties":{},"geometry":{"type":"Polygon","coordinates":[[[-78.30000000000001,33.853669500000024],[-78.30000000000001,33.8592117],[-78.30000000000001,33.88571719999999],[-78.30000000000001,33.8913963],[-78.30000000000001,33.899750400000016],[-78.30000000000001,33.89999999999998],[-78.29493969999999,33.89999999999998],[-78.28063730000002,33.89999999999998],[-78.27650929999999,33.89999999999998],[-78.2713602,33.89999999999998],[-78.26822370000002,33.89999999999998],[-78.26066270000001,33.89999999999998],[-78.24675869999999,33.89999999999998],[-78.24551020000001,33.89999999999998],[-78.2426739,33.89999999999998],[-78.23207480000002,33.89999999999998],[-78.22500000000002,33.89999999999998],[-78.22500000000002,33.896589800000015],[-78.22500000000002,33.86089579999998],[-78.22500000000002,33.853880600000025],[-78.22500000000002,33.82499999999999],[-78.30000000000001,33.82499999999999],[-78.30000000000001,33.853669500000024]]]}},{"type":"Feature","properties":{},"geometry":{"type":"Polygon","coordinates":[[[-78.19719830000003,33.82499999999999],[-78.22500000000002,33.82499999999999],[-78.22500000000002,33.853880600000025],[-78.22500000000002,33.86089579999998],[-78.22500000000002,33.896589800000015],[-78.22500000000002,33.89999999999998],[-78.19740359999997,33.89999999999998],[-78.18141320000001,33.89999999999998],[-78.1630912,33.89999999999998],[-78.16105520000002,33.89999999999998],[-78.14999999999998,33.89999999999998],[-78.14999999999998,33.898557900000014],[-78.14999999999998,33.87535100000002],[-78.14999999999998,33.862583599999994],[-78.14999999999998,33.85431699999998],[-78.14999999999998,33.82499999999999],[-78.19719830000003,33.82499999999999]]]}},{"type":"Feature","properties":{},"geometry":{"type":"Polygon","coordinates":[[[-78.29493969999999,33.89999999999998],[-78.30000000000001,33.89999999999998],[-78.30000000000001,33.9067364],[-78.30000000000001,33.9082085],[-78.30000000000001,33.90890619999999],[-78.30000000000001,33.910093700000004],[-78.30000000000001,33.91050769999998],[-78.30000000000001,33.91146620000001],[-78.30000000000001,33.9153627],[-78.30000000000001,33.91608359999998],[-78.30000000000001,33.916167299999984],[-78.30000000000001,33.91633150000001],[-78.30000000000001,33.916671399999984],[-78.30000000000001,33.91727259999999],[-78.30000000000001,33.97500000000002],[-78.24186809999998,33.97500000000002],[-78.23269019999998,33.97500000000002],[-78.22500000000002,33.97500000000002],[-78.22500000000002,33.953990999999974],[-78.22500000000002,33.948602600000015],[-78.22500000000002,33.94725749999998],[-78.22500000000002,33.94387790000002],[-78.22500000000002,33.94327240000001],[-78.22500000000002,33.92920579999998],[-78.22500000000002,33.92839900000001],[-78.22500000000002,33.92811590000002],[-78.22500000000002,33.92801109999999],[-78.22500000000002,33.92764729999999],[-78.22500000000002,33.92729209999999],[-78.22500000000002,33.92604239999997],[-78.22500000000002,33.92398939999998],[-78.22500000000002,33.92363080000001],[-78.22500000000002,33.92349109999998],[-78.22500000000002,33.9233519],[-78.22500000000002,33.92295139999999],[-78.22500000000002,33.921697300000005],[-78.22500000000002,33.919241899999975],[-78.22500000000002,33.9190256],[-78.22500000000002,33.918865400000016],[-78.22500000000002,33.91850679999999],[-78.22500000000002,33.91796099999999],[-78.22500000000002,33.91708569999997],[-78.22500000000002,33.9155389],[-78.22500000000002,33.912678099999994],[-78.22500000000002,33.91216320000001],[-78.22500000000002,33.91110650000002],[-78.22500000000002,33.91094930000003],[-78.22500000000002,33.907842500000015],[-78.22500000000002,33.90765110000001],[-78.22500000000002,33.90674990000002],[-78.22500000000002,33.90380299999998],[-78.22500000000002,33.89999999999998],[-78.23207480000002,33.89999999999998],[-78.2426739,33.89999999999998],[-78.24551020000001,33.89999999999998],[-78.24675869999999,33.89999999999998],[-78.26066270000001,33.89999999999998],[-78.26822370000002,33.89999999999998],[-78.2713602,33.89999999999998],[-78.27650929999999,33.89999999999998],[-78.28063730000002,33.89999999999998],[-78.29493969999999,33.89999999999998]]]}},{"type":"Feature","properties":{},"geometry":{"type":"Polygon","coordinates":[[[-78.19740359999997,33.89999999999998],[-78.22500000000002,33.89999999999998],[-78.22500000000002,33.90380299999998],[-78.22500000000002,33.90674990000002],[-78.22500000000002,33.90765110000001],[-78.22500000000002,33.907842500000015],[-78.22500000000002,33.91094930000003],[-78.22500000000002,33.91110650000002],[-78.22500000000002,33.91216320000001],[-78.22500000000002,33.912678099999994],[-78.22500000000002,33.9155389],[-78.22500000000002,33.91708569999997],[-78.22500000000002,33.91796099999999],[-78.22500000000002,33.91850679999999],[-78.22500000000002,33.918865400000016],[-78.22500000000002,33.9190256],[-78.22500000000002,33.919241899999975],[-78.22500000000002,33.921697300000005],[-78.22500000000002,33.92295139999999],[-78.22500000000002,33.9233519],[-78.22500000000002,33.92349109999998],[-78.22500000000002,33.92363080000001],[-78.22500000000002,33.92398939999998],[-78.22500000000002,33.92604239999997],[-78.22500000000002,33.92729209999999],[-78.22500000000002,33.92764729999999],[-78.22500000000002,33.92801109999999],[-78.22500000000002,33.92811590000002],[-78.22500000000002,33.92839900000001],[-78.22500000000002,33.92920579999998],[-78.22500000000002,33.94327240000001],[-78.22500000000002,33.94387790000002],[-78.22500000000002,33.94725749999998],[-78.22500000000002,33.948602600000015],[-78.22500000000002,33.953990999999974],[-78.22500000000002,33.97500000000002],[-78.14999999999998,33.97500000000002],[-78.14999999999998,33.940985599999976],[-78.14999999999998,33.9272302],[-78.14999999999998,33.9268945],[-78.14999999999998,33.926779599999975],[-78.14999999999998,33.926644599999975],[-78.14999999999998,33.92624669999998],[-78.14999999999998,33.925831500000015],[-78.14999999999998,33.9180801],[-78.14999999999998,33.917139899999995],[-78.14999999999998,33.91680100000002],[-78.14999999999998,33.9158013],[-78.14999999999998,33.91323190000003],[-78.14999999999998,33.91280760000001],[-78.14999999999998,33.91180159999999],[-78.14999999999998,33.9111006],[-78.14999999999998,33.91019510000001],[-78.14999999999998,33.90190610000002],[-78.14999999999998,33.89999999999998],[-78.16105520000002,33.89999999999998],[-78.1630912,33.89999999999998],[-78.18141320000001,33.89999999999998],[-78.18797949999998,33.89999999999998],[-78.19740359999997,33.89999999999998]]]}},{"type":"Feature","properties":{},"geometry":{"type":"Polygon","coordinates":[[[-78.14999999999998,33.90190610000002],[-78.14999999999998,33.91019510000001],[-78.14999999999998,33.9111006],[-78.14999999999998,33.91180159999999],[-78.14999999999998,33.91280760000001],[-78.14999999999998,33.91323190000003],[-78.14999999999998,33.9158013],[-78.14999999999998,33.91680100000002],[-78.14999999999998,33.917139899999995],[-78.14999999999998,33.9180801],[-78.14999999999998,33.925831500000015],[-78.14999999999998,33.92624669999998],[-78.14999999999998,33.926644599999975],[-78.14999999999998,33.926779599999975],[-78.14999999999998,33.9268945],[-78.14999999999998,33.9272302],[-78.14999999999998,33.940985599999976],[-78.14999999999998,33.97500000000002],[-78.1149878,33.97500000000002],[-78.07499999999999,33.97500000000002],[-78.07499999999999,33.929901599999994],[-78.07499999999999,33.92871280000003],[-78.07499999999999,33.92292250000003],[-78.07499999999999,33.922404099999994],[-78.07499999999999,33.922330699999975],[-78.07499999999999,33.92232539999998],[-78.07499999999999,33.92221999999998],[-78.07499999999999,33.922110499999974],[-78.07499999999999,33.92196999999999],[-78.07499999999999,33.92193780000002],[-78.07499999999999,33.921932200000015],[-78.07499999999999,33.921855600000015],[-78.07499999999999,33.92158260000002],[-78.07499999999999,33.92095310000002],[-78.07499999999999,33.92003],[-78.07499999999999,33.9123783],[-78.07499999999999,33.91144539999999],[-78.07499999999999,33.90510180000001],[-78.07499999999999,33.90475980000002],[-78.07499999999999,33.9034853],[-78.07499999999999,33.90199389999998],[-78.07499999999999,33.90156539999998],[-78.07499999999999,33.90055580000001],[-78.07499999999999,33.89999999999998],[-78.07549030000001,33.89999999999998],[-78.07789789999998,33.89999999999998],[-78.09139590000001,33.89999999999998],[-78.1149878,33.89999999999998],[-78.14999999999998,33.89999999999998],[-78.14999999999998,33.90190610000002]]]}},{"type":"Feature","properties":{},"geometry":{"type":"Polygon","coordinates":[[[-78.44999999999999,33.8287828],[-78.44999999999999,33.850782700000025],[-78.44999999999999,33.86678330000001],[-78.44999999999999,33.87874799999997],[-78.44999999999999,33.880225300000006],[-78.44999999999999,33.88157469999999],[-78.44999999999999,33.88227899999998],[-78.44999999999999,33.88299139999998],[-78.44999999999999,33.88712090000001],[-78.44999999999999,33.88868170000001],[-78.44999999999999,33.89172960000002],[-78.44999999999999,33.893002000000024],[-78.44999999999999,33.893649900000014],[-78.44999999999999,33.893779300000006],[-78.44999999999999,33.89390420000001],[-78.44999999999999,33.89455509999999],[-78.44999999999999,33.89483940000002],[-78.44999999999999,33.89999999999998],[-78.43109090000002,33.89999999999998],[-78.42914000000002,33.89999999999998],[-78.42258299999997,33.89999999999998],[-78.42041089999998,33.89999999999998],[-78.41807690000002,33.89999999999998],[-78.41746389999997,33.89999999999998],[-78.41704249999998,33.89999999999998],[-78.41433339999998,33.89999999999998],[-78.41032039999999,33.89999999999998],[-78.4077274,33.89999999999998],[-78.4049829,33.89999999999998],[-78.39839740000002,33.89999999999998],[-78.38750440000001,33.89999999999998],[-78.38629350000002,33.89999999999998],[-78.38625389999999,33.89999999999998],[-78.38515669999998,33.89999999999998],[-78.38501500000001,33.89999999999998],[-78.3763424,33.89999999999998],[-78.37603009999998,33.89999999999998],[-78.3755453,33.89999999999998],[-78.375,33.89999999999998],[-78.375,33.89994300000001],[-78.375,33.899653],[-78.375,33.89785869999997],[-78.375,33.89437650000002],[-78.375,33.894035099999996],[-78.375,33.8938708],[-78.375,33.893075099999976],[-78.375,33.886758199999974],[-78.375,33.87108949999998],[-78.375,33.846788100000026],[-78.375,33.82499999999999],[-78.44999999999999,33.82499999999999],[-78.44999999999999,33.8287828]]]}},{"type":"Feature","properties":{},"geometry":{"type":"Polygon","coordinates":[[[-78.375,33.846788100000026],[-78.375,33.87108949999998],[-78.375,33.886758199999974],[-78.375,33.893075099999976],[-78.375,33.8938708],[-78.375,33.894035099999996],[-78.375,33.89437650000002],[-78.375,33.89785869999997],[-78.375,33.899653],[-78.375,33.89994300000001],[-78.375,33.89999999999998],[-78.37400159999999,33.89999999999998],[-78.3708034,33.89999999999998],[-78.3650384,33.89999999999998],[-78.36261669999999,33.89999999999998],[-78.35788070000001,33.89999999999998],[-78.30000000000001,33.89999999999998],[-78.30000000000001,33.899750400000016],[-78.30000000000001,33.8913963],[-78.30000000000001,33.88571719999999],[-78.30000000000001,33.8592117],[-78.30000000000001,33.853669500000024],[-78.30000000000001,33.82499999999999],[-78.32818229999998,33.82499999999999],[-78.375,33.82499999999999],[-78.375,33.846788100000026]]]}},{"type":"Feature","properties":{},"geometry":{"type":"Polygon","coordinates":[[[-78.375,33.950254400000006],[-78.375,33.948986400000024],[-78.375,33.939419999999984],[-78.375,33.93890190000002],[-78.375,33.93844330000002],[-78.375,33.93053409999999],[-78.375,33.930036599999994],[-78.375,33.914946999999984],[-78.375,33.91464180000003],[-78.375,33.91370549999999],[-78.375,33.913164600000016],[-78.375,33.91303549999998],[-78.375,33.912908200000004],[-78.375,33.912609799999984],[-78.375,33.9109641],[-78.375,33.910312499999975],[-78.375,33.9074804],[-78.375,33.90615009999999],[-78.375,33.900455799999975],[-78.375,33.900143000000014],[-78.375,33.900059],[-78.375,33.89999999999998],[-78.3755453,33.89999999999998],[-78.37603009999998,33.89999999999998],[-78.3763424,33.89999999999998],[-78.38501500000001,33.89999999999998],[-78.38515669999998,33.89999999999998],[-78.38625389999999,33.89999999999998],[-78.38629350000002,33.89999999999998],[-78.38750440000001,33.89999999999998],[-78.39839740000002,33.89999999999998],[-78.4049829,33.89999999999998],[-78.4077274,33.89999999999998],[-78.41032039999999,33.89999999999998],[-78.41433339999998,33.89999999999998],[-78.41704249999998,33.89999999999998],[-78.41746389999997,33.89999999999998],[-78.41807690000002,33.89999999999998],[-78.42041089999998,33.89999999999998],[-78.42258299999997,33.89999999999998],[-78.42914000000002,33.89999999999998],[-78.43109090000002,33.89999999999998],[-78.44999999999999,33.89999999999998],[-78.44999999999999,33.91863590000003],[-78.44999999999999,33.97500000000002],[-78.375,33.97500000000002],[-78.375,33.971734200000014],[-78.375,33.97032840000003],[-78.375,33.950254400000006]]]}},{"type":"Feature","properties":{},"geometry":{"type":"Polygon","coordinates":[[[-78.37400159999999,33.89999999999998],[-78.375,33.89999999999998],[-78.375,33.900059],[-78.375,33.900143000000014],[-78.375,33.900455799999975],[-78.375,33.90615009999999],[-78.375,33.9074804],[-78.375,33.910312499999975],[-78.375,33.9109641],[-78.375,33.912609799999984],[-78.375,33.912908200000004],[-78.375,33.91303549999998],[-78.375,33.913164600000016],[-78.375,33.91370549999999],[-78.375,33.91464180000003],[-78.375,33.914946999999984],[-78.375,33.930036599999994],[-78.375,33.93053409999999],[-78.375,33.93844330000002],[-78.375,33.93890190000002],[-78.375,33.939419999999984],[-78.375,33.948986400000024],[-78.375,33.950254400000006],[-78.375,33.97032840000003],[-78.375,33.971734200000014],[-78.375,33.97500000000002],[-78.36835389999999,33.97500000000002],[-78.36457990000002,33.97500000000002],[-78.3640057,33.97500000000002],[-78.3619109,33.97500000000002],[-78.30000000000001,33.97500000000002],[-78.30000000000001,33.91727259999999],[-78.30000000000001,33.916671399999984],[-78.30000000000001,33.91633150000001],[-78.30000000000001,33.916167299999984],[-78.30000000000001,33.91608359999998],[-78.30000000000001,33.9153627],[-78.30000000000001,33.91146620000001],[-78.30000000000001,33.91050769999998],[-78.30000000000001,33.910093700000004],[-78.30000000000001,33.90890619999999],[-78.30000000000001,33.9082085],[-78.30000000000001,33.9067364],[-78.30000000000001,33.89999999999998],[-78.35788070000001,33.89999999999998],[-78.36261669999999,33.89999999999998],[-78.3650384,33.89999999999998],[-78.3708034,33.89999999999998],[-78.37400159999999,33.89999999999998]]]}},{"type":"Feature","properties":{},"geometry":{"type":"Polygon","coordinates":[[[-77.92500000000001,34.1039232],[-77.92500000000001,34.10285090000002],[-77.92500000000001,34.0998616],[-77.92500000000001,34.09925700000002],[-77.92500000000001,34.09878789999999],[-77.92500000000001,34.09859970000002],[-77.92500000000001,34.097223799999995],[-77.92500000000001,34.093032100000016],[-77.92500000000001,34.09266009999999],[-77.92500000000001,34.09241960000003],[-77.92500000000001,34.09177840000001],[-77.92500000000001,34.09012990000002],[-77.92500000000001,34.089596099999994],[-77.92500000000001,34.088200099999995],[-77.92500000000001,34.08532339999999],[-77.92500000000001,34.08492439999998],[-77.92500000000001,34.082685000000026],[-77.92500000000001,34.08222660000001],[-77.92500000000001,34.08127400000001],[-77.92500000000001,34.079789600000026],[-77.92500000000001,34.07734799999997],[-77.92500000000001,34.076018999999974],[-77.92500000000001,34.07082329999997],[-77.92500000000001,34.06855580000001],[-77.92500000000001,34.06808000000001],[-77.92500000000001,34.067436499999985],[-77.92500000000001,34.06504669999998],[-77.92500000000001,34.06492159999999],[-77.92500000000001,34.05911759999998],[-77.92500000000001,34.05677939999998],[-77.92500000000001,34.05641639999999],[-77.92500000000001,34.05380539999999],[-77.92500000000001,34.05288410000003],[-77.92500000000001,34.05000000000001],[-77.9280086,34.05000000000001],[-77.9323822,34.05000000000001],[-77.93462950000003,34.05000000000001],[-77.93553600000001,34.05000000000001],[-77.9365426,34.05000000000001],[-77.93846489999999,34.05000000000001],[-77.93852520000002,34.05000000000001],[-77.9385739,34.05000000000001],[-77.93861770000001,34.05000000000001],[-77.9386265,34.05000000000001],[-77.93871030000003,34.05000000000001],[-77.93889639999998,34.05000000000001],[-77.93940350000003,34.05000000000001],[-77.93991060000002,34.05000000000001],[-77.93995360000002,34.05000000000001],[-77.94030329999998,34.05000000000001],[-77.94041770000001,34.05000000000001],[-77.94092469999998,34.05000000000001],[-77.9410254,34.05000000000001],[-77.94191799999999,34.05000000000001],[-77.94319439999998,34.05000000000001],[-77.94354609999999,34.05000000000001],[-77.94398130000002,34.05000000000001],[-77.944234,34.05000000000001],[-77.9480714,34.05000000000001],[-78.0,34.05000000000001],[-78.0,34.105000000000004],[-77.92500000000001,34.105000000000004],[-77.92500000000001,34.1039232]]]}},{"type":"Feature","properties":{},"geometry":{"type":"Polygon","coordinates":[[[-77.85000000000002,34.0997825],[-77.85000000000002,34.0806025],[-77.85000000000002,34.05287440000001],[-77.85000000000002,34.05000000000001],[-77.85932100000002,34.05000000000001],[-77.86725719999998,34.05000000000001],[-77.87103000000002,34.05000000000001],[-77.875719,34.05000000000001],[-77.87630630000001,34.05000000000001],[-77.8805615,34.05000000000001],[-77.88228020000003,34.05000000000001],[-77.8837598,34.05000000000001],[-77.88667090000001,34.05000000000001],[-77.88747640000003,34.05000000000001],[-77.88777349999998,34.05000000000001],[-77.89006339999997,34.05000000000001],[-77.89038779999998,34.05000000000001],[-77.89152510000002,34.05000000000001],[-77.91855270000002,34.05000000000001],[-77.91875850000002,34.05000000000001],[-77.91929779999998,34.05000000000001],[-77.91963099999998,34.05000000000001],[-77.919806,34.05000000000001],[-77.92243509999997,34.05000000000001],[-77.92251499999998,34.05000000000001],[-77.92254789999998,34.05000000000001],[-77.92299200000002,34.05000000000001],[-77.92331949999999,34.05000000000001],[-77.92371020000002,34.05000000000001],[-77.9240466,34.05000000000001],[-77.9240699,34.05000000000001],[-77.92500000000001,34.05000000000001],[-77.92500000000001,34.05288410000003],[-77.92500000000001,34.05380539999999],[-77.92500000000001,34.05641639999999],[-77.92500000000001,34.05677939999998],[-77.92500000000001,34.05911759999998],[-77.92500000000001,34.06492159999999],[-77.92500000000001,34.06504669999998],[-77.92500000000001,34.067436499999985],[-77.92500000000001,34.06808000000001],[-77.92500000000001,34.06855580000001],[-77.92500000000001,34.07082329999997],[-77.92500000000001,34.076018999999974],[-77.92500000000001,34.07734799999997],[-77.92500000000001,34.079789600000026],[-77.92500000000001,34.08127400000001],[-77.92500000000001,34.08222660000001],[-77.92500000000001,34.082685000000026],[-77.92500000000001,34.08492439999998],[-77.92500000000001,34.08532339999999],[-77.92500000000001,34.088200099999995],[-77.92500000000001,34.089596099999994],[-77.92500000000001,34.09012990000002],[-77.92500000000001,34.09177840000001],[-77.92500000000001,34.09241960000003],[-77.92500000000001,34.09266009999999],[-77.92500000000001,34.093032100000016],[-77.92500000000001,34.097223799999995],[-77.92500000000001,34.09859970000002],[-77.92500000000001,34.09878789999999],[-77.92500000000001,34.09925700000002],[-77.92500000000001,34.0998616],[-77.92500000000001,34.10285090000002],[-77.92500000000001,34.1039232],[-77.92500000000001,34.105000000000004],[-77.85000000000002,34.105000000000004],[-77.85000000000002,34.0997825]]]}}]}