{"type":"FeatureCollection","features":[{"type":"Feature","properties":{},"geometry":{"type":"Polygon","coordinates":[[[-86.14171759999999,30.44999999999999],[-86.1415925,30.44999999999999],[-86.14094169999998,30.44999999999999],[-86.1405747,30.44999999999999],[-86.13813479999999,30.44999999999999],[-86.10325499999999,30.44999999999999],[-86.1015931,30.44999999999999],[-86.10000000000002,30.44999999999999],[-86.10000000000002,30.447865700000023],[-86.10000000000002,30.4433047],[-86.10000000000002,30.44220439999998],[-86.10000000000002,30.44118500000002],[-86.10000000000002,30.43263680000001],[-86.10000000000002,30.423357699999997],[-86.10000000000002,30.423013200000014],[-86.10000000000002,30.422451000000024],[-86.10000000000002,30.42179900000002],[-86.10000000000002,30.419396300000017],[-86.10000000000002,30.419202600000006],[-86.10000000000002,30.410658300000023],[-86.10000000000002,30.409976700000016],[-86.10000000000002,30.408943000000022],[-86.10000000000002,30.4076283],[-86.10000000000002,30.406022099999973],[-86.10000000000002,30.40515529999999],[-86.10000000000002,30.401644999999974],[-86.10000000000002,30.40057810000002],[-86.10000000000002,30.39674980000001],[-86.10000000000002,30.39593500000001],[-86.10000000000002,30.394694200000004],[-86.10000000000002,30.39355979999999],[-86.10000000000002,30.388996299999974],[-86.10000000000002,30.388428900000008],[-86.10000000000002,30.380556599999977],[-86.10000000000002,30.3800291],[-86.10000000000002,30.37867799999998],[-86.10000000000002,30.37809759999999],[-86.10000000000002,30.376848499999994],[-86.10000000000002,30.375],[-86.10485499999999,30.375],[-86.10552799999999,30.375],[-86.10584890000001,30.375],[-86.1063648,30.375],[-86.11149119999999,30.375],[-86.11255829999999,30.375],[-86.11284169999999,30.375],[-86.11543769999997,30.375],[-86.11612589999999,30.375],[-86.11669999999998,30.375],[-86.12046379999998,30.375],[-86.12260199999997,30.375],[-86.14337410000002,30.375],[-86.1439676,30.375],[-86.14410550000002,30.375],[-86.155,30.375],[-86.155,30.44999999999999],[-86.14171759999999,30.44999999999999]]]}},{"type":"Feature","properties":{},"geometry":{"type":"Polygon","coordinates":[[[-86.10000000000002,30.44999999999999],[-86.1015931,30.44999999999999],[-86.10325499999999,30.44999999999999],[-86.13813479999999,30.44999999999999],[-86.1405747,30.44999999999999],[-86.14094169999998,30.44999999999999],[-86.1415925,30.44999999999999],[-86.14171759999999,30.44999999999999],[-86.155,30.44999999999999],[-86.155,30.505],[-86.10000000000002,30.505],[-86.10000000000002,30.44999999999999]]]}},{"type":"Feature","properties":{},"geometry":{"type":"Polygon","coordinates":[[[-84.99629700000003,29.625],[-85.01749260000003,29.625],[-85.03343669999998,29.625],[-85.03714380000002,29.625],[-85.03980569999999,29.625],[-85.0420858,29.625],[-85.0433122,29.625],[-85.0438742,29.625],[-85.05000000000001,29.625],[-85.05000000000001,29.633120200000008],[-85.05000000000001,29.633407299999988],[-85.05000000000001,29.634878300000025],[-85.05000000000001,29.660944700000016],[-85.05000000000001,29.69645270000001],[-85.05000000000001,29.69999999999999],[-85.04496890000001,29.69999999999999],[-85.03621179999999,29.69999999999999],[-85.03341920000003,29.69999999999999],[-85.01451850000001,29.69999999999999],[-85.0127708,29.69999999999999],[-85.0124558,29.69999999999999],[-85.00833799999998,29.69999999999999],[-84.99629700000003,29.69999999999999],[-84.995,29.69999999999999],[-84.995,29.625],[-84.99629700000003,29.625]]]}},{"type":"Feature","properties":{},"geometry":{"type":"Polygon","coordinates":[[[-85.42038100000002,29.69999999999999],[-85.42500000000001,29.69999999999999],[-85.42500000000001,29.701776300000006],[-85.42500000000001,29.705073200000015],[-85.42500000000001,29.70587710000001],[-85.42500000000001,29.710317900000007],[-85.42500000000001,29.712529599999982],[-85.42500000000001,29.713811299999975],[-85.42500000000001,29.714924699999983],[-85.42500000000001,29.716654100000028],[-85.42500000000001,29.718424400000004],[-85.42500000000001,29.721047699999986],[-85.42500000000001,29.724346000000025],[-85.42500000000001,29.72910089999999],[-85.42500000000001,29.730498300000022],[-85.42500000000001,29.731472999999994],[-85.42500000000001,29.750915700000007],[-85.42500000000001,29.757571100000007],[-85.42500000000001,29.759179700000004],[-85.42500000000001,29.76929260000003],[-85.42500000000001,29.770418600000028],[-85.42500000000001,29.774999999999977],[-85.41134540000002,29.774999999999977],[-85.41055080000001,29.774999999999977],[-85.4090845,29.774999999999977],[-85.40758240000002,29.774999999999977],[-85.40559710000002,29.774999999999977],[-85.40495229999999,29.774999999999977],[-85.40452959999999,29.774999999999977],[-85.40204399999999,29.774999999999977],[-85.40168249999999,29.774999999999977],[-85.40142150000003,29.774999999999977],[-85.39946309999999,29.774999999999977],[-85.39538599999997,29.774999999999977],[-85.3948638,29.774999999999977],[-85.39426259999999,29.774999999999977],[-85.3923676,29.774999999999977],[-85.39113020000002,29.774999999999977],[-85.39084409999998,29.774999999999977],[-85.38816270000001,29.774999999999977],[-85.3873711,29.774999999999977],[-85.37785339999999,29.774999999999977],[-85.3772983,29.774999999999977],[-85.35000000000002,29.774999999999977],[-85.35000000000002,29.742253100000028],[-85.35000000000002,29.73666830000002],[-85.35000000000002,29.723388899999975],[-85.35000000000002,29.7222979],[-85.35000000000002,29.719897000000003],[-85.35000000000002,29.715806799999996],[-85.35000000000002,29.712424399999975],[-85.35000000000002,29.69999999999999],[-85.35704399999997,29.69999999999999],[-85.35744469999997,29.69999999999999],[-85.36406110000001,29.69999999999999],[-85.36530970000001,29.69999999999999],[-85.36595679999999,29.69999999999999],[-85.36646739999998,29.69999999999999],[-85.36937590000002,29.69999999999999],[-85.36955080000001,29.69999999999999],[-85.36989469999997,29.69999999999999],[-85.36993280000002,29.69999999999999],[-85.36993339999998,29.69999999999999],[-85.36995009999998,29.69999999999999],[-85.37013689999998,29.69999999999999],[-85.37063010000003,29.69999999999999],[-85.37181600000002,29.69999999999999],[-85.37226650000002,29.69999999999999],[-85.37276309999999,29.69999999999999],[-85.37450689999997,29.69999999999999],[-85.37497839999997,29.69999999999999],[-85.37499029999998,29.69999999999999],[-85.37524619999999,29.69999999999999],[-85.3759473,29.69999999999999],[-85.37945400000001,29.69999999999999],[-85.38046209999999,29.69999999999999],[-85.38074999999998,29.69999999999999],[-85.38154370000001,29.69999999999999],[-85.38206789999998,29.69999999999999],[-85.38305079999998,29.69999999999999],[-85.38403640000001,29.69999999999999],[-85.38495339999997,29.69999999999999],[-85.38648769999998,29.69999999999999],[-85.39259529999998,29.69999999999999],[-85.39634239999998,29.69999999999999],[-85.39959429999999,29.69999999999999],[-85.41752680000002,29.69999999999999],[-85.41844090000001,29.69999999999999],[-85.41998080000002,29.69999999999999],[-85.42038100000002,29.69999999999999]]]}},{"type":"Feature","properties":{},"geometry":{"type":"Polygon","coordinates":[[[-85.35000000000002,29.712424399999975],[-85.35000000000002,29.715806799999996],[-85.35000000000002,29.719897000000003],[-85.35000000000002,29.7222979],[-85.35000000000002,29.723388899999975],[-85.35000000000002,29.73666830000002],[-85.35000000000002,29.742253100000028],[-85.35000000000002,29.774999999999977],[-85.31635,29.774999999999977],[-85.3124105,29.774999999999977],[-85.31119480000001,29.774999999999977],[-85.3070348,29.774999999999977],[-85.30338330000001,29.774999999999977],[-85.3026102,29.774999999999977],[-85.27499999999998,29.774999999999977],[-85.27499999999998,29.69999999999999],[-85.27859949999998,29.69999999999999],[-85.2799698,29.69999999999999],[-85.3081085,29.69999999999999],[-85.30829189999997,29.69999999999999],[-85.3104328,29.69999999999999],[-85.31045,29.69999999999999],[-85.31057470000002,29.69999999999999],[-85.31453149999999,29.69999999999999],[-85.31460299999998,29.69999999999999],[-85.31524389999998,29.69999999999999],[-85.3154164,29.69999999999999],[-85.31574419999998,29.69999999999999],[-85.31576530000001,29.69999999999999],[-85.3160825,29.69999999999999],[-85.33473830000003,29.69999999999999],[-85.336748,29.69999999999999],[-85.35000000000002,29.69999999999999],[-85.35000000000002,29.712424399999975]]]}},{"type":"Feature","properties":{},"geometry":{"type":"Polygon","coordinates":[[[-85.06,29.69999999999999],[-85.125,29.69999999999999],[-85.125,29.710066499999982],[-85.125,29.714199500000007],[-85.125,29.71481080000001],[-85.125,29.774999999999977],[-85.10947950000002,29.774999999999977],[-85.10929110000001,29.774999999999977],[-85.10881380000001,29.774999999999977],[-85.1080561,29.774999999999977],[-85.10785270000002,29.774999999999977],[-85.10703690000003,29.774999999999977],[-85.10672699999998,29.774999999999977],[-85.10641750000002,29.774999999999977],[-85.10500710000002,29.774999999999977],[-85.10378159999999,29.774999999999977],[-85.0991401,29.774999999999977],[-85.0956415,29.774999999999977],[-85.09514739999997,29.774999999999977],[-85.09288400000003,29.774999999999977],[-85.09045930000002,29.774999999999977],[-85.08788529999998,29.774999999999977],[-85.08392409999999,29.774999999999977],[-85.08043659999998,29.774999999999977],[-85.0766026,29.774999999999977],[-85.07436919999998,29.774999999999977],[-85.07210900000001,29.774999999999977],[-85.07148239999998,29.774999999999977],[-85.07091600000001,29.774999999999977],[-85.07071610000003,29.774999999999977],[-85.07051619999999,29.774999999999977],[-85.06999130000003,29.774999999999977],[-85.0691625,29.774999999999977],[-85.06732490000002,29.774999999999977],[-85.06519279999998,29.774999999999977],[-85.0600809,29.774999999999977],[-85.0564359,29.774999999999977],[-85.05557779999998,29.774999999999977],[-85.05000000000001,29.774999999999977],[-85.05000000000001,29.769046600000024],[-85.05000000000001,29.7211724],[-85.05000000000001,29.716887199999974],[-85.05000000000001,29.715628200000026],[-85.05000000000001,29.715239399999973],[-85.05000000000001,29.713450599999987],[-85.05000000000001,29.708170699999982],[-85.05000000000001,29.708079699999985],[-85.05000000000001,29.69999999999999],[-85.05079599999999,29.69999999999999],[-85.06,29.69999999999999]]]}},{"type":"Feature","properties":{},"geometry":{"type":"Polygon","coordinates":[[[-84.99629700000003,29.69999999999999],[-85.00833799999998,29.69999999999999],[-85.0124558,29.69999999999999],[-85.0127708,29.69999999999999],[-85.01451850000001,29.69999999999999],[-85.03341920000003,29.69999999999999],[-85.03621179999999,29.69999999999999],[-85.04496890000001,29.69999999999999],[-85.05000000000001,29.69999999999999],[-85.05000000000001,29.708079699999985],[-85.05000000000001,29.708170699999982],[-85.05000000000001,29.713450599999987],[-85.05000000000001,29.715239399999973],[-85.05000000000001,29.715628200000026],[-85.05000000000001,29.716887199999974],[-85.05000000000001,29.7211724],[-85.05000000000001,29.769046600000024],[-85.05000000000001,29.774999999999977],[-85.04843970000002,29.774999999999977],[-85.04810859999998,29.774999999999977],[-85.04788430000002,29.774999999999977],[-85.04758600000002,29.774999999999977],[-85.047326,29.774999999999977],[-85.04706599999997,29.774999999999977],[-85.04651319999999,29.774999999999977],[-85.0459889,29.774999999999977],[-85.04574150000002,29.774999999999977],[-85.04519599999998,29.774999999999977],[-85.04508909999998,29.774999999999977],[-85.04449290000002,29.774999999999977],[-85.04393929999998,29.774999999999977],[-85.03393110000002,29.774999999999977],[-85.0294111,29.774999999999977],[-85.02527029999999,29.774999999999977],[-85.0218193,29.774999999999977],[-85.0207332,29.774999999999977],[-85.02037259999997,29.774999999999977],[-85.00747310000003,29.774999999999977],[-85.00691269999999,29.774999999999977],[-84.9984121,29.774999999999977],[-84.99723499999999,29.774999999999977],[-84.995,29.774999999999977],[-84.995,29.69999999999999],[-84.99629700000003,29.69999999999999]]]}},{"type":"Feature","properties":{},"geometry":{"type":"Polygon","coordinates":[[[-85.41134540000002,29.774999999999977],[-85.42500000000001,29.774999999999977],[-85.42500000000001,29.83077689999999],[-85.42500000000001,29.847903799999983],[-85.42500000000001,29.850000000000023],[-85.42488450000002,29.850000000000023],[-85.42079159999997,29.850000000000023],[-85.41903989999997,29.850000000000023],[-85.41776499999997,29.850000000000023],[-85.416109,29.850000000000023],[-85.41473539999998,29.850000000000023],[-85.4003123,29.850000000000023],[-85.39925399999998,29.850000000000023],[-85.39656880000001,29.850000000000023],[-85.39601809999999,29.850000000000023],[-85.39574169999997,29.850000000000023],[-85.39526990000002,29.850000000000023],[-85.39220799999998,29.850000000000023],[-85.3901032,29.850000000000023],[-85.387697,29.850000000000023],[-85.38236970000003,29.850000000000023],[-85.38213300000001,29.850000000000023],[-85.3816597,29.850000000000023],[-85.3814228,29.850000000000023],[-85.3739443,29.850000000000023],[-85.37349189999998,29.850000000000023],[-85.36478310000001,29.850000000000023],[-85.35000000000002,29.850000000000023],[-85.35000000000002,29.842290400000024],[-85.35000000000002,29.841507400000012],[-85.35000000000002,29.8360821],[-85.35000000000002,29.83337069999999],[-85.35000000000002,29.833268499999974],[-85.35000000000002,29.833170699999982],[-85.35000000000002,29.833153700000025],[-85.35000000000002,29.8329291],[-85.35000000000002,29.832480799999985],[-85.35000000000002,29.8322584],[-85.35000000000002,29.832130000000006],[-85.35000000000002,29.828201999999976],[-85.35000000000002,29.824678600000027],[-85.35000000000002,29.822318600000017],[-85.35000000000002,29.810657900000024],[-85.35000000000002,29.80864539999999],[-85.35000000000002,29.80605270000001],[-85.35000000000002,29.78940849999998],[-85.35000000000002,29.774999999999977],[-85.3772983,29.774999999999977],[-85.37785339999999,29.774999999999977],[-85.3873711,29.774999999999977],[-85.38816270000001,29.774999999999977],[-85.39084409999998,29.774999999999977],[-85.39113020000002,29.774999999999977],[-85.3923676,29.774999999999977],[-85.39426259999999,29.774999999999977],[-85.3948638,29.774999999999977],[-85.39538599999997,29.774999999999977],[-85.39946309999999,29.774999999999977],[-85.40142150000003,29.774999999999977],[-85.40168249999999,29.774999999999977],[-85.40204399999999,29.774999999999977],[-85.40452959999999,29.774999999999977],[-85.40495229999999,29.774999999999977],[-85.40559710000002,29.774999999999977],[-85.40758240000002,29.774999999999977],[-85.4090845,29.774999999999977],[-85.41055080000001,29.774999999999977],[-85.41134540000002,29.774999999999977]]]}},{"type":"Feature","properties":{},"geometry":{"type":"Polygon","coordinates":[[[-85.31635,29.774999999999977],[-85.35000000000002,29.774999999999977],[-85.35000000000002,29.78940849999998],[-85.35000000000002,29.80605270000001],[-85.35000000000002,29.80864539999999],[-85.35000000000002,29.810657900000024],[-85.35000000000002,29.822318600000017],[-85.35000000000002,29.824678600000027],[-85.35000000000002,29.828201999999976],[-85.35000000000002,29.832130000000006],[-85.35000000000002,29.8322584],[-85.35000000000002,29.832480799999985],[-85.35000000000002,29.8329291],[-85.35000000000002,29.833153700000025],[-85.35000000000002,29.833170699999982],[-85.35000000000002,29.833268499999974],[-85.35000000000002,29.83337069999999],[-85.35000000000002,29.8360821],[-85.35000000000002,29.841507400000012],[-85.35000000000002,29.842290400000024],[-85.35000000000002,29.850000000000023],[-85.33956280000001,29.850000000000023],[-85.3391231,29.850000000000023],[-85.33753239999999,29.850000000000023],[-85.336435,29.850000000000023],[-85.33630970000002,29.850000000000023],[-85.33277320000002,29.850000000000023],[-85.3324111,29.850000000000023],[-85.33204410000002,29.850000000000023],[-85.3233462,29.850000000000023],[-85.32070979999997,29.850000000000023],[-85.2914179,29.850000000000023],[-85.29126070000001,29.850000000000023],[-85.29113719999998,29.850000000000023],[-85.29082260000001,29.850000000000023],[-85.29069900000002,29.850000000000023],[-85.29033020000003,29.850000000000023],[-85.27499999999998,29.850000000000023],[-85.27499999999998,29.840380100000004],[-85.27499999999998,29.840135799999985],[-85.27499999999998,29.774999999999977],[-85.3026102,29.774999999999977],[-85.30338330000001,29.774999999999977],[-85.3070348,29.774999999999977],[-85.31119480000001,29.774999999999977],[-85.3124105,29.774999999999977],[-85.31635,29.774999999999977]]]}},{"type":"Feature","properties":{},"geometry":{"type":"Polygon","coordinates":[[[-85.17702480000003,29.774999999999977],[-85.19999999999999,29.774999999999977],[-85.19999999999999,29.83786459999999],[-85.19999999999999,29.83833279999999],[-85.19999999999999,29.83878329999999],[-85.19999999999999,29.850000000000023],[-85.125,29.850000000000023],[-85.125,29.811133199999972],[-85.125,29.797551999999996],[-85.125,29.787859200000014],[-85.125,29.78762310000002],[-85.125,29.787422300000003],[-85.125,29.777861499999972],[-85.125,29.774999999999977],[-85.1306629,29.774999999999977],[-85.14372509999998,29.774999999999977],[-85.16732189999999,29.774999999999977],[-85.17182279999997,29.774999999999977],[-85.17640779999999,29.774999999999977],[-85.17702480000003,29.774999999999977]]]}},{"type":"Feature","properties":{},"geometry":{"type":"Polygon","coordinates":[[[-85.10947950000002,29.774999999999977],[-85.125,29.774999999999977],[-85.125,29.777861499999972],[-85.125,29.787422300000003],[-85.125,29.78762310000002],[-85.125,29.787859200000014],[-85.125,29.797551999999996],[-85.125,29.811133199999972],[-85.125,29.850000000000023],[-85.05000000000001,29.850000000000023],[-85.05000000000001,29.81868700000001],[-85.05000000000001,29.8183487],[-85.05000000000001,29.813828399999977],[-85.05000000000001,29.81365840000001],[-85.05000000000001,29.80505720000002],[-85.05000000000001,29.792222600000002],[-85.05000000000001,29.791411400000015],[-85.05000000000001,29.790171999999984],[-85.05000000000001,29.789526500000022],[-85.05000000000001,29.779969499999993],[-85.05000000000001,29.77970160000001],[-85.05000000000001,29.7796103],[-85.05000000000001,29.779309899999987],[-85.05000000000001,29.77797049999998],[-85.05000000000001,29.777707299999975],[-85.05000000000001,29.777444000000003],[-85.05000000000001,29.776780599999995],[-85.05000000000001,29.776147900000012],[-85.05000000000001,29.774999999999977],[-85.05557779999998,29.774999999999977],[-85.0564359,29.774999999999977],[-85.0600809,29.774999999999977],[-85.06519279999998,29.774999999999977],[-85.06732490000002,29.774999999999977],[-85.0691625,29.774999999999977],[-85.06999130000003,29.774999999999977],[-85.07051619999999,29.774999999999977],[-85.07071610000003,29.774999999999977],[-85.07091600000001,29.774999999999977],[-85.07148239999998,29.774999999999977],[-85.07210900000001,29.774999999999977],[-85.07436919999998,29.774999999999977],[-85.0766026,29.774999999999977],[-85.08043659999998,29.774999999999977],[-85.08392409999999,29.774999999999977],[-85.08788529999998,29.774999999999977],[-85.09045930000002,29.774999999999977],[-85.09288400000003,29.774999999999977],[-85.09514739999997,29.774999999999977],[-85.0956415,29.774999999999977],[-85.0991401,29.774999999999977],[-85.10378159999999,29.774999999999977],[-85.10500710000002,29.774999999999977],[-85.10641750000002,29.774999999999977],[-85.10672699999998,29.774999999999977],[-85.10703690000003,29.774999999999977],[-85.10785270000002,29.774999999999977],[-85.1080561,29.774999999999977],[-85.10881380000001,29.774999999999977],[-85.10929110000001,29.774999999999977],[-85.10947950000002,29.774999999999977]]]}},{"type":"Feature","properties":{},"geometry":{"type":"Polygon","coordinates":[[[-84.99723499999999,29.774999999999977],[-84.9984121,29.774999999999977],[-85.00691269999999,29.774999999999977],[-85.00747310000003,29.774999999999977],[-85.02037259999997,29.774999999999977],[-85.0207332,29.774999999999977],[-85.0218193,29.774999999999977],[-85.02527029999999,29.774999999999977],[-85.0294111,29.774999999999977],[-85.03393110000002,29.774999999999977],[-85.04393929999998,29.774999999999977],[-85.04449290000002,29.774999999999977],[-85.04508909999998,29.774999999999977],[-85.04519599999998,29.774999999999977],[-85.04574150000002,29.774999999999977],[-85.0459889,29.774999999999977],[-85.04651319999999,29.774999999999977],[-85.04706599999997,29.774999999999977],[-85.047326,29.774999999999977],[-85.04758600000002,29.774999999999977],[-85.04788430000002,29.774999999999977],[-85.04810859999998,29.774999999999977],[-85.04843970000002,29.774999999999977],[-85.05000000000001,29.774999999999977],[-85.05000000000001,29.776147900000012],[-85.05000000000001,29.776780599999995],[-85.05000000000001,29.777444000000003],[-85.05000000000001,29.777707299999975],[-85.05000000000001,29.77797049999998],[-85.05000000000001,29.779309899999987],[-85.05000000000001,29.7796103],[-85.05000000000001,29.77970160000001],[-85.05000000000001,29.779969499999993],[-85.05000000000001,29.789526500000022],[-85.05000000000001,29.790171999999984],[-85.05000000000001,29.791411400000015],[-85.05000000000001,29.792222600000002],[-85.05000000000001,29.80505720000002],[-85.05000000000001,29.81365840000001],[-85.05000000000001,29.813828399999977],[-85.05000000000001,29.8183487],[-85.05000000000001,29.81868700000001],[-85.05000000000001,29.850000000000023],[-84.995,29.850000000000023],[-84.995,29.774999999999977],[-84.99723499999999,29.774999999999977]]]}},{"type":"Feature","properties":{},"geometry":{"type":"Polygon","coordinates":[[[-85.49695220000001,29.850000000000023],[-85.5,29.850000000000023],[-85.5,29.883258000000012],[-85.5,29.90705889999998],[-85.5,29.91101759999998],[-85.5,29.911032200000022],[-85.5,29.91140039999999],[-85.5,29.92500000000001],[-85.48971180000001,29.92500000000001],[-85.4625231,29.92500000000001],[-85.4531642,29.92500000000001],[-85.42500000000001,29.92500000000001],[-85.42500000000001,29.91307280000001],[-85.42500000000001,29.90697510000001],[-85.42500000000001,29.903673400000002],[-85.42500000000001,29.897697600000015],[-85.42500000000001,29.896069899999986],[-85.42500000000001,29.896002099999976],[-85.42500000000001,29.895783800000004],[-85.42500000000001,29.89577589999999],[-85.42500000000001,29.89556970000001],[-85.42500000000001,29.89504260000001],[-85.42500000000001,29.89488130000001],[-85.42500000000001,29.894675000000007],[-85.42500000000001,29.89403900000002],[-85.42500000000001,29.89352580000002],[-85.42500000000001,29.886586599999987],[-85.42500000000001,29.886426200000017],[-85.42500000000001,29.871017600000016],[-85.42500000000001,29.87006919999999],[-85.42500000000001,29.868438400000002],[-85.42500000000001,29.850000000000023],[-85.46075339999999,29.850000000000023],[-85.47290079999999,29.850000000000023],[-85.47324179999998,29.850000000000023],[-85.47331969999999,29.850000000000023],[-85.48437810000001,29.850000000000023],[-85.48843620000002,29.850000000000023],[-85.49525369999998,29.850000000000023],[-85.49570940000001,29.850000000000023],[-85.49576000000002,29.850000000000023],[-85.49695220000001,29.850000000000023]]]}},{"type":"Feature","properties":{},"geometry":{"type":"Polygon","coordinates":[[[-85.42488450000002,29.850000000000023],[-85.42500000000001,29.850000000000023],[-85.42500000000001,29.868438400000002],[-85.42500000000001,29.87006919999999],[-85.42500000000001,29.871017600000016],[-85.42500000000001,29.886426200000017],[-85.42500000000001,29.886586599999987],[-85.42500000000001,29.89352580000002],[-85.42500000000001,29.89403900000002],[-85.42500000000001,29.894675000000007],[-85.42500000000001,29.89488130000001],[-85.42500000000001,29.89504260000001],[-85.42500000000001,29.89556970000001],[-85.42500000000001,29.89577589999999],[-85.42500000000001,29.895783800000004],[-85.42500000000001,29.896002099999976],[-85.42500000000001,29.896069899999986],[-85.42500000000001,29.897697600000015],[-85.42500000000001,29.903673400000002],[-85.42500000000001,29.90697510000001],[-85.42500000000001,29.91307280000001],[-85.42500000000001,29.92500000000001],[-85.39571799999999,29.92500000000001],[-85.3913905,29.92500000000001],[-85.3905388,29.92500000000001],[-85.38945760000001,29.92500000000001],[-85.3822204,29.92500000000001],[-85.35000000000002,29.92500000000001],[-85.35000000000002,29.875516300000015],[-85.35000000000002,29.873381400000028],[-85.35000000000002,29.8723569],[-85.35000000000002,29.850000000000023],[-85.36478310000001,29.850000000000023],[-85.37349189999998,29.850000000000023],[-85.3739443,29.850000000000023],[-85.3814228,29.850000000000023],[-85.3816597,29.850000000000023],[-85.38213300000001,29.850000000000023],[-85.38236970000003,29.850000000000023],[-85.387697,29.850000000000023],[-85.3901032,29.850000000000023],[-85.39220799999998,29.850000000000023],[-85.39526990000002,29.850000000000023],[-85.39574169999997,29.850000000000023],[-85.39601809999999,29.850000000000023],[-85.39656880000001,29.850000000000023],[-85.39925399999998,29.850000000000023],[-85.4003123,29.850000000000023],[-85.41473539999998,29.850000000000023],[-85.416109,29.850000000000023],[-85.41776499999997,29.850000000000023],[-85.41903989999997,29.850000000000023],[-85.42079159999997,29.850000000000023],[-85.42488450000002,29.850000000000023]]]}},{"type":"Feature","properties":{},"geometry":{"type":"Polygon","coordinates":[[[-85.63096589999998,30.0],[-85.64999999999998,30.0],[-85.64999999999998,30.016869499999984],[-85.64999999999998,30.020811200000026],[-85.64999999999998,30.021045300000026],[-85.64999999999998,30.02143460000002],[-85.64999999999998,30.045308200000022],[-85.64999999999998,30.05871860000002],[-85.64999999999998,30.069829400000003],[-85.64999999999998,30.074410999999998],[-85.64999999999998,30.074938099999997],[-85.64999999999998,30.07499999999999],[-85.6493322,30.07499999999999],[-85.6473714,30.07499999999999],[-85.64575539999998,30.07499999999999],[-85.63748850000002,30.07499999999999],[-85.62005970000001,30.07499999999999],[-85.61937929999999,30.07499999999999],[-85.61756480000003,30.07499999999999],[-85.58326390000002,30.07499999999999],[-85.57499999999999,30.07499999999999],[-85.57499999999999,30.045897000000025],[-85.57499999999999,30.0443985],[-85.57499999999999,30.03926899999999],[-85.57499999999999,30.036571700000025],[-85.57499999999999,30.036434900000017],[-85.57499999999999,30.0359282],[-85.57499999999999,30.033575600000006],[-85.57499999999999,30.03343799999999],[-85.57499999999999,30.03264680000001],[-85.57499999999999,30.03158400000001],[-85.57499999999999,30.031454800000006],[-85.57499999999999,30.019312800000023],[-85.57499999999999,30.019139399999972],[-85.57499999999999,30.017502999999977],[-85.57499999999999,30.014549999999986],[-85.57499999999999,30.014538399999992],[-85.57499999999999,30.0],[-85.57867320000003,30.0],[-85.57903240000002,30.0],[-85.60154390000002,30.0],[-85.60258620000002,30.0],[-85.62079269999998,30.0],[-85.6213014,30.0],[-85.62132489999999,30.0],[-85.6217613,30.0],[-85.63096589999998,30.0]]]}},{"type":"Feature","properties":{},"geometry":{"type":"Polygon","coordinates":[[[-85.56082429999998,30.0],[-85.57499999999999,30.0],[-85.57499999999999,30.014538399999992],[-85.57499999999999,30.014549999999986],[-85.57499999999999,30.017502999999977],[-85.57499999999999,30.019139399999972],[-85.57499999999999,30.019312800000023],[-85.57499999999999,30.031454800000006],[-85.57499999999999,30.03158400000001],[-85.57499999999999,30.03264680000001],[-85.57499999999999,30.03343799999999],[-85.57499999999999,30.033575600000006],[-85.57499999999999,30.0359282],[-85.57499999999999,30.036434900000017],[-85.57499999999999,30.036571700000025],[-85.57499999999999,30.03926899999999],[-85.57499999999999,30.0443985],[-85.57499999999999,30.045897000000025],[-85.57499999999999,30.07499999999999],[-85.562837,30.07499999999999],[-85.56255720000001,30.07499999999999],[-85.54409349999997,30.07499999999999],[-85.53606300000001,30.07499999999999],[-85.53377549999999,30.07499999999999],[-85.5332692,30.07499999999999],[-85.53187100000002,30.07499999999999],[-85.53140350000001,30.07499999999999],[-85.5303386,30.07499999999999],[-85.5301523,30.07499999999999],[-85.52967769999998,30.07499999999999],[-85.529068,30.07499999999999],[-85.52871429999999,30.07499999999999],[-85.52645919999998,30.07499999999999],[-85.5248125,30.07499999999999],[-85.52245049999999,30.07499999999999],[-85.5133745,30.07499999999999],[-85.5128742,30.07499999999999],[-85.5123628,30.07499999999999],[-85.50893580000002,30.07499999999999],[-85.50804199999999,30.07499999999999],[-85.505875,30.07499999999999],[-85.5019939,30.07499999999999],[-85.5,30.07499999999999],[-85.5,30.07285760000002],[-85.5,30.06317200000001],[-85.5,30.058522100000005],[-85.5,30.05696740000002],[-85.5,30.05653769999998],[-85.5,30.055671700000005],[-85.5,30.055587000000003],[-85.5,30.052892999999983],[-85.5,30.052123900000026],[-85.5,30.050588199999993],[-85.5,30.041136100000017],[-85.5,30.03739139999999],[-85.5,30.035813599999983],[-85.5,30.0356802],[-85.5,30.034286399999985],[-85.5,30.034214599999984],[-85.5,30.034066300000006],[-85.5,30.032943999999986],[-85.5,30.032389299999977],[-85.5,30.032380699999976],[-85.5,30.031358399999988],[-85.5,30.031231699999978],[-85.5,30.030002799999977],[-85.5,30.029900999999995],[-85.5,30.029788600000018],[-85.5,30.023050099999978],[-85.5,30.0],[-85.51128899999998,30.0],[-85.51128949999998,30.0],[-85.5113058,30.0],[-85.5113093,30.0],[-85.51234310000001,30.0],[-85.51234449999998,30.0],[-85.51234599999998,30.0],[-85.5123504,30.0],[-85.51515110000003,30.0],[-85.51518479999999,30.0],[-85.51539009999999,30.0],[-85.5164428,30.0],[-85.51696270000002,30.0],[-85.51729669999997,30.0],[-85.51730229999998,30.0],[-85.52248479999997,30.0],[-85.52258810000001,30.0],[-85.52265240000003,30.0],[-85.52555460000002,30.0],[-85.52824329999999,30.0],[-85.5288506,30.0],[-85.52891890000001,30.0],[-85.52924589999998,30.0],[-85.5293231,30.0],[-85.5302567,30.0],[-85.5302734,30.0],[-85.53063470000001,30.0],[-85.5313372,30.0],[-85.53133730000002,30.0],[-85.5314022,30.0],[-85.53158630000001,30.0],[-85.53559910000001,30.0],[-85.53723430000002,30.0],[-85.53745609999999,30.0],[-85.54265570000001,30.0],[-85.54292179999999,30.0],[-85.5434871,30.0],[-85.5491002,30.0],[-85.5495477,30.0],[-85.54969899999998,30.0],[-85.55003499999998,30.0],[-85.55069129999998,30.0],[-85.5524701,30.0],[-85.5524886,30.0],[-85.55475480000001,30.0],[-85.5547755,30.0],[-85.55486919999998,30.0],[-85.55503979999997,30.0],[-85.55505670000002,30.0],[-85.56036010000003,30.0],[-85.56079749999998,30.0],[-85.56082429999998,30.0]]]}},{"type":"Feature","properties":{},"geometry":{"type":"Polygon","coordinates":[[[-85.4744488,30.0],[-85.5,30.0],[-85.5,30.029788600000018],[-85.5,30.029900999999995],[-85.5,30.031231699999978],[-85.5,30.031358399999988],[-85.5,30.032380699999976],[-85.5,30.032389299999977],[-85.5,30.034066300000006],[-85.5,30.034286399999985],[-85.5,30.0356802],[-85.5,30.03739139999999],[-85.5,30.041136100000017],[-85.5,30.052123900000026],[-85.5,30.052892999999983],[-85.5,30.055587000000003],[-85.5,30.055671700000005],[-85.5,30.05640390000002],[-85.5,30.05653769999998],[-85.5,30.05696740000002],[-85.5,30.058522100000005],[-85.5,30.06317200000001],[-85.5,30.07285760000002],[-85.5,30.07499999999999],[-85.4950088,30.07499999999999],[-85.49111169999998,30.07499999999999],[-85.48789260000001,30.07499999999999],[-85.48708119999998,30.07499999999999],[-85.43473499999999,30.07499999999999],[-85.43453820000002,30.07499999999999],[-85.43346860000003,30.07499999999999],[-85.43279619999998,30.07499999999999],[-85.43074089999999,30.07499999999999],[-85.42988759999997,30.07499999999999],[-85.42500000000001,30.07499999999999],[-85.42500000000001,30.054040600000008],[-85.42500000000001,30.049198699999977],[-85.42500000000001,30.048966500000006],[-85.42500000000001,30.048801700000013],[-85.42500000000001,30.048642900000004],[-85.42500000000001,30.048562199999992],[-85.42500000000001,30.04610869999999],[-85.42500000000001,30.042080899999974],[-85.42500000000001,30.041477299999997],[-85.42500000000001,30.033358399999997],[-85.42500000000001,30.03194860000002],[-85.42500000000001,30.031823299999985],[-85.42500000000001,30.025035100000025],[-85.42500000000001,30.022975499999973],[-85.42500000000001,30.02264059999999],[-85.42500000000001,30.0],[-85.47335880000003,30.0],[-85.4744488,30.0]]]}},{"type":"Feature","properties":{},"geometry":{"type":"Polygon","coordinates":[[[-85.37340619999998,30.0],[-85.42500000000001,30.0],[-85.42500000000001,30.02264059999999],[-85.42500000000001,30.022975499999973],[-85.42500000000001,30.025035100000025],[-85.42500000000001,30.031823299999985],[-85.42500000000001,30.03194860000002],[-85.42500000000001,30.033358399999997],[-85.42500000000001,30.041477299999997],[-85.42500000000001,30.042080899999974],[-85.42500000000001,30.04610869999999],[-85.42500000000001,30.048562199999992],[-85.42500000000001,30.048642900000004],[-85.42500000000001,30.048801700000013],[-85.42500000000001,30.048966500000006],[-85.42500000000001,30.049198699999977],[-85.42500000000001,30.054040600000008],[-85.42500000000001,30.07499999999999],[-85.35000000000002,30.07499999999999],[-85.35000000000002,30.00556549999999],[-85.35000000000002,30.004438900000025],[-85.35000000000002,30.004004899999984],[-85.35000000000002,30.003283899999985],[-85.35000000000002,30.003103899999985],[-85.35000000000002,30.0],[-85.3702968,30.0],[-85.37045540000003,30.0],[-85.37061649999998,30.0],[-85.3708105,30.0],[-85.3709551,30.0],[-85.37112810000002,30.0],[-85.37119840000003,30.0],[-85.37135749999999,30.0],[-85.37251759999998,30.0],[-85.37335209999998,30.0],[-85.37340619999998,30.0]]]}},{"type":"Feature","properties":{},"geometry":{"type":"Polygon","coordinates":[[[-85.562837,30.07499999999999],[-85.57499999999999,30.07499999999999],[-85.57499999999999,30.092465500000003],[-85.57499999999999,30.09367930000002],[-85.57499999999999,30.094718100000023],[-85.57499999999999,30.094793700000025],[-85.57499999999999,30.094964100000027],[-85.57499999999999,30.09502420000001],[-85.57499999999999,30.096409199999982],[-85.57499999999999,30.097776399999987],[-85.57499999999999,30.098424599999987],[-85.57499999999999,30.0998017],[-85.57499999999999,30.106765300000006],[-85.57499999999999,30.108148900000003],[-85.57499999999999,30.109118500000022],[-85.57499999999999,30.113021000000003],[-85.57499999999999,30.114031099999977],[-85.57499999999999,30.115813600000024],[-85.57499999999999,30.11650179999998],[-85.57499999999999,30.116965600000015],[-85.57499999999999,30.149999999999977],[-85.5582033,30.149999999999977],[-85.55639930000001,30.149999999999977],[-85.5,30.149999999999977],[-85.5,30.136583799999983],[-85.5,30.136282900000026],[-85.5,30.13306449999999],[-85.5,30.13255909999998],[-85.5,30.094582000000003],[-85.5,30.094010200000014],[-85.5,30.093709400000023],[-85.5,30.092340499999978],[-85.5,30.091464799999983],[-85.5,30.090244499999983],[-85.5,30.089613799999995],[-85.5,30.08865370000001],[-85.5,30.08716149999998],[-85.5,30.079378099999985],[-85.5,30.07499999999999],[-85.5019939,30.07499999999999],[-85.505875,30.07499999999999],[-85.50804199999999,30.07499999999999],[-85.50893580000002,30.07499999999999],[-85.5123628,30.07499999999999],[-85.5128742,30.07499999999999],[-85.5133745,30.07499999999999],[-85.52245049999999,30.07499999999999],[-85.5248125,30.07499999999999],[-85.52645919999998,30.07499999999999],[-85.52871429999999,30.07499999999999],[-85.529068,30.07499999999999],[-85.52967769999998,30.07499999999999],[-85.5301523,30.07499999999999],[-85.5303386,30.07499999999999],[-85.53140350000001,30.07499999999999],[-85.53187100000002,30.07499999999999],[-85.5332692,30.07499999999999],[-85.53377549999999,30.07499999999999],[-85.53606300000001,30.07499999999999],[-85.54409349999997,30.07499999999999],[-85.56255720000001,30.07499999999999],[-85.562837,30.07499999999999]]]}},{"type":"Feature","properties":{},"geometry":{"type":"Polygon","coordinates":[[[-85.7953857,30.0],[-85.80000000000001,30.0],[-85.80000000000001,30.016869499999984],[-85.80000000000001,30.029313399999978],[-85.80000000000001,30.07499999999999],[-85.79247900000001,30.07499999999999],[-85.76151379999999,30.07499999999999],[-85.76096819999998,30.07499999999999],[-85.76028459999998,30.07499999999999],[-85.76015319999999,30.07499999999999],[-85.75568779999998,30.07499999999999],[-85.7541228,30.07499999999999],[-85.73751520000002,30.07499999999999],[-85.73272129999998,30.07499999999999],[-85.72500000000002,30.07499999999999],[-85.72500000000002,30.05376000000001],[-85.72500000000002,30.053342699999973],[-85.72500000000002,30.053105700000003],[-85.72500000000002,30.016942299999982],[-85.72500000000002,30.016869499999984],[-85.72500000000002,30.014598499999977],[-85.72500000000002,30.0],[-85.75416419999999,30.0],[-85.7926981,30.0],[-85.7953857,30.0]]]}},{"type":"Feature","properties":{},"geometry":{"type":"Polygon","coordinates":[[[-85.71918959999999,30.0],[-85.72500000000002,30.0],[-85.72500000000002,30.014598499999977],[-85.72500000000002,30.016869499999984],[-85.72500000000002,30.016942299999982],[-85.72500000000002,30.053105700000003],[-85.72500000000002,30.053342699999973],[-85.72500000000002,30.05376000000001],[-85.72500000000002,30.07499999999999],[-85.72157299999998,30.07499999999999],[-85.71995570000001,30.07499999999999],[-85.71655129999999,30.07499999999999],[-85.71635270000002,30.07499999999999],[-85.68850279999998,30.07499999999999],[-85.67607570000001,30.07499999999999],[-85.67467670000002,30.07499999999999],[-85.66112550000003,30.07499999999999],[-85.65129250000001,30.07499999999999],[-85.65013240000002,30.07499999999999],[-85.64999999999998,30.07499999999999],[-85.64999999999998,30.074938099999997],[-85.64999999999998,30.074410999999998],[-85.64999999999998,30.069829400000003],[-85.64999999999998,30.05871860000002],[-85.64999999999998,30.045308200000022],[-85.64999999999998,30.02143460000002],[-85.64999999999998,30.021045300000026],[-85.64999999999998,30.020811200000026],[-85.64999999999998,30.016869499999984],[-85.64999999999998,30.0],[-85.66173789999999,30.0],[-85.71918959999999,30.0]]]}},{"type":"Feature","properties":{},"geometry":{"type":"Polygon","coordinates":[[[-85.79247900000001,30.07499999999999],[-85.80000000000001,30.07499999999999],[-85.80000000000001,30.08207249999998],[-85.80000000000001,30.08780680000001],[-85.80000000000001,30.088217900000018],[-85.80000000000001,30.096032200000025],[-85.80000000000001,30.108220399999993],[-85.80000000000001,30.10852840000001],[-85.80000000000001,30.109009800000024],[-85.80000000000001,30.121274900000003],[-85.80000000000001,30.12605910000002],[-85.80000000000001,30.135263099999975],[-85.80000000000001,30.13769400000001],[-85.80000000000001,30.141845499999988],[-85.80000000000001,30.141872200000023],[-85.80000000000001,30.149999999999977],[-85.7751108,30.149999999999977],[-85.77308799999997,30.149999999999977],[-85.77155190000002,30.149999999999977],[-85.77118819999998,30.149999999999977],[-85.7704407,30.149999999999977],[-85.76863550000002,30.149999999999977],[-85.76728639999999,30.149999999999977],[-85.75605130000002,30.149999999999977],[-85.75593409999999,30.149999999999977],[-85.75533109999998,30.149999999999977],[-85.7490707,30.149999999999977],[-85.74840499999999,30.149999999999977],[-85.73754989999998,30.149999999999977],[-85.73742390000001,30.149999999999977],[-85.73622110000002,30.149999999999977],[-85.73566949999997,30.149999999999977],[-85.73504179999998,30.149999999999977],[-85.72500000000002,30.149999999999977],[-85.72500000000002,30.13876399999998],[-85.72500000000002,30.13736080000001],[-85.72500000000002,30.137265000000014],[-85.72500000000002,30.137248399999976],[-85.72500000000002,30.13700319999998],[-85.72500000000002,30.136218100000008],[-85.72500000000002,30.13605000000001],[-85.72500000000002,30.13572049999999],[-85.72500000000002,30.1332759],[-85.72500000000002,30.132992600000023],[-85.72500000000002,30.132621200000017],[-85.72500000000002,30.132563600000026],[-85.72500000000002,30.132390999999984],[-85.72500000000002,30.132333500000016],[-85.72500000000002,30.132144700000026],[-85.72500000000002,30.131977300000017],[-85.72500000000002,30.131335200000024],[-85.72500000000002,30.13003600000002],[-85.72500000000002,30.129775100000018],[-85.72500000000002,30.129749199999992],[-85.72500000000002,30.12953399999998],[-85.72500000000002,30.127950499999997],[-85.72500000000002,30.12762520000001],[-85.72500000000002,30.12762459999999],[-85.72500000000002,30.12751639999999],[-85.72500000000002,30.127472899999987],[-85.72500000000002,30.12736289999998],[-85.72500000000002,30.127320999999995],[-85.72500000000002,30.125062500000013],[-85.72500000000002,30.124801100000013],[-85.72500000000002,30.124553600000013],[-85.72500000000002,30.124541000000022],[-85.72500000000002,30.12428110000002],[-85.72500000000002,30.124018700000022],[-85.72500000000002,30.123559100000023],[-85.72500000000002,30.123322499999972],[-85.72500000000002,30.12266249999999],[-85.72500000000002,30.122599200000025],[-85.72500000000002,30.12231170000001],[-85.72500000000002,30.11862309999998],[-85.72500000000002,30.114960600000018],[-85.72500000000002,30.114736400000027],[-85.72500000000002,30.113198899999986],[-85.72500000000002,30.113128200000006],[-85.72500000000002,30.11293599999999],[-85.72500000000002,30.112112799999977],[-85.72500000000002,30.10515029999999],[-85.72500000000002,30.077717800000016],[-85.72500000000002,30.07499999999999],[-85.73272129999998,30.07499999999999],[-85.73751520000002,30.07499999999999],[-85.7541228,30.07499999999999],[-85.75568779999998,30.07499999999999],[-85.76015319999999,30.07499999999999],[-85.76028459999998,30.07499999999999],[-85.76096819999998,30.07499999999999],[-85.76151379999999,30.07499999999999],[-85.79247900000001,30.07499999999999]]]}},{"type":"Feature","properties":{},"geometry":{"type":"Polygon","coordinates":[[[-85.72157299999998,30.07499999999999],[-85.72500000000002,30.07499999999999],[-85.72500000000002,30.077717800000016],[-85.72500000000002,30.10515029999999],[-85.72500000000002,30.112112799999977],[-85.72500000000002,30.11293599999999],[-85.72500000000002,30.113128200000006],[-85.72500000000002,30.113198899999986],[-85.72500000000002,30.114736400000027],[-85.72500000000002,30.114960600000018],[-85.72500000000002,30.11862309999998],[-85.72500000000002,30.12231170000001],[-85.72500000000002,30.122599200000025],[-85.72500000000002,30.12266249999999],[-85.72500000000002,30.123322499999972],[-85.72500000000002,30.123559100000023],[-85.72500000000002,30.124018700000022],[-85.72500000000002,30.12428110000002],[-85.72500000000002,30.124541000000022],[-85.72500000000002,30.124553600000013],[-85.72500000000002,30.124801100000013],[-85.72500000000002,30.125062500000013],[-85.72500000000002,30.127320999999995],[-85.72500000000002,30.12736289999998],[-85.72500000000002,30.127472899999987],[-85.72500000000002,30.12751639999999],[-85.72500000000002,30.12762459999999],[-85.72500000000002,30.12762520000001],[-85.72500000000002,30.127950499999997],[-85.72500000000002,30.12953399999998],[-85.72500000000002,30.129749199999992],[-85.72500000000002,30.129775100000018],[-85.72500000000002,30.13003600000002],[-85.72500000000002,30.131335200000024],[-85.72500000000002,30.131977300000017],[-85.72500000000002,30.132144700000026],[-85.72500000000002,30.132333500000016],[-85.72500000000002,30.132390999999984],[-85.72500000000002,30.132563600000026],[-85.72500000000002,30.132621200000017],[-85.72500000000002,30.132992600000023],[-85.72500000000002,30.1332759],[-85.72500000000002,30.13572049999999],[-85.72500000000002,30.13605000000001],[-85.72500000000002,30.136218100000008],[-85.72500000000002,30.13700319999998],[-85.72500000000002,30.137248399999976],[-85.72500000000002,30.137265000000014],[-85.72500000000002,30.13736080000001],[-85.72500000000002,30.13876399999998],[-85.72500000000002,30.149999999999977],[-85.71454119999999,30.149999999999977],[-85.712289,30.149999999999977],[-85.711678,30.149999999999977],[-85.71117620000001,30.149999999999977],[-85.70868619999999,30.149999999999977],[-85.70801569999998,30.149999999999977],[-85.70379700000001,30.149999999999977],[-85.69886910000002,30.149999999999977],[-85.69128089999998,30.149999999999977],[-85.6907943,30.149999999999977],[-85.6899924,30.149999999999977],[-85.68759510000001,30.149999999999977],[-85.68688479999997,30.149999999999977],[-85.68673790000003,30.149999999999977],[-85.68457540000003,30.149999999999977],[-85.68395509999999,30.149999999999977],[-85.68332720000001,30.149999999999977],[-85.68271390000001,30.149999999999977],[-85.68000339999998,30.149999999999977],[-85.67996169999998,30.149999999999977],[-85.67525490000003,30.149999999999977],[-85.6709545,30.149999999999977],[-85.66986700000001,30.149999999999977],[-85.66674310000002,30.149999999999977],[-85.66595749999999,30.149999999999977],[-85.66540040000001,30.149999999999977],[-85.66516330000002,30.149999999999977],[-85.66504859999998,30.149999999999977],[-85.66458210000002,30.149999999999977],[-85.66447649999998,30.149999999999977],[-85.6643722,30.149999999999977],[-85.66435860000001,30.149999999999977],[-85.66428509999997,30.149999999999977],[-85.6624792,30.149999999999977],[-85.66224829999999,30.149999999999977],[-85.66130229999999,30.149999999999977],[-85.66013880000003,30.149999999999977],[-85.66011320000001,30.149999999999977],[-85.64999999999998,30.149999999999977],[-85.64999999999998,30.1429124],[-85.64999999999998,30.14217359999998],[-85.64999999999998,30.14188139999999],[-85.64999999999998,30.139931999999988],[-85.64999999999998,30.1374601],[-85.64999999999998,30.135337300000003],[-85.64999999999998,30.134845499999983],[-85.64999999999998,30.133511800000008],[-85.64999999999998,30.131605700000023],[-85.64999999999998,30.131383599999992],[-85.64999999999998,30.131161599999984],[-85.64999999999998,30.13093950000001],[-85.64999999999998,30.130717500000003],[-85.64999999999998,30.128736500000002],[-85.64999999999998,30.12720730000001],[-85.64999999999998,30.126611200000013],[-85.64999999999998,30.12608899999998],[-85.64999999999998,30.126068599999996],[-85.64999999999998,30.124472700000013],[-85.64999999999998,30.121931800000027],[-85.64999999999998,30.1154899],[-85.64999999999998,30.115080799999987],[-85.64999999999998,30.094953799999985],[-85.64999999999998,30.09483979999999],[-85.64999999999998,30.093340399999988],[-85.64999999999998,30.092993999999976],[-85.64999999999998,30.092748900000004],[-85.64999999999998,30.091758500000026],[-85.64999999999998,30.091587300000015],[-85.64999999999998,30.090003500000023],[-85.64999999999998,30.087906799999985],[-85.64999999999998,30.08746789999998],[-85.64999999999998,30.087327000000016],[-85.64999999999998,30.085912699999994],[-85.64999999999998,30.083440300000007],[-85.64999999999998,30.082424899999978],[-85.64999999999998,30.080909099999985],[-85.64999999999998,30.0805881],[-85.64999999999998,30.080422499999997],[-85.64999999999998,30.080411200000015],[-85.64999999999998,30.079911400000015],[-85.64999999999998,30.07970690000002],[-85.64999999999998,30.07693089999998],[-85.64999999999998,30.076092500000016],[-85.64999999999998,30.075251400000013],[-85.64999999999998,30.07499999999999],[-85.65013240000002,30.07499999999999],[-85.65129250000001,30.07499999999999],[-85.66112550000003,30.07499999999999],[-85.67467670000002,30.07499999999999],[-85.67607570000001,30.07499999999999],[-85.68850279999998,30.07499999999999],[-85.71635270000002,30.07499999999999],[-85.71655129999999,30.07499999999999],[-85.71995570000001,30.07499999999999],[-85.72157299999998,30.07499999999999]]]}},{"type":"Feature","properties":{},"geometry":{"type":"Polygon","coordinates":[[[-85.6493322,30.07499999999999],[-85.64999999999998,30.07499999999999],[-85.64999999999998,30.075251400000013],[-85.64999999999998,30.076092500000016],[-85.64999999999998,30.07693089999998],[-85.64999999999998,30.07970690000002],[-85.64999999999998,30.079911400000015],[-85.64999999999998,30.080411200000015],[-85.64999999999998,30.080422499999997],[-85.64999999999998,30.0805881],[-85.64999999999998,30.080909099999985],[-85.64999999999998,30.082424899999978],[-85.64999999999998,30.083440300000007],[-85.64999999999998,30.085912699999994],[-85.64999999999998,30.087327000000016],[-85.64999999999998,30.08746789999998],[-85.64999999999998,30.087906799999985],[-85.64999999999998,30.090003500000023],[-85.64999999999998,30.091587300000015],[-85.64999999999998,30.091758500000026],[-85.64999999999998,30.092748900000004],[-85.64999999999998,30.092993999999976],[-85.64999999999998,30.093340399999988],[-85.64999999999998,30.09483979999999],[-85.64999999999998,30.094953799999985],[-85.64999999999998,30.115080799999987],[-85.64999999999998,30.1154899],[-85.64999999999998,30.121931800000027],[-85.64999999999998,30.124472700000013],[-85.64999999999998,30.126068599999996],[-85.64999999999998,30.12608899999998],[-85.64999999999998,30.126611200000013],[-85.64999999999998,30.12720730000001],[-85.64999999999998,30.128736500000002],[-85.64999999999998,30.130717500000003],[-85.64999999999998,30.13093950000001],[-85.64999999999998,30.131161599999984],[-85.64999999999998,30.131383599999992],[-85.64999999999998,30.131605700000023],[-85.64999999999998,30.133511800000008],[-85.64999999999998,30.134845499999983],[-85.64999999999998,30.135337300000003],[-85.64999999999998,30.1374601],[-85.64999999999998,30.139931999999988],[-85.64999999999998,30.14188139999999],[-85.64999999999998,30.14217359999998],[-85.64999999999998,30.1429124],[-85.64999999999998,30.149999999999977],[-85.6405512,30.149999999999977],[-85.63966690000001,30.149999999999977],[-85.63870209999999,30.149999999999977],[-85.6380916,30.149999999999977],[-85.63714240000002,30.149999999999977],[-85.63543800000002,30.149999999999977],[-85.62863959999999,30.149999999999977],[-85.62856249999999,30.149999999999977],[-85.60632279999999,30.149999999999977],[-85.60439059999999,30.149999999999977],[-85.58326390000002,30.149999999999977],[-85.57499999999999,30.149999999999977],[-85.57499999999999,30.116965600000015],[-85.57499999999999,30.11650179999998],[-85.57499999999999,30.115813600000024],[-85.57499999999999,30.114031099999977],[-85.57499999999999,30.113021000000003],[-85.57499999999999,30.109118500000022],[-85.57499999999999,30.108148900000003],[-85.57499999999999,30.106765300000006],[-85.57499999999999,30.0998017],[-85.57499999999999,30.098424599999987],[-85.57499999999999,30.097776399999987],[-85.57499999999999,30.096409199999982],[-85.57499999999999,30.09502420000001],[-85.57499999999999,30.094964100000027],[-85.57499999999999,30.094793700000025],[-85.57499999999999,30.094718100000023],[-85.57499999999999,30.09367930000002],[-85.57499999999999,30.092465500000003],[-85.57499999999999,30.07499999999999],[-85.58326390000002,30.07499999999999],[-85.61756480000003,30.07499999999999],[-85.61937929999999,30.07499999999999],[-85.62005970000001,30.07499999999999],[-85.63748850000002,30.07499999999999],[-85.64575539999998,30.07499999999999],[-85.6473714,30.07499999999999],[-85.6493322,30.07499999999999]]]}},{"type":"Feature","properties":{},"geometry":{"type":"Polygon","coordinates":[[[-85.7751108,30.149999999999977],[-85.80000000000001,30.149999999999977],[-85.80000000000001,30.166153500000007],[-85.80000000000001,30.167716900000016],[-85.80000000000001,30.169221800000003],[-85.80000000000001,30.169477599999993],[-85.80000000000001,30.170050000000003],[-85.80000000000001,30.171030900000005],[-85.80000000000001,30.171268899999973],[-85.80000000000001,30.200202699999977],[-85.80000000000001,30.225000000000023],[-85.77521080000002,30.225000000000023],[-85.7738875,30.225000000000023],[-85.77248650000001,30.225000000000023],[-85.77013799999997,30.225000000000023],[-85.7700959,30.225000000000023],[-85.76963660000001,30.225000000000023],[-85.76931919999998,30.225000000000023],[-85.7687924,30.225000000000023],[-85.76858279999999,30.225000000000023],[-85.76846929999999,30.225000000000023],[-85.76846219999999,30.225000000000023],[-85.76799119999998,30.225000000000023],[-85.76798459999998,30.225000000000023],[-85.76755250000002,30.225000000000023],[-85.76744300000001,30.225000000000023],[-85.7671972,30.225000000000023],[-85.76718410000001,30.225000000000023],[-85.76154989999998,30.225000000000023],[-85.7595584,30.225000000000023],[-85.7558492,30.225000000000023],[-85.74916030000003,30.225000000000023],[-85.73722220000002,30.225000000000023],[-85.7361376,30.225000000000023],[-85.7350022,30.225000000000023],[-85.73495220000001,30.225000000000023],[-85.73212109999997,30.225000000000023],[-85.7271854,30.225000000000023],[-85.72500000000002,30.225000000000023],[-85.72500000000002,30.22241600000001],[-85.72500000000002,30.20753339999999],[-85.72500000000002,30.205688599999974],[-85.72500000000002,30.20444309999999],[-85.72500000000002,30.200202699999977],[-85.72500000000002,30.199834399999986],[-85.72500000000002,30.198673499999984],[-85.72500000000002,30.197825000000023],[-85.72500000000002,30.196940900000016],[-85.72500000000002,30.196841099999972],[-85.72500000000002,30.189925000000017],[-85.72500000000002,30.189691200000027],[-85.72500000000002,30.186035800000013],[-85.72500000000002,30.1857895],[-85.72500000000002,30.185602899999992],[-85.72500000000002,30.18547030000002],[-85.72500000000002,30.184220200000027],[-85.72500000000002,30.184189100000026],[-85.72500000000002,30.183814900000016],[-85.72500000000002,30.183695699999987],[-85.72500000000002,30.18355009999999],[-85.72500000000002,30.1834432],[-85.72500000000002,30.18336929999998],[-85.72500000000002,30.18333150000001],[-85.72500000000002,30.18111479999999],[-85.72500000000002,30.17986350000001],[-85.72500000000002,30.17784610000001],[-85.72500000000002,30.1772115],[-85.72500000000002,30.17705460000002],[-85.72500000000002,30.17623040000001],[-85.72500000000002,30.175609800000018],[-85.72500000000002,30.1755488],[-85.72500000000002,30.175305999999978],[-85.72500000000002,30.174952700000006],[-85.72500000000002,30.174335699999972],[-85.72500000000002,30.173253199999976],[-85.72500000000002,30.17302410000002],[-85.72500000000002,30.17278090000002],[-85.72500000000002,30.17253770000002],[-85.72500000000002,30.172308600000008],[-85.72500000000002,30.168621799999983],[-85.72500000000002,30.16805290000002],[-85.72500000000002,30.166672100000028],[-85.72500000000002,30.166661999999974],[-85.72500000000002,30.16476449999999],[-85.72500000000002,30.16427299999998],[-85.72500000000002,30.164118599999995],[-85.72500000000002,30.163968899999986],[-85.72500000000002,30.163952800000004],[-85.72500000000002,30.162106999999992],[-85.72500000000002,30.161963500000013],[-85.72500000000002,30.1616535],[-85.72500000000002,30.158536099999992],[-85.72500000000002,30.149999999999977],[-85.73504179999998,30.149999999999977],[-85.73566949999997,30.149999999999977],[-85.73622110000002,30.149999999999977],[-85.73742390000001,30.149999999999977],[-85.73754989999998,30.149999999999977],[-85.74840499999999,30.149999999999977],[-85.7490707,30.149999999999977],[-85.75533109999998,30.149999999999977],[-85.75593409999999,30.149999999999977],[-85.75605130000002,30.149999999999977],[-85.76728639999999,30.149999999999977],[-85.76863550000002,30.149999999999977],[-85.7704407,30.149999999999977],[-85.77118819999998,30.149999999999977],[-85.77155190000002,30.149999999999977],[-85.77308799999997,30.149999999999977],[-85.7751108,30.149999999999977]]]}},{"type":"Feature","properties":{},"geometry":{"type":"Polygon","coordinates":[[[-85.71454119999999,30.149999999999977],[-85.72500000000002,30.149999999999977],[-85.72500000000002,30.158536099999992],[-85.72500000000002,30.1616535],[-85.72500000000002,30.161963500000013],[-85.72500000000002,30.162106999999992],[-85.72500000000002,30.163952800000004],[-85.72500000000002,30.163968899999986],[-85.72500000000002,30.164118599999995],[-85.72500000000002,30.16427299999998],[-85.72500000000002,30.16476449999999],[-85.72500000000002,30.166661999999974],[-85.72500000000002,30.166672100000028],[-85.72500000000002,30.16805290000002],[-85.72500000000002,30.168621799999983],[-85.72500000000002,30.172308600000008],[-85.72500000000002,30.17253770000002],[-85.72500000000002,30.17278090000002],[-85.72500000000002,30.17302410000002],[-85.72500000000002,30.173253199999976],[-85.72500000000002,30.174335699999972],[-85.72500000000002,30.174952700000006],[-85.72500000000002,30.175305999999978],[-85.72500000000002,30.1755488],[-85.72500000000002,30.175609800000018],[-85.72500000000002,30.17623040000001],[-85.72500000000002,30.17705460000002],[-85.72500000000002,30.1772115],[-85.72500000000002,30.17784610000001],[-85.72500000000002,30.17986350000001],[-85.72500000000002,30.18111479999999],[-85.72500000000002,30.18333150000001],[-85.72500000000002,30.18336929999998],[-85.72500000000002,30.1834432],[-85.72500000000002,30.18355009999999],[-85.72500000000002,30.183695699999987],[-85.72500000000002,30.183814900000016],[-85.72500000000002,30.184189100000026],[-85.72500000000002,30.184220200000027],[-85.72500000000002,30.18547030000002],[-85.72500000000002,30.185602899999992],[-85.72500000000002,30.1857895],[-85.72500000000002,30.186035800000013],[-85.72500000000002,30.189691200000027],[-85.72500000000002,30.189925000000017],[-85.72500000000002,30.196841099999972],[-85.72500000000002,30.196940900000016],[-85.72500000000002,30.197825000000023],[-85.72500000000002,30.198673499999984],[-85.72500000000002,30.199834399999986],[-85.72500000000002,30.200202699999977],[-85.72500000000002,30.20444309999999],[-85.72500000000002,30.205688599999974],[-85.72500000000002,30.20753339999999],[-85.72500000000002,30.22241600000001],[-85.72500000000002,30.225000000000023],[-85.71743529999998,30.225000000000023],[-85.70886969999998,30.225000000000023],[-85.70310890000002,30.225000000000023],[-85.70080530000001,30.225000000000023],[-85.70049419999998,30.225000000000023],[-85.69909080000002,30.225000000000023],[-85.69786440000001,30.225000000000023],[-85.69591029999998,30.225000000000023],[-85.69264700000002,30.225000000000023],[-85.6920278,30.225000000000023],[-85.68997940000003,30.225000000000023],[-85.68952410000003,30.225000000000023],[-85.68712740000001,30.225000000000023],[-85.6870245,30.225000000000023],[-85.68683950000002,30.225000000000023],[-85.68552970000002,30.225000000000023],[-85.68513739999997,30.225000000000023],[-85.68481200000002,30.225000000000023],[-85.68069939999998,30.225000000000023],[-85.68045189999998,30.225000000000023],[-85.64999999999998,30.225000000000023],[-85.64999999999998,30.200202699999977],[-85.64999999999998,30.171331199999997],[-85.64999999999998,30.15983080000001],[-85.64999999999998,30.15935189999999],[-85.64999999999998,30.149999999999977],[-85.66011320000001,30.149999999999977],[-85.66013880000003,30.149999999999977],[-85.66130229999999,30.149999999999977],[-85.66224829999999,30.149999999999977],[-85.6624792,30.149999999999977],[-85.66428509999997,30.149999999999977],[-85.66435860000001,30.149999999999977],[-85.6643722,30.149999999999977],[-85.66447649999998,30.149999999999977],[-85.66458210000002,30.149999999999977],[-85.66504859999998,30.149999999999977],[-85.66516330000002,30.149999999999977],[-85.66540040000001,30.149999999999977],[-85.66595749999999,30.149999999999977],[-85.66674310000002,30.149999999999977],[-85.66986700000001,30.149999999999977],[-85.6709545,30.149999999999977],[-85.67525490000003,30.149999999999977],[-85.67996169999998,30.149999999999977],[-85.68000339999998,30.149999999999977],[-85.68271390000001,30.149999999999977],[-85.68332720000001,30.149999999999977],[-85.68395509999999,30.149999999999977],[-85.68457540000003,30.149999999999977],[-85.68673790000003,30.149999999999977],[-85.68688479999997,30.149999999999977],[-85.68759510000001,30.149999999999977],[-85.6899924,30.149999999999977],[-85.6907943,30.149999999999977],[-85.69128089999998,30.149999999999977],[-85.69886910000002,30.149999999999977],[-85.70379700000001,30.149999999999977],[-85.70801569999998,30.149999999999977],[-85.70868619999999,30.149999999999977],[-85.71117620000001,30.149999999999977],[-85.711678,30.149999999999977],[-85.712289,30.149999999999977],[-85.71454119999999,30.149999999999977]]]}},{"type":"Feature","properties":{},"geometry":{"type":"Polygon","coordinates":[[[-85.6405512,30.149999999999977],[-85.64999999999998,30.149999999999977],[-85.64999999999998,30.15935189999999],[-85.64999999999998,30.15983080000001],[-85.64999999999998,30.171331199999997],[-85.64999999999998,30.200202699999977],[-85.64999999999998,30.225000000000023],[-85.57499999999999,30.225000000000023],[-85.57499999999999,30.149999999999977],[-85.58326390000002,30.149999999999977],[-85.60439059999999,30.149999999999977],[-85.60632279999999,30.149999999999977],[-85.62856249999999,30.149999999999977],[-85.62863959999999,30.149999999999977],[-85.63543800000002,30.149999999999977],[-85.63607109999998,30.149999999999977],[-85.63714240000002,30.149999999999977],[-85.6380916,30.149999999999977],[-85.63870209999999,30.149999999999977],[-85.63966690000001,30.149999999999977],[-85.6405512,30.149999999999977]]]}},{"type":"Feature","properties":{},"geometry":{"type":"Polygon","coordinates":[[[-85.84516810000002,30.225000000000023],[-85.875,30.225000000000023],[-85.875,30.30000000000001],[-85.86827390000002,30.30000000000001],[-85.86667440000002,30.30000000000001],[-85.86499989999999,30.30000000000001],[-85.86428660000001,30.30000000000001],[-85.86409950000001,30.30000000000001],[-85.8629813,30.30000000000001],[-85.86274709999998,30.30000000000001],[-85.86261739999998,30.30000000000001],[-85.86248510000001,30.30000000000001],[-85.8624532,30.30000000000001],[-85.8623528,30.30000000000001],[-85.86221790000002,30.30000000000001],[-85.86205510000002,30.30000000000001],[-85.86171100000001,30.30000000000001],[-85.86169910000001,30.30000000000001],[-85.86153560000002,30.30000000000001],[-85.86097389999998,30.30000000000001],[-85.85996080000001,30.30000000000001],[-85.85850190000002,30.30000000000001],[-85.8579014,30.30000000000001],[-85.81228979999997,30.30000000000001],[-85.81200410000002,30.30000000000001],[-85.8119183,30.30000000000001],[-85.8111998,30.30000000000001],[-85.81029649999999,30.30000000000001],[-85.80948590000003,30.30000000000001],[-85.80942540000001,30.30000000000001],[-85.80758889999998,30.30000000000001],[-85.80739039999997,30.30000000000001],[-85.80714519999998,30.30000000000001],[-85.80658640000001,30.30000000000001],[-85.80000000000001,30.30000000000001],[-85.80000000000001,30.29670470000002],[-85.80000000000001,30.29609160000001],[-85.80000000000001,30.295825200000024],[-85.80000000000001,30.295460600000013],[-85.80000000000001,30.29521699999998],[-85.80000000000001,30.290228599999978],[-85.80000000000001,30.289839500000028],[-85.80000000000001,30.289649899999972],[-85.80000000000001,30.28610279999998],[-85.80000000000001,30.280006500000013],[-85.80000000000001,30.264025100000026],[-85.80000000000001,30.263931300000024],[-85.80000000000001,30.263920999999982],[-85.80000000000001,30.263904799999978],[-85.80000000000001,30.263845000000003],[-85.80000000000001,30.263758699999983],[-85.80000000000001,30.26369440000002],[-85.80000000000001,30.263672499999984],[-85.80000000000001,30.26358620000002],[-85.80000000000001,30.263426600000003],[-85.80000000000001,30.257467799999972],[-85.80000000000001,30.256179999999972],[-85.80000000000001,30.25521789999999],[-85.80000000000001,30.254442700000027],[-85.80000000000001,30.252924899999982],[-85.80000000000001,30.252464999999972],[-85.80000000000001,30.252315699999997],[-85.80000000000001,30.25226429999998],[-85.80000000000001,30.25221620000002],[-85.80000000000001,30.25205699999998],[-85.80000000000001,30.251988299999994],[-85.80000000000001,30.251754699999992],[-85.80000000000001,30.25149540000001],[-85.80000000000001,30.25084320000002],[-85.80000000000001,30.250376700000004],[-85.80000000000001,30.244807400000013],[-85.80000000000001,30.225000000000023],[-85.81725039999998,30.225000000000023],[-85.81808369999999,30.225000000000023],[-85.8200162,30.225000000000023],[-85.8203198,30.225000000000023],[-85.8236152,30.225000000000023],[-85.82404430000003,30.225000000000023],[-85.83809880000001,30.225000000000023],[-85.83872489999999,30.225000000000023],[-85.84516810000002,30.225000000000023]]]}},{"type":"Feature","properties":{},"geometry":{"type":"Polygon","coordinates":[[[-85.77770770000001,30.225000000000023],[-85.78138710000002,30.225000000000023],[-85.80000000000001,30.225000000000023],[-85.80000000000001,30.244807400000013],[-85.80000000000001,30.250376700000004],[-85.80000000000001,30.25084320000002],[-85.80000000000001,30.25149540000001],[-85.80000000000001,30.251754699999992],[-85.80000000000001,30.251988299999994],[-85.80000000000001,30.25205699999998],[-85.80000000000001,30.25221620000002],[-85.80000000000001,30.25226429999998],[-85.80000000000001,30.252315699999997],[-85.80000000000001,30.252464999999972],[-85.80000000000001,30.252924899999982],[-85.80000000000001,30.254442700000027],[-85.80000000000001,30.25521789999999],[-85.80000000000001,30.256179999999972],[-85.80000000000001,30.257467799999972],[-85.80000000000001,30.263426600000003],[-85.80000000000001,30.26358620000002],[-85.80000000000001,30.263672499999984],[-85.80000000000001,30.26369440000002],[-85.80000000000001,30.263758699999983],[-85.80000000000001,30.263845000000003],[-85.80000000000001,30.263931300000024],[-85.80000000000001,30.264025100000026],[-85.80000000000001,30.280006500000013],[-85.80000000000001,30.28610279999998],[-85.80000000000001,30.289649899999972],[-85.80000000000001,30.289839500000028],[-85.80000000000001,30.290228599999978],[-85.80000000000001,30.29521699999998],[-85.80000000000001,30.295460600000013],[-85.80000000000001,30.295825200000024],[-85.80000000000001,30.29609160000001],[-85.80000000000001,30.29670470000002],[-85.80000000000001,30.30000000000001],[-85.7949676,30.30000000000001],[-85.7949226,30.30000000000001],[-85.794824,30.30000000000001],[-85.79455899999999,30.30000000000001],[-85.79450910000003,30.30000000000001],[-85.79404720000002,30.30000000000001],[-85.7939093,30.30000000000001],[-85.7936469,30.30000000000001],[-85.76342060000002,30.30000000000001],[-85.7622412,30.30000000000001],[-85.76045779999998,30.30000000000001],[-85.75913279999997,30.30000000000001],[-85.75678870000002,30.30000000000001],[-85.75623189999999,30.30000000000001],[-85.75550629999998,30.30000000000001],[-85.75538790000002,30.30000000000001],[-85.747591,30.30000000000001],[-85.72500000000002,30.30000000000001],[-85.72500000000002,30.275261100000023],[-85.72500000000002,30.275013],[-85.72500000000002,30.274502199999972],[-85.72500000000002,30.273684800000012],[-85.72500000000002,30.273284100000012],[-85.72500000000002,30.265571000000023],[-85.72500000000002,30.264865999999984],[-85.72500000000002,30.263399900000024],[-85.72500000000002,30.261106600000005],[-85.72500000000002,30.260299999999972],[-85.72500000000002,30.259826900000007],[-85.72500000000002,30.259789899999987],[-85.72500000000002,30.259484600000008],[-85.72500000000002,30.259408899999983],[-85.72500000000002,30.244460800000013],[-85.72500000000002,30.243467599999974],[-85.72500000000002,30.233333300000027],[-85.72500000000002,30.231173899999987],[-85.72500000000002,30.231112399999972],[-85.72500000000002,30.228743800000018],[-85.72500000000002,30.227036800000008],[-85.72500000000002,30.225000000000023],[-85.7271854,30.225000000000023],[-85.73212109999997,30.225000000000023],[-85.73350670000002,30.225000000000023],[-85.73495220000001,30.225000000000023],[-85.7350022,30.225000000000023],[-85.7361376,30.225000000000023],[-85.73722220000002,30.225000000000023],[-85.74916030000003,30.225000000000023],[-85.7558492,30.225000000000023],[-85.7595584,30.225000000000023],[-85.76154989999998,30.225000000000023],[-85.7671972,30.225000000000023],[-85.76744300000001,30.225000000000023],[-85.76798459999998,30.225000000000023],[-85.76846219999999,30.225000000000023],[-85.76858279999999,30.225000000000023],[-85.76931919999998,30.225000000000023],[-85.77013799999997,30.225000000000023],[-85.77248650000001,30.225000000000023],[-85.7739052,30.225000000000023],[-85.77524670000003,30.225000000000023],[-85.77770770000001,30.225000000000023]]]}},{"type":"Feature","properties":{},"geometry":{"type":"Polygon","coordinates":[[[-85.71743529999998,30.225000000000023],[-85.72500000000002,30.225000000000023],[-85.72500000000002,30.227036800000008],[-85.72500000000002,30.228743800000018],[-85.72500000000002,30.231112399999972],[-85.72500000000002,30.231173899999987],[-85.72500000000002,30.233333300000027],[-85.72500000000002,30.243467599999974],[-85.72500000000002,30.244460800000013],[-85.72500000000002,30.259408899999983],[-85.72500000000002,30.259484600000008],[-85.72500000000002,30.259789899999987],[-85.72500000000002,30.259826900000007],[-85.72500000000002,30.260299999999972],[-85.72500000000002,30.261106600000005],[-85.72500000000002,30.263399900000024],[-85.72500000000002,30.264865999999984],[-85.72500000000002,30.265571000000023],[-85.72500000000002,30.273284100000012],[-85.72500000000002,30.273684800000012],[-85.72500000000002,30.274502199999972],[-85.72500000000002,30.275013],[-85.72500000000002,30.275261100000023],[-85.72500000000002,30.30000000000001],[-85.71337390000002,30.30000000000001],[-85.64999999999998,30.30000000000001],[-85.64999999999998,30.28993459999998],[-85.64999999999998,30.28978219999999],[-85.64999999999998,30.289529399999992],[-85.64999999999998,30.289182299999993],[-85.64999999999998,30.289077399999996],[-85.64999999999998,30.28894680000002],[-85.64999999999998,30.283209399999976],[-85.64999999999998,30.282786199999975],[-85.64999999999998,30.27656669999999],[-85.64999999999998,30.274843499999974],[-85.64999999999998,30.272559],[-85.64999999999998,30.27235109999998],[-85.64999999999998,30.27162659999999],[-85.64999999999998,30.271118],[-85.64999999999998,30.269892000000027],[-85.64999999999998,30.265869099999975],[-85.64999999999998,30.26312280000002],[-85.64999999999998,30.25710140000001],[-85.64999999999998,30.25661070000001],[-85.64999999999998,30.25508259999998],[-85.64999999999998,30.236768499999982],[-85.64999999999998,30.225000000000023],[-85.68045189999998,30.225000000000023],[-85.68069939999998,30.225000000000023],[-85.68481200000002,30.225000000000023],[-85.68513739999997,30.225000000000023],[-85.68552970000002,30.225000000000023],[-85.68683950000002,30.225000000000023],[-85.6870245,30.225000000000023],[-85.68712740000001,30.225000000000023],[-85.68952410000003,30.225000000000023],[-85.68997940000003,30.225000000000023],[-85.6920278,30.225000000000023],[-85.69264700000002,30.225000000000023],[-85.69591029999998,30.225000000000023],[-85.69786440000001,30.225000000000023],[-85.69909080000002,30.225000000000023],[-85.70049419999998,30.225000000000023],[-85.70080530000001,30.225000000000023],[-85.70310890000002,30.225000000000023],[-85.70886969999998,30.225000000000023],[-85.71743529999998,30.225000000000023]]]}},{"type":"Feature","properties":{},"geometry":{"type":"Polygon","coordinates":[[[-85.64999999999998,30.236768499999982],[-85.64999999999998,30.25508259999998],[-85.64999999999998,30.25661070000001],[-85.64999999999998,30.25710140000001],[-85.64999999999998,30.26312280000002],[-85.64999999999998,30.265869099999975],[-85.64999999999998,30.269892000000027],[-85.64999999999998,30.271118],[-85.64999999999998,30.27162659999999],[-85.64999999999998,30.27235109999998],[-85.64999999999998,30.272559],[-85.64999999999998,30.274843499999974],[-85.64999999999998,30.27656669999999],[-85.64999999999998,30.282786199999975],[-85.64999999999998,30.283209399999976],[-85.64999999999998,30.28894680000002],[-85.64999999999998,30.289077399999996],[-85.64999999999998,30.289182299999993],[-85.64999999999998,30.289529399999992],[-85.64999999999998,30.28978219999999],[-85.64999999999998,30.28993459999998],[-85.64999999999998,30.30000000000001],[-85.5950522,30.30000000000001],[-85.59500329999997,30.30000000000001],[-85.59495290000001,30.30000000000001],[-85.59464650000001,30.30000000000001],[-85.57970440000003,30.30000000000001],[-85.57957340000002,30.30000000000001],[-85.57949719999999,30.30000000000001],[-85.57918749999999,30.30000000000001],[-85.57916060000002,30.30000000000001],[-85.5789739,30.30000000000001],[-85.5789557,30.30000000000001],[-85.5783255,30.30000000000001],[-85.5780416,30.30000000000001],[-85.5771785,30.30000000000001],[-85.57697710000002,30.30000000000001],[-85.57683400000002,30.30000000000001],[-85.57499999999999,30.30000000000001],[-85.57499999999999,30.225000000000023],[-85.64999999999998,30.225000000000023],[-85.64999999999998,30.236768499999982]]]}}]}