{"type":"FeatureCollection","features":[{"type":"Feature","properties":{},"geometry":{"type":"Polygon","coordinates":[[[-84.96565720000001,29.55000000000001],[-84.97500000000002,29.55000000000001],[-84.97500000000002,29.550269300000025],[-84.97500000000002,29.55323659999999],[-84.97500000000002,29.553622599999983],[-84.97500000000002,29.555373099999997],[-84.97500000000002,29.55616550000002],[-84.97500000000002,29.557997699999987],[-84.97500000000002,29.558482200000014],[-84.97500000000002,29.569413800000007],[-84.97500000000002,29.576474299999973],[-84.97500000000002,29.58166799999998],[-84.97500000000002,29.587319100000002],[-84.97500000000002,29.588886100000025],[-84.97500000000002,29.60415210000002],[-84.97500000000002,29.605311599999993],[-84.97500000000002,29.60619650000001],[-84.97500000000002,29.607891100000018],[-84.97500000000002,29.61098149999998],[-84.97500000000002,29.6123733],[-84.97500000000002,29.615236299999992],[-84.97500000000002,29.61631399999999],[-84.97500000000002,29.625],[-84.96678789999999,29.625],[-84.9644601,29.625],[-84.96414970000001,29.625],[-84.96379080000003,29.625],[-84.96327309999998,29.625],[-84.95682210000001,29.625],[-84.95449309999998,29.625],[-84.94813620000002,29.625],[-84.94573539999999,29.625],[-84.93346250000002,29.625],[-84.93126619999998,29.625],[-84.93060270000001,29.625],[-84.9283474,29.625],[-84.90430479999998,29.625],[-84.89999999999998,29.625],[-84.89999999999998,29.624719400000004],[-84.89999999999998,29.620903999999996],[-84.89999999999998,29.618904600000008],[-84.89999999999998,29.614109100000007],[-84.89999999999998,29.604989999999987],[-84.89999999999998,29.601136399999973],[-84.89999999999998,29.588348600000018],[-84.89999999999998,29.587421300000017],[-84.89999999999998,29.585077599999977],[-84.89999999999998,29.584560099999976],[-84.89999999999998,29.584114],[-84.89999999999998,29.583790899999997],[-84.89999999999998,29.580031700000006],[-84.89999999999998,29.559899400000006],[-84.89999999999998,29.557696700000008],[-84.89999999999998,29.55000000000001],[-84.96565720000001,29.55000000000001]]]}},{"type":"Feature","properties":{},"geometry":{"type":"Polygon","coordinates":[[[-85.0438742,29.625],[-85.05000000000001,29.625],[-85.05000000000001,29.633120200000008],[-85.05000000000001,29.633407299999988],[-85.05000000000001,29.634878300000025],[-85.05000000000001,29.660944700000016],[-85.05000000000001,29.69645270000001],[-85.05000000000001,29.69999999999999],[-85.04496890000001,29.69999999999999],[-85.03621179999999,29.69999999999999],[-85.03341920000003,29.69999999999999],[-85.01451850000001,29.69999999999999],[-85.0127708,29.69999999999999],[-85.0124558,29.69999999999999],[-85.00833799999998,29.69999999999999],[-84.99629700000003,29.69999999999999],[-84.9819885,29.69999999999999],[-84.98052150000001,29.69999999999999],[-84.97830579999999,29.69999999999999],[-84.97686390000001,29.69999999999999],[-84.97583020000002,29.69999999999999],[-84.97564030000001,29.69999999999999],[-84.9756284,29.69999999999999],[-84.97553090000002,29.69999999999999],[-84.97543080000003,29.69999999999999],[-84.97542270000002,29.69999999999999],[-84.9750851,29.69999999999999],[-84.97500000000002,29.69999999999999],[-84.97500000000002,29.697792800000002],[-84.97500000000002,29.696725000000015],[-84.97500000000002,29.695746900000017],[-84.97500000000002,29.6903274],[-84.97500000000002,29.690118600000005],[-84.97500000000002,29.685508200000015],[-84.97500000000002,29.683033299999977],[-84.97500000000002,29.672611300000028],[-84.97500000000002,29.639173000000028],[-84.97500000000002,29.625],[-84.99629700000003,29.625],[-85.01749260000003,29.625],[-85.03343669999998,29.625],[-85.03714380000002,29.625],[-85.03980569999999,29.625],[-85.0420858,29.625],[-85.0433122,29.625],[-85.0438742,29.625]]]}},{"type":"Feature","properties":{},"geometry":{"type":"Polygon","coordinates":[[[-84.96678789999999,29.625],[-84.97500000000002,29.625],[-84.97500000000002,29.639173000000028],[-84.97500000000002,29.672611300000028],[-84.97500000000002,29.683033299999977],[-84.97500000000002,29.685508200000015],[-84.97500000000002,29.690118600000005],[-84.97500000000002,29.6903274],[-84.97500000000002,29.695746900000017],[-84.97500000000002,29.696725000000015],[-84.97500000000002,29.697792800000002],[-84.97500000000002,29.69999999999999],[-84.95560849999998,29.69999999999999],[-84.93907389999998,29.69999999999999],[-84.93696999999997,29.69999999999999],[-84.9201026,29.69999999999999],[-84.9172107,29.69999999999999],[-84.89999999999998,29.69999999999999],[-84.89999999999998,29.679799899999978],[-84.89999999999998,29.67966610000002],[-84.89999999999998,29.679623100000015],[-84.89999999999998,29.679556400000024],[-84.89999999999998,29.67946360000002],[-84.89999999999998,29.679446299999995],[-84.89999999999998,29.677748599999973],[-84.89999999999998,29.676488500000005],[-84.89999999999998,29.674081399999977],[-84.89999999999998,29.6672236],[-84.89999999999998,29.65966709999998],[-84.89999999999998,29.65873909999999],[-84.89999999999998,29.65358470000001],[-84.89999999999998,29.652749099999994],[-84.89999999999998,29.649835800000005],[-84.89999999999998,29.64465530000001],[-84.89999999999998,29.64380799999998],[-84.89999999999998,29.64271739999998],[-84.89999999999998,29.6419123],[-84.89999999999998,29.640617799999973],[-84.89999999999998,29.626432299999976],[-84.89999999999998,29.625],[-84.90430479999998,29.625],[-84.9283474,29.625],[-84.93060270000001,29.625],[-84.93126619999998,29.625],[-84.93346250000002,29.625],[-84.94573539999999,29.625],[-84.94813620000002,29.625],[-84.95449309999998,29.625],[-84.95682210000001,29.625],[-84.96327309999998,29.625],[-84.96379080000003,29.625],[-84.96414970000001,29.625],[-84.9644601,29.625],[-84.96678789999999,29.625]]]}},{"type":"Feature","properties":{},"geometry":{"type":"Polygon","coordinates":[[[-84.8952554,29.625],[-84.89999999999998,29.625],[-84.89999999999998,29.626432299999976],[-84.89999999999998,29.640617799999973],[-84.89999999999998,29.6419123],[-84.89999999999998,29.64271739999998],[-84.89999999999998,29.64380799999998],[-84.89999999999998,29.64465530000001],[-84.89999999999998,29.649835800000005],[-84.89999999999998,29.652749099999994],[-84.89999999999998,29.65358470000001],[-84.89999999999998,29.65873909999999],[-84.89999999999998,29.65966709999998],[-84.89999999999998,29.6672236],[-84.89999999999998,29.674081399999977],[-84.89999999999998,29.676488500000005],[-84.89999999999998,29.677748599999973],[-84.89999999999998,29.679446299999995],[-84.89999999999998,29.67946360000002],[-84.89999999999998,29.679556400000024],[-84.89999999999998,29.679623100000015],[-84.89999999999998,29.67966610000002],[-84.89999999999998,29.679799899999978],[-84.89999999999998,29.69999999999999],[-84.89025070000002,29.69999999999999],[-84.8900496,29.69999999999999],[-84.88923740000001,29.69999999999999],[-84.88733189999999,29.69999999999999],[-84.88652400000001,29.69999999999999],[-84.8784243,29.69999999999999],[-84.87377420000001,29.69999999999999],[-84.87353030000003,29.69999999999999],[-84.87128209999997,29.69999999999999],[-84.86351380000002,29.69999999999999],[-84.82499999999999,29.69999999999999],[-84.82499999999999,29.695424300000013],[-84.82499999999999,29.6952493],[-84.82499999999999,29.695074299999987],[-84.82499999999999,29.680872599999987],[-84.82499999999999,29.680275300000005],[-84.82499999999999,29.679422499999987],[-84.82499999999999,29.678427999999997],[-84.82499999999999,29.67810830000002],[-84.82499999999999,29.67542209999999],[-84.82499999999999,29.673030400000016],[-84.82499999999999,29.67212089999998],[-84.82499999999999,29.670918599999993],[-84.82499999999999,29.659408400000018],[-84.82499999999999,29.65698229999998],[-84.82499999999999,29.65564549999999],[-84.82499999999999,29.653715999999974],[-84.82499999999999,29.637580200000002],[-84.82499999999999,29.625],[-84.83819720000002,29.625],[-84.86360989999997,29.625],[-84.88163850000001,29.625],[-84.882157,29.625],[-84.8952554,29.625]]]}},{"type":"Feature","properties":{},"geometry":{"type":"Polygon","coordinates":[[[-84.809841,29.625],[-84.82499999999999,29.625],[-84.82499999999999,29.637580200000002],[-84.82499999999999,29.653715999999974],[-84.82499999999999,29.65564549999999],[-84.82499999999999,29.65698229999998],[-84.82499999999999,29.659408400000018],[-84.82499999999999,29.670918599999993],[-84.82499999999999,29.67212089999998],[-84.82499999999999,29.673030400000016],[-84.82499999999999,29.67542209999999],[-84.82499999999999,29.67810830000002],[-84.82499999999999,29.678427999999997],[-84.82499999999999,29.679422499999987],[-84.82499999999999,29.680275300000005],[-84.82499999999999,29.680872599999987],[-84.82499999999999,29.695074299999987],[-84.82499999999999,29.6952493],[-84.82499999999999,29.695424300000013],[-84.82499999999999,29.69999999999999],[-84.82324030000001,29.69999999999999],[-84.82127639999999,29.69999999999999],[-84.81893029999998,29.69999999999999],[-84.81871810000001,29.69999999999999],[-84.81851549999999,29.69999999999999],[-84.81373939999997,29.69999999999999],[-84.81217550000002,29.69999999999999],[-84.81207719999998,29.69999999999999],[-84.81195179999997,29.69999999999999],[-84.8095879,29.69999999999999],[-84.80910569999998,29.69999999999999],[-84.80872720000002,29.69999999999999],[-84.80850370000002,29.69999999999999],[-84.8054687,29.69999999999999],[-84.80348509999999,29.69999999999999],[-84.80282849999998,29.69999999999999],[-84.80224149999998,29.69999999999999],[-84.7996245,29.69999999999999],[-84.79876999999999,29.69999999999999],[-84.7956388,29.69999999999999],[-84.7953162,29.69999999999999],[-84.79531359999999,29.69999999999999],[-84.79352799999998,29.69999999999999],[-84.79164800000001,29.69999999999999],[-84.78879869999997,29.69999999999999],[-84.7874132,29.69999999999999],[-84.78481369999997,29.69999999999999],[-84.768325,29.69999999999999],[-84.76440880000001,29.69999999999999],[-84.7623519,29.69999999999999],[-84.76164790000001,29.69999999999999],[-84.75395930000002,29.69999999999999],[-84.75,29.69999999999999],[-84.75,29.699626299999977],[-84.75,29.671610199999975],[-84.75,29.669659200000012],[-84.75,29.662803199999985],[-84.75,29.661939299999972],[-84.75,29.648985900000014],[-84.75,29.64830810000001],[-84.75,29.6479018],[-84.75,29.647694],[-84.75,29.625],[-84.7629695,29.625],[-84.79882679999997,29.625],[-84.8076628,29.625],[-84.80834220000003,29.625],[-84.809841,29.625]]]}},{"type":"Feature","properties":{},"geometry":{"type":"Polygon","coordinates":[[[-85.10378159999999,29.774999999999977],[-85.0991401,29.774999999999977],[-85.0956415,29.774999999999977],[-85.09514739999997,29.774999999999977],[-85.09288400000003,29.774999999999977],[-85.09045930000002,29.774999999999977],[-85.08788529999998,29.774999999999977],[-85.08392409999999,29.774999999999977],[-85.08043659999998,29.774999999999977],[-85.0766026,29.774999999999977],[-85.07436919999998,29.774999999999977],[-85.07210900000001,29.774999999999977],[-85.07148239999998,29.774999999999977],[-85.07091600000001,29.774999999999977],[-85.07071610000003,29.774999999999977],[-85.07051619999999,29.774999999999977],[-85.06999130000003,29.774999999999977],[-85.0691625,29.774999999999977],[-85.06732490000002,29.774999999999977],[-85.06519279999998,29.774999999999977],[-85.0600809,29.774999999999977],[-85.0564359,29.774999999999977],[-85.05557779999998,29.774999999999977],[-85.05000000000001,29.774999999999977],[-85.05000000000001,29.769046600000024],[-85.05000000000001,29.7211724],[-85.05000000000001,29.716887199999974],[-85.05000000000001,29.715628200000026],[-85.05000000000001,29.715239399999973],[-85.05000000000001,29.713450599999987],[-85.05000000000001,29.708170699999982],[-85.05000000000001,29.708079699999985],[-85.05000000000001,29.69999999999999],[-85.05079599999999,29.69999999999999],[-85.06,29.69999999999999],[-85.10499999999999,29.69999999999999],[-85.10499999999999,29.774999999999977],[-85.10378159999999,29.774999999999977]]]}},{"type":"Feature","properties":{},"geometry":{"type":"Polygon","coordinates":[[[-85.04496890000001,29.69999999999999],[-85.05000000000001,29.69999999999999],[-85.05000000000001,29.708079699999985],[-85.05000000000001,29.708170699999982],[-85.05000000000001,29.713450599999987],[-85.05000000000001,29.715239399999973],[-85.05000000000001,29.715628200000026],[-85.05000000000001,29.716887199999974],[-85.05000000000001,29.7211724],[-85.05000000000001,29.769046600000024],[-85.05000000000001,29.774999999999977],[-85.04843970000002,29.774999999999977],[-85.04810859999998,29.774999999999977],[-85.04788430000002,29.774999999999977],[-85.04758600000002,29.774999999999977],[-85.047326,29.774999999999977],[-85.04706599999997,29.774999999999977],[-85.04651319999999,29.774999999999977],[-85.0459889,29.774999999999977],[-85.04574150000002,29.774999999999977],[-85.04519599999998,29.774999999999977],[-85.04508909999998,29.774999999999977],[-85.04449290000002,29.774999999999977],[-85.04393929999998,29.774999999999977],[-85.03393110000002,29.774999999999977],[-85.0294111,29.774999999999977],[-85.02527029999999,29.774999999999977],[-85.0218193,29.774999999999977],[-85.0207332,29.774999999999977],[-85.02037259999997,29.774999999999977],[-85.00747310000003,29.774999999999977],[-85.00691269999999,29.774999999999977],[-84.9984121,29.774999999999977],[-84.99723499999999,29.774999999999977],[-84.98443680000003,29.774999999999977],[-84.97500000000002,29.774999999999977],[-84.97500000000002,29.76430240000002],[-84.97500000000002,29.76352589999999],[-84.97500000000002,29.75959260000002],[-84.97500000000002,29.748115299999995],[-84.97500000000002,29.74538419999999],[-84.97500000000002,29.744612099999983],[-84.97500000000002,29.741898100000014],[-84.97500000000002,29.736600599999974],[-84.97500000000002,29.734076300000027],[-84.97500000000002,29.733717899999988],[-84.97500000000002,29.733612199999982],[-84.97500000000002,29.73297229999997],[-84.97500000000002,29.727884700000004],[-84.97500000000002,29.72664789999999],[-84.97500000000002,29.726538199999993],[-84.97500000000002,29.72630479999998],[-84.97500000000002,29.72522379999998],[-84.97500000000002,29.72509389999999],[-84.97500000000002,29.72455930000001],[-84.97500000000002,29.724199800000008],[-84.97500000000002,29.723624400000006],[-84.97500000000002,29.721227499999998],[-84.97500000000002,29.720545200000004],[-84.97500000000002,29.716175599999985],[-84.97500000000002,29.716026499999998],[-84.97500000000002,29.715812299999982],[-84.97500000000002,29.714847599999985],[-84.97500000000002,29.712925700000028],[-84.97500000000002,29.71239559999998],[-84.97500000000002,29.71235150000001],[-84.97500000000002,29.710719799999993],[-84.97500000000002,29.701776199999983],[-84.97500000000002,29.700417500000015],[-84.97500000000002,29.69999999999999],[-84.9750851,29.69999999999999],[-84.97542270000002,29.69999999999999],[-84.97543080000003,29.69999999999999],[-84.97553090000002,29.69999999999999],[-84.9756284,29.69999999999999],[-84.97564030000001,29.69999999999999],[-84.97583020000002,29.69999999999999],[-84.97686390000001,29.69999999999999],[-84.97830579999999,29.69999999999999],[-84.98052150000001,29.69999999999999],[-84.9819885,29.69999999999999],[-84.99629700000003,29.69999999999999],[-85.00833799999998,29.69999999999999],[-85.0124558,29.69999999999999],[-85.0127708,29.69999999999999],[-85.01451850000001,29.69999999999999],[-85.03341920000003,29.69999999999999],[-85.03621179999999,29.69999999999999],[-85.04496890000001,29.69999999999999]]]}},{"type":"Feature","properties":{},"geometry":{"type":"Polygon","coordinates":[[[-84.95560849999998,29.69999999999999],[-84.97500000000002,29.69999999999999],[-84.97500000000002,29.700417500000015],[-84.97500000000002,29.701776199999983],[-84.97500000000002,29.710719799999993],[-84.97500000000002,29.71235150000001],[-84.97500000000002,29.71239559999998],[-84.97500000000002,29.712925700000028],[-84.97500000000002,29.714847599999985],[-84.97500000000002,29.715812299999982],[-84.97500000000002,29.716026499999998],[-84.97500000000002,29.716175599999985],[-84.97500000000002,29.720545200000004],[-84.97500000000002,29.721227499999998],[-84.97500000000002,29.723624400000006],[-84.97500000000002,29.724199800000008],[-84.97500000000002,29.72455930000001],[-84.97500000000002,29.72509389999999],[-84.97500000000002,29.72522379999998],[-84.97500000000002,29.72630479999998],[-84.97500000000002,29.726538199999993],[-84.97500000000002,29.72664789999999],[-84.97500000000002,29.727884700000004],[-84.97500000000002,29.73297229999997],[-84.97500000000002,29.733612199999982],[-84.97500000000002,29.733717899999988],[-84.97500000000002,29.734076300000027],[-84.97500000000002,29.736600599999974],[-84.97500000000002,29.741898100000014],[-84.97500000000002,29.744612099999983],[-84.97500000000002,29.74538419999999],[-84.97500000000002,29.748115299999995],[-84.97500000000002,29.75959260000002],[-84.97500000000002,29.76352589999999],[-84.97500000000002,29.76430240000002],[-84.97500000000002,29.774999999999977],[-84.96751330000001,29.774999999999977],[-84.9652408,29.774999999999977],[-84.96157140000003,29.774999999999977],[-84.96074620000002,29.774999999999977],[-84.95258109999997,29.774999999999977],[-84.94722139999999,29.774999999999977],[-84.94666610000002,29.774999999999977],[-84.94309329999999,29.774999999999977],[-84.9403656,29.774999999999977],[-84.9271119,29.774999999999977],[-84.9240873,29.774999999999977],[-84.92043159999997,29.774999999999977],[-84.91790379999998,29.774999999999977],[-84.9172347,29.774999999999977],[-84.91705569999999,29.774999999999977],[-84.9159899,29.774999999999977],[-84.91515379999998,29.774999999999977],[-84.9080224,29.774999999999977],[-84.89999999999998,29.774999999999977],[-84.89999999999998,29.746929599999987],[-84.89999999999998,29.741272400000014],[-84.89999999999998,29.739803900000027],[-84.89999999999998,29.73958379999999],[-84.89999999999998,29.739371300000016],[-84.89999999999998,29.737916700000028],[-84.89999999999998,29.73185239999998],[-84.89999999999998,29.730217299999993],[-84.89999999999998,29.72353149999998],[-84.89999999999998,29.723027399999978],[-84.89999999999998,29.717736899999977],[-84.89999999999998,29.716068000000007],[-84.89999999999998,29.712549500000023],[-84.89999999999998,29.69999999999999],[-84.9172107,29.69999999999999],[-84.9201026,29.69999999999999],[-84.93696999999997,29.69999999999999],[-84.93907389999998,29.69999999999999],[-84.95560849999998,29.69999999999999]]]}},{"type":"Feature","properties":{},"geometry":{"type":"Polygon","coordinates":[[[-84.89025070000002,29.69999999999999],[-84.89999999999998,29.69999999999999],[-84.89999999999998,29.712549500000023],[-84.89999999999998,29.716068000000007],[-84.89999999999998,29.717736899999977],[-84.89999999999998,29.723027399999978],[-84.89999999999998,29.72353149999998],[-84.89999999999998,29.730217299999993],[-84.89999999999998,29.73185239999998],[-84.89999999999998,29.737916700000028],[-84.89999999999998,29.739371300000016],[-84.89999999999998,29.73958379999999],[-84.89999999999998,29.739803900000027],[-84.89999999999998,29.741272400000014],[-84.89999999999998,29.746929599999987],[-84.89999999999998,29.774999999999977],[-84.87805020000002,29.774999999999977],[-84.87563949999998,29.774999999999977],[-84.87206500000002,29.774999999999977],[-84.8675404,29.774999999999977],[-84.8645985,29.774999999999977],[-84.82499999999999,29.774999999999977],[-84.82499999999999,29.763307899999973],[-84.82499999999999,29.758262100000024],[-84.82499999999999,29.755015200000003],[-84.82499999999999,29.7528365],[-84.82499999999999,29.703438399999982],[-84.82499999999999,29.702285800000027],[-84.82499999999999,29.70161330000002],[-84.82499999999999,29.701324699999986],[-84.82499999999999,29.69999999999999],[-84.86351380000002,29.69999999999999],[-84.87128209999997,29.69999999999999],[-84.87353030000003,29.69999999999999],[-84.87377420000001,29.69999999999999],[-84.8784243,29.69999999999999],[-84.88652400000001,29.69999999999999],[-84.88733189999999,29.69999999999999],[-84.88923740000001,29.69999999999999],[-84.8900496,29.69999999999999],[-84.89025070000002,29.69999999999999]]]}},{"type":"Feature","properties":{},"geometry":{"type":"Polygon","coordinates":[[[-84.82324030000001,29.69999999999999],[-84.82499999999999,29.69999999999999],[-84.82499999999999,29.701324699999986],[-84.82499999999999,29.70161330000002],[-84.82499999999999,29.702285800000027],[-84.82499999999999,29.703438399999982],[-84.82499999999999,29.7528365],[-84.82499999999999,29.755015200000003],[-84.82499999999999,29.758262100000024],[-84.82499999999999,29.763307899999973],[-84.82499999999999,29.774999999999977],[-84.7890918,29.774999999999977],[-84.7867415,29.774999999999977],[-84.78475309999999,29.774999999999977],[-84.78422180000001,29.774999999999977],[-84.77021939999997,29.774999999999977],[-84.76846210000002,29.774999999999977],[-84.76710109999999,29.774999999999977],[-84.76489240000001,29.774999999999977],[-84.75024020000001,29.774999999999977],[-84.75,29.774999999999977],[-84.75,29.753847800000017],[-84.75,29.75160440000002],[-84.75,29.749278199999992],[-84.75,29.749078300000008],[-84.75,29.7488783],[-84.75,29.745424800000023],[-84.75,29.74445639999999],[-84.75,29.737818199999992],[-84.75,29.730757600000004],[-84.75,29.72839620000002],[-84.75,29.724691399999983],[-84.75,29.723051499999997],[-84.75,29.716201300000023],[-84.75,29.713228700000002],[-84.75,29.711989000000017],[-84.75,29.711458499999992],[-84.75,29.70852819999999],[-84.75,29.70703580000003],[-84.75,29.703981],[-84.75,29.69999999999999],[-84.75395930000002,29.69999999999999],[-84.76164790000001,29.69999999999999],[-84.7623519,29.69999999999999],[-84.76440880000001,29.69999999999999],[-84.768325,29.69999999999999],[-84.78481369999997,29.69999999999999],[-84.7874132,29.69999999999999],[-84.78879869999997,29.69999999999999],[-84.79164800000001,29.69999999999999],[-84.79352799999998,29.69999999999999],[-84.79531359999999,29.69999999999999],[-84.7953162,29.69999999999999],[-84.7956388,29.69999999999999],[-84.79876999999999,29.69999999999999],[-84.7996245,29.69999999999999],[-84.80224149999998,29.69999999999999],[-84.80282849999998,29.69999999999999],[-84.80348509999999,29.69999999999999],[-84.8054687,29.69999999999999],[-84.80850370000002,29.69999999999999],[-84.80872720000002,29.69999999999999],[-84.80910569999998,29.69999999999999],[-84.8095879,29.69999999999999],[-84.81195179999997,29.69999999999999],[-84.81207719999998,29.69999999999999],[-84.81217550000002,29.69999999999999],[-84.81373939999997,29.69999999999999],[-84.81851549999999,29.69999999999999],[-84.81871810000001,29.69999999999999],[-84.81893029999998,29.69999999999999],[-84.82127639999999,29.69999999999999],[-84.82324030000001,29.69999999999999]]]}},{"type":"Feature","properties":{},"geometry":{"type":"Polygon","coordinates":[[[-84.74939890000002,29.69999999999999],[-84.75,29.69999999999999],[-84.75,29.703981],[-84.75,29.70703580000003],[-84.75,29.70852819999999],[-84.75,29.711458499999992],[-84.75,29.711989000000017],[-84.75,29.713228700000002],[-84.75,29.716201300000023],[-84.75,29.723051499999997],[-84.75,29.724691399999983],[-84.75,29.72839620000002],[-84.75,29.730757600000004],[-84.75,29.737818199999992],[-84.75,29.74445639999999],[-84.75,29.745424800000023],[-84.75,29.7488783],[-84.75,29.749078300000008],[-84.75,29.749278199999992],[-84.75,29.75160440000002],[-84.75,29.753847800000017],[-84.75,29.774999999999977],[-84.74372299999999,29.774999999999977],[-84.74151260000002,29.774999999999977],[-84.73710139999997,29.774999999999977],[-84.72953480000001,29.774999999999977],[-84.70424930000001,29.774999999999977],[-84.7038566,29.774999999999977],[-84.703464,29.774999999999977],[-84.70306249999999,29.774999999999977],[-84.701887,29.774999999999977],[-84.69832860000002,29.774999999999977],[-84.6937838,29.774999999999977],[-84.68877570000001,29.774999999999977],[-84.68394030000002,29.774999999999977],[-84.68270910000001,29.774999999999977],[-84.68260839999999,29.774999999999977],[-84.6823837,29.774999999999977],[-84.6814043,29.774999999999977],[-84.67886179999999,29.774999999999977],[-84.67697470000002,29.774999999999977],[-84.67687130000002,29.774999999999977],[-84.6755109,29.774999999999977],[-84.67500000000001,29.774999999999977],[-84.67500000000001,29.774610800000005],[-84.67500000000001,29.773512799999992],[-84.67500000000001,29.7725911],[-84.67500000000001,29.76908209999999],[-84.67500000000001,29.767410799999993],[-84.67500000000001,29.766426299999978],[-84.67500000000001,29.765711899999985],[-84.67500000000001,29.76519810000002],[-84.67500000000001,29.76364030000002],[-84.67500000000001,29.761093800000026],[-84.67500000000001,29.759902399999987],[-84.67500000000001,29.757354700000008],[-84.67500000000001,29.756416100000024],[-84.67500000000001,29.753724200000022],[-84.67500000000001,29.753185900000005],[-84.67500000000001,29.74797380000001],[-84.67500000000001,29.747456199999988],[-84.67500000000001,29.737469299999987],[-84.67500000000001,29.736907900000006],[-84.67500000000001,29.723192200000028],[-84.67500000000001,29.717759699999988],[-84.67500000000001,29.707058200000006],[-84.67500000000001,29.706509600000004],[-84.67500000000001,29.706213900000023],[-84.67500000000001,29.69999999999999],[-84.68153330000001,29.69999999999999],[-84.6818586,29.69999999999999],[-84.68249909999997,29.69999999999999],[-84.6965141,29.69999999999999],[-84.74939890000002,29.69999999999999]]]}},{"type":"Feature","properties":{},"geometry":{"type":"Polygon","coordinates":[[[-84.67500000000001,29.69999999999999],[-84.67500000000001,29.706213900000023],[-84.67500000000001,29.706509600000004],[-84.67500000000001,29.707058200000006],[-84.67500000000001,29.717759699999988],[-84.67500000000001,29.723192200000028],[-84.67500000000001,29.736907900000006],[-84.67500000000001,29.737469299999987],[-84.67500000000001,29.747456199999988],[-84.67500000000001,29.74797380000001],[-84.67500000000001,29.753185900000005],[-84.67500000000001,29.753724200000022],[-84.67500000000001,29.756416100000024],[-84.67500000000001,29.757354700000008],[-84.67500000000001,29.759902399999987],[-84.67500000000001,29.761093800000026],[-84.67500000000001,29.76364030000002],[-84.67500000000001,29.76519810000002],[-84.67500000000001,29.765711899999985],[-84.67500000000001,29.766426299999978],[-84.67500000000001,29.767410799999993],[-84.67500000000001,29.76908209999999],[-84.67500000000001,29.7725911],[-84.67500000000001,29.773512799999992],[-84.67500000000001,29.774610800000005],[-84.67500000000001,29.774999999999977],[-84.67418470000001,29.774999999999977],[-84.67341219999997,29.774999999999977],[-84.67317309999999,29.774999999999977],[-84.67293110000003,29.774999999999977],[-84.67265149999997,29.774999999999977],[-84.67241680000001,29.774999999999977],[-84.6685142,29.774999999999977],[-84.66837909999998,29.774999999999977],[-84.66433890000002,29.774999999999977],[-84.6629456,29.774999999999977],[-84.6628943,29.774999999999977],[-84.64958489999998,29.774999999999977],[-84.63751539999998,29.774999999999977],[-84.63285300000001,29.774999999999977],[-84.61852750000003,29.774999999999977],[-84.6126784,29.774999999999977],[-84.61240989999999,29.774999999999977],[-84.6054684,29.774999999999977],[-84.60000000000002,29.774999999999977],[-84.60000000000002,29.749416800000006],[-84.60000000000002,29.742514400000005],[-84.60000000000002,29.74211980000001],[-84.60000000000002,29.708350199999984],[-84.60000000000002,29.69999999999999],[-84.67500000000001,29.69999999999999]]]}},{"type":"Feature","properties":{},"geometry":{"type":"Polygon","coordinates":[[[-85.05000000000001,29.850000000000023],[-85.05000000000001,29.81868700000001],[-85.05000000000001,29.8183487],[-85.05000000000001,29.813828399999977],[-85.05000000000001,29.81365840000001],[-85.05000000000001,29.80505720000002],[-85.05000000000001,29.792222600000002],[-85.05000000000001,29.791411400000015],[-85.05000000000001,29.790171999999984],[-85.05000000000001,29.789526500000022],[-85.05000000000001,29.779969499999993],[-85.05000000000001,29.77970160000001],[-85.05000000000001,29.7796103],[-85.05000000000001,29.779309899999987],[-85.05000000000001,29.77797049999998],[-85.05000000000001,29.777707299999975],[-85.05000000000001,29.777444000000003],[-85.05000000000001,29.776780599999995],[-85.05000000000001,29.776147900000012],[-85.05000000000001,29.774999999999977],[-85.05557779999998,29.774999999999977],[-85.0564359,29.774999999999977],[-85.0600809,29.774999999999977],[-85.06519279999998,29.774999999999977],[-85.06732490000002,29.774999999999977],[-85.0691625,29.774999999999977],[-85.06999130000003,29.774999999999977],[-85.07051619999999,29.774999999999977],[-85.07071610000003,29.774999999999977],[-85.07091600000001,29.774999999999977],[-85.07148239999998,29.774999999999977],[-85.07210900000001,29.774999999999977],[-85.07436919999998,29.774999999999977],[-85.0766026,29.774999999999977],[-85.08043659999998,29.774999999999977],[-85.08392409999999,29.774999999999977],[-85.08788529999998,29.774999999999977],[-85.09045930000002,29.774999999999977],[-85.09288400000003,29.774999999999977],[-85.09514739999997,29.774999999999977],[-85.0956415,29.774999999999977],[-85.0991401,29.774999999999977],[-85.10378159999999,29.774999999999977],[-85.10499999999999,29.774999999999977],[-85.10499999999999,29.850000000000023],[-85.05000000000001,29.850000000000023]]]}},{"type":"Feature","properties":{},"geometry":{"type":"Polygon","coordinates":[[[-85.04843970000002,29.774999999999977],[-85.05000000000001,29.774999999999977],[-85.05000000000001,29.776147900000012],[-85.05000000000001,29.776780599999995],[-85.05000000000001,29.777444000000003],[-85.05000000000001,29.777707299999975],[-85.05000000000001,29.77797049999998],[-85.05000000000001,29.779309899999987],[-85.05000000000001,29.7796103],[-85.05000000000001,29.77970160000001],[-85.05000000000001,29.779969499999993],[-85.05000000000001,29.789526500000022],[-85.05000000000001,29.790171999999984],[-85.05000000000001,29.791411400000015],[-85.05000000000001,29.792222600000002],[-85.05000000000001,29.80505720000002],[-85.05000000000001,29.81365840000001],[-85.05000000000001,29.813828399999977],[-85.05000000000001,29.8183487],[-85.05000000000001,29.81868700000001],[-85.05000000000001,29.850000000000023],[-84.97500000000002,29.850000000000023],[-84.97500000000002,29.801164900000003],[-84.97500000000002,29.797552399999972],[-84.97500000000002,29.79666229999998],[-84.97500000000002,29.77869659999999],[-84.97500000000002,29.77688280000001],[-84.97500000000002,29.774999999999977],[-84.98443680000003,29.774999999999977],[-84.99723499999999,29.774999999999977],[-84.9984121,29.774999999999977],[-85.00691269999999,29.774999999999977],[-85.00747310000003,29.774999999999977],[-85.02037259999997,29.774999999999977],[-85.0207332,29.774999999999977],[-85.0218193,29.774999999999977],[-85.02527029999999,29.774999999999977],[-85.0294111,29.774999999999977],[-85.03393110000002,29.774999999999977],[-85.04393929999998,29.774999999999977],[-85.04449290000002,29.774999999999977],[-85.04508909999998,29.774999999999977],[-85.04519599999998,29.774999999999977],[-85.04574150000002,29.774999999999977],[-85.0459889,29.774999999999977],[-85.04651319999999,29.774999999999977],[-85.04706599999997,29.774999999999977],[-85.047326,29.774999999999977],[-85.04758600000002,29.774999999999977],[-85.04788430000002,29.774999999999977],[-85.04810859999998,29.774999999999977],[-85.04843970000002,29.774999999999977]]]}},{"type":"Feature","properties":{},"geometry":{"type":"Polygon","coordinates":[[[-84.74372299999999,29.774999999999977],[-84.75,29.774999999999977],[-84.75,29.775150800000006],[-84.75,29.778810700000008],[-84.75,29.78169650000001],[-84.75,29.78699119999999],[-84.75,29.788374599999997],[-84.75,29.792267200000026],[-84.75,29.795798600000012],[-84.75,29.796361100000013],[-84.75,29.850000000000023],[-84.68485859999998,29.850000000000023],[-84.6801572,29.850000000000023],[-84.68003970000001,29.850000000000023],[-84.67951829999998,29.850000000000023],[-84.67932969999998,29.850000000000023],[-84.67929759999998,29.850000000000023],[-84.6767992,29.850000000000023],[-84.67645929999998,29.850000000000023],[-84.6756186,29.850000000000023],[-84.67500000000001,29.850000000000023],[-84.67500000000001,29.849822300000028],[-84.67500000000001,29.849591999999973],[-84.67500000000001,29.84948079999998],[-84.67500000000001,29.84920169999998],[-84.67500000000001,29.8490587],[-84.67500000000001,29.848292000000015],[-84.67500000000001,29.843752199999983],[-84.67500000000001,29.843292599999984],[-84.67500000000001,29.843201899999997],[-84.67500000000001,29.84114310000001],[-84.67500000000001,29.83985180000002],[-84.67500000000001,29.839253699999972],[-84.67500000000001,29.83920139999998],[-84.67500000000001,29.83843589999998],[-84.67500000000001,29.836110099999985],[-84.67500000000001,29.835976800000026],[-84.67500000000001,29.835505599999976],[-84.67500000000001,29.8334648],[-84.67500000000001,29.83028059999998],[-84.67500000000001,29.82691299999999],[-84.67500000000001,29.826467700000023],[-84.67500000000001,29.825551200000007],[-84.67500000000001,29.823923200000024],[-84.67500000000001,29.822288800000024],[-84.67500000000001,29.818211099999985],[-84.67500000000001,29.81766349999998],[-84.67500000000001,29.81622040000002],[-84.67500000000001,29.8009596],[-84.67500000000001,29.79965820000001],[-84.67500000000001,29.79821320000002],[-84.67500000000001,29.792823399999975],[-84.67500000000001,29.791411200000027],[-84.67500000000001,29.791190299999982],[-84.67500000000001,29.790969299999972],[-84.67500000000001,29.789639099999988],[-84.67500000000001,29.788552200000026],[-84.67500000000001,29.78764849999999],[-84.67500000000001,29.787613399999998],[-84.67500000000001,29.78723389999999],[-84.67500000000001,29.786696199999994],[-84.67500000000001,29.781338800000015],[-84.67500000000001,29.780111599999998],[-84.67500000000001,29.780088499999977],[-84.67500000000001,29.78008840000001],[-84.67500000000001,29.779536300000018],[-84.67500000000001,29.77948570000001],[-84.67500000000001,29.779368999999974],[-84.67500000000001,29.777834199999972],[-84.67500000000001,29.777591599999994],[-84.67500000000001,29.777132100000017],[-84.67500000000001,29.776956600000005],[-84.67500000000001,29.776004699999987],[-84.67500000000001,29.774999999999977],[-84.6755109,29.774999999999977],[-84.67687130000002,29.774999999999977],[-84.67697470000002,29.774999999999977],[-84.67886179999999,29.774999999999977],[-84.6814043,29.774999999999977],[-84.6823837,29.774999999999977],[-84.68260839999999,29.774999999999977],[-84.68270910000001,29.774999999999977],[-84.68394030000002,29.774999999999977],[-84.68877570000001,29.774999999999977],[-84.6937838,29.774999999999977],[-84.69832860000002,29.774999999999977],[-84.701887,29.774999999999977],[-84.70306249999999,29.774999999999977],[-84.703464,29.774999999999977],[-84.7038566,29.774999999999977],[-84.70424930000001,29.774999999999977],[-84.72953480000001,29.774999999999977],[-84.73710139999997,29.774999999999977],[-84.74151260000002,29.774999999999977],[-84.74372299999999,29.774999999999977]]]}},{"type":"Feature","properties":{},"geometry":{"type":"Polygon","coordinates":[[[-84.67418470000001,29.774999999999977],[-84.67500000000001,29.774999999999977],[-84.67500000000001,29.776004699999987],[-84.67500000000001,29.776956600000005],[-84.67500000000001,29.777132100000017],[-84.67500000000001,29.777591599999994],[-84.67500000000001,29.777834199999972],[-84.67500000000001,29.779368999999974],[-84.67500000000001,29.77948570000001],[-84.67500000000001,29.779536300000018],[-84.67500000000001,29.78008840000001],[-84.67500000000001,29.780088499999977],[-84.67500000000001,29.780111599999998],[-84.67500000000001,29.781338800000015],[-84.67500000000001,29.786696199999994],[-84.67500000000001,29.78723389999999],[-84.67500000000001,29.787613399999998],[-84.67500000000001,29.78764849999999],[-84.67500000000001,29.788552200000026],[-84.67500000000001,29.789639099999988],[-84.67500000000001,29.790969299999972],[-84.67500000000001,29.791190299999982],[-84.67500000000001,29.791411200000027],[-84.67500000000001,29.792823399999975],[-84.67500000000001,29.79821320000002],[-84.67500000000001,29.79965820000001],[-84.67500000000001,29.8009596],[-84.67500000000001,29.81622040000002],[-84.67500000000001,29.81766349999998],[-84.67500000000001,29.818211099999985],[-84.67500000000001,29.822288800000024],[-84.67500000000001,29.823923200000024],[-84.67500000000001,29.825551200000007],[-84.67500000000001,29.826467700000023],[-84.67500000000001,29.82691299999999],[-84.67500000000001,29.83028059999998],[-84.67500000000001,29.8334648],[-84.67500000000001,29.835505599999976],[-84.67500000000001,29.835976800000026],[-84.67500000000001,29.836110099999985],[-84.67500000000001,29.83843589999998],[-84.67500000000001,29.83920139999998],[-84.67500000000001,29.839253699999972],[-84.67500000000001,29.83985180000002],[-84.67500000000001,29.84114310000001],[-84.67500000000001,29.843201899999997],[-84.67500000000001,29.843292599999984],[-84.67500000000001,29.843752199999983],[-84.67500000000001,29.848292000000015],[-84.67500000000001,29.8490587],[-84.67500000000001,29.84920169999998],[-84.67500000000001,29.84948079999998],[-84.67500000000001,29.849591999999973],[-84.67500000000001,29.849822300000028],[-84.67500000000001,29.850000000000023],[-84.67450250000002,29.850000000000023],[-84.67380639999999,29.850000000000023],[-84.673698,29.850000000000023],[-84.67353150000002,29.850000000000023],[-84.67318019999999,29.850000000000023],[-84.67298149999999,29.850000000000023],[-84.6671384,29.850000000000023],[-84.66522409999999,29.850000000000023],[-84.6649875,29.850000000000023],[-84.64312439999998,29.850000000000023],[-84.63942550000002,29.850000000000023],[-84.63264900000001,29.850000000000023],[-84.62417690000001,29.850000000000023],[-84.62163120000002,29.850000000000023],[-84.61998620000003,29.850000000000023],[-84.6174906,29.850000000000023],[-84.6127391,29.850000000000023],[-84.60557690000002,29.850000000000023],[-84.60000000000002,29.850000000000023],[-84.60000000000002,29.840616300000022],[-84.60000000000002,29.818414399999995],[-84.60000000000002,29.816820099999973],[-84.60000000000002,29.814919599999996],[-84.60000000000002,29.814521800000023],[-84.60000000000002,29.81336779999998],[-84.60000000000002,29.812926600000026],[-84.60000000000002,29.812458900000024],[-84.60000000000002,29.81245819999998],[-84.60000000000002,29.810996799999998],[-84.60000000000002,29.810992399999975],[-84.60000000000002,29.81068959999999],[-84.60000000000002,29.810412100000008],[-84.60000000000002,29.810405899999978],[-84.60000000000002,29.810305099999994],[-84.60000000000002,29.809086700000023],[-84.60000000000002,29.808931700000016],[-84.60000000000002,29.808534399999985],[-84.60000000000002,29.806005400000004],[-84.60000000000002,29.800192700000025],[-84.60000000000002,29.79895620000002],[-84.60000000000002,29.798952999999983],[-84.60000000000002,29.79870089999997],[-84.60000000000002,29.797432000000015],[-84.60000000000002,29.779438000000027],[-84.60000000000002,29.777181799999994],[-84.60000000000002,29.774999999999977],[-84.6054684,29.774999999999977],[-84.61240989999999,29.774999999999977],[-84.6126784,29.774999999999977],[-84.61852750000003,29.774999999999977],[-84.63285300000001,29.774999999999977],[-84.63751539999998,29.774999999999977],[-84.64958489999998,29.774999999999977],[-84.6628943,29.774999999999977],[-84.6629456,29.774999999999977],[-84.66433890000002,29.774999999999977],[-84.66837909999998,29.774999999999977],[-84.6685142,29.774999999999977],[-84.67241680000001,29.774999999999977],[-84.67265149999997,29.774999999999977],[-84.67293110000003,29.774999999999977],[-84.67317309999999,29.774999999999977],[-84.67341219999997,29.774999999999977],[-84.67418470000001,29.774999999999977]]]}},{"type":"Feature","properties":{},"geometry":{"type":"Polygon","coordinates":[[[-84.67500000000001,29.874095399999987],[-84.67500000000001,29.873700699999972],[-84.67500000000001,29.872808299999974],[-84.67500000000001,29.871919699999978],[-84.67500000000001,29.8664981],[-84.67500000000001,29.86634889999999],[-84.67500000000001,29.866265699999985],[-84.67500000000001,29.86599430000001],[-84.67500000000001,29.865865999999983],[-84.67500000000001,29.865815899999973],[-84.67500000000001,29.864260600000023],[-84.67500000000001,29.863985000000014],[-84.67500000000001,29.862785400000007],[-84.67500000000001,29.861815499999977],[-84.67500000000001,29.860796499999992],[-84.67500000000001,29.860692500000027],[-84.67500000000001,29.86017190000001],[-84.67500000000001,29.859706300000028],[-84.67500000000001,29.859269400000017],[-84.67500000000001,29.858731200000022],[-84.67500000000001,29.858009100000004],[-84.67500000000001,29.853005499999995],[-84.67500000000001,29.85281950000001],[-84.67500000000001,29.852457300000026],[-84.67500000000001,29.852028099999984],[-84.67500000000001,29.850969599999985],[-84.67500000000001,29.850835399999994],[-84.67500000000001,29.850476200000003],[-84.67500000000001,29.850349400000027],[-84.67500000000001,29.850000000000023],[-84.6756186,29.850000000000023],[-84.67645929999998,29.850000000000023],[-84.6767992,29.850000000000023],[-84.67929759999998,29.850000000000023],[-84.67932969999998,29.850000000000023],[-84.67951829999998,29.850000000000023],[-84.68003970000001,29.850000000000023],[-84.6801572,29.850000000000023],[-84.68485859999998,29.850000000000023],[-84.75,29.850000000000023],[-84.75,29.92500000000001],[-84.67500000000001,29.92500000000001],[-84.67500000000001,29.875087699999995],[-84.67500000000001,29.874095399999987]]]}},{"type":"Feature","properties":{},"geometry":{"type":"Polygon","coordinates":[[[-84.67450250000002,29.850000000000023],[-84.67500000000001,29.850000000000023],[-84.67500000000001,29.850349400000027],[-84.67500000000001,29.850476200000003],[-84.67500000000001,29.850835399999994],[-84.67500000000001,29.850969599999985],[-84.67500000000001,29.852028099999984],[-84.67500000000001,29.852457300000026],[-84.67500000000001,29.85281950000001],[-84.67500000000001,29.853005499999995],[-84.67500000000001,29.858009100000004],[-84.67500000000001,29.858731200000022],[-84.67500000000001,29.859269400000017],[-84.67500000000001,29.859706300000028],[-84.67500000000001,29.86017190000001],[-84.67500000000001,29.860692500000027],[-84.67500000000001,29.860796499999992],[-84.67500000000001,29.861815499999977],[-84.67500000000001,29.862785400000007],[-84.67500000000001,29.863985000000014],[-84.67500000000001,29.864260600000023],[-84.67500000000001,29.865815899999973],[-84.67500000000001,29.865865999999983],[-84.67500000000001,29.86599430000001],[-84.67500000000001,29.866265699999985],[-84.67500000000001,29.86634889999999],[-84.67500000000001,29.8664981],[-84.67500000000001,29.871919699999978],[-84.67500000000001,29.872808299999974],[-84.67500000000001,29.873700699999972],[-84.67500000000001,29.874095399999987],[-84.67500000000001,29.875087699999995],[-84.67500000000001,29.92500000000001],[-84.63532300000003,29.92500000000001],[-84.63436439999998,29.92500000000001],[-84.6323018,29.92500000000001],[-84.6288826,29.92500000000001],[-84.62696069999998,29.92500000000001],[-84.61889070000001,29.92500000000001],[-84.60000000000002,29.92500000000001],[-84.60000000000002,29.918759899999998],[-84.60000000000002,29.917806799999994],[-84.60000000000002,29.917139899999995],[-84.60000000000002,29.916658700000028],[-84.60000000000002,29.914448100000016],[-84.60000000000002,29.913989500000014],[-84.60000000000002,29.908814600000028],[-84.60000000000002,29.908340399999986],[-84.60000000000002,29.890644800000018],[-84.60000000000002,29.87833569999998],[-84.60000000000002,29.865982700000018],[-84.60000000000002,29.863239299999975],[-84.60000000000002,29.857380499999977],[-84.60000000000002,29.854377],[-84.60000000000002,29.853591400000028],[-84.60000000000002,29.850000000000023],[-84.60557690000002,29.850000000000023],[-84.6127391,29.850000000000023],[-84.6174906,29.850000000000023],[-84.61998620000003,29.850000000000023],[-84.62163120000002,29.850000000000023],[-84.62417690000001,29.850000000000023],[-84.63264900000001,29.850000000000023],[-84.63942550000002,29.850000000000023],[-84.64312439999998,29.850000000000023],[-84.6649875,29.850000000000023],[-84.66522409999999,29.850000000000023],[-84.6671384,29.850000000000023],[-84.67298149999999,29.850000000000023],[-84.67318019999999,29.850000000000023],[-84.67353150000002,29.850000000000023],[-84.673698,29.850000000000023],[-84.67380639999999,29.850000000000023],[-84.67450250000002,29.850000000000023]]]}},{"type":"Feature","properties":{},"geometry":{"type":"Polygon","coordinates":[[[-84.2248606,30.0],[-84.22500000000002,30.0],[-84.22500000000002,30.009898700000008],[-84.22500000000002,30.038468299999977],[-84.22500000000002,30.067203699999993],[-84.22500000000002,30.06924459999999],[-84.22500000000002,30.06965489999999],[-84.22500000000002,30.06971470000002],[-84.22500000000002,30.070086100000026],[-84.22500000000002,30.07499999999999],[-84.21729590000001,30.07499999999999],[-84.21674810000002,30.07499999999999],[-84.21003339999999,30.07499999999999],[-84.1967368,30.07499999999999],[-84.1965669,30.07499999999999],[-84.19417850000002,30.07499999999999],[-84.19413450000002,30.07499999999999],[-84.19333449999999,30.07499999999999],[-84.1930853,30.07499999999999],[-84.19292059999998,30.07499999999999],[-84.19190989999998,30.07499999999999],[-84.19089919999999,30.07499999999999],[-84.1903992,30.07499999999999],[-84.1889549,30.07499999999999],[-84.18868950000001,30.07499999999999],[-84.18858260000002,30.07499999999999],[-84.18836879999998,30.07499999999999],[-84.18826189999999,30.07499999999999],[-84.1880036,30.07499999999999],[-84.18715320000001,30.07499999999999],[-84.18706320000001,30.07499999999999],[-84.18607409999998,30.07499999999999],[-84.1857781,30.07499999999999],[-84.18547160000003,30.07499999999999],[-84.1832604,30.07499999999999],[-84.18320979999999,30.07499999999999],[-84.18310330000003,30.07499999999999],[-84.18294420000001,30.07499999999999],[-84.1829333,30.07499999999999],[-84.18175739999998,30.07499999999999],[-84.18132739999999,30.07499999999999],[-84.1804788,30.07499999999999],[-84.17975469999999,30.07499999999999],[-84.17914689999998,30.07499999999999],[-84.1790277,30.07499999999999],[-84.17686579999997,30.07499999999999],[-84.174755,30.07499999999999],[-84.1744031,30.07499999999999],[-84.173858,30.07499999999999],[-84.17362350000002,30.07499999999999],[-84.16691889999998,30.07499999999999],[-84.16656110000002,30.07499999999999],[-84.15755200000001,30.07499999999999],[-84.15579150000002,30.07499999999999],[-84.15268520000001,30.07499999999999],[-84.1507097,30.07499999999999],[-84.14999999999998,30.07499999999999],[-84.14999999999998,30.074271899999985],[-84.14999999999998,30.065958599999988],[-84.14999999999998,30.04170019999998],[-84.14999999999998,30.014445000000023],[-84.14999999999998,30.009364100000028],[-84.14999999999998,30.0],[-84.15030610000002,30.0],[-84.15342930000003,30.0],[-84.16755619999998,30.0],[-84.17276479999998,30.0],[-84.178067,30.0],[-84.17930080000002,30.0],[-84.1853605,30.0],[-84.1858335,30.0],[-84.19499880000001,30.0],[-84.22063029999998,30.0],[-84.2248606,30.0]]]}},{"type":"Feature","properties":{},"geometry":{"type":"Polygon","coordinates":[[[-84.21674810000002,30.07499999999999],[-84.21729590000001,30.07499999999999],[-84.22500000000002,30.07499999999999],[-84.22500000000002,30.078239999999994],[-84.22500000000002,30.081029600000022],[-84.22500000000002,30.0823527],[-84.22500000000002,30.082511899999986],[-84.22500000000002,30.084999400000015],[-84.22500000000002,30.086067800000023],[-84.22500000000002,30.08701739999998],[-84.22500000000002,30.090083400000026],[-84.22500000000002,30.0925072],[-84.22500000000002,30.09414750000002],[-84.22500000000002,30.096489200000008],[-84.22500000000002,30.09691270000002],[-84.22500000000002,30.11125099999998],[-84.22500000000002,30.149999999999977],[-84.21666870000001,30.149999999999977],[-84.21316560000002,30.149999999999977],[-84.21192239999999,30.149999999999977],[-84.21185939999998,30.149999999999977],[-84.21119579999998,30.149999999999977],[-84.21091619999999,30.149999999999977],[-84.21089089999998,30.149999999999977],[-84.21049950000003,30.149999999999977],[-84.21038909999999,30.149999999999977],[-84.21016300000002,30.149999999999977],[-84.2100499,30.149999999999977],[-84.2099589,30.149999999999977],[-84.20981260000002,30.149999999999977],[-84.20795829999997,30.149999999999977],[-84.15861530000001,30.149999999999977],[-84.14999999999998,30.149999999999977],[-84.14999999999998,30.142836799999998],[-84.14999999999998,30.135356899999977],[-84.14999999999998,30.135091199999977],[-84.14999999999998,30.131077800000014],[-84.14999999999998,30.130634900000018],[-84.14999999999998,30.129073800000015],[-84.14999999999998,30.128568099999995],[-84.14999999999998,30.127995800000008],[-84.14999999999998,30.127559099999985],[-84.14999999999998,30.126559499999985],[-84.14999999999998,30.12301450000001],[-84.14999999999998,30.121214399999985],[-84.14999999999998,30.112355100000002],[-84.14999999999998,30.10552469999999],[-84.14999999999998,30.104098099999987],[-84.14999999999998,30.102804300000003],[-84.14999999999998,30.101856999999995],[-84.14999999999998,30.1012422],[-84.14999999999998,30.100732300000004],[-84.14999999999998,30.09989300000001],[-84.14999999999998,30.09965249999999],[-84.14999999999998,30.098346300000003],[-84.14999999999998,30.09743179999998],[-84.14999999999998,30.09285319999998],[-84.14999999999998,30.091442900000004],[-84.14999999999998,30.089869399999998],[-84.14999999999998,30.088836300000025],[-84.14999999999998,30.08716629999998],[-84.14999999999998,30.085488499999997],[-84.14999999999998,30.077113800000006],[-84.14999999999998,30.07528259999998],[-84.14999999999998,30.07499999999999],[-84.1507097,30.07499999999999],[-84.15268520000001,30.07499999999999],[-84.15579150000002,30.07499999999999],[-84.15755200000001,30.07499999999999],[-84.16656110000002,30.07499999999999],[-84.16691889999998,30.07499999999999],[-84.17362350000002,30.07499999999999],[-84.173858,30.07499999999999],[-84.1744031,30.07499999999999],[-84.174755,30.07499999999999],[-84.17686579999997,30.07499999999999],[-84.1790277,30.07499999999999],[-84.17914689999998,30.07499999999999],[-84.17975469999999,30.07499999999999],[-84.1804788,30.07499999999999],[-84.18132739999999,30.07499999999999],[-84.18175739999998,30.07499999999999],[-84.1829333,30.07499999999999],[-84.18294420000001,30.07499999999999],[-84.18310330000003,30.07499999999999],[-84.18320979999999,30.07499999999999],[-84.1832604,30.07499999999999],[-84.18547160000003,30.07499999999999],[-84.1857781,30.07499999999999],[-84.18607409999998,30.07499999999999],[-84.18706320000001,30.07499999999999],[-84.18715320000001,30.07499999999999],[-84.18770230000001,30.07499999999999],[-84.1880036,30.07499999999999],[-84.18826189999999,30.07499999999999],[-84.18836879999998,30.07499999999999],[-84.18858260000002,30.07499999999999],[-84.18868950000001,30.07499999999999],[-84.1889549,30.07499999999999],[-84.18930619999998,30.07499999999999],[-84.1903992,30.07499999999999],[-84.19089919999999,30.07499999999999],[-84.19190989999998,30.07499999999999],[-84.1930853,30.07499999999999],[-84.19333449999999,30.07499999999999],[-84.19413450000002,30.07499999999999],[-84.19417850000002,30.07499999999999],[-84.19424670000001,30.07499999999999],[-84.1965669,30.07499999999999],[-84.1967368,30.07499999999999],[-84.21003339999999,30.07499999999999],[-84.21674810000002,30.07499999999999]]]}},{"type":"Feature","properties":{},"geometry":{"type":"Polygon","coordinates":[[[-84.21666870000001,30.149999999999977],[-84.22500000000002,30.149999999999977],[-84.22500000000002,30.16277930000001],[-84.22500000000002,30.163860100000022],[-84.22500000000002,30.16687059999998],[-84.22500000000002,30.225000000000023],[-84.17271140000003,30.225000000000023],[-84.14999999999998,30.225000000000023],[-84.14999999999998,30.149999999999977],[-84.15861530000001,30.149999999999977],[-84.20795829999997,30.149999999999977],[-84.20981260000002,30.149999999999977],[-84.2099589,30.149999999999977],[-84.2100499,30.149999999999977],[-84.21016300000002,30.149999999999977],[-84.21038909999999,30.149999999999977],[-84.21049950000003,30.149999999999977],[-84.21089089999998,30.149999999999977],[-84.21091619999999,30.149999999999977],[-84.21119579999998,30.149999999999977],[-84.21192239999999,30.149999999999977],[-84.21316560000002,30.149999999999977],[-84.21666870000001,30.149999999999977]]]}}]}