{"type":"FeatureCollection","features":[{"type":"Feature","properties":{},"geometry":{"type":"Polygon","coordinates":[[[-87.13758380000002,30.30000000000001],[-87.14999999999998,30.30000000000001],[-87.14999999999998,30.304822399999978],[-87.14999999999998,30.314027399999986],[-87.14999999999998,30.3173271],[-87.14999999999998,30.323586299999988],[-87.14999999999998,30.326094599999976],[-87.14999999999998,30.326645999999982],[-87.14999999999998,30.32861810000003],[-87.14999999999998,30.3310611],[-87.14999999999998,30.33141440000003],[-87.14999999999998,30.331669999999974],[-87.14999999999998,30.335781199999985],[-87.14999999999998,30.336151299999983],[-87.14999999999998,30.336393299999997],[-87.14999999999998,30.33827150000002],[-87.14999999999998,30.338351799999998],[-87.14999999999998,30.34032000000002],[-87.14999999999998,30.34161660000001],[-87.14999999999998,30.3421156],[-87.14999999999998,30.3427413],[-87.14999999999998,30.3443982],[-87.14999999999998,30.34482700000001],[-87.14999999999998,30.347217699999987],[-87.14999999999998,30.34917009999998],[-87.14999999999998,30.349264300000016],[-87.14999999999998,30.3492976],[-87.14999999999998,30.349550599999986],[-87.14999999999998,30.349726999999973],[-87.14999999999998,30.349903700000027],[-87.14999999999998,30.349926400000015],[-87.14999999999998,30.350166300000012],[-87.14999999999998,30.353689400000007],[-87.14999999999998,30.355669200000023],[-87.14999999999998,30.356571499999973],[-87.14999999999998,30.357555699999978],[-87.14999999999998,30.3589207],[-87.14999999999998,30.3676557],[-87.14999999999998,30.369129600000008],[-87.14999999999998,30.37133510000001],[-87.14999999999998,30.372552900000017],[-87.14999999999998,30.375],[-87.14213039999999,30.375],[-87.13946800000002,30.375],[-87.13937249999998,30.375],[-87.137318,30.375],[-87.13501150000002,30.375],[-87.12058389999999,30.375],[-87.11357279999999,30.375],[-87.11318519999998,30.375],[-87.11290880000001,30.375],[-87.11264440000002,30.375],[-87.09189459999999,30.375],[-87.08868510000002,30.375],[-87.08766530000003,30.375],[-87.08739509999998,30.375],[-87.0821517,30.375],[-87.0817561,30.375],[-87.0816547,30.375],[-87.08134159999997,30.375],[-87.08067360000001,30.375],[-87.08032450000002,30.375],[-87.08026899999999,30.375],[-87.07499999999999,30.375],[-87.07499999999999,30.37377520000001],[-87.07499999999999,30.372371699999974],[-87.07499999999999,30.365753700000027],[-87.07499999999999,30.365189999999984],[-87.07499999999999,30.364907500000015],[-87.07499999999999,30.364837000000023],[-87.07499999999999,30.364381100000003],[-87.07499999999999,30.361412400000006],[-87.07499999999999,30.35231779999998],[-87.07499999999999,30.35127940000001],[-87.07499999999999,30.34971059999998],[-87.07499999999999,30.342940800000008],[-87.07499999999999,30.34153379999998],[-87.07499999999999,30.340033300000016],[-87.07499999999999,30.338732900000025],[-87.07499999999999,30.328330199999982],[-87.07499999999999,30.32084370000001],[-87.07499999999999,30.317504900000017],[-87.07499999999999,30.306379400000026],[-87.07499999999999,30.30000000000001],[-87.08134749999999,30.30000000000001],[-87.09115489999999,30.30000000000001],[-87.1006615,30.30000000000001],[-87.1061856,30.30000000000001],[-87.11679379999998,30.30000000000001],[-87.12390110000001,30.30000000000001],[-87.13758380000002,30.30000000000001]]]}},{"type":"Feature","properties":{},"geometry":{"type":"Polygon","coordinates":[[[-87.03155550000002,30.30000000000001],[-87.07499999999999,30.30000000000001],[-87.07499999999999,30.306379400000026],[-87.07499999999999,30.317504900000017],[-87.07499999999999,30.32084370000001],[-87.07499999999999,30.328330199999982],[-87.07499999999999,30.338732900000025],[-87.07499999999999,30.340033300000016],[-87.07499999999999,30.34153379999998],[-87.07499999999999,30.342940800000008],[-87.07499999999999,30.34971059999998],[-87.07499999999999,30.35127940000001],[-87.07499999999999,30.35231779999998],[-87.07499999999999,30.361412400000006],[-87.07499999999999,30.364381100000003],[-87.07499999999999,30.364837000000023],[-87.07499999999999,30.364907500000015],[-87.07499999999999,30.365189999999984],[-87.07499999999999,30.365753700000027],[-87.07499999999999,30.372371699999974],[-87.07499999999999,30.37377520000001],[-87.07499999999999,30.375],[-87.0634407,30.375],[-87.05577299999999,30.375],[-87.05328960000003,30.375],[-87.05267570000001,30.375],[-87.05258099999998,30.375],[-87.05096500000002,30.375],[-87.04873550000002,30.375],[-87.02783820000002,30.375],[-87.0248894,30.375],[-87.0229132,30.375],[-87.0217599,30.375],[-87.012763,30.375],[-87.00128840000002,30.375],[-87.0,30.375],[-87.0,30.371699499999977],[-87.0,30.366816599999993],[-87.0,30.365998699999977],[-87.0,30.365356599999984],[-87.0,30.363967000000002],[-87.0,30.36128450000001],[-87.0,30.361272199999974],[-87.0,30.356837100000007],[-87.0,30.353742699999998],[-87.0,30.351529400000004],[-87.0,30.341265099999987],[-87.0,30.340312799999992],[-87.0,30.340122399999984],[-87.0,30.33829830000002],[-87.0,30.332824800000026],[-87.0,30.32129839999999],[-87.0,30.32049269999999],[-87.0,30.305919000000017],[-87.0,30.305548999999985],[-87.0,30.30000000000001],[-87.02970429999999,30.30000000000001],[-87.03155550000002,30.30000000000001]]]}},{"type":"Feature","properties":{},"geometry":{"type":"Polygon","coordinates":[[[-87.0,30.30000000000001],[-87.0,30.305548999999985],[-87.0,30.305919000000017],[-87.0,30.32049269999999],[-87.0,30.32129839999999],[-87.0,30.332824800000026],[-87.0,30.33829830000002],[-87.0,30.340122399999984],[-87.0,30.340312799999992],[-87.0,30.341265099999987],[-87.0,30.351529400000004],[-87.0,30.353742699999998],[-87.0,30.356837100000007],[-87.0,30.361272199999974],[-87.0,30.36128450000001],[-87.0,30.363967000000002],[-87.0,30.365356599999984],[-87.0,30.365998699999977],[-87.0,30.366816599999993],[-87.0,30.371699499999977],[-87.0,30.375],[-86.99574589999997,30.375],[-86.99206470000001,30.375],[-86.98884070000003,30.375],[-86.98539929999998,30.375],[-86.977126,30.375],[-86.97404060000002,30.375],[-86.97054229999998,30.375],[-86.96461979999998,30.375],[-86.9507289,30.375],[-86.94384839999998,30.375],[-86.93287270000002,30.375],[-86.93218080000003,30.375],[-86.93203319999998,30.375],[-86.92506450000002,30.375],[-86.92500000000001,30.375],[-86.92500000000001,30.374858500000016],[-86.92500000000001,30.370004199999983],[-86.92500000000001,30.366457000000025],[-86.92500000000001,30.365421000000026],[-86.92500000000001,30.354388400000005],[-86.92500000000001,30.35231379999999],[-86.92500000000001,30.342817700000012],[-86.92500000000001,30.318901299999993],[-86.92500000000001,30.318534399999976],[-86.92500000000001,30.30000000000001],[-87.0,30.30000000000001]]]}},{"type":"Feature","properties":{},"geometry":{"type":"Polygon","coordinates":[[[-87.14999999999998,30.3819934],[-87.14999999999998,30.3892113],[-87.14999999999998,30.389723300000014],[-87.14999999999998,30.412334199999975],[-87.14999999999998,30.415474599999982],[-87.14999999999998,30.418831899999986],[-87.14999999999998,30.43395290000001],[-87.14999999999998,30.437414199999978],[-87.14999999999998,30.44999999999999],[-87.1339681,30.44999999999999],[-87.12420259999999,30.44999999999999],[-87.10914969999999,30.44999999999999],[-87.10294979999998,30.44999999999999],[-87.1023768,30.44999999999999],[-87.09492,30.44999999999999],[-87.09258690000001,30.44999999999999],[-87.08581779999997,30.44999999999999],[-87.08565479999999,30.44999999999999],[-87.0845033,30.44999999999999],[-87.07499999999999,30.44999999999999],[-87.07499999999999,30.448348699999997],[-87.07499999999999,30.441550000000007],[-87.07499999999999,30.42514749999998],[-87.07499999999999,30.42357609999999],[-87.07499999999999,30.422873700000025],[-87.07499999999999,30.41889309999999],[-87.07499999999999,30.415765599999986],[-87.07499999999999,30.407786799999997],[-87.07499999999999,30.40618599999999],[-87.07499999999999,30.398991299999977],[-87.07499999999999,30.376830400000017],[-87.07499999999999,30.376661800000022],[-87.07499999999999,30.375],[-87.08026899999999,30.375],[-87.08032450000002,30.375],[-87.08067360000001,30.375],[-87.08134159999997,30.375],[-87.0816547,30.375],[-87.0817561,30.375],[-87.0821517,30.375],[-87.08739509999998,30.375],[-87.08766530000003,30.375],[-87.08868510000002,30.375],[-87.09189459999999,30.375],[-87.11264440000002,30.375],[-87.11290880000001,30.375],[-87.11318519999998,30.375],[-87.11357279999999,30.375],[-87.12058389999999,30.375],[-87.13501150000002,30.375],[-87.137318,30.375],[-87.13937249999998,30.375],[-87.13946800000002,30.375],[-87.14213039999999,30.375],[-87.14999999999998,30.375],[-87.14999999999998,30.3819934]]]}},{"type":"Feature","properties":{},"geometry":{"type":"Polygon","coordinates":[[[-87.0634407,30.375],[-87.07499999999999,30.375],[-87.07499999999999,30.376661800000022],[-87.07499999999999,30.376830400000017],[-87.07499999999999,30.398991299999977],[-87.07499999999999,30.40618599999999],[-87.07499999999999,30.407786799999997],[-87.07499999999999,30.415765599999986],[-87.07499999999999,30.41889309999999],[-87.07499999999999,30.422873700000025],[-87.07499999999999,30.42357609999999],[-87.07499999999999,30.42514749999998],[-87.07499999999999,30.441550000000007],[-87.07499999999999,30.448348699999997],[-87.07499999999999,30.44999999999999],[-87.0678251,30.44999999999999],[-87.06070039999997,30.44999999999999],[-87.04462050000001,30.44999999999999],[-87.044556,30.44999999999999],[-87.04436249999998,30.44999999999999],[-87.0442979,30.44999999999999],[-87.0,30.44999999999999],[-87.0,30.41686709999999],[-87.0,30.416479100000004],[-87.0,30.410553800000002],[-87.0,30.409533099999976],[-87.0,30.388938499999995],[-87.0,30.387080000000026],[-87.0,30.38477640000002],[-87.0,30.384320000000002],[-87.0,30.381918900000016],[-87.0,30.380387999999982],[-87.0,30.380057899999997],[-87.0,30.3799846],[-87.0,30.37985950000001],[-87.0,30.379720099999986],[-87.0,30.378543400000012],[-87.0,30.375],[-87.00128840000002,30.375],[-87.012763,30.375],[-87.0217599,30.375],[-87.0229132,30.375],[-87.0248894,30.375],[-87.02783820000002,30.375],[-87.04873550000002,30.375],[-87.05096500000002,30.375],[-87.05258099999998,30.375],[-87.05267570000001,30.375],[-87.05328960000003,30.375],[-87.05577299999999,30.375],[-87.0634407,30.375]]]}},{"type":"Feature","properties":{},"geometry":{"type":"Polygon","coordinates":[[[-86.99574589999997,30.375],[-87.0,30.375],[-87.0,30.378543400000012],[-87.0,30.379720099999986],[-87.0,30.37985950000001],[-87.0,30.3799846],[-87.0,30.380057899999997],[-87.0,30.380387999999982],[-87.0,30.381918900000016],[-87.0,30.384320000000002],[-87.0,30.38477640000002],[-87.0,30.387080000000026],[-87.0,30.388938499999995],[-87.0,30.409533099999976],[-87.0,30.410553800000002],[-87.0,30.416479100000004],[-87.0,30.41686709999999],[-87.0,30.44999999999999],[-86.98758720000001,30.44999999999999],[-86.9537355,30.44999999999999],[-86.945516,30.44999999999999],[-86.94031460000002,30.44999999999999],[-86.92544229999999,30.44999999999999],[-86.92500000000001,30.44999999999999],[-86.92500000000001,30.449570300000005],[-86.92500000000001,30.396537799999976],[-86.92500000000001,30.395210299999974],[-86.92500000000001,30.3939795],[-86.92500000000001,30.390860900000007],[-86.92500000000001,30.389860800000008],[-86.92500000000001,30.389753499999983],[-86.92500000000001,30.38968729999999],[-86.92500000000001,30.389513799999975],[-86.92500000000001,30.38898710000001],[-86.92500000000001,30.37720919999998],[-86.92500000000001,30.375560800000017],[-86.92500000000001,30.3750086],[-86.92500000000001,30.375],[-86.92506450000002,30.375],[-86.93203319999998,30.375],[-86.93218080000003,30.375],[-86.93287270000002,30.375],[-86.94384839999998,30.375],[-86.9507289,30.375],[-86.96461979999998,30.375],[-86.97054229999998,30.375],[-86.97404060000002,30.375],[-86.977126,30.375],[-86.98539929999998,30.375],[-86.98884070000003,30.375],[-86.99206470000001,30.375],[-86.99574589999997,30.375]]]}},{"type":"Feature","properties":{},"geometry":{"type":"Polygon","coordinates":[[[-86.92279439999999,30.375],[-86.92500000000001,30.375],[-86.92500000000001,30.3750086],[-86.92500000000001,30.375560800000017],[-86.92500000000001,30.37720919999998],[-86.92500000000001,30.38898710000001],[-86.92500000000001,30.389513799999975],[-86.92500000000001,30.38968729999999],[-86.92500000000001,30.389753499999983],[-86.92500000000001,30.389860800000008],[-86.92500000000001,30.390860900000007],[-86.92500000000001,30.3939795],[-86.92500000000001,30.395210299999974],[-86.92500000000001,30.396537799999976],[-86.92500000000001,30.449570300000005],[-86.92500000000001,30.44999999999999],[-86.92435549999999,30.44999999999999],[-86.91792240000001,30.44999999999999],[-86.91728339999997,30.44999999999999],[-86.85000000000002,30.44999999999999],[-86.85000000000002,30.402247199999977],[-86.85000000000002,30.40023789999998],[-86.85000000000002,30.399893399999996],[-86.85000000000002,30.399341300000003],[-86.85000000000002,30.39891130000001],[-86.85000000000002,30.39877530000001],[-86.85000000000002,30.397325599999988],[-86.85000000000002,30.395954399999994],[-86.85000000000002,30.38917809999998],[-86.85000000000002,30.388220400000023],[-86.85000000000002,30.387625200000002],[-86.85000000000002,30.386810700000012],[-86.85000000000002,30.385530500000016],[-86.85000000000002,30.3812236],[-86.85000000000002,30.378179799999998],[-86.85000000000002,30.37721959999999],[-86.85000000000002,30.375],[-86.863946,30.375],[-86.87197600000002,30.375],[-86.89101540000001,30.375],[-86.91669860000002,30.375],[-86.91796900000003,30.375],[-86.9184717,30.375],[-86.92074020000001,30.375],[-86.9213858,30.375],[-86.92279439999999,30.375]]]}},{"type":"Feature","properties":{},"geometry":{"type":"Polygon","coordinates":[[[-86.8213318,30.375],[-86.85000000000002,30.375],[-86.85000000000002,30.37721959999999],[-86.85000000000002,30.378179799999998],[-86.85000000000002,30.3812236],[-86.85000000000002,30.385530500000016],[-86.85000000000002,30.386810700000012],[-86.85000000000002,30.387625200000002],[-86.85000000000002,30.388220400000023],[-86.85000000000002,30.38917809999998],[-86.85000000000002,30.395954399999994],[-86.85000000000002,30.397325599999988],[-86.85000000000002,30.39877530000001],[-86.85000000000002,30.39891130000001],[-86.85000000000002,30.399341300000003],[-86.85000000000002,30.399893399999996],[-86.85000000000002,30.40023789999998],[-86.85000000000002,30.402247199999977],[-86.85000000000002,30.44999999999999],[-86.77499999999998,30.44999999999999],[-86.77499999999998,30.410215300000004],[-86.77499999999998,30.407988999999986],[-86.77499999999998,30.406656800000007],[-86.77499999999998,30.405499399999997],[-86.77499999999998,30.397720300000003],[-86.77499999999998,30.397548200000017],[-86.77499999999998,30.397376099999974],[-86.77499999999998,30.397295999999983],[-86.77499999999998,30.395503500000018],[-86.77499999999998,30.395235000000014],[-86.77499999999998,30.394787800000017],[-86.77499999999998,30.394553099999996],[-86.77499999999998,30.3943218],[-86.77499999999998,30.389628200000004],[-86.77499999999998,30.38772990000001],[-86.77499999999998,30.386938199999975],[-86.77499999999998,30.3866309],[-86.77499999999998,30.384820400000024],[-86.77499999999998,30.375024199999984],[-86.77499999999998,30.375],[-86.77523680000002,30.375],[-86.79279350000002,30.375],[-86.8213318,30.375]]]}},{"type":"Feature","properties":{},"geometry":{"type":"Polygon","coordinates":[[[-86.7662158,30.375],[-86.77499999999998,30.375],[-86.77499999999998,30.375024199999984],[-86.77499999999998,30.384820400000024],[-86.77499999999998,30.3866309],[-86.77499999999998,30.386938199999975],[-86.77499999999998,30.38772990000001],[-86.77499999999998,30.389628200000004],[-86.77499999999998,30.3943218],[-86.77499999999998,30.394553099999996],[-86.77499999999998,30.394787800000017],[-86.77499999999998,30.395235000000014],[-86.77499999999998,30.395503500000018],[-86.77499999999998,30.397295999999983],[-86.77499999999998,30.397376099999974],[-86.77499999999998,30.397548200000017],[-86.77499999999998,30.397720300000003],[-86.77499999999998,30.405499399999997],[-86.77499999999998,30.406656800000007],[-86.77499999999998,30.407988999999986],[-86.77499999999998,30.410215300000004],[-86.77499999999998,30.44999999999999],[-86.72731299999998,30.44999999999999],[-86.69999999999999,30.44999999999999],[-86.69999999999999,30.429692699999976],[-86.69999999999999,30.407747200000017],[-86.69999999999999,30.407522700000015],[-86.69999999999999,30.40647849999999],[-86.69999999999999,30.4061246],[-86.69999999999999,30.406087300000024],[-86.69999999999999,30.405885099999978],[-86.69999999999999,30.405867],[-86.69999999999999,30.405840000000012],[-86.69999999999999,30.405707300000017],[-86.69999999999999,30.405694900000015],[-86.69999999999999,30.405522899999994],[-86.69999999999999,30.405519400000003],[-86.69999999999999,30.405198700000028],[-86.69999999999999,30.405164300000024],[-86.69999999999999,30.405155700000023],[-86.69999999999999,30.403302800000006],[-86.69999999999999,30.4032833],[-86.69999999999999,30.4017882],[-86.69999999999999,30.401351999999974],[-86.69999999999999,30.3950557],[-86.69999999999999,30.393229599999984],[-86.69999999999999,30.393216900000027],[-86.69999999999999,30.392485000000022],[-86.69999999999999,30.3919535],[-86.69999999999999,30.391937700000028],[-86.69999999999999,30.390600300000017],[-86.69999999999999,30.380644500000017],[-86.69999999999999,30.37856019999998],[-86.69999999999999,30.378504399999997],[-86.69999999999999,30.375],[-86.71165830000001,30.375],[-86.7467289,30.375],[-86.7602101,30.375],[-86.7662158,30.375]]]}},{"type":"Feature","properties":{},"geometry":{"type":"Polygon","coordinates":[[[-86.65987389999998,30.375],[-86.69999999999999,30.375],[-86.69999999999999,30.378504399999997],[-86.69999999999999,30.37856019999998],[-86.69999999999999,30.380644500000017],[-86.69999999999999,30.390557600000022],[-86.69999999999999,30.390600300000017],[-86.69999999999999,30.391937700000028],[-86.69999999999999,30.3919535],[-86.69999999999999,30.392485000000022],[-86.69999999999999,30.393216900000027],[-86.69999999999999,30.393229599999984],[-86.69999999999999,30.3950557],[-86.69999999999999,30.401351999999974],[-86.69999999999999,30.4017882],[-86.69999999999999,30.4032833],[-86.69999999999999,30.403302800000006],[-86.69999999999999,30.405155700000023],[-86.69999999999999,30.405164300000024],[-86.69999999999999,30.405198700000028],[-86.69999999999999,30.405519400000003],[-86.69999999999999,30.405522899999994],[-86.69999999999999,30.405694900000015],[-86.69999999999999,30.405707300000017],[-86.69999999999999,30.405840000000012],[-86.69999999999999,30.405867],[-86.69999999999999,30.405885099999978],[-86.69999999999999,30.406087300000024],[-86.69999999999999,30.4061246],[-86.69999999999999,30.40647849999999],[-86.69999999999999,30.407522700000015],[-86.69999999999999,30.407747200000017],[-86.69999999999999,30.429692699999976],[-86.69999999999999,30.44999999999999],[-86.68814839999999,30.44999999999999],[-86.67711609999998,30.44999999999999],[-86.66165999999998,30.44999999999999],[-86.65746999999999,30.44999999999999],[-86.65554200000003,30.44999999999999],[-86.65462400000001,30.44999999999999],[-86.65331229999998,30.44999999999999],[-86.64698709999999,30.44999999999999],[-86.63913989999998,30.44999999999999],[-86.625,30.44999999999999],[-86.625,30.432442700000024],[-86.625,30.432008800000006],[-86.625,30.431822099999977],[-86.625,30.43086729999999],[-86.625,30.43058450000001],[-86.625,30.430200599999978],[-86.625,30.404469000000006],[-86.625,30.40149580000002],[-86.625,30.40130479999999],[-86.625,30.401246000000015],[-86.625,30.401070500000003],[-86.625,30.40089499999999],[-86.625,30.400832200000025],[-86.625,30.400527899999986],[-86.625,30.400151900000026],[-86.625,30.396552499999984],[-86.625,30.395431599999995],[-86.625,30.39433980000001],[-86.625,30.393362200000013],[-86.625,30.392104000000018],[-86.625,30.384168999999986],[-86.625,30.381951200000003],[-86.625,30.375],[-86.63992999999999,30.375],[-86.64474039999999,30.375],[-86.6463842,30.375],[-86.65461529999999,30.375],[-86.65987389999998,30.375]]]}},{"type":"Feature","properties":{},"geometry":{"type":"Polygon","coordinates":[[[-86.60230580000001,30.375],[-86.625,30.375],[-86.625,30.381951200000003],[-86.625,30.384168999999986],[-86.625,30.392104000000018],[-86.625,30.393362200000013],[-86.625,30.39433980000001],[-86.625,30.395431599999995],[-86.625,30.396552499999984],[-86.625,30.400151900000026],[-86.625,30.400527899999986],[-86.625,30.400832200000025],[-86.625,30.40089499999999],[-86.625,30.401070500000003],[-86.625,30.401246000000015],[-86.625,30.40130479999999],[-86.625,30.40149580000002],[-86.625,30.404469000000006],[-86.625,30.430200599999978],[-86.625,30.43058450000001],[-86.625,30.43086729999999],[-86.625,30.431822099999977],[-86.625,30.432008800000006],[-86.625,30.432442700000024],[-86.625,30.44999999999999],[-86.6123915,30.44999999999999],[-86.611693,30.44999999999999],[-86.60931019999998,30.44999999999999],[-86.60874960000001,30.44999999999999],[-86.6068219,30.44999999999999],[-86.60574259999999,30.44999999999999],[-86.60294049999999,30.44999999999999],[-86.60198000000003,30.44999999999999],[-86.6012672,30.44999999999999],[-86.59995930000002,30.44999999999999],[-86.5981198,30.44999999999999],[-86.59453150000002,30.44999999999999],[-86.5943312,30.44999999999999],[-86.59420080000001,30.44999999999999],[-86.59393540000002,30.44999999999999],[-86.59189470000001,30.44999999999999],[-86.5915038,30.44999999999999],[-86.59092570000001,30.44999999999999],[-86.5905674,30.44999999999999],[-86.58777429999998,30.44999999999999],[-86.58551970000002,30.44999999999999],[-86.58533870000002,30.44999999999999],[-86.5844214,30.44999999999999],[-86.58419980000002,30.44999999999999],[-86.58381539999999,30.44999999999999],[-86.58307400000001,30.44999999999999],[-86.58177799999999,30.44999999999999],[-86.58069180000001,30.44999999999999],[-86.57891690000002,30.44999999999999],[-86.57788620000002,30.44999999999999],[-86.55000000000001,30.44999999999999],[-86.55000000000001,30.448755600000027],[-86.55000000000001,30.440482499999973],[-86.55000000000001,30.439073399999984],[-86.55000000000001,30.431766100000004],[-86.55000000000001,30.430832599999974],[-86.55000000000001,30.42957660000002],[-86.55000000000001,30.42840560000002],[-86.55000000000001,30.428325599999994],[-86.55000000000001,30.42573470000002],[-86.55000000000001,30.411427500000002],[-86.55000000000001,30.40608930000002],[-86.55000000000001,30.405702799999972],[-86.55000000000001,30.404264399999988],[-86.55000000000001,30.402615200000014],[-86.55000000000001,30.401169900000014],[-86.55000000000001,30.400312100000008],[-86.55000000000001,30.398996699999998],[-86.55000000000001,30.397418300000027],[-86.55000000000001,30.396385399999986],[-86.55000000000001,30.394976199999974],[-86.55000000000001,30.3889729],[-86.55000000000001,30.387563],[-86.55000000000001,30.386745099999985],[-86.55000000000001,30.3860277],[-86.55000000000001,30.37961389999998],[-86.55000000000001,30.375],[-86.55678799999998,30.375],[-86.5842849,30.375],[-86.60082619999997,30.375],[-86.60230580000001,30.375]]]}},{"type":"Feature","properties":{},"geometry":{"type":"Polygon","coordinates":[[[-86.5438739,30.375],[-86.55000000000001,30.375],[-86.55000000000001,30.37961389999998],[-86.55000000000001,30.3860277],[-86.55000000000001,30.386745099999985],[-86.55000000000001,30.387563],[-86.55000000000001,30.3889729],[-86.55000000000001,30.394976199999974],[-86.55000000000001,30.396385399999986],[-86.55000000000001,30.397418300000027],[-86.55000000000001,30.398996699999998],[-86.55000000000001,30.400312100000008],[-86.55000000000001,30.401169900000014],[-86.55000000000001,30.402615200000014],[-86.55000000000001,30.404264399999988],[-86.55000000000001,30.405702799999972],[-86.55000000000001,30.40608930000002],[-86.55000000000001,30.411427500000002],[-86.55000000000001,30.42573470000002],[-86.55000000000001,30.428325599999994],[-86.55000000000001,30.42840560000002],[-86.55000000000001,30.42957660000002],[-86.55000000000001,30.430832599999974],[-86.55000000000001,30.431766100000004],[-86.55000000000001,30.439073399999984],[-86.55000000000001,30.440482499999973],[-86.55000000000001,30.448755600000027],[-86.55000000000001,30.44999999999999],[-86.54330290000001,30.44999999999999],[-86.54274170000002,30.44999999999999],[-86.53916470000001,30.44999999999999],[-86.53893269999998,30.44999999999999],[-86.53856300000001,30.44999999999999],[-86.53821060000001,30.44999999999999],[-86.53653400000002,30.44999999999999],[-86.53317299999998,30.44999999999999],[-86.52773259999998,30.44999999999999],[-86.5149773,30.44999999999999],[-86.51328310000002,30.44999999999999],[-86.5065626,30.44999999999999],[-86.5056667,30.44999999999999],[-86.47500000000002,30.44999999999999],[-86.47500000000002,30.447537599999976],[-86.47500000000002,30.43259740000002],[-86.47500000000002,30.424269100000004],[-86.47500000000002,30.42170920000001],[-86.47500000000002,30.418384300000014],[-86.47500000000002,30.41718830000002],[-86.47500000000002,30.41514649999999],[-86.47500000000002,30.41127419999998],[-86.47500000000002,30.410461199999986],[-86.47500000000002,30.410222599999997],[-86.47500000000002,30.404204800000002],[-86.47500000000002,30.40375369999998],[-86.47500000000002,30.383742199999972],[-86.47500000000002,30.382933200000025],[-86.47500000000002,30.381666900000027],[-86.47500000000002,30.3807908],[-86.47500000000002,30.37937599999998],[-86.47500000000002,30.375],[-86.48033889999999,30.375],[-86.48199849999997,30.375],[-86.48387589999999,30.375],[-86.50613859999999,30.375],[-86.50743399999999,30.375],[-86.50767330000002,30.375],[-86.50978070000002,30.375],[-86.51009579999999,30.375],[-86.51031519999998,30.375],[-86.5104854,30.375],[-86.51203579999998,30.375],[-86.51266040000002,30.375],[-86.51270779999999,30.375],[-86.51301189999998,30.375],[-86.51309939999999,30.375],[-86.51398970000002,30.375],[-86.51422810000003,30.375],[-86.51572320000002,30.375],[-86.52525709999998,30.375],[-86.5438739,30.375]]]}},{"type":"Feature","properties":{},"geometry":{"type":"Polygon","coordinates":[[[-86.40337649999998,30.375],[-86.47500000000002,30.375],[-86.47500000000002,30.37937599999998],[-86.47500000000002,30.3807908],[-86.47500000000002,30.381666900000027],[-86.47500000000002,30.382933200000025],[-86.47500000000002,30.383742199999972],[-86.47500000000002,30.40375369999998],[-86.47500000000002,30.404204800000002],[-86.47500000000002,30.410222599999997],[-86.47500000000002,30.410461199999986],[-86.47500000000002,30.41127419999998],[-86.47500000000002,30.41514649999999],[-86.47500000000002,30.41718830000002],[-86.47500000000002,30.418384300000014],[-86.47500000000002,30.42170920000001],[-86.47500000000002,30.424269100000004],[-86.47500000000002,30.43259740000002],[-86.47500000000002,30.447537599999976],[-86.47500000000002,30.44999999999999],[-86.47109060000003,30.44999999999999],[-86.42933249999999,30.44999999999999],[-86.42579799999999,30.44999999999999],[-86.4249633,30.44999999999999],[-86.42452209999999,30.44999999999999],[-86.42350829999998,30.44999999999999],[-86.42114190000001,30.44999999999999],[-86.42099560000003,30.44999999999999],[-86.41974679999998,30.44999999999999],[-86.41943989999999,30.44999999999999],[-86.41871800000001,30.44999999999999],[-86.41814360000001,30.44999999999999],[-86.4159563,30.44999999999999],[-86.41581389999999,30.44999999999999],[-86.4142759,30.44999999999999],[-86.41088860000002,30.44999999999999],[-86.40295470000001,30.44999999999999],[-86.40255680000001,30.44999999999999],[-86.4021401,30.44999999999999],[-86.39999999999998,30.44999999999999],[-86.39999999999998,30.447376200000008],[-86.39999999999998,30.447148099999993],[-86.39999999999998,30.44675219999999],[-86.39999999999998,30.4389731],[-86.39999999999998,30.438158999999985],[-86.39999999999998,30.433054400000003],[-86.39999999999998,30.432170999999983],[-86.39999999999998,30.410036400000024],[-86.39999999999998,30.408801700000026],[-86.39999999999998,30.407868699999995],[-86.39999999999998,30.403014900000016],[-86.39999999999998,30.39962300000002],[-86.39999999999998,30.398709600000018],[-86.39999999999998,30.387741500000004],[-86.39999999999998,30.378994999999975],[-86.39999999999998,30.3773779],[-86.39999999999998,30.376944900000012],[-86.39999999999998,30.37628410000002],[-86.39999999999998,30.375],[-86.40337649999998,30.375]]]}},{"type":"Feature","properties":{},"geometry":{"type":"Polygon","coordinates":[[[-86.38924859999997,30.375],[-86.39999999999998,30.375],[-86.39999999999998,30.37628410000002],[-86.39999999999998,30.376944900000012],[-86.39999999999998,30.3773779],[-86.39999999999998,30.378994999999975],[-86.39999999999998,30.387741500000004],[-86.39999999999998,30.398709600000018],[-86.39999999999998,30.39962300000002],[-86.39999999999998,30.403014900000016],[-86.39999999999998,30.407868699999995],[-86.39999999999998,30.408801700000026],[-86.39999999999998,30.410036400000024],[-86.39999999999998,30.432170999999983],[-86.39999999999998,30.433054400000003],[-86.39999999999998,30.438158999999985],[-86.39999999999998,30.4389731],[-86.39999999999998,30.44675219999999],[-86.39999999999998,30.447148099999993],[-86.39999999999998,30.447376200000008],[-86.39999999999998,30.44999999999999],[-86.3998282,30.44999999999999],[-86.3970165,30.44999999999999],[-86.39423640000001,30.44999999999999],[-86.39317169999998,30.44999999999999],[-86.39177210000003,30.44999999999999],[-86.35049479999998,30.44999999999999],[-86.32499999999999,30.44999999999999],[-86.32499999999999,30.437586399999986],[-86.32499999999999,30.43672190000001],[-86.32499999999999,30.427820800000006],[-86.32499999999999,30.425574600000004],[-86.32499999999999,30.421440599999983],[-86.32499999999999,30.41744799999998],[-86.32499999999999,30.411115300000006],[-86.32499999999999,30.403287299999988],[-86.32499999999999,30.40177749999998],[-86.32499999999999,30.39725820000001],[-86.32499999999999,30.396608500000013],[-86.32499999999999,30.3842037],[-86.32499999999999,30.381905500000016],[-86.32499999999999,30.375],[-86.36398270000001,30.375],[-86.36846220000001,30.375],[-86.37912560000001,30.375],[-86.383129,30.375],[-86.38840399999998,30.375],[-86.38846799999999,30.375],[-86.3885295,30.375],[-86.389184,30.375],[-86.38924859999997,30.375]]]}},{"type":"Feature","properties":{},"geometry":{"type":"Polygon","coordinates":[[[-86.31489549999998,30.375],[-86.31551339999999,30.375],[-86.3180514,30.375],[-86.31897889999999,30.375],[-86.32499999999999,30.375],[-86.32499999999999,30.381905500000016],[-86.32499999999999,30.3842037],[-86.32499999999999,30.396608500000013],[-86.32499999999999,30.39725820000001],[-86.32499999999999,30.40177749999998],[-86.32499999999999,30.403287299999988],[-86.32499999999999,30.411115300000006],[-86.32499999999999,30.41744799999998],[-86.32499999999999,30.421440599999983],[-86.32499999999999,30.425574600000004],[-86.32499999999999,30.427820800000006],[-86.32499999999999,30.43672190000001],[-86.32499999999999,30.437586399999986],[-86.32499999999999,30.44999999999999],[-86.27745119999997,30.44999999999999],[-86.27289510000003,30.44999999999999],[-86.25,30.44999999999999],[-86.25,30.44138609999999],[-86.25,30.439874999999972],[-86.25,30.434754499999997],[-86.25,30.433337999999992],[-86.25,30.43156240000002],[-86.25,30.429155200000025],[-86.25,30.428374799999972],[-86.25,30.427461400000027],[-86.25,30.422826900000018],[-86.25,30.4225998],[-86.25,30.42051140000001],[-86.25,30.40921320000001],[-86.25,30.408448899999996],[-86.25,30.407756000000006],[-86.25,30.40403040000001],[-86.25,30.395305000000008],[-86.25,30.39294339999998],[-86.25,30.392157199999986],[-86.25,30.391635000000008],[-86.25,30.39126299999998],[-86.25,30.375],[-86.31489549999998,30.375]]]}},{"type":"Feature","properties":{},"geometry":{"type":"Polygon","coordinates":[[[-86.22935940000002,30.375],[-86.25,30.375],[-86.25,30.39126299999998],[-86.25,30.391635000000008],[-86.25,30.392157199999986],[-86.25,30.39294339999998],[-86.25,30.395305000000008],[-86.25,30.40403040000001],[-86.25,30.407756000000006],[-86.25,30.408448899999996],[-86.25,30.40921320000001],[-86.25,30.42051140000001],[-86.25,30.4225998],[-86.25,30.422826900000018],[-86.25,30.427461400000027],[-86.25,30.428374799999972],[-86.25,30.429155200000025],[-86.25,30.43156240000002],[-86.25,30.433337999999992],[-86.25,30.434754499999997],[-86.25,30.439874999999972],[-86.25,30.44138609999999],[-86.25,30.44999999999999],[-86.24996090000002,30.44999999999999],[-86.21975329999998,30.44999999999999],[-86.2016706,30.44999999999999],[-86.1934205,30.44999999999999],[-86.18918630000002,30.44999999999999],[-86.1882592,30.44999999999999],[-86.1863452,30.44999999999999],[-86.18067259999998,30.44999999999999],[-86.1784677,30.44999999999999],[-86.17500000000001,30.44999999999999],[-86.17500000000001,30.449250699999993],[-86.17500000000001,30.449170400000014],[-86.17500000000001,30.449011400000018],[-86.17500000000001,30.4489289],[-86.17500000000001,30.402804300000014],[-86.17500000000001,30.40268150000003],[-86.17500000000001,30.402429199999972],[-86.17500000000001,30.395258000000013],[-86.17500000000001,30.39441579999999],[-86.17500000000001,30.392324299999984],[-86.17500000000001,30.39192939999998],[-86.17500000000001,30.388463],[-86.17500000000001,30.386928300000022],[-86.17500000000001,30.378568900000005],[-86.17500000000001,30.37793099999999],[-86.17500000000001,30.37775019999998],[-86.17500000000001,30.377329099999997],[-86.17500000000001,30.375],[-86.1796799,30.375],[-86.22935940000002,30.375]]]}},{"type":"Feature","properties":{},"geometry":{"type":"Polygon","coordinates":[[[-86.16149960000001,30.375],[-86.17500000000001,30.375],[-86.17500000000001,30.377329099999997],[-86.17500000000001,30.37775019999998],[-86.17500000000001,30.37793099999999],[-86.17500000000001,30.378568900000005],[-86.17500000000001,30.386928300000022],[-86.17500000000001,30.388463],[-86.17500000000001,30.39192939999998],[-86.17500000000001,30.392324299999984],[-86.17500000000001,30.39441579999999],[-86.17500000000001,30.395258000000013],[-86.17500000000001,30.402429199999972],[-86.17500000000001,30.40268150000003],[-86.17500000000001,30.402804300000014],[-86.17500000000001,30.4489289],[-86.17500000000001,30.449011400000018],[-86.17500000000001,30.449170400000014],[-86.17500000000001,30.449250699999993],[-86.17500000000001,30.44999999999999],[-86.17360050000002,30.44999999999999],[-86.17345110000002,30.44999999999999],[-86.17315339999999,30.44999999999999],[-86.17300069999999,30.44999999999999],[-86.1634841,30.44999999999999],[-86.16223860000002,30.44999999999999],[-86.16150929999998,30.44999999999999],[-86.16146250000003,30.44999999999999],[-86.1606567,30.44999999999999],[-86.14171759999999,30.44999999999999],[-86.1415925,30.44999999999999],[-86.14094169999998,30.44999999999999],[-86.1405747,30.44999999999999],[-86.13813479999999,30.44999999999999],[-86.10325499999999,30.44999999999999],[-86.1015931,30.44999999999999],[-86.10000000000002,30.44999999999999],[-86.10000000000002,30.447865700000023],[-86.10000000000002,30.4433047],[-86.10000000000002,30.44220439999998],[-86.10000000000002,30.44118500000002],[-86.10000000000002,30.43263680000001],[-86.10000000000002,30.423357699999997],[-86.10000000000002,30.423013200000014],[-86.10000000000002,30.422451000000024],[-86.10000000000002,30.42179900000002],[-86.10000000000002,30.419396300000017],[-86.10000000000002,30.419202600000006],[-86.10000000000002,30.410658300000023],[-86.10000000000002,30.409976700000016],[-86.10000000000002,30.408943000000022],[-86.10000000000002,30.4076283],[-86.10000000000002,30.406022099999973],[-86.10000000000002,30.40515529999999],[-86.10000000000002,30.401644999999974],[-86.10000000000002,30.40057810000002],[-86.10000000000002,30.39674980000001],[-86.10000000000002,30.39593500000001],[-86.10000000000002,30.394694200000004],[-86.10000000000002,30.39355979999999],[-86.10000000000002,30.388996299999974],[-86.10000000000002,30.388428900000008],[-86.10000000000002,30.380556599999977],[-86.10000000000002,30.3800291],[-86.10000000000002,30.37867799999998],[-86.10000000000002,30.37809759999999],[-86.10000000000002,30.376848499999994],[-86.10000000000002,30.375],[-86.10485499999999,30.375],[-86.10552799999999,30.375],[-86.10584890000001,30.375],[-86.1063648,30.375],[-86.11149119999999,30.375],[-86.11255829999999,30.375],[-86.11284169999999,30.375],[-86.11543769999997,30.375],[-86.11612589999999,30.375],[-86.11669999999998,30.375],[-86.12046379999998,30.375],[-86.12260199999997,30.375],[-86.14337410000002,30.375],[-86.1439676,30.375],[-86.14410550000002,30.375],[-86.16074659999998,30.375],[-86.16149960000001,30.375]]]}},{"type":"Feature","properties":{},"geometry":{"type":"Polygon","coordinates":[[[-87.18278800000002,30.524999999999977],[-87.18244229999999,30.524999999999977],[-87.16025960000002,30.524999999999977],[-87.15833070000002,30.524999999999977],[-87.15644800000001,30.524999999999977],[-87.15604830000001,30.524999999999977],[-87.15293589999999,30.524999999999977],[-87.15238310000001,30.524999999999977],[-87.15202260000001,30.524999999999977],[-87.14999999999998,30.524999999999977],[-87.14999999999998,30.522286399999984],[-87.14999999999998,30.521795699999984],[-87.14999999999998,30.521728699999983],[-87.14999999999998,30.521437600000013],[-87.14999999999998,30.521044599999982],[-87.14999999999998,30.520642399999986],[-87.14999999999998,30.520063100000016],[-87.14999999999998,30.51687609999999],[-87.14999999999998,30.515108699999985],[-87.14999999999998,30.514520100000027],[-87.14999999999998,30.51377389999999],[-87.14999999999998,30.513764900000012],[-87.14999999999998,30.512753900000007],[-87.14999999999998,30.512264399999992],[-87.14999999999998,30.508458399999995],[-87.14999999999998,30.5062676],[-87.14999999999998,30.503706000000022],[-87.14999999999998,30.498524799999984],[-87.14999999999998,30.491183999999976],[-87.14999999999998,30.490835800000013],[-87.14999999999998,30.481698499999993],[-87.14999999999998,30.474527299999977],[-87.14999999999998,30.472490100000016],[-87.14999999999998,30.468355400000007],[-87.14999999999998,30.457796499999972],[-87.14999999999998,30.453363799999977],[-87.14999999999998,30.452865900000006],[-87.14999999999998,30.44999999999999],[-87.15906669999998,30.44999999999999],[-87.1670317,30.44999999999999],[-87.17032590000002,30.44999999999999],[-87.17181599999998,30.44999999999999],[-87.1935815,30.44999999999999],[-87.1944891,30.44999999999999],[-87.1956189,30.44999999999999],[-87.19827679999997,30.44999999999999],[-87.205,30.44999999999999],[-87.205,30.524999999999977],[-87.18278800000002,30.524999999999977]]]}},{"type":"Feature","properties":{},"geometry":{"type":"Polygon","coordinates":[[[-87.1339681,30.44999999999999],[-87.14999999999998,30.44999999999999],[-87.14999999999998,30.452865900000006],[-87.14999999999998,30.453363799999977],[-87.14999999999998,30.457796499999972],[-87.14999999999998,30.468355400000007],[-87.14999999999998,30.472490100000016],[-87.14999999999998,30.474527299999977],[-87.14999999999998,30.481698499999993],[-87.14999999999998,30.490835800000013],[-87.14999999999998,30.491183999999976],[-87.14999999999998,30.498524799999984],[-87.14999999999998,30.503706000000022],[-87.14999999999998,30.5062676],[-87.14999999999998,30.508458399999995],[-87.14999999999998,30.512264399999992],[-87.14999999999998,30.512753900000007],[-87.14999999999998,30.513764900000012],[-87.14999999999998,30.51377389999999],[-87.14999999999998,30.514520100000027],[-87.14999999999998,30.515108699999985],[-87.14999999999998,30.51687609999999],[-87.14999999999998,30.520063100000016],[-87.14999999999998,30.520642399999986],[-87.14999999999998,30.521044599999982],[-87.14999999999998,30.521437600000013],[-87.14999999999998,30.521728699999983],[-87.14999999999998,30.521795699999984],[-87.14999999999998,30.522286399999984],[-87.14999999999998,30.524999999999977],[-87.14545129999999,30.524999999999977],[-87.14460070000001,30.524999999999977],[-87.14401750000002,30.524999999999977],[-87.139657,30.524999999999977],[-87.13802190000001,30.524999999999977],[-87.13612769999997,30.524999999999977],[-87.1353464,30.524999999999977],[-87.13324440000002,30.524999999999977],[-87.1095623,30.524999999999977],[-87.10342960000003,30.524999999999977],[-87.10218479999997,30.524999999999977],[-87.09692439999998,30.524999999999977],[-87.08666620000002,30.524999999999977],[-87.0862305,30.524999999999977],[-87.07499999999999,30.524999999999977],[-87.07499999999999,30.454005600000016],[-87.07499999999999,30.44999999999999],[-87.0845033,30.44999999999999],[-87.08565479999999,30.44999999999999],[-87.08581779999997,30.44999999999999],[-87.09258690000001,30.44999999999999],[-87.09492,30.44999999999999],[-87.1023768,30.44999999999999],[-87.10294979999998,30.44999999999999],[-87.10914969999999,30.44999999999999],[-87.12420259999999,30.44999999999999],[-87.1339681,30.44999999999999]]]}},{"type":"Feature","properties":{},"geometry":{"type":"Polygon","coordinates":[[[-87.07499999999999,30.454005600000016],[-87.07499999999999,30.524999999999977],[-87.04446890000003,30.524999999999977],[-87.04026670000002,30.524999999999977],[-87.02702340000002,30.524999999999977],[-87.02694939999998,30.524999999999977],[-87.02672710000002,30.524999999999977],[-87.02665300000001,30.524999999999977],[-87.02627840000002,30.524999999999977],[-87.02488879999999,30.524999999999977],[-87.02339060000003,30.524999999999977],[-87.01890850000001,30.524999999999977],[-87.00368739999999,30.524999999999977],[-87.00077049999999,30.524999999999977],[-87.0,30.524999999999977],[-87.0,30.523215499999992],[-87.0,30.519153300000028],[-87.0,30.49312520000001],[-87.0,30.486452199999974],[-87.0,30.472699999999975],[-87.0,30.463217999999983],[-87.0,30.44999999999999],[-87.0442979,30.44999999999999],[-87.04436249999998,30.44999999999999],[-87.044556,30.44999999999999],[-87.04462050000001,30.44999999999999],[-87.06070039999997,30.44999999999999],[-87.0678251,30.44999999999999],[-87.07499999999999,30.44999999999999],[-87.07499999999999,30.454005600000016]]]}},{"type":"Feature","properties":{},"geometry":{"type":"Polygon","coordinates":[[[-86.98758720000001,30.44999999999999],[-87.0,30.44999999999999],[-87.0,30.463217999999983],[-87.0,30.472699999999975],[-87.0,30.486452199999974],[-87.0,30.49312520000001],[-87.0,30.519153300000028],[-87.0,30.523215499999992],[-87.0,30.524999999999977],[-86.99160920000003,30.524999999999977],[-86.98652379999999,30.524999999999977],[-86.92500000000001,30.524999999999977],[-86.92500000000001,30.460928000000024],[-86.92500000000001,30.460249799999985],[-86.92500000000001,30.458065999999974],[-86.92500000000001,30.45770859999999],[-86.92500000000001,30.4574073],[-86.92500000000001,30.454514700000004],[-86.92500000000001,30.452635600000008],[-86.92500000000001,30.450625600000023],[-86.92500000000001,30.44999999999999],[-86.92544229999999,30.44999999999999],[-86.94031460000002,30.44999999999999],[-86.945516,30.44999999999999],[-86.9537355,30.44999999999999],[-86.98758720000001,30.44999999999999]]]}},{"type":"Feature","properties":{},"geometry":{"type":"Polygon","coordinates":[[[-86.55000000000001,30.457686599999988],[-86.55000000000001,30.460475900000006],[-86.55000000000001,30.4607661],[-86.55000000000001,30.467725200000018],[-86.55000000000001,30.524999999999977],[-86.48805490000001,30.524999999999977],[-86.48602590000002,30.524999999999977],[-86.47500000000002,30.524999999999977],[-86.47500000000002,30.489311199999975],[-86.47500000000002,30.4883418],[-86.47500000000002,30.488029600000004],[-86.47500000000002,30.48736709999997],[-86.47500000000002,30.486655100000007],[-86.47500000000002,30.485668999999973],[-86.47500000000002,30.481304000000023],[-86.47500000000002,30.480608800000027],[-86.47500000000002,30.480032900000026],[-86.47500000000002,30.479689800000017],[-86.47500000000002,30.479068700000028],[-86.47500000000002,30.4783405],[-86.47500000000002,30.477344099999982],[-86.47500000000002,30.476150399999995],[-86.47500000000002,30.47441409999999],[-86.47500000000002,30.474150899999984],[-86.47500000000002,30.46707570000001],[-86.47500000000002,30.466034999999977],[-86.47500000000002,30.465557999999987],[-86.47500000000002,30.464751200000023],[-86.47500000000002,30.462053700000013],[-86.47500000000002,30.45497929999999],[-86.47500000000002,30.453395999999998],[-86.47500000000002,30.44999999999999],[-86.5056667,30.44999999999999],[-86.5065626,30.44999999999999],[-86.51328310000002,30.44999999999999],[-86.5149773,30.44999999999999],[-86.52773259999998,30.44999999999999],[-86.53317299999998,30.44999999999999],[-86.53653400000002,30.44999999999999],[-86.53821060000001,30.44999999999999],[-86.53856300000001,30.44999999999999],[-86.53893269999998,30.44999999999999],[-86.53916470000001,30.44999999999999],[-86.5425856,30.44999999999999],[-86.5427176,30.44999999999999],[-86.54274170000002,30.44999999999999],[-86.54309799999999,30.44999999999999],[-86.54330290000001,30.44999999999999],[-86.55000000000001,30.44999999999999],[-86.55000000000001,30.457686599999988]]]}},{"type":"Feature","properties":{},"geometry":{"type":"Polygon","coordinates":[[[-86.42933249999999,30.44999999999999],[-86.47109060000003,30.44999999999999],[-86.47500000000002,30.44999999999999],[-86.47500000000002,30.453395999999998],[-86.47500000000002,30.45497929999999],[-86.47500000000002,30.462053700000013],[-86.47500000000002,30.464751200000023],[-86.47500000000002,30.465557999999987],[-86.47500000000002,30.466034999999977],[-86.47500000000002,30.46707570000001],[-86.47500000000002,30.474150899999984],[-86.47500000000002,30.47441409999999],[-86.47500000000002,30.476150399999995],[-86.47500000000002,30.477344099999982],[-86.47500000000002,30.4783405],[-86.47500000000002,30.479068700000028],[-86.47500000000002,30.479689800000017],[-86.47500000000002,30.480032900000026],[-86.47500000000002,30.480608800000027],[-86.47500000000002,30.481304000000023],[-86.47500000000002,30.485668999999973],[-86.47500000000002,30.486655100000007],[-86.47500000000002,30.48736709999997],[-86.47500000000002,30.488029600000004],[-86.47500000000002,30.4883418],[-86.47500000000002,30.489311199999975],[-86.47500000000002,30.524999999999977],[-86.39999999999998,30.524999999999977],[-86.39999999999998,30.465595800000017],[-86.39999999999998,30.465317500000026],[-86.39999999999998,30.463979400000028],[-86.39999999999998,30.463070800000025],[-86.39999999999998,30.453890100000024],[-86.39999999999998,30.45345150000003],[-86.39999999999998,30.452839700000027],[-86.39999999999998,30.4504316],[-86.39999999999998,30.44999999999999],[-86.4021401,30.44999999999999],[-86.40255680000001,30.44999999999999],[-86.40295470000001,30.44999999999999],[-86.41088860000002,30.44999999999999],[-86.4142759,30.44999999999999],[-86.41581389999999,30.44999999999999],[-86.4159563,30.44999999999999],[-86.41814360000001,30.44999999999999],[-86.41871800000001,30.44999999999999],[-86.41943989999999,30.44999999999999],[-86.41974679999998,30.44999999999999],[-86.42099560000003,30.44999999999999],[-86.42114190000001,30.44999999999999],[-86.42350829999998,30.44999999999999],[-86.42452209999999,30.44999999999999],[-86.4249633,30.44999999999999],[-86.42579799999999,30.44999999999999],[-86.42933249999999,30.44999999999999]]]}},{"type":"Feature","properties":{},"geometry":{"type":"Polygon","coordinates":[[[-86.3998282,30.44999999999999],[-86.39999999999998,30.44999999999999],[-86.39999999999998,30.4504316],[-86.39999999999998,30.452839700000027],[-86.39999999999998,30.45345150000003],[-86.39999999999998,30.453890100000024],[-86.39999999999998,30.463070800000025],[-86.39999999999998,30.463979400000028],[-86.39999999999998,30.465317500000026],[-86.39999999999998,30.465595800000017],[-86.39999999999998,30.524999999999977],[-86.32499999999999,30.524999999999977],[-86.32499999999999,30.47822309999998],[-86.32499999999999,30.47780469999998],[-86.32499999999999,30.47645510000001],[-86.32499999999999,30.4760498],[-86.32499999999999,30.474555500000008],[-86.32499999999999,30.46575280000002],[-86.32499999999999,30.458424100000002],[-86.32499999999999,30.44999999999999],[-86.35049479999998,30.44999999999999],[-86.39177210000003,30.44999999999999],[-86.39317169999998,30.44999999999999],[-86.39423640000001,30.44999999999999],[-86.3970165,30.44999999999999],[-86.3998282,30.44999999999999]]]}},{"type":"Feature","properties":{},"geometry":{"type":"Polygon","coordinates":[[[-86.27745119999997,30.44999999999999],[-86.32499999999999,30.44999999999999],[-86.32499999999999,30.458424100000002],[-86.32499999999999,30.46575280000002],[-86.32499999999999,30.474555500000008],[-86.32499999999999,30.4760498],[-86.32499999999999,30.47645510000001],[-86.32499999999999,30.47780469999998],[-86.32499999999999,30.47822309999998],[-86.32499999999999,30.524999999999977],[-86.25,30.524999999999977],[-86.25,30.491865800000028],[-86.25,30.49181299999998],[-86.25,30.48908369999998],[-86.25,30.4879464],[-86.25,30.48722220000002],[-86.25,30.486962000000005],[-86.25,30.485727300000008],[-86.25,30.48423059999999],[-86.25,30.481412499999976],[-86.25,30.480137500000012],[-86.25,30.4707937],[-86.25,30.44999999999999],[-86.27289510000003,30.44999999999999],[-86.27745119999997,30.44999999999999]]]}},{"type":"Feature","properties":{},"geometry":{"type":"Polygon","coordinates":[[[-86.24996090000002,30.44999999999999],[-86.25,30.44999999999999],[-86.25,30.4707937],[-86.25,30.480137500000012],[-86.25,30.481412499999976],[-86.25,30.48423059999999],[-86.25,30.485727300000008],[-86.25,30.486962000000005],[-86.25,30.48722220000002],[-86.25,30.4879464],[-86.25,30.48908369999998],[-86.25,30.49181299999998],[-86.25,30.491865800000028],[-86.25,30.524999999999977],[-86.17500000000001,30.524999999999977],[-86.17500000000001,30.468070399999988],[-86.17500000000001,30.467172500000004],[-86.17500000000001,30.46691659999999],[-86.17500000000001,30.465275399999996],[-86.17500000000001,30.45881650000001],[-86.17500000000001,30.457854999999995],[-86.17500000000001,30.455346599999984],[-86.17500000000001,30.45395020000001],[-86.17500000000001,30.453284800000006],[-86.17500000000001,30.452961300000027],[-86.17500000000001,30.45179280000002],[-86.17500000000001,30.44999999999999],[-86.1784677,30.44999999999999],[-86.18067259999998,30.44999999999999],[-86.1863452,30.44999999999999],[-86.1882592,30.44999999999999],[-86.18918630000002,30.44999999999999],[-86.1934205,30.44999999999999],[-86.2016706,30.44999999999999],[-86.21975329999998,30.44999999999999],[-86.24996090000002,30.44999999999999]]]}},{"type":"Feature","properties":{},"geometry":{"type":"Polygon","coordinates":[[[-86.17360050000002,30.44999999999999],[-86.17500000000001,30.44999999999999],[-86.17500000000001,30.45179280000002],[-86.17500000000001,30.452961300000027],[-86.17500000000001,30.453284800000006],[-86.17500000000001,30.45395020000001],[-86.17500000000001,30.455346599999984],[-86.17500000000001,30.457854999999995],[-86.17500000000001,30.45881650000001],[-86.17500000000001,30.465275399999996],[-86.17500000000001,30.46691659999999],[-86.17500000000001,30.467172500000004],[-86.17500000000001,30.468070399999988],[-86.17500000000001,30.524999999999977],[-86.10000000000002,30.524999999999977],[-86.10000000000002,30.44999999999999],[-86.1015931,30.44999999999999],[-86.10325499999999,30.44999999999999],[-86.13813479999999,30.44999999999999],[-86.1405747,30.44999999999999],[-86.14094169999998,30.44999999999999],[-86.1415925,30.44999999999999],[-86.14171759999999,30.44999999999999],[-86.1606567,30.44999999999999],[-86.16146250000003,30.44999999999999],[-86.16150929999998,30.44999999999999],[-86.16223860000002,30.44999999999999],[-86.1634841,30.44999999999999],[-86.17300069999999,30.44999999999999],[-86.17315339999999,30.44999999999999],[-86.17345110000002,30.44999999999999],[-86.17360050000002,30.44999999999999]]]}},{"type":"Feature","properties":{},"geometry":{"type":"Polygon","coordinates":[[[-87.19761740000001,30.600000000000023],[-87.14999999999998,30.600000000000023],[-87.14999999999998,30.573714600000017],[-87.14999999999998,30.553923199999986],[-87.14999999999998,30.524999999999977],[-87.15202260000001,30.524999999999977],[-87.15238310000001,30.524999999999977],[-87.15293589999999,30.524999999999977],[-87.15604830000001,30.524999999999977],[-87.15644800000001,30.524999999999977],[-87.15833070000002,30.524999999999977],[-87.16025960000002,30.524999999999977],[-87.18244229999999,30.524999999999977],[-87.18278800000002,30.524999999999977],[-87.205,30.524999999999977],[-87.205,30.600000000000023],[-87.19761740000001,30.600000000000023]]]}},{"type":"Feature","properties":{},"geometry":{"type":"Polygon","coordinates":[[[-87.14401750000002,30.524999999999977],[-87.14460070000001,30.524999999999977],[-87.14545129999999,30.524999999999977],[-87.14999999999998,30.524999999999977],[-87.14999999999998,30.553923199999986],[-87.14999999999998,30.573714600000017],[-87.14999999999998,30.600000000000023],[-87.07499999999999,30.600000000000023],[-87.07499999999999,30.524999999999977],[-87.0862305,30.524999999999977],[-87.08666620000002,30.524999999999977],[-87.09692439999998,30.524999999999977],[-87.10218479999997,30.524999999999977],[-87.10342960000003,30.524999999999977],[-87.1095623,30.524999999999977],[-87.13324440000002,30.524999999999977],[-87.1353464,30.524999999999977],[-87.13612769999997,30.524999999999977],[-87.13802190000001,30.524999999999977],[-87.139657,30.524999999999977],[-87.14401750000002,30.524999999999977]]]}},{"type":"Feature","properties":{},"geometry":{"type":"Polygon","coordinates":[[[-87.04446890000003,30.524999999999977],[-87.07499999999999,30.524999999999977],[-87.07499999999999,30.600000000000023],[-87.0671767,30.600000000000023],[-87.03567770000001,30.600000000000023],[-87.0256574,30.600000000000023],[-87.02424159999998,30.600000000000023],[-87.0238799,30.600000000000023],[-87.0237558,30.600000000000023],[-87.02359130000002,30.600000000000023],[-87.02300059999999,30.600000000000023],[-87.02221450000002,30.600000000000023],[-87.02152890000002,30.600000000000023],[-87.02116280000001,30.600000000000023],[-87.0197834,30.600000000000023],[-87.01968570000003,30.600000000000023],[-87.01939190000002,30.600000000000023],[-87.019294,30.600000000000023],[-87.0187138,30.600000000000023],[-87.01844190000003,30.600000000000023],[-87.01815499999998,30.600000000000023],[-87.01738119999999,30.600000000000023],[-87.01667900000001,30.600000000000023],[-87.01635060000001,30.600000000000023],[-87.01564400000001,30.600000000000023],[-87.01322429999999,30.600000000000023],[-87.01138309999999,30.600000000000023],[-87.00859860000003,30.600000000000023],[-87.0074118,30.600000000000023],[-87.0,30.600000000000023],[-87.0,30.585396899999978],[-87.0,30.58430709999999],[-87.0,30.584305500000028],[-87.0,30.58416249999999],[-87.0,30.58416219999998],[-87.0,30.584058700000014],[-87.0,30.584010200000023],[-87.0,30.58306140000002],[-87.0,30.582890299999974],[-87.0,30.582758599999977],[-87.0,30.578550000000007],[-87.0,30.577909999999974],[-87.0,30.57775700000002],[-87.0,30.577756099999988],[-87.0,30.576651700000014],[-87.0,30.57219070000002],[-87.0,30.56990830000001],[-87.0,30.569820300000003],[-87.0,30.569556299999988],[-87.0,30.569468299999983],[-87.0,30.563969999999983],[-87.0,30.563968799999998],[-87.0,30.563863200000014],[-87.0,30.563542600000005],[-87.0,30.563435700000014],[-87.0,30.563435000000027],[-87.0,30.561602600000015],[-87.0,30.561173699999983],[-87.0,30.555204800000013],[-87.0,30.553359399999977],[-87.0,30.551444800000013],[-87.0,30.548913200000015],[-87.0,30.548903300000006],[-87.0,30.54754459999998],[-87.0,30.545838600000025],[-87.0,30.544853699999976],[-87.0,30.54483859999999],[-87.0,30.5441955],[-87.0,30.543755799999985],[-87.0,30.543683699999974],[-87.0,30.54127390000002],[-87.0,30.538979400000017],[-87.0,30.537772500000017],[-87.0,30.535033699999985],[-87.0,30.533923200000004],[-87.0,30.530276500000014],[-87.0,30.524999999999977],[-87.00077049999999,30.524999999999977],[-87.00368739999999,30.524999999999977],[-87.01890850000001,30.524999999999977],[-87.02339060000003,30.524999999999977],[-87.02488879999999,30.524999999999977],[-87.02627840000002,30.524999999999977],[-87.02665300000001,30.524999999999977],[-87.02672710000002,30.524999999999977],[-87.02694939999998,30.524999999999977],[-87.02702340000002,30.524999999999977],[-87.04026670000002,30.524999999999977],[-87.04446890000003,30.524999999999977]]]}},{"type":"Feature","properties":{},"geometry":{"type":"Polygon","coordinates":[[[-87.0,30.530276500000014],[-87.0,30.533923200000004],[-87.0,30.535033699999985],[-87.0,30.537772500000017],[-87.0,30.538979400000017],[-87.0,30.54127390000002],[-87.0,30.543683699999974],[-87.0,30.543755799999985],[-87.0,30.5441955],[-87.0,30.54483859999999],[-87.0,30.544853699999976],[-87.0,30.545838600000025],[-87.0,30.54754459999998],[-87.0,30.548903300000006],[-87.0,30.548913200000015],[-87.0,30.551444800000013],[-87.0,30.553359399999977],[-87.0,30.555204800000013],[-87.0,30.561173699999983],[-87.0,30.561602600000015],[-87.0,30.563435000000027],[-87.0,30.563435700000014],[-87.0,30.563542600000005],[-87.0,30.563863200000014],[-87.0,30.563968799999998],[-87.0,30.563969999999983],[-87.0,30.569468299999983],[-87.0,30.569556299999988],[-87.0,30.569820300000003],[-87.0,30.569908199999986],[-87.0,30.57219070000002],[-87.0,30.576651700000014],[-87.0,30.577756099999988],[-87.0,30.57775700000002],[-87.0,30.577909999999974],[-87.0,30.578550000000007],[-87.0,30.582758599999977],[-87.0,30.582890299999974],[-87.0,30.58306140000002],[-87.0,30.584010200000023],[-87.0,30.584058700000014],[-87.0,30.58416219999998],[-87.0,30.58416249999999],[-87.0,30.584305500000028],[-87.0,30.58430709999999],[-87.0,30.585396899999978],[-87.0,30.600000000000023],[-86.92940019999998,30.600000000000023],[-86.92500000000001,30.600000000000023],[-86.92500000000001,30.524999999999977],[-86.98652379999999,30.524999999999977],[-86.99160920000003,30.524999999999977],[-87.0,30.524999999999977],[-87.0,30.530276500000014]]]}},{"type":"Feature","properties":{},"geometry":{"type":"Polygon","coordinates":[[[-87.0,30.65058110000001],[-87.0,30.650048400000003],[-87.0,30.649999999999977],[-87.0,30.647949200000028],[-87.0,30.600000000000023],[-87.0074118,30.600000000000023],[-87.00859860000003,30.600000000000023],[-87.01138309999999,30.600000000000023],[-87.01322429999999,30.600000000000023],[-87.01564400000001,30.600000000000023],[-87.01635060000001,30.600000000000023],[-87.01667900000001,30.600000000000023],[-87.017132,30.600000000000023],[-87.01738119999999,30.600000000000023],[-87.01815499999998,30.600000000000023],[-87.01844190000003,30.600000000000023],[-87.0187138,30.600000000000023],[-87.019294,30.600000000000023],[-87.01939190000002,30.600000000000023],[-87.01968570000003,30.600000000000023],[-87.0197834,30.600000000000023],[-87.02116280000001,30.600000000000023],[-87.02152890000002,30.600000000000023],[-87.02221450000002,30.600000000000023],[-87.02300059999999,30.600000000000023],[-87.02359130000002,30.600000000000023],[-87.0237558,30.600000000000023],[-87.0238799,30.600000000000023],[-87.02424159999998,30.600000000000023],[-87.0256574,30.600000000000023],[-87.03567770000001,30.600000000000023],[-87.0671767,30.600000000000023],[-87.07499999999999,30.600000000000023],[-87.07499999999999,30.67500000000001],[-87.0,30.67500000000001],[-87.0,30.65181130000002],[-87.0,30.650798899999984],[-87.0,30.65058110000001]]]}},{"type":"Feature","properties":{},"geometry":{"type":"Polygon","coordinates":[[[-87.20057709999998,30.30000000000001],[-87.19097219999998,30.30000000000001],[-87.16174310000002,30.30000000000001],[-87.14999999999998,30.30000000000001],[-87.14999999999998,30.284296400000017],[-87.14999999999998,30.27813279999998],[-87.14999999999998,30.277768999999978],[-87.14999999999998,30.261707600000022],[-87.14999999999998,30.261450799999977],[-87.14999999999998,30.24330359999999],[-87.14999999999998,30.233571400000017],[-87.14999999999998,30.227147000000002],[-87.14999999999998,30.225855299999978],[-87.14999999999998,30.225000000000023],[-87.15506720000002,30.225000000000023],[-87.15800000000002,30.225000000000023],[-87.1622582,30.225000000000023],[-87.16318719999998,30.225000000000023],[-87.205,30.225000000000023],[-87.205,30.30000000000001],[-87.20057709999998,30.30000000000001]]]}},{"type":"Feature","properties":{},"geometry":{"type":"Polygon","coordinates":[[[-87.14999999999998,30.225000000000023],[-87.14999999999998,30.225855299999978],[-87.14999999999998,30.227147000000002],[-87.14999999999998,30.233571400000017],[-87.14999999999998,30.24330359999999],[-87.14999999999998,30.261450799999977],[-87.14999999999998,30.261707600000022],[-87.14999999999998,30.277768999999978],[-87.14999999999998,30.27813279999998],[-87.14999999999998,30.284296400000017],[-87.14999999999998,30.30000000000001],[-87.13758380000002,30.30000000000001],[-87.12390110000001,30.30000000000001],[-87.11679379999998,30.30000000000001],[-87.1061856,30.30000000000001],[-87.1006615,30.30000000000001],[-87.09115489999999,30.30000000000001],[-87.08134749999999,30.30000000000001],[-87.07499999999999,30.30000000000001],[-87.07499999999999,30.295668799999987],[-87.07499999999999,30.29194000000001],[-87.07499999999999,30.291651399999978],[-87.07499999999999,30.291569600000003],[-87.07499999999999,30.273925299999974],[-87.07499999999999,30.27384649999999],[-87.07499999999999,30.239366700000005],[-87.07499999999999,30.238514500000008],[-87.07499999999999,30.225000000000023],[-87.14999999999998,30.225000000000023]]]}},{"type":"Feature","properties":{},"geometry":{"type":"Polygon","coordinates":[[[-87.2043448,30.375],[-87.20206280000002,30.375],[-87.19931329999997,30.375],[-87.1990328,30.375],[-87.19666160000003,30.375],[-87.19645129999998,30.375],[-87.19604399999997,30.375],[-87.18573450000002,30.375],[-87.18092969999998,30.375],[-87.18074209999997,30.375],[-87.17956179999999,30.375],[-87.17943409999998,30.375],[-87.1794256,30.375],[-87.17787140000002,30.375],[-87.17766640000002,30.375],[-87.17687990000002,30.375],[-87.17623750000001,30.375],[-87.17610350000001,30.375],[-87.1757073,30.375],[-87.14999999999998,30.375],[-87.14999999999998,30.372552900000017],[-87.14999999999998,30.37133510000001],[-87.14999999999998,30.369129600000008],[-87.14999999999998,30.3676557],[-87.14999999999998,30.3589207],[-87.14999999999998,30.357555699999978],[-87.14999999999998,30.356571499999973],[-87.14999999999998,30.355669200000023],[-87.14999999999998,30.353689400000007],[-87.14999999999998,30.350166300000012],[-87.14999999999998,30.349926400000015],[-87.14999999999998,30.349903700000027],[-87.14999999999998,30.349726999999973],[-87.14999999999998,30.349550599999986],[-87.14999999999998,30.3492976],[-87.14999999999998,30.349264300000016],[-87.14999999999998,30.34917009999998],[-87.14999999999998,30.347217699999987],[-87.14999999999998,30.34482700000001],[-87.14999999999998,30.3443982],[-87.14999999999998,30.3427413],[-87.14999999999998,30.3421156],[-87.14999999999998,30.34161660000001],[-87.14999999999998,30.34032000000002],[-87.14999999999998,30.338351799999998],[-87.14999999999998,30.33827150000002],[-87.14999999999998,30.336393299999997],[-87.14999999999998,30.336151299999983],[-87.14999999999998,30.335781199999985],[-87.14999999999998,30.331669999999974],[-87.14999999999998,30.33141440000003],[-87.14999999999998,30.3310611],[-87.14999999999998,30.32861810000003],[-87.14999999999998,30.326645999999982],[-87.14999999999998,30.326094599999976],[-87.14999999999998,30.323586299999988],[-87.14999999999998,30.3173271],[-87.14999999999998,30.314027399999986],[-87.14999999999998,30.304822399999978],[-87.14999999999998,30.30000000000001],[-87.16174310000002,30.30000000000001],[-87.19097219999998,30.30000000000001],[-87.20057709999998,30.30000000000001],[-87.205,30.30000000000001],[-87.205,30.375],[-87.2043448,30.375]]]}},{"type":"Feature","properties":{},"geometry":{"type":"Polygon","coordinates":[[[-87.19827679999997,30.44999999999999],[-87.1956189,30.44999999999999],[-87.1944891,30.44999999999999],[-87.1935815,30.44999999999999],[-87.17181599999998,30.44999999999999],[-87.17032590000002,30.44999999999999],[-87.1670317,30.44999999999999],[-87.15906669999998,30.44999999999999],[-87.14999999999998,30.44999999999999],[-87.14999999999998,30.437414199999978],[-87.14999999999998,30.43395290000001],[-87.14999999999998,30.418831899999986],[-87.14999999999998,30.415474599999982],[-87.14999999999998,30.412334199999975],[-87.14999999999998,30.389723300000014],[-87.14999999999998,30.3892113],[-87.14999999999998,30.3819934],[-87.14999999999998,30.375],[-87.1757073,30.375],[-87.17610350000001,30.375],[-87.17623750000001,30.375],[-87.17687990000002,30.375],[-87.17766640000002,30.375],[-87.17787140000002,30.375],[-87.1794256,30.375],[-87.17943409999998,30.375],[-87.17956179999999,30.375],[-87.18074209999997,30.375],[-87.18092969999998,30.375],[-87.18573450000002,30.375],[-87.19604399999997,30.375],[-87.19645129999998,30.375],[-87.19666160000003,30.375],[-87.1990328,30.375],[-87.19931329999997,30.375],[-87.20206280000002,30.375],[-87.2043448,30.375],[-87.205,30.375],[-87.205,30.44999999999999],[-87.19827679999997,30.44999999999999]]]}}]}