{"type":"FeatureCollection","features":[{"type":"Feature","properties":{},"geometry":{"type":"Polygon","coordinates":[[[-83.01401069999997,29.024999999999977],[-83.01656129999998,29.024999999999977],[-83.02499999999998,29.024999999999977],[-83.02499999999998,29.038697599999978],[-83.02499999999998,29.0535984],[-83.02499999999998,29.056776800000023],[-83.02499999999998,29.0570788],[-83.02499999999998,29.065091199999983],[-83.02499999999998,29.06552160000001],[-83.02499999999998,29.0656295],[-83.02499999999998,29.082475199999976],[-83.02499999999998,29.0863923],[-83.02499999999998,29.092532399999982],[-83.02499999999998,29.0933804],[-83.02499999999998,29.094134300000007],[-83.02499999999998,29.0964204],[-83.02499999999998,29.09733349999999],[-83.02499999999998,29.098213299999998],[-83.02499999999998,29.099034300000028],[-83.02499999999998,29.099950200000023],[-83.02499999999998,29.099962000000005],[-83.02499999999998,29.100000000000023],[-83.02159999999998,29.100000000000023],[-83.02090980000003,29.100000000000023],[-83.0207848,29.100000000000023],[-83.0179387,29.100000000000023],[-83.01591660000003,29.100000000000023],[-83.01370400000002,29.100000000000023],[-83.01127459999998,29.100000000000023],[-83.00669160000001,29.100000000000023],[-83.00010850000001,29.100000000000023],[-82.99888650000003,29.100000000000023],[-82.99250189999998,29.100000000000023],[-82.99187319999999,29.100000000000023],[-82.99150789999999,29.100000000000023],[-82.98935599999999,29.100000000000023],[-82.98892489999997,29.100000000000023],[-82.9876797,29.100000000000023],[-82.98702739999999,29.100000000000023],[-82.9833294,29.100000000000023],[-82.98244340000002,29.100000000000023],[-82.98180439999999,29.100000000000023],[-82.97983629999999,29.100000000000023],[-82.97551199999998,29.100000000000023],[-82.97494790000002,29.100000000000023],[-82.97140359999997,29.100000000000023],[-82.9681185,29.100000000000023],[-82.96293120000001,29.100000000000023],[-82.95953859999997,29.100000000000023],[-82.95476989999997,29.100000000000023],[-82.94999999999999,29.100000000000023],[-82.94999999999999,29.0796881],[-82.94999999999999,29.078451700000016],[-82.94999999999999,29.0780661],[-82.94999999999999,29.06873280000002],[-82.94999999999999,29.066861300000028],[-82.94999999999999,29.038229399999977],[-82.94999999999999,29.024999999999977],[-82.97765220000002,29.024999999999977],[-83.0129781,29.024999999999977],[-83.01401069999997,29.024999999999977]]]}},{"type":"Feature","properties":{},"geometry":{"type":"Polygon","coordinates":[[[-83.1476156,29.024999999999977],[-83.15830469999997,29.024999999999977],[-83.15967360000002,29.024999999999977],[-83.17500000000001,29.024999999999977],[-83.17500000000001,29.100000000000023],[-83.17368920000001,29.100000000000023],[-83.17090769999999,29.100000000000023],[-83.1665294,29.100000000000023],[-83.1603399,29.100000000000023],[-83.15992990000001,29.100000000000023],[-83.15254429999999,29.100000000000023],[-83.1506187,29.100000000000023],[-83.14484750000003,29.100000000000023],[-83.14429430000001,29.100000000000023],[-83.13463439999998,29.100000000000023],[-83.13317169999999,29.100000000000023],[-83.1305587,29.100000000000023],[-83.11563310000003,29.100000000000023],[-83.10000000000002,29.100000000000023],[-83.10000000000002,29.097613500000023],[-83.10000000000002,29.078720599999997],[-83.10000000000002,29.069130299999983],[-83.10000000000002,29.06552160000001],[-83.10000000000002,29.056559100000015],[-83.10000000000002,29.055191499999978],[-83.10000000000002,29.032836499999974],[-83.10000000000002,29.032419800000014],[-83.10000000000002,29.024999999999977],[-83.1017195,29.024999999999977],[-83.1090754,29.024999999999977],[-83.1164953,29.024999999999977],[-83.12368140000001,29.024999999999977],[-83.12425359999997,29.024999999999977],[-83.1248425,29.024999999999977],[-83.12562730000002,29.024999999999977],[-83.1267646,29.024999999999977],[-83.12680990000001,29.024999999999977],[-83.12720739999997,29.024999999999977],[-83.13672109999999,29.024999999999977],[-83.13917980000002,29.024999999999977],[-83.1450524,29.024999999999977],[-83.1476156,29.024999999999977]]]}},{"type":"Feature","properties":{},"geometry":{"type":"Polygon","coordinates":[[[-83.08548789999998,29.024999999999977],[-83.09451899999999,29.024999999999977],[-83.10000000000002,29.024999999999977],[-83.10000000000002,29.028750300000013],[-83.10000000000002,29.032419800000014],[-83.10000000000002,29.032836499999974],[-83.10000000000002,29.055191499999978],[-83.10000000000002,29.056559100000015],[-83.10000000000002,29.05984619999998],[-83.10000000000002,29.06552160000001],[-83.10000000000002,29.069130299999983],[-83.10000000000002,29.07872070000002],[-83.10000000000002,29.095183599999984],[-83.10000000000002,29.097613500000023],[-83.10000000000002,29.09992249999999],[-83.10000000000002,29.100000000000023],[-83.0985594,29.100000000000023],[-83.09702190000002,29.100000000000023],[-83.09460339999998,29.100000000000023],[-83.0921659,29.100000000000023],[-83.0774328,29.100000000000023],[-83.07549649999999,29.100000000000023],[-83.07506749999999,29.100000000000023],[-83.07228400000002,29.100000000000023],[-83.06964479999999,29.100000000000023],[-83.069302,29.100000000000023],[-83.06869569999998,29.100000000000023],[-83.0668556,29.100000000000023],[-83.06539679999997,29.100000000000023],[-83.06303059999999,29.100000000000023],[-83.06170689999999,29.100000000000023],[-83.06099499999999,29.100000000000023],[-83.05921039999998,29.100000000000023],[-83.05871209999998,29.100000000000023],[-83.05850509999999,29.100000000000023],[-83.05814709999999,29.100000000000023],[-83.05680569999998,29.100000000000023],[-83.05631849999997,29.100000000000023],[-83.0507781,29.100000000000023],[-83.0459669,29.100000000000023],[-83.04433899999998,29.100000000000023],[-83.0415097,29.100000000000023],[-83.04030870000003,29.100000000000023],[-83.0351875,29.100000000000023],[-83.02973079999998,29.100000000000023],[-83.0285738,29.100000000000023],[-83.02851529999998,29.100000000000023],[-83.02624550000002,29.100000000000023],[-83.02499999999998,29.100000000000023],[-83.02499999999998,29.099962000000005],[-83.02499999999998,29.099950200000023],[-83.02499999999998,29.099034300000028],[-83.02499999999998,29.098213299999998],[-83.02499999999998,29.09733349999999],[-83.02499999999998,29.0964204],[-83.02499999999998,29.094134300000007],[-83.02499999999998,29.0933804],[-83.02499999999998,29.092532399999982],[-83.02499999999998,29.0656295],[-83.02499999999998,29.06552160000001],[-83.02499999999998,29.065091199999983],[-83.02499999999998,29.0570788],[-83.02499999999998,29.056776800000023],[-83.02499999999998,29.0535984],[-83.02499999999998,29.042463399999974],[-83.02499999999998,29.039254900000003],[-83.02499999999998,29.038697599999978],[-83.02499999999998,29.024999999999977],[-83.0352522,29.024999999999977],[-83.04370290000003,29.024999999999977],[-83.0443497,29.024999999999977],[-83.04521929999999,29.024999999999977],[-83.04523799999998,29.024999999999977],[-83.05054860000001,29.024999999999977],[-83.0603385,29.024999999999977],[-83.06129240000001,29.024999999999977],[-83.08020140000002,29.024999999999977],[-83.08103690000002,29.024999999999977],[-83.08548789999998,29.024999999999977]]]}},{"type":"Feature","properties":{},"geometry":{"type":"Polygon","coordinates":[[[-83.02159999999998,29.100000000000023],[-83.02499999999998,29.100000000000023],[-83.02499999999998,29.11674629999999],[-83.02499999999998,29.118760399999985],[-83.02499999999998,29.119346899999982],[-83.02499999999998,29.12093349999998],[-83.02499999999998,29.123599599999977],[-83.02499999999998,29.123850300000015],[-83.02499999999998,29.12442199999998],[-83.02499999999998,29.125069600000018],[-83.02499999999998,29.125389400000017],[-83.02499999999998,29.125593400000014],[-83.02499999999998,29.127907800000003],[-83.02499999999998,29.128712199999995],[-83.02499999999998,29.130005799999992],[-83.02499999999998,29.130440099999987],[-83.02499999999998,29.13151529999999],[-83.02499999999998,29.134399700000017],[-83.02499999999998,29.137416400000006],[-83.02499999999998,29.138944200000026],[-83.02499999999998,29.139349700000025],[-83.02499999999998,29.139532700000018],[-83.02499999999998,29.13962079999999],[-83.02499999999998,29.139906199999984],[-83.02499999999998,29.14059309999999],[-83.02499999999998,29.141644900000017],[-83.02499999999998,29.142361600000015],[-83.02499999999998,29.14246639999999],[-83.02499999999998,29.14259499999997],[-83.02499999999998,29.14315479999999],[-83.02499999999998,29.146770600000025],[-83.02499999999998,29.159361400000023],[-83.02499999999998,29.160084600000005],[-83.02499999999998,29.160973599999977],[-83.02499999999998,29.161133300000017],[-83.02499999999998,29.168983799999978],[-83.02499999999998,29.169423100000017],[-83.02499999999998,29.17023899999998],[-83.02499999999998,29.171827899999982],[-83.02499999999998,29.17500000000001],[-83.02247469999998,29.17500000000001],[-83.01699889999998,29.17500000000001],[-83.0164403,29.17500000000001],[-83.0122857,29.17500000000001],[-83.01079859999999,29.17500000000001],[-83.00737420000002,29.17500000000001],[-83.00518899999997,29.17500000000001],[-83.00433709999999,29.17500000000001],[-82.99790780000001,29.17500000000001],[-82.99404980000003,29.17500000000001],[-82.99189230000002,29.17500000000001],[-82.9912081,29.17500000000001],[-82.98378380000003,29.17500000000001],[-82.98290659999998,29.17500000000001],[-82.98117989999997,29.17500000000001],[-82.9769963,29.17500000000001],[-82.973614,29.17500000000001],[-82.9717966,29.17500000000001],[-82.96481599999998,29.17500000000001],[-82.96380190000002,29.17500000000001],[-82.96140860000003,29.17500000000001],[-82.96069970000002,29.17500000000001],[-82.9594654,29.17500000000001],[-82.95644199999998,29.17500000000001],[-82.9558207,29.17500000000001],[-82.95405369999997,29.17500000000001],[-82.95258589999997,29.17500000000001],[-82.95183329999998,29.17500000000001],[-82.9508548,29.17500000000001],[-82.9503191,29.17500000000001],[-82.94999999999999,29.17500000000001],[-82.94999999999999,29.17317559999998],[-82.94999999999999,29.1727975],[-82.94999999999999,29.171749299999988],[-82.94999999999999,29.171239000000014],[-82.94999999999999,29.168570699999975],[-82.94999999999999,29.164066900000023],[-82.94999999999999,29.133696199999974],[-82.94999999999999,29.13347399999998],[-82.94999999999999,29.133052099999986],[-82.94999999999999,29.132637999999986],[-82.94999999999999,29.12682990000002],[-82.94999999999999,29.126077899999984],[-82.94999999999999,29.125500699999975],[-82.94999999999999,29.12006889999998],[-82.94999999999999,29.119544099999985],[-82.94999999999999,29.11677259999999],[-82.94999999999999,29.11215850000002],[-82.94999999999999,29.111724900000013],[-82.94999999999999,29.111669699999993],[-82.94999999999999,29.100000000000023],[-82.95476989999997,29.100000000000023],[-82.95953859999997,29.100000000000023],[-82.96293120000001,29.100000000000023],[-82.97066260000003,29.100000000000023],[-82.97140359999997,29.100000000000023],[-82.97494790000002,29.100000000000023],[-82.97551199999998,29.100000000000023],[-82.97983629999999,29.100000000000023],[-82.98180439999999,29.100000000000023],[-82.98244340000002,29.100000000000023],[-82.9833294,29.100000000000023],[-82.98702739999999,29.100000000000023],[-82.9876797,29.100000000000023],[-82.98892489999997,29.100000000000023],[-82.98935599999999,29.100000000000023],[-82.99150789999999,29.100000000000023],[-82.99187319999999,29.100000000000023],[-82.99250189999998,29.100000000000023],[-82.99888650000003,29.100000000000023],[-83.00010850000001,29.100000000000023],[-83.00669160000001,29.100000000000023],[-83.01127459999998,29.100000000000023],[-83.01370400000002,29.100000000000023],[-83.01591660000003,29.100000000000023],[-83.0179387,29.100000000000023],[-83.02090980000003,29.100000000000023],[-83.02159999999998,29.100000000000023]]]}},{"type":"Feature","properties":{},"geometry":{"type":"Polygon","coordinates":[[[-83.17368920000001,29.100000000000023],[-83.17500000000001,29.100000000000023],[-83.17500000000001,29.13070570000002],[-83.17500000000001,29.135923900000023],[-83.17500000000001,29.13656709999998],[-83.17500000000001,29.14145020000001],[-83.17500000000001,29.162083300000006],[-83.17500000000001,29.167163700000003],[-83.17500000000001,29.17500000000001],[-83.1718487,29.17500000000001],[-83.1714096,29.17500000000001],[-83.16592070000002,29.17500000000001],[-83.16260679999999,29.17500000000001],[-83.12549940000002,29.17500000000001],[-83.10000000000002,29.17500000000001],[-83.10000000000002,29.174600399999974],[-83.10000000000002,29.174053000000015],[-83.10000000000002,29.173691399999996],[-83.10000000000002,29.172257300000012],[-83.10000000000002,29.170194900000013],[-83.10000000000002,29.166006400000015],[-83.10000000000002,29.165539299999978],[-83.10000000000002,29.16444230000002],[-83.10000000000002,29.159369000000027],[-83.10000000000002,29.15770759999998],[-83.10000000000002,29.154986099999974],[-83.10000000000002,29.150348800000017],[-83.10000000000002,29.142560000000003],[-83.10000000000002,29.14246639999999],[-83.10000000000002,29.140963399999976],[-83.10000000000002,29.139613899999972],[-83.10000000000002,29.139598499999977],[-83.10000000000002,29.139348199999972],[-83.10000000000002,29.139334799999972],[-83.10000000000002,29.13906800000001],[-83.10000000000002,29.138858700000014],[-83.10000000000002,29.138348399999984],[-83.10000000000002,29.135315100000014],[-83.10000000000002,29.133715199999983],[-83.10000000000002,29.13160959999999],[-83.10000000000002,29.130621399999995],[-83.10000000000002,29.121792900000003],[-83.10000000000002,29.119672400000013],[-83.10000000000002,29.100000000000023],[-83.11563310000003,29.100000000000023],[-83.1305587,29.100000000000023],[-83.13317169999999,29.100000000000023],[-83.13463439999998,29.100000000000023],[-83.14429430000001,29.100000000000023],[-83.14484750000003,29.100000000000023],[-83.1506187,29.100000000000023],[-83.15254429999999,29.100000000000023],[-83.15992990000001,29.100000000000023],[-83.1603399,29.100000000000023],[-83.1665294,29.100000000000023],[-83.17090769999999,29.100000000000023],[-83.17368920000001,29.100000000000023]]]}},{"type":"Feature","properties":{},"geometry":{"type":"Polygon","coordinates":[[[-83.0985594,29.100000000000023],[-83.10000000000002,29.100000000000023],[-83.10000000000002,29.118448600000022],[-83.10000000000002,29.119672400000013],[-83.10000000000002,29.121792900000003],[-83.10000000000002,29.130621399999995],[-83.10000000000002,29.13160959999999],[-83.10000000000002,29.133715199999983],[-83.10000000000002,29.135315100000014],[-83.10000000000002,29.138858700000014],[-83.10000000000002,29.139334799999972],[-83.10000000000002,29.139348199999972],[-83.10000000000002,29.139598499999977],[-83.10000000000002,29.139613899999972],[-83.10000000000002,29.140963399999976],[-83.10000000000002,29.14246639999999],[-83.10000000000002,29.142560000000003],[-83.10000000000002,29.150348800000017],[-83.10000000000002,29.154986099999974],[-83.10000000000002,29.15770759999998],[-83.10000000000002,29.159369000000027],[-83.10000000000002,29.16444230000002],[-83.10000000000002,29.165539299999978],[-83.10000000000002,29.166006400000015],[-83.10000000000002,29.170194900000013],[-83.10000000000002,29.172257300000012],[-83.10000000000002,29.173691399999996],[-83.10000000000002,29.174053000000015],[-83.10000000000002,29.174600399999974],[-83.10000000000002,29.17500000000001],[-83.09967699999999,29.17500000000001],[-83.09904599999999,29.17500000000001],[-83.09680939999998,29.17500000000001],[-83.09677299999998,29.17500000000001],[-83.09491079999998,29.17500000000001],[-83.0862745,29.17500000000001],[-83.07736039999998,29.17500000000001],[-83.0737699,29.17500000000001],[-83.06861099999998,29.17500000000001],[-83.06817690000003,29.17500000000001],[-83.06689590000002,29.17500000000001],[-83.06303500000001,29.17500000000001],[-83.06275069999998,29.17500000000001],[-83.06057629999998,29.17500000000001],[-83.05361199999999,29.17500000000001],[-83.05018189999998,29.17500000000001],[-83.04787219999997,29.17500000000001],[-83.04635760000002,29.17500000000001],[-83.04333589999999,29.17500000000001],[-83.0424688,29.17500000000001],[-83.0414376,29.17500000000001],[-83.03929199999999,29.17500000000001],[-83.038881,29.17500000000001],[-83.03631080000002,29.17500000000001],[-83.03346040000002,29.17500000000001],[-83.03312160000002,29.17500000000001],[-83.03071039999998,29.17500000000001],[-83.03021469999999,29.17500000000001],[-83.02679649999999,29.17500000000001],[-83.02529529999998,29.17500000000001],[-83.02499999999998,29.17500000000001],[-83.02499999999998,29.171827899999982],[-83.02499999999998,29.17023899999998],[-83.02499999999998,29.169423100000017],[-83.02499999999998,29.168983799999978],[-83.02499999999998,29.161133300000017],[-83.02499999999998,29.160973599999977],[-83.02499999999998,29.160084600000005],[-83.02499999999998,29.159361400000023],[-83.02499999999998,29.146770600000025],[-83.02499999999998,29.14315479999999],[-83.02499999999998,29.14259499999997],[-83.02499999999998,29.14246639999999],[-83.02499999999998,29.142361600000015],[-83.02499999999998,29.141644900000017],[-83.02499999999998,29.14059309999999],[-83.02499999999998,29.139906199999984],[-83.02499999999998,29.13962079999999],[-83.02499999999998,29.139532700000018],[-83.02499999999998,29.139349700000025],[-83.02499999999998,29.138944200000026],[-83.02499999999998,29.137416400000006],[-83.02499999999998,29.136160299999972],[-83.02499999999998,29.134399700000017],[-83.02499999999998,29.13151529999999],[-83.02499999999998,29.130440099999987],[-83.02499999999998,29.130005799999992],[-83.02499999999998,29.128712199999995],[-83.02499999999998,29.127907800000003],[-83.02499999999998,29.125593400000014],[-83.02499999999998,29.125389400000017],[-83.02499999999998,29.125069600000018],[-83.02499999999998,29.12442199999998],[-83.02499999999998,29.123850300000015],[-83.02499999999998,29.123599599999977],[-83.02499999999998,29.12093349999998],[-83.02499999999998,29.118760399999985],[-83.02499999999998,29.11674629999999],[-83.02499999999998,29.100000000000023],[-83.02624550000002,29.100000000000023],[-83.02660070000002,29.100000000000023],[-83.02851529999998,29.100000000000023],[-83.0285738,29.100000000000023],[-83.02973079999998,29.100000000000023],[-83.0351875,29.100000000000023],[-83.04030870000003,29.100000000000023],[-83.0415097,29.100000000000023],[-83.04433899999998,29.100000000000023],[-83.05631849999997,29.100000000000023],[-83.05680569999998,29.100000000000023],[-83.05850509999999,29.100000000000023],[-83.05871209999998,29.100000000000023],[-83.05921039999998,29.100000000000023],[-83.06099499999999,29.100000000000023],[-83.06170689999999,29.100000000000023],[-83.06303059999999,29.100000000000023],[-83.06539679999997,29.100000000000023],[-83.0668556,29.100000000000023],[-83.06869569999998,29.100000000000023],[-83.069302,29.100000000000023],[-83.06964479999999,29.100000000000023],[-83.07228400000002,29.100000000000023],[-83.07506749999999,29.100000000000023],[-83.07549649999999,29.100000000000023],[-83.0774328,29.100000000000023],[-83.0921659,29.100000000000023],[-83.09460339999998,29.100000000000023],[-83.0985594,29.100000000000023]]]}},{"type":"Feature","properties":{},"geometry":{"type":"Polygon","coordinates":[[[-83.23933840000001,29.25],[-83.25,29.25],[-83.25,29.318688099999974],[-83.25,29.319251099999974],[-83.25,29.32499999999999],[-83.23327280000001,29.32499999999999],[-83.21677920000002,29.32499999999999],[-83.20845100000003,29.32499999999999],[-83.20261499999998,29.32499999999999],[-83.19462320000002,29.32499999999999],[-83.19451090000001,29.32499999999999],[-83.1899176,29.32499999999999],[-83.18880990000002,29.32499999999999],[-83.188065,29.32499999999999],[-83.187793,29.32499999999999],[-83.17500000000001,29.32499999999999],[-83.17500000000001,29.316117299999974],[-83.17500000000001,29.313293699999974],[-83.17500000000001,29.312101600000005],[-83.17500000000001,29.304873199999975],[-83.17500000000001,29.304529000000002],[-83.17500000000001,29.304264199999977],[-83.17500000000001,29.304035],[-83.17500000000001,29.303611699999976],[-83.17500000000001,29.303344100000004],[-83.17500000000001,29.303190099999995],[-83.17500000000001,29.30266740000002],[-83.17500000000001,29.30191209999998],[-83.17500000000001,29.291766999999993],[-83.17500000000001,29.280874100000005],[-83.17500000000001,29.269538399999988],[-83.17500000000001,29.26274890000002],[-83.17500000000001,29.260801000000015],[-83.17500000000001,29.259082999999976],[-83.17500000000001,29.250943699999993],[-83.17500000000001,29.25],[-83.18357509999998,29.25],[-83.1870662,29.25],[-83.19608010000002,29.25],[-83.20017910000001,29.25],[-83.23893659999999,29.25],[-83.23933840000001,29.25]]]}},{"type":"Feature","properties":{},"geometry":{"type":"Polygon","coordinates":[[[-83.174552,29.25],[-83.17500000000001,29.25],[-83.17500000000001,29.250118799999996],[-83.17500000000001,29.250943699999993],[-83.17500000000001,29.257346299999995],[-83.17500000000001,29.259082999999976],[-83.17500000000001,29.260475199999973],[-83.17500000000001,29.260801000000015],[-83.17500000000001,29.26274890000002],[-83.17500000000001,29.26302320000002],[-83.17500000000001,29.269538399999988],[-83.17500000000001,29.280864099999974],[-83.17500000000001,29.291771100000005],[-83.17500000000001,29.30191209999998],[-83.17500000000001,29.30266740000002],[-83.17500000000001,29.303190099999995],[-83.17500000000001,29.303344100000004],[-83.17500000000001,29.303611699999976],[-83.17500000000001,29.304035],[-83.17500000000001,29.304264199999977],[-83.17500000000001,29.304529000000002],[-83.17500000000001,29.304873199999975],[-83.17500000000001,29.305183],[-83.17500000000001,29.305756400000007],[-83.17500000000001,29.310607300000015],[-83.17500000000001,29.31148680000001],[-83.17500000000001,29.312101600000005],[-83.17500000000001,29.313293699999974],[-83.17500000000001,29.316129699999976],[-83.17500000000001,29.32499999999999],[-83.16554300000001,29.32499999999999],[-83.16490549999997,29.32499999999999],[-83.16365880000001,29.32499999999999],[-83.16217319999998,29.32499999999999],[-83.16029880000002,29.32499999999999],[-83.15991889999998,29.32499999999999],[-83.15811559999997,29.32499999999999],[-83.15810370000003,29.32499999999999],[-83.15426980000001,29.32499999999999],[-83.15377189999998,29.32499999999999],[-83.15342099999998,29.32499999999999],[-83.15304079999999,29.32499999999999],[-83.15262150000001,29.32499999999999],[-83.1518534,29.32499999999999],[-83.15064860000001,29.32499999999999],[-83.15011479999998,29.32499999999999],[-83.14994189999999,29.32499999999999],[-83.14964459999999,29.32499999999999],[-83.14843939999997,29.32499999999999],[-83.14828290000003,29.32499999999999],[-83.1481713,29.32499999999999],[-83.14621039999997,29.32499999999999],[-83.14532209999999,29.32499999999999],[-83.14518829999997,29.32499999999999],[-83.14328239999998,29.32499999999999],[-83.13963639999997,29.32499999999999],[-83.13812300000001,29.32499999999999],[-83.12724070000002,29.32499999999999],[-83.11337479999997,29.32499999999999],[-83.10439680000002,29.32499999999999],[-83.10000000000002,29.32499999999999],[-83.10000000000002,29.300475300000016],[-83.10000000000002,29.289031299999976],[-83.10000000000002,29.28880670000001],[-83.10000000000002,29.28790409999999],[-83.10000000000002,29.27201789999998],[-83.10000000000002,29.269427399999984],[-83.10000000000002,29.267365499999983],[-83.10000000000002,29.261904800000025],[-83.10000000000002,29.2541789],[-83.10000000000002,29.25030720000001],[-83.10000000000002,29.25],[-83.1003882,29.25],[-83.10106009999998,29.25],[-83.10209090000001,29.25],[-83.10216600000001,29.25],[-83.10234100000002,29.25],[-83.10846149999998,29.25],[-83.1329771,29.25],[-83.1337519,29.25],[-83.15078979999998,29.25],[-83.16026729999999,29.25],[-83.16075460000002,29.25],[-83.174552,29.25]]]}},{"type":"Feature","properties":{},"geometry":{"type":"Polygon","coordinates":[[[-83.16554300000001,29.32499999999999],[-83.17500000000001,29.32499999999999],[-83.17500000000001,29.32911969999998],[-83.17500000000001,29.32936000000001],[-83.17500000000001,29.329953499999988],[-83.17500000000001,29.330389000000025],[-83.17500000000001,29.34115059999999],[-83.17500000000001,29.341836699999988],[-83.17500000000001,29.343562399999996],[-83.17500000000001,29.34375319999998],[-83.17500000000001,29.344220899999982],[-83.17500000000001,29.347233200000005],[-83.17500000000001,29.35076620000001],[-83.17500000000001,29.35171029999998],[-83.17500000000001,29.354128800000012],[-83.17500000000001,29.354691000000003],[-83.17500000000001,29.355168400000025],[-83.17500000000001,29.355755999999985],[-83.17500000000001,29.364013899999975],[-83.17500000000001,29.366641800000025],[-83.17500000000001,29.36806580000001],[-83.17500000000001,29.368680400000017],[-83.17500000000001,29.36902090000001],[-83.17500000000001,29.37013589999998],[-83.17500000000001,29.39130929999999],[-83.17500000000001,29.39386539999998],[-83.17500000000001,29.39467400000001],[-83.17500000000001,29.39570379999998],[-83.17500000000001,29.399999999999977],[-83.1710731,29.399999999999977],[-83.17058680000002,29.399999999999977],[-83.16960069999999,29.399999999999977],[-83.16776370000002,29.399999999999977],[-83.10000000000002,29.399999999999977],[-83.10000000000002,29.337283000000014],[-83.10000000000002,29.333791500000018],[-83.10000000000002,29.32499999999999],[-83.10439680000002,29.32499999999999],[-83.11337479999997,29.32499999999999],[-83.12724070000002,29.32499999999999],[-83.13812300000001,29.32499999999999],[-83.13963639999997,29.32499999999999],[-83.14328239999998,29.32499999999999],[-83.14518829999997,29.32499999999999],[-83.14532209999999,29.32499999999999],[-83.14621039999997,29.32499999999999],[-83.1481713,29.32499999999999],[-83.14828290000003,29.32499999999999],[-83.14843939999997,29.32499999999999],[-83.14964459999999,29.32499999999999],[-83.14994189999999,29.32499999999999],[-83.15011479999998,29.32499999999999],[-83.15064860000001,29.32499999999999],[-83.1518534,29.32499999999999],[-83.15212960000002,29.32499999999999],[-83.15262150000001,29.32499999999999],[-83.15304079999999,29.32499999999999],[-83.15342099999998,29.32499999999999],[-83.15377189999998,29.32499999999999],[-83.15426980000001,29.32499999999999],[-83.15810370000003,29.32499999999999],[-83.15811559999997,29.32499999999999],[-83.15991889999998,29.32499999999999],[-83.16029880000002,29.32499999999999],[-83.16365880000001,29.32499999999999],[-83.16490549999997,29.32499999999999],[-83.16554300000001,29.32499999999999]]]}},{"type":"Feature","properties":{},"geometry":{"type":"Polygon","coordinates":[[[-83.31955119999998,29.399999999999977],[-83.32499999999999,29.399999999999977],[-83.32499999999999,29.46811889999998],[-83.32499999999999,29.470819800000015],[-83.32499999999999,29.475000000000023],[-83.32239290000001,29.475000000000023],[-83.32077340000001,29.475000000000023],[-83.31914219999999,29.475000000000023],[-83.31813540000002,29.475000000000023],[-83.31806649999999,29.475000000000023],[-83.31616730000002,29.475000000000023],[-83.31564300000002,29.475000000000023],[-83.31192529999998,29.475000000000023],[-83.311376,29.475000000000023],[-83.30984849999999,29.475000000000023],[-83.3053529,29.475000000000023],[-83.3047972,29.475000000000023],[-83.25,29.475000000000023],[-83.25,29.451804600000003],[-83.25,29.451483900000028],[-83.25,29.449183699999992],[-83.25,29.43414489999998],[-83.25,29.433148300000028],[-83.25,29.419455400000004],[-83.25,29.399999999999977],[-83.31418639999998,29.399999999999977],[-83.31673039999998,29.399999999999977],[-83.31700610000001,29.399999999999977],[-83.31955119999998,29.399999999999977]]]}}]}