{"type":"FeatureCollection","features":[{"type":"Feature","geometry":{"type":"LineString","coordinates":[[-79.38506400000006,33.20821000000069],[-79.38519000000088,33.208355999999185],[-79.38432699999976,33.20942300000024],[-79.38415499999974,33.209302999999636],[-79.38506400000006,33.20821000000069]]},"properties":{"k":"b","n":null,"c":"fixed bridge","v":8.8,"cc":null,"co":null}},{"type":"Feature","geometry":{"type":"LineString","coordinates":[[-79.38448799999969,33.20783599999959],[-79.38468900000044,33.207963999999265],[-79.3838109999997,33.209059999999226],[-79.3836510000001,33.20894600000065],[-79.38448799999969,33.20783599999959]]},"properties":{"k":"b","n":null,"c":"fixed bridge","v":8.8,"cc":null,"co":null}},{"type":"Feature","geometry":{"type":"LineString","coordinates":[[-79.3834769999994,33.20917299999928],[-79.3836310000006,33.2092819999998],[-79.38340699999935,33.209562000000005],[-79.38329800000065,33.20941200000016],[-79.3834769999994,33.20917299999928]]},"properties":{"k":"b","n":null,"c":"fixed bridge","v":8.8,"cc":null,"co":null}},{"type":"Feature","geometry":{"type":"LineString","coordinates":[[-79.38397099999929,33.209522999999535],[-79.38414399999965,33.20964599999934],[-79.38390400000026,33.20994299999984],[-79.38375099999939,33.209789000000455],[-79.38397099999929,33.209522999999535]]},"properties":{"k":"b","n":null,"c":"fixed bridge","v":8.8,"cc":null,"co":null}},{"type":"Feature","geometry":{"type":"LineString","coordinates":[[-79.29428159999952,33.35725900000034],[-79.29464299999927,33.3584522000001],[-79.29432300000008,33.35849699999926],[-79.29386999999952,33.356981999999334],[-79.29420879999998,33.35701270000027],[-79.29428159999952,33.35725900000034]]},"properties":{"k":"b","n":null,"c":"fixed bridge","v":19.8,"cc":null,"co":null}},{"type":"Feature","geometry":{"type":"LineString","coordinates":[[-79.25316439999915,33.365619199999855],[-79.25356909999937,33.36565739999969],[-79.25348719999965,33.36582180000005],[-79.25308640000003,33.36578410000038],[-79.25316439999915,33.365619199999855]]},"properties":{"k":"b","n":"Lafayette Bridge","c":"fixed bridge","v":19.8,"cc":null,"co":null}},{"type":"Feature","geometry":{"type":"LineString","coordinates":[[-79.2635835000001,33.36655869999959],[-79.26758379999956,33.36694290000014],[-79.26756260000002,33.367130099999486],[-79.26353410000047,33.366760999999315],[-79.2635835000001,33.36655869999959]]},"properties":{"k":"b","n":null,"c":"fixed bridge","v":6.0,"cc":null,"co":null}},{"type":"Feature","geometry":{"type":"LineString","coordinates":[[-80.00708449999911,32.77213809999921],[-80.00683690000005,32.771958400000585],[-80.00737560000016,32.771952999999485],[-80.00749410000026,32.772125600000436],[-80.00708449999911,32.77213809999921]]},"properties":{"k":"b","n":null,"c":"fixed bridge","v":0.6,"cc":null,"co":null}},{"type":"Feature","geometry":{"type":"LineString","coordinates":[[-80.01272380000046,32.752594300000055],[-80.01271970000016,32.75266609999926],[-80.00786650000009,32.753031700000065],[-80.00776199999927,32.752839400000084],[-80.01271260000067,32.75244019999991],[-80.01272380000046,32.752594300000055]]},"properties":{"k":"b","n":"Limehouse Bridge","c":"fixed bridge","v":19.8,"cc":null,"co":null}},{"type":"Feature","geometry":{"type":"LineString","coordinates":[[-79.95000000000073,32.750683899999785],[-79.95066770000085,32.75078419999954],[-79.95065289999911,32.750923699999476],[-79.95000000000073,32.750813599999674],[-79.95000000000073,32.750683899999785]]},"properties":{"k":"b","n":null,"c":"fixed bridge","v":3.6,"cc":null,"co":null}},{"type":"Feature","geometry":{"type":"LineString","coordinates":[[-79.95824340000036,32.76910920000046],[-79.95828989999973,32.771147600000404],[-79.95799989999978,32.771300399999745],[-79.9579620000004,32.769279500000266],[-79.95824340000036,32.76910920000046]]},"properties":{"k":"b","n":"James Island Expressway Highway Bridge","c":"fixed bridge","v":20.4,"cc":null,"co":null}},{"type":"Feature","geometry":{"type":"LineString","coordinates":[[-79.9741494000009,32.76618539999981],[-79.97407679999924,32.76656919999914],[-79.97395850000066,32.76655709999977],[-79.97402200000033,32.76617040000019],[-79.9741494000009,32.76618539999981]]},"properties":{"k":"b","n":"Route 171 Bascule Bridge Fixed Section","c":"bascule bridge","v":null,"cc":10.0,"co":null}},{"type":"Feature","geometry":{"type":"LineString","coordinates":[[-79.94957240000076,32.75061959999948],[-79.95000000000073,32.750683899999785],[-79.95000000000073,32.750813599999674],[-79.94959779999954,32.75074569999924],[-79.94957240000076,32.75061959999948]]},"properties":{"k":"b","n":null,"c":"fixed bridge","v":3.6,"cc":null,"co":null}},{"type":"Feature","geometry":{"type":"LineString","coordinates":[[-79.84191479999936,32.77238849999958],[-79.84212809999917,32.772748900000806],[-79.84228760000042,32.77301199999965],[-79.84218979999969,32.77305669999987],[-79.8420354000009,32.77279979999912],[-79.84181940000053,32.77242920000026],[-79.84191479999936,32.77238849999958]]},"properties":{"k":"b","n":"Ben Sawyer Memorial","c":"opening bridge","v":null,"cc":9.4,"co":null}},{"type":"Feature","geometry":{"type":"LineString","coordinates":[[-80.02550279999923,32.8340246000007],[-80.02591869999924,32.83417109999937],[-80.02499999999964,32.83518109999932],[-80.02499999999964,32.83458400000018],[-80.02550279999923,32.8340246000007]]},"properties":{"k":"b","n":null,"c":"fixed bridge","v":10.6,"cc":null,"co":null}},{"type":"Feature","geometry":{"type":"LineString","coordinates":[[-80.05025380000006,32.847250099999656],[-80.0503776000005,32.84733849999975],[-80.0500548,32.84765829999924],[-80.04993529999956,32.847563600000285],[-80.05025380000006,32.847250099999656]]},"properties":{"k":"b","n":null,"c":"bascule bridge","v":null,"cc":0.9,"co":null}},{"type":"Feature","geometry":{"type":"LineString","coordinates":[[-79.95799860000079,32.777121900000566],[-79.95828459999939,32.77756340000087],[-79.95820099999946,32.77789400000074],[-79.95781910000005,32.778794100000596],[-79.95741549999912,32.77936050000062],[-79.9567406999995,32.780036899999686],[-79.95590749999974,32.780579399999624],[-79.95476269999926,32.78105610000057],[-79.95452049999949,32.7809445999992],[-79.95559030000004,32.78047820000029],[-79.95680689999972,32.779564700000265],[-79.95738080000046,32.778852699999334],[-79.95771280000008,32.77828629999931],[-79.95794539999952,32.777601499999946],[-79.95799860000079,32.777121900000566]]},"properties":{"k":"b","n":null,"c":"fixed bridge","v":17.0,"cc":null,"co":null}},{"type":"Feature","geometry":{"type":"LineString","coordinates":[[-79.96101140000064,32.782690199999706],[-79.96057690000089,32.782881799999814],[-79.96052459999919,32.78278259999934],[-79.96090130000084,32.78261240000029],[-79.96101140000064,32.782690199999706]]},"properties":{"k":"b","n":null,"c":"bascule bridge","v":null,"cc":5.4,"co":null}},{"type":"Feature","geometry":{"type":"LineString","coordinates":[[-79.96168120000038,32.78317740000057],[-79.96179239999947,32.78325699999914],[-79.96134399999937,32.78346729999976],[-79.9612732000005,32.78336499999932],[-79.96168120000038,32.78317740000057]]},"properties":{"k":"b","n":null,"c":"bascule bridge","v":null,"cc":4.2,"co":null}},{"type":"Feature","geometry":{"type":"LineString","coordinates":[[-79.98592230000031,32.83511139999973],[-79.98368590000064,32.83871859999999],[-79.98349760000019,32.83859920000032],[-79.98565520000011,32.835119499999564],[-79.98592230000031,32.83511139999973]]},"properties":{"k":"b","n":"Route 7 Bridge","c":"fixed bridge","v":15.2,"cc":null,"co":null}},{"type":"Feature","geometry":{"type":"LineString","coordinates":[[-80.02499999999964,32.83458400000018],[-80.02499999999964,32.83518109999932],[-80.02285289999963,32.837538399999175],[-80.02255130000049,32.83729990000029],[-80.02499999999964,32.83458400000018]]},"properties":{"k":"b","n":null,"c":"fixed bridge","v":10.6,"cc":null,"co":null}},{"type":"Feature","geometry":{"type":"LineString","coordinates":[[-79.91508570000042,32.802704699999595],[-79.9172679000003,32.8029860000006],[-79.91719600000033,32.80337320000035],[-79.91284239999914,32.80280900000071],[-79.91291300000012,32.80242299999918],[-79.91508570000042,32.802704699999595]]},"properties":{"k":"b","n":"Ravenel Fixed Bridge","c":"fixed bridge","v":56.6,"cc":null,"co":null}},{"type":"Feature","geometry":{"type":"LineString","coordinates":[[-79.8808767999999,32.792665700000725],[-79.88130020000062,32.79308370000035],[-79.88114289999976,32.793240799999694],[-79.88070499999958,32.79282570000032],[-79.8808767999999,32.792665700000725]]},"properties":{"k":"b","n":"Coleman Blvd Pedestrian Bridge","c":"fixed bridge","v":3.6,"cc":null,"co":null}},{"type":"Feature","geometry":{"type":"LineString","coordinates":[[-79.93298359999972,32.80480940000052],[-79.93407939999997,32.804800399999294],[-79.93401950000043,32.805166899999676],[-79.93127979999917,32.80514159999984],[-79.92984520000027,32.80498799999987],[-79.92962369999987,32.8045987000005],[-79.93091599999934,32.80473600000005],[-79.93298359999972,32.80480940000052]]},"properties":{"k":"b","n":"Town Creek fixed bridge, U.S. 17 Town Creek Crossing, mile 3.19","c":"fixed bridge","v":19.8,"cc":null,"co":null}},{"type":"Feature","geometry":{"type":"LineString","coordinates":[[-79.81329430000005,32.77571360000002],[-79.81338250000044,32.77584469999965],[-79.81123269999989,32.77681219999977],[-79.81118720000086,32.776658200000384],[-79.81329430000005,32.77571360000002]]},"properties":{"k":"b","n":null,"c":"fixed bridge","v":1.5,"cc":null,"co":null}},{"type":"Feature","geometry":{"type":"LineString","coordinates":[[-79.8018462,32.80763599999955],[-79.8021248999994,32.807952600000135],[-79.80199530000027,32.808061600000656],[-79.80167040000015,32.80769169999985],[-79.8018462,32.80763599999955]]},"properties":{"k":"b","n":null,"c":"fixed bridge","v":19.8,"cc":null,"co":null}},{"type":"Feature","geometry":{"type":"LineString","coordinates":[[-79.96308940000017,32.89100940000026],[-79.96533289999934,32.891325399999914],[-79.96525760000077,32.89157250000062],[-79.96301060000042,32.89125590000003],[-79.96308940000017,32.89100940000026]]},"properties":{"k":"b","n":null,"c":"fixed bridge","v":47.2,"cc":null,"co":null}},{"type":"Feature","geometry":{"type":"LineString","coordinates":[[-79.92207100000087,32.87226809999993],[-79.92224239999996,32.872380599999815],[-79.92222969999966,32.87260570000035],[-79.92206040000019,32.872484199999235],[-79.92207100000087,32.87226809999993]]},"properties":{"k":"b","n":null,"c":"fixed bridge","v":6.0,"cc":null,"co":null}},{"type":"Feature","geometry":{"type":"LineString","coordinates":[[-79.89378419999957,32.8580290000009],[-79.89655649999986,32.85973179999928],[-79.8991571000006,32.8613320000004],[-79.8988776999995,32.86148829999911],[-79.89356939999925,32.85821919999944],[-79.89378419999957,32.8580290000009]]},"properties":{"k":"b","n":null,"c":"fixed bridge","v":42.0,"cc":null,"co":null}},{"type":"Feature","geometry":{"type":"LineString","coordinates":[[-79.93867940000018,32.88459089999924],[-79.9380385000004,32.88412360000075],[-79.93798819999938,32.88408700000036],[-79.93821609999941,32.88389789999928],[-79.93891649999932,32.884420899999895],[-79.93867940000018,32.88459089999924]]},"properties":{"k":"b","n":null,"c":"fixed bridge","v":22.8,"cc":null,"co":null}},{"type":"Feature","geometry":{"type":"LineString","coordinates":[[-79.92191009999988,32.86953619999986],[-79.9220994999996,32.869553200000155],[-79.92213660000016,32.86969429999954],[-79.92195770000035,32.86967910000021],[-79.92191009999988,32.86953619999986]]},"properties":{"k":"b","n":null,"c":"fixed bridge","v":2.1,"cc":null,"co":null}},{"type":"Feature","geometry":{"type":"LineString","coordinates":[[-79.8256935999998,32.923697500000344],[-79.82581319999917,32.9237849000001],[-79.82569250000051,32.923890300000494],[-79.82558040000004,32.92379299999993],[-79.8256935999998,32.923697500000344]]},"properties":{"k":"b","n":null,"c":"fixed bridge","v":16.7,"cc":null,"co":null}},{"type":"Feature","geometry":{"type":"LineString","coordinates":[[-79.82598359999974,32.923450199999934],[-79.8260936000006,32.92354130000058],[-79.8259349,32.92367960000047],[-79.8258163999999,32.92359299999953],[-79.82598359999974,32.923450199999934]]},"properties":{"k":"b","n":null,"c":"fixed bridge","v":16.7,"cc":null,"co":null}},{"type":"Feature","geometry":{"type":"LineString","coordinates":[[-81.2629993999999,32.52463979999993],[-81.26268920000075,32.52523429999928],[-81.26257409999926,32.52517789999911],[-81.2629094999993,32.52460430000065],[-81.2629993999999,32.52463979999993]]},"properties":{"k":"b","n":"SCL Railroad Bridge","c":"swing bridge","v":null,"cc":4.5,"co":null}},{"type":"Feature","geometry":{"type":"LineString","coordinates":[[-81.26853819999997,32.52808709999954],[-81.26860889999989,32.52812740000081],[-81.26811380000072,32.52910560000055],[-81.26803289999953,32.52908019999995],[-81.26853819999997,32.52808709999954]]},"properties":{"k":"b","n":null,"c":"fixed bridge","v":8.2,"cc":null,"co":null}},{"type":"Feature","geometry":{"type":"LineString","coordinates":[[-80.99185129999933,32.01935650000087],[-80.99252800000068,32.01994019999984],[-80.99242799999956,32.02012389999982],[-80.99172329999965,32.01952320000055],[-80.99185129999933,32.01935650000087]]},"properties":{"k":"b","n":null,"c":"fixed bridge","v":10.6,"cc":null,"co":null}},{"type":"Feature","geometry":{"type":"LineString","coordinates":[[-80.88360850000026,32.01577809999981],[-80.8840067000001,32.01580180000019],[-80.88399949999985,32.01588249999986],[-80.8836009000006,32.01585479999994],[-80.88360850000026,32.01577809999981]]},"properties":{"k":"b","n":null,"c":"fixed bridge","v":10.6,"cc":null,"co":null}},{"type":"Feature","geometry":{"type":"LineString","coordinates":[[-80.8990001000002,32.02090800000042],[-80.89764599999944,32.02402780000011],[-80.89761609999914,32.02409660000012],[-80.89755409999998,32.024049199999354],[-80.89891429999989,32.02091409999957],[-80.8990001000002,32.02090800000042]]},"properties":{"k":"b","n":null,"c":"fixed bridge","v":3.0,"cc":null,"co":null}},{"type":"Feature","geometry":{"type":"LineString","coordinates":[[-81.09178600000087,32.09808089999933],[-81.09197940000013,32.09814510000069],[-81.09060099999988,32.100000000000364],[-81.09042960000079,32.100000000000364],[-81.09178600000087,32.09808089999933]]},"properties":{"k":"b","n":null,"c":"fixed bridge","v":3.0,"cc":null,"co":null}},{"type":"Feature","geometry":{"type":"LineString","coordinates":[[-81.0983737000006,32.089540599999964],[-81.09814329999972,32.089837100000295],[-81.0979342999999,32.089673599999514],[-81.0999410000004,32.08724749999965],[-81.09992310000052,32.08749689999968],[-81.10001860000011,32.08750719999989],[-81.0983737000006,32.089540599999964]]},"properties":{"k":"b","n":"Eugene Talmadge Memorial Bridge","c":"fixed bridge","v":56.3,"cc":null,"co":null}},{"type":"Feature","geometry":{"type":"LineString","coordinates":[[-81.00445760000002,32.081635200000164],[-81.0045525000005,32.081644899999446],[-81.00181200000043,32.08540619999985],[-81.0017356999997,32.085374800000864],[-81.00445760000002,32.081635200000164]]},"properties":{"k":"b","n":null,"c":"fixed bridge","v":10.6,"cc":null,"co":null}},{"type":"Feature","geometry":{"type":"LineString","coordinates":[[-81.01190049999968,32.05241600000045],[-81.0120052000002,32.052454299999226],[-81.01157539999986,32.05260730000009],[-81.01150140000027,32.05255910000051],[-81.01190049999968,32.05241600000045]]},"properties":{"k":"b","n":null,"c":"fixed bridge","v":1.5,"cc":null,"co":null}},{"type":"Feature","geometry":{"type":"LineString","coordinates":[[-81.01223690000006,32.05099440000049],[-81.01243160000013,32.05091220000031],[-81.01268929999969,32.051141500000085],[-81.01253589999942,32.051321999999345],[-81.01223690000006,32.05099440000049]]},"properties":{"k":"b","n":null,"c":"fixed bridge","v":3.0,"cc":null,"co":null}},{"type":"Feature","geometry":{"type":"LineString","coordinates":[[-81.0469690000009,32.033563400000276],[-81.04682569999932,32.03360749999956],[-81.04680740000003,32.03379150000001],[-81.04500910000024,32.03377240000009],[-81.04500369999914,32.03357069999947],[-81.0469690000009,32.033563400000276]]},"properties":{"k":"b","n":null,"c":"fixed bridge","v":19.8,"cc":null,"co":null}},{"type":"Feature","geometry":{"type":"LineString","coordinates":[[-80.9858062000003,32.03452189999916],[-80.98701640000036,32.03514069999983],[-80.98696220000056,32.035293799999636],[-80.9870461999999,32.03548480000063],[-80.9855779999998,32.03474769999957],[-80.98559139999998,32.03450519999933],[-80.9858062000003,32.03452189999916]]},"properties":{"k":"b","n":null,"c":"fixed bridge","v":10.3,"cc":null,"co":null}},{"type":"Feature","geometry":{"type":"LineString","coordinates":[[-81.15670519999912,32.16544430000067],[-81.15665609999996,32.16557110000031],[-81.15331379999952,32.16571870000007],[-81.15330519999952,32.16565889999947],[-81.15330979999999,32.165593499999886],[-81.15670519999912,32.16544430000067]]},"properties":{"k":"b","n":"25 State Route Bridge","c":"fixed bridge","v":14.3,"cc":null,"co":null}},{"type":"Feature","geometry":{"type":"LineString","coordinates":[[-81.11029380000036,32.10935059999974],[-81.1103652999991,32.10943120000047],[-81.10885989999952,32.110570999999254],[-81.10594329999913,32.112749600000825],[-81.10582740000063,32.11268799999925],[-81.11029380000036,32.10935059999974]]},"properties":{"k":"b","n":"SCL Railroad Bridge","c":"fixed bridge","v":3.3,"cc":null,"co":null}},{"type":"Feature","geometry":{"type":"LineString","coordinates":[[-81.13907359999939,32.16567759999998],[-81.13906490000045,32.165761199999906],[-81.13700439999957,32.165792600000714],[-81.13701100000071,32.16570700000011],[-81.13907359999939,32.16567759999998]]},"properties":{"k":"b","n":null,"c":"fixed bridge","v":1.5,"cc":null,"co":null}},{"type":"Feature","geometry":{"type":"LineString","coordinates":[[-81.09042960000079,32.100000000000364],[-81.09060099999988,32.100000000000364],[-81.08837010000025,32.10262809999949],[-81.0882371000007,32.102581799999825],[-81.09042960000079,32.100000000000364]]},"properties":{"k":"b","n":null,"c":"fixed bridge","v":3.0,"cc":null,"co":null}},{"type":"Feature","geometry":{"type":"LineString","coordinates":[[-81.08796799999982,32.10288290000062],[-81.08795959999952,32.103093399999125],[-81.08657990000029,32.10465359999944],[-81.08651350000036,32.10452970000006],[-81.08796799999982,32.10288290000062]]},"properties":{"k":"b","n":null,"c":"fixed bridge","v":3.0,"cc":null,"co":null}},{"type":"Feature","geometry":{"type":"LineString","coordinates":[[-81.13032609999937,32.16580179999983],[-81.13032449999992,32.16588690000026],[-81.1292713999992,32.16590170000018],[-81.12927839999975,32.16581629999928],[-81.13032609999937,32.16580179999983]]},"properties":{"k":"b","n":null,"c":"fixed bridge","v":2.4,"cc":null,"co":null}},{"type":"Feature","geometry":{"type":"LineString","coordinates":[[-81.15281900000082,32.23465949999991],[-81.1529272000007,32.23473980000017],[-81.15022959999988,32.23668600000019],[-81.15013709999948,32.23658729999988],[-81.15281900000082,32.23465949999991]]},"properties":{"k":"b","n":null,"c":"fixed bridge","v":16.7,"cc":null,"co":null}},{"type":"Feature","geometry":{"type":"LineString","coordinates":[[-81.15251870000066,32.23453239999981],[-81.15266929999962,32.23457410000083],[-81.14999999999964,32.236484799999744],[-81.14999999999964,32.23633660000087],[-81.15251870000066,32.23453239999981]]},"properties":{"k":"b","n":null,"c":"fixed bridge","v":16.7,"cc":null,"co":null}},{"type":"Feature","geometry":{"type":"LineString","coordinates":[[-81.14556350000021,32.23177190000024],[-81.14566809999997,32.23188189999928],[-81.14543880000019,32.232065399999556],[-81.1453261000006,32.23196040000039],[-81.14556350000021,32.23177190000024]]},"properties":{"k":"b","n":null,"c":"bascule bridge","v":null,"cc":2.1,"co":null}},{"type":"Feature","geometry":{"type":"LineString","coordinates":[[-81.14999999999964,32.23633660000087],[-81.14999999999964,32.236484799999744],[-81.14992510000047,32.23639019999973],[-81.14999999999964,32.23633660000087]]},"properties":{"k":"b","n":null,"c":"fixed bridge","v":16.7,"cc":null,"co":null}},{"type":"Feature","geometry":{"type":"LineString","coordinates":[[-80.78786170000058,32.22901810000076],[-80.7901464000006,32.22982620000039],[-80.7938692000007,32.23115200000029],[-80.79378550000001,32.23123900000064],[-80.79357940000045,32.231166600000506],[-80.78780560000087,32.22910969999975],[-80.78786170000058,32.22901810000076]]},"properties":{"k":"b","n":null,"c":"fixed bridge","v":7.6,"cc":null,"co":null}},{"type":"Feature","geometry":{"type":"LineString","coordinates":[[-80.78179730000011,32.2246195000007],[-80.78207409999959,32.22492930000044],[-80.7818554000005,32.2250456999991],[-80.78159059999962,32.22475189999932],[-80.78179730000011,32.2246195000007]]},"properties":{"k":"b","n":null,"c":"fixed bridge","v":19.8,"cc":null,"co":null}},{"type":"Feature","geometry":{"type":"LineString","coordinates":[[-80.78777070000069,32.2291666000001],[-80.79374900000039,32.231286599999294],[-80.79372519999924,32.231395099999645],[-80.78771710000001,32.22925419999956],[-80.78777070000069,32.2291666000001]]},"properties":{"k":"b","n":null,"c":"fixed bridge","v":7.6,"cc":null,"co":null}},{"type":"Feature","geometry":{"type":"LineString","coordinates":[[-80.76932110000052,32.17722099999992],[-80.76957589999984,32.17728290000014],[-80.76826179999989,32.17951399999947],[-80.76795730000049,32.17954260000079],[-80.76932110000052,32.17722099999992]]},"properties":{"k":"b","n":null,"c":"fixed bridge","v":19.8,"cc":null,"co":null}},{"type":"Feature","geometry":{"type":"LineString","coordinates":[[-80.6703035999999,32.393525900000895],[-80.67053429999942,32.39338510000016],[-80.66986689999976,32.39328270000078],[-80.67019489999984,32.39324680000027],[-80.67963369999961,32.39408700000058],[-80.67957260000003,32.39435129999947],[-80.6703035999999,32.393525900000895]]},"properties":{"k":"b","n":null,"c":"fixed bridge","v":19.8,"cc":null,"co":null}},{"type":"Feature","geometry":{"type":"LineString","coordinates":[[-80.67188399999941,32.33471559999998],[-80.67181349999919,32.334855700000844],[-80.6717348000002,32.334840199999235],[-80.67208759999994,32.3342317000006],[-80.67220930000076,32.33418519999941],[-80.67188399999941,32.33471559999998]]},"properties":{"k":"b","n":null,"c":"fixed bridge","v":1.2,"cc":null,"co":null}},{"type":"Feature","geometry":{"type":"LineString","coordinates":[[-80.66912009999942,32.427187699999195],[-80.6691866000001,32.427462300000116],[-80.66906170000038,32.427468199999566],[-80.66899890000059,32.42720879999979],[-80.66912009999942,32.427187699999195]]},"properties":{"k":"b","n":"Ladies Island Bridge","c":"swing bridge","v":null,"cc":9.1,"co":null}},{"type":"Feature","geometry":{"type":"LineString","coordinates":[[-80.66921139999977,32.4275648999992],[-80.66928569999982,32.42787150000004],[-80.66916449999917,32.427892699999575],[-80.66908770000009,32.42757569999958],[-80.66921139999977,32.4275648999992]]},"properties":{"k":"b","n":"Ladies Island Bridge","c":"swing bridge","v":null,"cc":9.1,"co":null}},{"type":"Feature","geometry":{"type":"LineString","coordinates":[[-80.59929539999939,32.48366929999975],[-80.59932180000033,32.48368110000047],[-80.60060800000065,32.48419570000078],[-80.60057039999992,32.48425639999914],[-80.59924769999998,32.4837277000006],[-80.59929539999939,32.48366929999975]]},"properties":{"k":"b","n":null,"c":"fixed bridge","v":4.2,"cc":null,"co":null}},{"type":"Feature","geometry":{"type":"LineString","coordinates":[[-80.43805450000036,32.55572790000042],[-80.43834900000002,32.55627749999985],[-80.43821799999932,32.55635319999965],[-80.43792129999929,32.55576839999958],[-80.43805450000036,32.55572790000042]]},"properties":{"k":"b","n":null,"c":"fixed bridge","v":0.3,"cc":null,"co":null}},{"type":"Feature","geometry":{"type":"LineString","coordinates":[[-80.34122100000059,32.636016700000255],[-80.34188240000003,32.637652499999604],[-80.3415313000005,32.637804300000425],[-80.34089800000038,32.6362296999996],[-80.34122100000059,32.636016700000255]]},"properties":{"k":"b","n":null,"c":"fixed bridge","v":19.8,"cc":null,"co":null}},{"type":"Feature","geometry":{"type":"LineString","coordinates":[[-80.09166299999924,32.7143959999994],[-80.09194500000012,32.714482999999746],[-80.09138600000006,32.714772999999695],[-80.09119500000088,32.71468099999947],[-80.09166299999924,32.7143959999994]]},"properties":{"k":"b","n":null,"c":"fixed bridge","v":2.7,"cc":null,"co":null}},{"type":"Feature","geometry":{"type":"LineString","coordinates":[[-80.10693999999967,32.784897999999885],[-80.10767499999929,32.78639699999985],[-80.10737560000052,32.78657480000038],[-80.10665599999993,32.78498600000057],[-80.10693999999967,32.784897999999885]]},"properties":{"k":"b","n":"John F Limehouse","c":"fixed bridge","v":19.8,"cc":null,"co":null}},{"type":"Feature","geometry":{"type":"LineString","coordinates":[[-79.7892482999996,32.79045899999983],[-79.78986559999976,32.791387600000235],[-79.78977080000004,32.79154240000025],[-79.78915509999933,32.790617500000735],[-79.7892482999996,32.79045899999983]]},"properties":{"k":"b","n":null,"c":"fixed bridge","v":8.5,"cc":null,"co":null}},{"type":"Feature","geometry":{"type":"LineString","coordinates":[[-79.79119119999996,32.793380299999626],[-79.79171409999981,32.794168000000354],[-79.79207099999985,32.79470550000042],[-79.79191100000025,32.79476679999971],[-79.79102640000019,32.79346079999959],[-79.79119119999996,32.793380299999626]]},"properties":{"k":"b","n":null,"c":"fixed bridge","v":19.8,"cc":null,"co":null}},{"type":"Feature","geometry":{"type":"LineString","coordinates":[[-79.94198460000007,33.093332599999485],[-79.9420695000008,33.093455000000176],[-79.94181500000013,33.09358860000066],[-79.94173670000055,33.09346899999946],[-79.94198460000007,33.093332599999485]]},"properties":{"k":"b","n":"CSX Cordesville RR Bridge","c":"bascule bridge","v":null,"cc":3.0,"co":null}},{"type":"Feature","geometry":{"type":"LineString","coordinates":[[-80.95803790000002,32.036430800000005],[-80.95975650000003,32.034934899999996]]},"properties":{"k":"b","n":null,"c":"fixed bridge","v":6.0,"cc":null,"co":null}},{"type":"Feature","geometry":{"type":"LineString","coordinates":[[-79.31320299999999,33.359353],[-79.31328200000002,33.357191]]},"properties":{"k":"c","n":null,"c":"power line","v":18.5,"cc":null,"co":null}},{"type":"Feature","geometry":{"type":"LineString","coordinates":[[-79.99088769999997,32.77396390000001],[-79.99240900000001,32.771959200000026]]},"properties":{"k":"c","n":null,"c":"power line","v":24.3,"cc":null,"co":null}},{"type":"Feature","geometry":{"type":"LineString","coordinates":[[-79.99282440000002,32.768161599999985],[-79.99355930000002,32.77046990000002],[-79.99240900000001,32.771959200000026]]},"properties":{"k":"c","n":null,"c":"power line","v":30.4,"cc":null,"co":null}},{"type":"Feature","geometry":{"type":"LineString","coordinates":[[-80.0053294,32.737165000000005],[-80.01180799999997,32.73683999999997]]},"properties":{"k":"c","n":null,"c":"power line","v":27.7,"cc":null,"co":null}},{"type":"Feature","geometry":{"type":"LineString","coordinates":[[-79.97442239999998,32.76726550000001],[-79.9746376,32.76581140000002]]},"properties":{"k":"c","n":null,"c":"power line","v":31.6,"cc":null,"co":null}},{"type":"Feature","geometry":{"type":"LineString","coordinates":[[-79.84179719999997,32.77377339999998],[-79.84091160000003,32.77230100000003]]},"properties":{"k":"c","n":null,"c":"power line","v":27.1,"cc":null,"co":null}},{"type":"Feature","geometry":{"type":"LineString","coordinates":[[-80.05482999999998,32.78083600000002],[-80.05472250000003,32.77499999999998]]},"properties":{"k":"c","n":null,"c":"power line","v":27.7,"cc":null,"co":null}},{"type":"Feature","geometry":{"type":"LineString","coordinates":[[-80.04981459999999,32.846026800000004],[-80.04734389999999,32.84721990000003]]},"properties":{"k":"c","n":null,"c":"power line","v":22.5,"cc":null,"co":null}},{"type":"Feature","geometry":{"type":"LineString","coordinates":[[-79.98874080000002,32.83145630000001],[-79.98897920000002,32.83173360000001]]},"properties":{"k":"c","n":null,"c":"power line","v":21.3,"cc":null,"co":null}},{"type":"Feature","geometry":{"type":"LineString","coordinates":[[-79.98910810000001,32.831883600000026],[-79.99438529999998,32.837998200000015]]},"properties":{"k":"c","n":null,"c":"power line","v":21.3,"cc":null,"co":null}},{"type":"Feature","geometry":{"type":"LineString","coordinates":[[-79.80000000000001,32.793379000000016],[-79.82024109999998,32.801132499999994],[-79.8232635,32.804693999999984]]},"properties":{"k":"c","n":null,"c":"power line","v":26.2,"cc":null,"co":null}},{"type":"Feature","geometry":{"type":"LineString","coordinates":[[-79.82129600000002,32.80368099999998],[-79.82037300000002,32.80273599999998]]},"properties":{"k":"c","n":null,"c":"power line","v":20.1,"cc":null,"co":null}},{"type":"Feature","geometry":{"type":"LineString","coordinates":[[-79.81965300000002,32.801860999999974],[-79.80963500000001,32.79747400000002]]},"properties":{"k":"c","n":null,"c":"power line","v":22.5,"cc":null,"co":null}},{"type":"Feature","geometry":{"type":"LineString","coordinates":[[-79.80963500000001,32.79747400000002],[-79.80130300000002,32.79382500000003]]},"properties":{"k":"c","n":null,"c":"power line","v":20.7,"cc":null,"co":null}},{"type":"Feature","geometry":{"type":"LineString","coordinates":[[-79.82249000000002,32.80510399999997],[-79.821752,32.80419999999998]]},"properties":{"k":"c","n":null,"c":"power line","v":21.3,"cc":null,"co":null}},{"type":"Feature","geometry":{"type":"LineString","coordinates":[[-79.95577780000002,32.8908083],[-79.95994100000001,32.89139130000001]]},"properties":{"k":"c","n":null,"c":"power line","v":31.6,"cc":null,"co":null}},{"type":"Feature","geometry":{"type":"LineString","coordinates":[[-79.96529650000002,32.8921282],[-79.96774720000002,32.8924667]]},"properties":{"k":"c","n":null,"c":"power line","v":49.6,"cc":null,"co":null}},{"type":"Feature","geometry":{"type":"LineString","coordinates":[[-79.96274299999999,32.891776900000025],[-79.96529650000002,32.8921282]]},"properties":{"k":"c","n":null,"c":"power line","v":55.4,"cc":null,"co":null}},{"type":"Feature","geometry":{"type":"LineString","coordinates":[[-79.95994100000001,32.89139130000001],[-79.96274299999999,32.891776900000025]]},"properties":{"k":"c","n":null,"c":"power line","v":50.5,"cc":null,"co":null}},{"type":"Feature","geometry":{"type":"LineString","coordinates":[[-79.97357590000001,32.87245230000002],[-79.97320100000002,32.8733608]]},"properties":{"k":"c","n":null,"c":"power line","v":9.4,"cc":null,"co":null}},{"type":"Feature","geometry":{"type":"LineString","coordinates":[[-79.9389271,32.886056499999995],[-79.93709660000002,32.884606599999984]]},"properties":{"k":"c","n":null,"c":"power line","v":27.7,"cc":null,"co":null}},{"type":"Feature","geometry":{"type":"LineString","coordinates":[[-79.92238839999999,32.87383060000002],[-79.92166650000001,32.873395500000015]]},"properties":{"k":"c","n":null,"c":"power line","v":14.0,"cc":null,"co":null}},{"type":"Feature","geometry":{"type":"LineString","coordinates":[[-79.94035489999999,32.8629828],[-79.93848509999998,32.863922100000025]]},"properties":{"k":"c","n":null,"c":"power line","v":26.2,"cc":null,"co":null}},{"type":"Feature","geometry":{"type":"LineString","coordinates":[[-79.83259950000001,32.87500460000001],[-79.83284420000001,32.870365400000026]]},"properties":{"k":"c","n":null,"c":"power line","v":15.2,"cc":null,"co":null}},{"type":"Feature","geometry":{"type":"LineString","coordinates":[[-79.82501559999997,32.91940970000002],[-79.82432740000002,32.92136529999999],[-79.82287689999998,32.92500000000001]]},"properties":{"k":"c","n":null,"c":"power line","v":25.9,"cc":null,"co":null}},{"type":"Feature","geometry":{"type":"LineString","coordinates":[[-81.06637289999998,31.948394500000006],[-81.0642891,31.946896900000013]]},"properties":{"k":"c","n":null,"c":"power line","v":25.9,"cc":null,"co":null}},{"type":"Feature","geometry":{"type":"LineString","coordinates":[[-81.0438939,31.989091900000005],[-81.042438,31.989164200000005]]},"properties":{"k":"c","n":null,"c":"telephone","v":10.9,"cc":null,"co":null}},{"type":"Feature","geometry":{"type":"LineString","coordinates":[[-81.0438939,31.989091900000005],[-81.042438,31.989164200000005]]},"properties":{"k":"c","n":null,"c":"power line","v":10.9,"cc":null,"co":null}},{"type":"Feature","geometry":{"type":"LineString","coordinates":[[-81.1643239,32.354351099999974],[-81.16381030000002,32.35747939999999],[-81.1605434,32.361318100000005]]},"properties":{"k":"c","n":null,"c":"power line","v":24.9,"cc":null,"co":null}},{"type":"Feature","geometry":{"type":"LineString","coordinates":[[-81.16415869999997,32.35364449999997],[-81.16347300000001,32.357491700000026],[-81.16024800000002,32.36126200000001]]},"properties":{"k":"c","n":null,"c":"power line","v":24.9,"cc":null,"co":null}},{"type":"Feature","geometry":{"type":"LineString","coordinates":[[-80.99134020000002,32.01925840000001],[-80.99243840000003,32.02019480000001]]},"properties":{"k":"c","n":null,"c":"power line","v":16.7,"cc":null,"co":null}},{"type":"Feature","geometry":{"type":"LineString","coordinates":[[-80.8822116,32.014405899999986],[-80.88499389999998,32.013984600000015]]},"properties":{"k":"c","n":null,"c":"power line","v":16.7,"cc":null,"co":null}},{"type":"Feature","geometry":{"type":"LineString","coordinates":[[-81.03048710000002,32.06278370000001],[-81.02820960000003,32.06221099999999],[-81.02789369999999,32.062038700000016]]},"properties":{"k":"c","n":null,"c":"power line","v":21.9,"cc":null,"co":null}},{"type":"Feature","geometry":{"type":"LineString","coordinates":[[-81.0019691,32.085467300000005],[-81.00499939999997,32.081347900000026]]},"properties":{"k":"c","n":null,"c":"transmission line","v":17.0,"cc":null,"co":null}},{"type":"Feature","geometry":{"type":"LineString","coordinates":[[-81.04920179999999,32.0817045],[-81.0508572,32.07853490000002]]},"properties":{"k":"c","n":null,"c":"power line","v":67.3,"cc":null,"co":null}},{"type":"Feature","geometry":{"type":"LineString","coordinates":[[-81.01206889999997,32.05228069999998],[-81.01130669999998,32.05255940000001]]},"properties":{"k":"c","n":null,"c":"power line","v":11.2,"cc":null,"co":null}},{"type":"Feature","geometry":{"type":"LineString","coordinates":[[-81.01669629999998,32.05039590000001],[-81.01503350000002,32.048777900000005]]},"properties":{"k":"c","n":null,"c":"power line","v":10.6,"cc":null,"co":null}},{"type":"Feature","geometry":{"type":"LineString","coordinates":[[-81.0311883,32.0625124],[-81.02812879999999,32.060999700000025]]},"properties":{"k":"c","n":null,"c":"power line","v":25.9,"cc":null,"co":null}},{"type":"Feature","geometry":{"type":"LineString","coordinates":[[-81.01309120000002,32.05199679999998],[-81.01177310000003,32.05086210000002]]},"properties":{"k":"c","n":null,"c":"power line","v":9.7,"cc":null,"co":null}},{"type":"Feature","geometry":{"type":"LineString","coordinates":[[-81.004636,32.0811367],[-81.0016172,32.08525229999998]]},"properties":{"k":"c","n":null,"c":"transmission line","v":17.8,"cc":null,"co":null}},{"type":"Feature","geometry":{"type":"LineString","coordinates":[[-80.96022900000003,32.035325899999975],[-80.95809209999999,32.037190399999986]]},"properties":{"k":"c","n":null,"c":"power line","v":16.7,"cc":null,"co":null}},{"type":"Feature","geometry":{"type":"LineString","coordinates":[[-80.9837933,32.03295739999999],[-80.98815669999999,32.03520409999999]]},"properties":{"k":"c","n":null,"c":"power line","v":16.7,"cc":null,"co":null}},{"type":"Feature","geometry":{"type":"LineString","coordinates":[[-81.13718990000001,32.14169249999998],[-81.13901679999998,32.14476930000001]]},"properties":{"k":"c","n":null,"c":"power line","v":16.7,"cc":null,"co":null}},{"type":"Feature","geometry":{"type":"LineString","coordinates":[[-81.13901679999998,32.14476930000001],[-81.14138400000002,32.14866189999998]]},"properties":{"k":"c","n":null,"c":"power line","v":25.2,"cc":null,"co":null}},{"type":"Feature","geometry":{"type":"LineString","coordinates":[[-81.14138400000002,32.14866189999998],[-81.14386619999999,32.1479296]]},"properties":{"k":"c","n":null,"c":"power line","v":63.3,"cc":null,"co":null}},{"type":"Feature","geometry":{"type":"LineString","coordinates":[[-81.11042520000001,32.1091131],[-81.10527560000003,32.1130263]]},"properties":{"k":"c","n":null,"c":" ","v":4.5,"cc":null,"co":null}},{"type":"Feature","geometry":{"type":"LineString","coordinates":[[-80.88018740000001,32.151389600000016],[-80.87730260000001,32.1537017]]},"properties":{"k":"c","n":null,"c":"power line","v":16.7,"cc":null,"co":null}},{"type":"Feature","geometry":{"type":"LineString","coordinates":[[-80.89754679999999,32.1250847],[-80.89733530000001,32.12394569999998],[-80.89617199999998,32.12329649999998],[-80.8950216,32.121561499999984]]},"properties":{"k":"c","n":null,"c":"power line","v":26.2,"cc":null,"co":null}},{"type":"Feature","geometry":{"type":"LineString","coordinates":[[-80.8979271,32.129139899999984],[-80.89798830000001,32.129728899999975]]},"properties":{"k":"c","n":null,"c":"power line","v":6.0,"cc":null,"co":null}},{"type":"Feature","geometry":{"type":"LineString","coordinates":[[-80.79367100000002,32.231754799999976],[-80.7872092,32.2294546]]},"properties":{"k":"c","n":null,"c":"power line","v":13.1,"cc":null,"co":null}},{"type":"Feature","geometry":{"type":"LineString","coordinates":[[-80.77932440000001,32.22258959999999],[-80.78438729999999,32.228379099999984]]},"properties":{"k":"c","n":null,"c":"power line","v":27.7,"cc":null,"co":null}},{"type":"Feature","geometry":{"type":"LineString","coordinates":[[-80.78731679999999,32.22933180000001],[-80.79369659999998,32.23157259999999]]},"properties":{"k":"c","n":null,"c":"power line","v":13.1,"cc":null,"co":null}},{"type":"Feature","geometry":{"type":"LineString","coordinates":[[-80.78024420000003,32.22207980000002],[-80.78464589999999,32.22655900000001]]},"properties":{"k":"c","n":null,"c":"power line","v":27.7,"cc":null,"co":null}},{"type":"Feature","geometry":{"type":"LineString","coordinates":[[-80.69999999999999,32.42849000000001],[-80.69873430000001,32.42869830000001]]},"properties":{"k":"c","n":null,"c":"telephone","v":3.6,"cc":null,"co":null}},{"type":"Feature","geometry":{"type":"LineString","coordinates":[[-80.69969600000002,32.42756939999998],[-80.69850070000001,32.42846309999999],[-80.6965121,32.428036599999984]]},"properties":{"k":"c","n":null,"c":"telephone","v":3.6,"cc":null,"co":null}},{"type":"Feature","geometry":{"type":"LineString","coordinates":[[-80.69829870000001,32.4285079],[-80.69999999999999,32.42804869999998]]},"properties":{"k":"c","n":null,"c":"telephone","v":3.6,"cc":null,"co":null}},{"type":"Feature","geometry":{"type":"LineString","coordinates":[[-80.69999999999999,32.42849000000001],[-80.69873430000001,32.42869830000001]]},"properties":{"k":"c","n":null,"c":"power line","v":3.6,"cc":null,"co":null}},{"type":"Feature","geometry":{"type":"LineString","coordinates":[[-80.69829870000001,32.4285079],[-80.69999999999999,32.42804869999998]]},"properties":{"k":"c","n":null,"c":"power line","v":3.6,"cc":null,"co":null}},{"type":"Feature","geometry":{"type":"LineString","coordinates":[[-80.69969600000002,32.42756939999998],[-80.69850070000001,32.42846309999999],[-80.6965121,32.428036599999984]]},"properties":{"k":"c","n":null,"c":"power line","v":3.6,"cc":null,"co":null}},{"type":"Feature","geometry":{"type":"LineString","coordinates":[[-80.69491790000001,32.42962970000002],[-80.69999999999999,32.42867690000003]]},"properties":{"k":"c","n":null,"c":"power line","v":3.6,"cc":null,"co":null}},{"type":"Feature","geometry":{"type":"LineString","coordinates":[[-80.69491790000001,32.42962970000002],[-80.69999999999999,32.42867690000003]]},"properties":{"k":"c","n":null,"c":"telephone","v":3.6,"cc":null,"co":null}},{"type":"Feature","geometry":{"type":"LineString","coordinates":[[-80.69999999999999,32.4290628],[-80.6966529,32.42845310000001]]},"properties":{"k":"c","n":null,"c":"telephone","v":3.6,"cc":null,"co":null}},{"type":"Feature","geometry":{"type":"LineString","coordinates":[[-80.69999999999999,32.4290628],[-80.6966529,32.42845310000001]]},"properties":{"k":"c","n":null,"c":"power line","v":3.6,"cc":null,"co":null}},{"type":"Feature","geometry":{"type":"LineString","coordinates":[[-80.59929590000002,32.48353129999998],[-80.60068530000001,32.48413420000003]]},"properties":{"k":"c","n":null,"c":"telephone","v":8.5,"cc":null,"co":null}},{"type":"Feature","geometry":{"type":"LineString","coordinates":[[-80.59929590000002,32.48353129999998],[-80.60068530000001,32.48413420000003]]},"properties":{"k":"c","n":null,"c":"power line","v":8.5,"cc":null,"co":null}},{"type":"Feature","geometry":{"type":"LineString","coordinates":[[-80.34255180000002,32.6377066],[-80.342107,32.63485259999999]]},"properties":{"k":"c","n":null,"c":"power line","v":29.8,"cc":null,"co":null}},{"type":"Feature","geometry":{"type":"LineString","coordinates":[[-80.05472250000003,32.77499999999998],[-80.05472099999997,32.774922000000004]]},"properties":{"k":"c","n":null,"c":"power line","v":27.7,"cc":null,"co":null}},{"type":"Feature","geometry":{"type":"LineString","coordinates":[[-80.10206599999998,32.789174],[-80.10220099999998,32.78525300000001]]},"properties":{"k":"c","n":null,"c":"power line","v":27.7,"cc":null,"co":null}},{"type":"Feature","geometry":{"type":"LineString","coordinates":[[-79.7946144,32.79131380000001],[-79.80000000000001,32.793379000000016]]},"properties":{"k":"c","n":null,"c":"power line","v":26.2,"cc":null,"co":null}},{"type":"Feature","geometry":{"type":"LineString","coordinates":[[-79.7908481,32.789880100000005],[-79.78947360000001,32.789358400000026]]},"properties":{"k":"c","n":null,"c":"power line","v":28.6,"cc":null,"co":null}},{"type":"Feature","geometry":{"type":"LineString","coordinates":[[-79.72500000000002,32.82669019999997],[-79.72727830000002,32.82414640000002],[-79.72635250000002,32.82184319999999]]},"properties":{"k":"c","n":null,"c":"power line","v":26.5,"cc":null,"co":null}},{"type":"Feature","geometry":{"type":"LineString","coordinates":[[-79.7028929,32.85015820000001],[-79.70218729999999,32.85078010000001],[-79.70027299999998,32.851794600000005],[-79.69968260000002,32.852649299999996]]},"properties":{"k":"c","n":null,"c":"power line","v":26.2,"cc":null,"co":null}},{"type":"Feature","geometry":{"type":"LineString","coordinates":[[-79.65338580000002,32.882467099999985],[-79.6578561,32.881631700000014]]},"properties":{"k":"c","n":null,"c":"power line","v":25.9,"cc":null,"co":null}},{"type":"Feature","geometry":{"type":"LineString","coordinates":[[-79.96847639999999,32.97924979999999],[-79.96874100000002,32.984008800000026]]},"properties":{"k":"c","n":null,"c":"power line","v":16.1,"cc":null,"co":null}},{"type":"Feature","geometry":{"type":"LineString","coordinates":[[-79.91405859999998,32.962102800000025],[-79.89780660000002,32.96985380000001]]},"properties":{"k":"c","n":null,"c":" ","v":2.7,"cc":null,"co":null}},{"type":"Feature","geometry":{"type":"LineString","coordinates":[[-79.82287689999998,32.92500000000001],[-79.8226563,32.925552100000004]]},"properties":{"k":"c","n":null,"c":"power line","v":25.9,"cc":null,"co":null}},{"type":"Feature","geometry":{"type":"LineString","coordinates":[[-79.72533140000002,32.94509249999999],[-79.7260205,32.94525299999998]]},"properties":{"k":"c","n":null,"c":"power line","v":8.5,"cc":null,"co":null}},{"type":"Feature","geometry":{"type":"LineString","coordinates":[[-79.72113380000002,32.929506100000026],[-79.7222787,32.929934600000024]]},"properties":{"k":"c","n":null,"c":"power line","v":9.1,"cc":null,"co":null}},{"type":"Feature","geometry":{"type":"LineString","coordinates":[[-79.9091416,33.01646699999998],[-79.90627690000002,33.0158313]]},"properties":{"k":"c","n":null,"c":"power line","v":22.8,"cc":null,"co":null}},{"type":"Feature","geometry":{"type":"LineString","coordinates":[[-79.94273930000003,33.09321879999999],[-79.94101899999998,33.09411030000001]]},"properties":{"k":"c","n":null,"c":" ","v":25.9,"cc":null,"co":null}},{"type":"Feature","geometry":{"type":"LineString","coordinates":[[-80.46312590000002,32.34261120000002],[-80.46507179999998,32.3375317]]},"properties":{"k":"b","n":null,"c":"fixed bridge","v":4.5,"cc":null,"co":null}},{"type":"Feature","geometry":{"type":"LineString","coordinates":[[-80.77945399999999,32.53393940000001],[-80.77743099999998,32.5271894]]},"properties":{"k":"c","n":null,"c":"power line","v":20.7,"cc":null,"co":null}},{"type":"Feature","geometry":{"type":"LineString","coordinates":[[-80.44939799999997,32.403293399999995],[-80.45038899999997,32.403020000000026],[-80.45844679999999,32.405780400000026]]},"properties":{"k":"c","n":null,"c":"power line","v":33.5,"cc":null,"co":null}},{"type":"Feature","geometry":{"type":"LineString","coordinates":[[-79.4053301999993,33.18306180000036],[-79.4057486999991,33.1834773999999],[-79.40428529999917,33.18499150000025],[-79.40396519999922,33.18459450000046],[-79.4053301999993,33.18306180000036]]},"properties":{"k":"b","n":null,"c":"fixed bridge","v":null,"cc":null,"co":null}},{"type":"Feature","geometry":{"type":"LineString","coordinates":[[-79.40590979999979,33.1836373999995],[-79.40617679999923,33.183902700000544],[-79.40470620000087,33.18551379999917],[-79.4044429000005,33.185187099999894],[-79.40590979999979,33.1836373999995]]},"properties":{"k":"b","n":null,"c":"fixed bridge","v":null,"cc":null,"co":null}},{"type":"Feature","geometry":{"type":"LineString","coordinates":[[-79.26899550000053,33.25081879999925],[-79.26911909999944,33.25085810000019],[-79.26907869999923,33.25090850000015],[-79.26897520000057,33.25087549999989],[-79.26899550000053,33.25081879999925]]},"properties":{"k":"b","n":null,"c":"fixed bridge","v":null,"cc":null,"co":null}},{"type":"Feature","geometry":{"type":"LineString","coordinates":[[-79.26839459999974,33.250625200000286],[-79.26895650000006,33.25078530000064],[-79.26897520000057,33.25087549999989],[-79.26841480000076,33.250713800000085],[-79.26839459999974,33.250625200000286]]},"properties":{"k":"b","n":"Yawkey Center Swing Bridge","c":"swing bridge","v":null,"cc":null,"co":null}},{"type":"Feature","geometry":{"type":"LineString","coordinates":[[-79.26839459999974,33.250625200000286],[-79.26837530000012,33.250681699999404],[-79.26832640000066,33.25066669999978],[-79.26836670000012,33.25061669999923],[-79.26839459999974,33.250625200000286]]},"properties":{"k":"b","n":null,"c":"fixed bridge","v":null,"cc":null,"co":null}},{"type":"Feature","geometry":{"type":"LineString","coordinates":[[-79.25196709999909,33.365506500000265],[-79.25316439999915,33.365619199999855],[-79.25308640000003,33.36578410000038],[-79.24916049999956,33.36541489999945],[-79.24918339999931,33.36523739999939],[-79.25196709999909,33.365506500000265]]},"properties":{"k":"b","n":"Lafayette Bridge","c":"fixed bridge","v":null,"cc":null,"co":null}},{"type":"Feature","geometry":{"type":"LineString","coordinates":[[-79.25356909999937,33.36565739999969],[-79.25604630000089,33.36589060000006],[-79.25733179999952,33.366011699999945],[-79.25727059999917,33.36617760000081],[-79.25348719999965,33.36582180000005],[-79.25356909999937,33.36565739999969]]},"properties":{"k":"b","n":"Lafayette Bridge","c":"fixed bridge","v":null,"cc":null,"co":null}},{"type":"Feature","geometry":{"type":"LineString","coordinates":[[-79.86181140000008,32.76809850000063],[-79.86209260000032,32.76955380000072],[-79.86197809999976,32.7695760000006],[-79.86172169999918,32.768163200000345],[-79.86181140000008,32.76809850000063]]},"properties":{"k":"b","n":null,"c":"fixed bridge","v":null,"cc":null,"co":null}},{"type":"Feature","geometry":{"type":"LineString","coordinates":[[-79.86170209999909,32.76704500000051],[-79.8616951999993,32.76720519999981],[-79.86163959999976,32.76719520000006],[-79.86166860000048,32.766703100000086],[-79.86177189999944,32.76671600000009],[-79.86170209999909,32.76704500000051]]},"properties":{"k":"b","n":null,"c":"fixed bridge","v":null,"cc":null,"co":null}},{"type":"Feature","geometry":{"type":"LineString","coordinates":[[-79.97574010000062,32.79617230000076],[-79.97585509999954,32.79630670000006],[-79.97380049999992,32.79664489999959],[-79.96863200000007,32.79770749999989],[-79.9686129999991,32.79760119999992],[-79.97377389999929,32.79650450000008],[-79.97574010000062,32.79617230000076]]},"properties":{"k":"b","n":null,"c":"fixed bridge","v":null,"cc":null,"co":null}},{"type":"Feature","geometry":{"type":"LineString","coordinates":[[-79.92917769999985,32.80244479999965],[-79.92924029999995,32.802541299999575],[-79.92813469999965,32.80294470000081],[-79.92803789999925,32.8028587000008],[-79.92917769999985,32.80244479999965]]},"properties":{"k":"b","n":null,"c":"fixed bridge","v":null,"cc":null,"co":null}},{"type":"Feature","geometry":{"type":"LineString","coordinates":[[-79.92934210000021,32.80269819999921],[-79.92939669999942,32.80278229999931],[-79.9283532999998,32.803167199999734],[-79.9282819,32.80308900000091],[-79.92934210000021,32.80269819999921]]},"properties":{"k":"b","n":null,"c":"fixed bridge","v":null,"cc":null,"co":null}},{"type":"Feature","geometry":{"type":"LineString","coordinates":[[-79.93092819999947,32.802209600000424],[-79.9305977999993,32.80234550000023],[-79.93054080000002,32.8022576000003],[-79.93086720000065,32.8021207999991],[-79.93092819999947,32.802209600000424]]},"properties":{"k":"b","n":null,"c":"fixed bridge","v":null,"cc":null,"co":null}},{"type":"Feature","geometry":{"type":"LineString","coordinates":[[-79.91725679999945,32.80300630000056],[-79.91771560000052,32.802990399999544],[-79.91770689999976,32.80304260000048],[-79.92207889999918,32.803626000000804],[-79.92175900000075,32.80394359999991],[-79.9197282999994,32.80370229999971],[-79.91719600000033,32.80337320000035],[-79.91725679999945,32.80300630000056]]},"properties":{"k":"b","n":"Ravenel Fixed Bridge","c":"fixed bridge","v":null,"cc":null,"co":null}},{"type":"Feature","geometry":{"type":"LineString","coordinates":[[-79.93279059999986,32.80191879999984],[-79.9328389000002,32.802014200000485],[-79.93278250000003,32.80203690000053],[-79.93273319999935,32.80193289999988],[-79.93279059999986,32.80191879999984]]},"properties":{"k":"b","n":null,"c":"fixed bridge","v":null,"cc":null,"co":null}},{"type":"Feature","geometry":{"type":"LineString","coordinates":[[-79.91273200000069,32.80239950000032],[-79.91291300000012,32.80242299999918],[-79.91284239999914,32.80280900000071],[-79.90654560000075,32.80196699999942],[-79.90658790000089,32.80161229999976],[-79.91247099999964,32.802365600000485],[-79.91248149999956,32.80231420000018],[-79.91274039999917,32.80234820000078],[-79.91273200000069,32.80239950000032]]},"properties":{"k":"b","n":"Ravenel Fixed Bridge","c":"fixed bridge","v":null,"cc":null,"co":null}},{"type":"Feature","geometry":{"type":"LineString","coordinates":[[-79.93075069999941,32.801863000000594],[-79.9308275000003,32.80197389999921],[-79.93043849999958,32.80209990000003],[-79.93038030000025,32.80201019999913],[-79.93075069999941,32.801863000000594]]},"properties":{"k":"b","n":null,"c":"fixed bridge","v":null,"cc":null,"co":null}},{"type":"Feature","geometry":{"type":"LineString","coordinates":[[-79.93129679999947,32.80158440000014],[-79.9314190999994,32.801800600000206],[-79.9309333000001,32.80196579999938],[-79.93089639999926,32.8019048999995],[-79.93125809999947,32.80177739999999],[-79.93117969999912,32.80161439999938],[-79.93129679999947,32.80158440000014]]},"properties":{"k":"b","n":null,"c":"fixed bridge","v":null,"cc":null,"co":null}},{"type":"Feature","geometry":{"type":"LineString","coordinates":[[-79.93751089999932,32.819091800000024],[-79.93743890000042,32.81933179999942],[-79.93737449999935,32.81933980000031],[-79.9374540000008,32.819091800000024],[-79.93751089999932,32.819091800000024]]},"properties":{"k":"b","n":null,"c":"fixed bridge","v":null,"cc":null,"co":null}},{"type":"Feature","geometry":{"type":"LineString","coordinates":[[-79.9693544999991,32.89189269999952],[-79.97028429999955,32.892012800000884],[-79.97027949999938,32.892284600000494],[-79.96978060000038,32.89221849999922],[-79.9693544999991,32.89189269999952]]},"properties":{"k":"b","n":null,"c":"fixed bridge","v":null,"cc":null,"co":null}},{"type":"Feature","geometry":{"type":"LineString","coordinates":[[-79.97234539999954,32.89230409999982],[-79.97266110000055,32.89234539999961],[-79.97257209999952,32.89261219999935],[-79.97224439999991,32.892558100000315],[-79.97234539999954,32.89230409999982]]},"properties":{"k":"b","n":null,"c":"fixed bridge","v":null,"cc":null,"co":null}},{"type":"Feature","geometry":{"type":"LineString","coordinates":[[-79.97149309999986,32.89218199999959],[-79.97180169999956,32.89222560000053],[-79.97146179999982,32.89245010000013],[-79.97126840000055,32.8924248000003],[-79.97085870000046,32.89209160000064],[-79.97149309999986,32.89218199999959]]},"properties":{"k":"b","n":null,"c":"fixed bridge","v":null,"cc":null,"co":null}},{"type":"Feature","geometry":{"type":"LineString","coordinates":[[-79.98498450000079,32.869545199999266],[-79.98523220000061,32.86944869999934],[-79.98523220000061,32.86969429999954],[-79.98498450000079,32.86971219999941],[-79.98498450000079,32.869545199999266]]},"properties":{"k":"b","n":null,"c":"fixed bridge","v":null,"cc":null,"co":null}},{"type":"Feature","geometry":{"type":"LineString","coordinates":[[-79.97506099999919,32.87220829999933],[-79.97524619999967,32.87210380000033],[-79.97536790000049,32.87203950000003],[-79.97536790000049,32.87234139999964],[-79.97506099999919,32.87247530000059],[-79.97506099999919,32.87220829999933]]},"properties":{"k":"b","n":null,"c":"fixed bridge","v":null,"cc":null,"co":null}},{"type":"Feature","geometry":{"type":"LineString","coordinates":[[-79.97329779999927,32.89243650000026],[-79.9733238000008,32.89271700000063],[-79.97304559999975,32.89267870000003],[-79.97305000000051,32.89240670000072],[-79.97329779999927,32.89243650000026]]},"properties":{"k":"b","n":null,"c":"fixed bridge","v":null,"cc":null,"co":null}},{"type":"Feature","geometry":{"type":"LineString","coordinates":[[-79.9698387999997,32.89185890000044],[-79.96981389999928,32.89195199999995],[-79.96970030000011,32.89193730000079],[-79.96977139999944,32.891825400000016],[-79.9698387999997,32.89185890000044]]},"properties":{"k":"b","n":null,"c":"fixed bridge","v":null,"cc":null,"co":null}},{"type":"Feature","geometry":{"type":"LineString","coordinates":[[-79.96161759999995,32.890802100000656],[-79.96308940000017,32.89100940000026],[-79.96301060000042,32.89125590000003],[-79.95792690000053,32.89053989999957],[-79.95804689999932,32.890299000000596],[-79.96161759999995,32.890802100000656]]},"properties":{"k":"b","n":null,"c":"fixed bridge","v":null,"cc":null,"co":null}},{"type":"Feature","geometry":{"type":"LineString","coordinates":[[-79.97352560000036,32.87301230000048],[-79.97341779999988,32.87301920000027],[-79.97329990000071,32.87265099999968],[-79.97344540000086,32.87270999999964],[-79.97352560000036,32.87301230000048]]},"properties":{"k":"b","n":null,"c":"fixed bridge","v":null,"cc":null,"co":null}},{"type":"Feature","geometry":{"type":"LineString","coordinates":[[-79.98006139999961,32.868886099999145],[-79.98006139999961,32.86922720000075],[-79.97982009999942,32.86943529999917],[-79.97982009999942,32.86904409999988],[-79.98006139999961,32.868886099999145]]},"properties":{"k":"b","n":null,"c":"fixed bridge","v":null,"cc":null,"co":null}},{"type":"Feature","geometry":{"type":"LineString","coordinates":[[-79.95801829999982,32.918166600000404],[-79.95785500000056,32.91832939999949],[-79.95661350000046,32.91878419999921],[-79.95657249999931,32.91867009999987],[-79.95801829999982,32.918166600000404]]},"properties":{"k":"b","n":null,"c":"fixed bridge","v":null,"cc":null,"co":null}},{"type":"Feature","geometry":{"type":"LineString","coordinates":[[-79.96533289999934,32.891325399999914],[-79.96677970000019,32.89152909999939],[-79.96794620000037,32.89169330000004],[-79.96769049999966,32.89191519999986],[-79.96525760000077,32.89157250000062],[-79.96533289999934,32.891325399999914]]},"properties":{"k":"b","n":null,"c":"fixed bridge","v":null,"cc":null,"co":null}},{"type":"Feature","geometry":{"type":"LineString","coordinates":[[-79.97318180000002,32.87260290000086],[-79.97311710000031,32.87294020000081],[-79.97301770000013,32.87293040000077],[-79.97311699999955,32.872595799999544],[-79.97318180000002,32.87260290000086]]},"properties":{"k":"b","n":null,"c":"fixed bridge","v":null,"cc":null,"co":null}},{"type":"Feature","geometry":{"type":"LineString","coordinates":[[-79.97400910000033,32.87264409999989],[-79.97365779999927,32.87304690000019],[-79.97350329999972,32.87303790000078],[-79.97380909999993,32.872686099999555],[-79.97400910000033,32.87264409999989]]},"properties":{"k":"b","n":null,"c":"fixed bridge","v":null,"cc":null,"co":null}},{"type":"Feature","geometry":{"type":"LineString","coordinates":[[-79.91881889999968,32.86764640000001],[-79.91867710000042,32.86750530000063],[-79.91874479999933,32.86739189999935],[-79.91885910000019,32.8675187000008],[-79.91881889999968,32.86764640000001]]},"properties":{"k":"b","n":null,"c":"fixed bridge","v":null,"cc":null,"co":null}},{"type":"Feature","geometry":{"type":"LineString","coordinates":[[-81.2266428999992,31.767385700000887],[-81.22672559999955,31.767534700000397],[-81.22640399999909,31.767603000000236],[-81.22638750000078,31.767449599999964],[-81.2266428999992,31.767385700000887]]},"properties":{"k":"b","n":null,"c":"fixed bridge","v":null,"cc":null,"co":null}},{"type":"Feature","geometry":{"type":"LineString","coordinates":[[-81.10279260000061,31.936509999999544],[-81.1030310999995,31.936622900000657],[-81.10303770000064,31.936728099999527],[-81.10279040000023,31.936612699999387],[-81.10279260000061,31.936509999999544]]},"properties":{"k":"b","n":null,"c":"fixed bridge","v":null,"cc":null,"co":null}},{"type":"Feature","geometry":{"type":"LineString","coordinates":[[-81.09229600000072,31.930234800000107],[-81.09263359999932,31.93044050000026],[-81.09259439999914,31.930515100000775],[-81.09224840000024,31.930312200000117],[-81.09229600000072,31.930234800000107]]},"properties":{"k":"b","n":null,"c":"fixed bridge","v":null,"cc":null,"co":null}},{"type":"Feature","geometry":{"type":"LineString","coordinates":[[-81.13932620000014,31.932500200000504],[-81.13928189999933,31.9324347999991],[-81.13930230000005,31.93238519999977],[-81.13934540000082,31.932448899999144],[-81.13932620000014,31.932500200000504]]},"properties":{"k":"b","n":null,"c":"fixed bridge","v":null,"cc":null,"co":null}},{"type":"Feature","geometry":{"type":"LineString","coordinates":[[-81.08394469999985,31.92818620000071],[-81.08419900000081,31.92837370000052],[-81.08415029999924,31.9284420999993],[-81.08389650000026,31.928255299999364],[-81.08394469999985,31.92818620000071]]},"properties":{"k":"b","n":null,"c":"fixed bridge","v":null,"cc":null,"co":null}},{"type":"Feature","geometry":{"type":"LineString","coordinates":[[-81.08625709999978,31.928916400000162],[-81.08601529999942,31.928733999999167],[-81.08607200000006,31.92865840000013],[-81.08632380000017,31.92884840000079],[-81.08625709999978,31.928916400000162]]},"properties":{"k":"b","n":null,"c":"fixed bridge","v":null,"cc":null,"co":null}},{"type":"Feature","geometry":{"type":"LineString","coordinates":[[-81.06483750000007,31.946543899999597],[-81.06548880000082,31.94704830000046],[-81.06674779999958,31.948023200000534],[-81.06666840000071,31.948101800000586],[-81.06473910000022,31.94661140000062],[-81.06483750000007,31.946543899999597]]},"properties":{"k":"b","n":null,"c":"fixed bridge","v":null,"cc":null,"co":null}},{"type":"Feature","geometry":{"type":"LineString","coordinates":[[-81.01780390000022,31.992313799999465],[-81.01788510000006,31.992346299999554],[-81.01756770000065,31.992740600000616],[-81.01758700000028,31.99258270000064],[-81.01780390000022,31.992313799999465]]},"properties":{"k":"b","n":null,"c":"fixed bridge","v":null,"cc":null,"co":null}},{"type":"Feature","geometry":{"type":"LineString","coordinates":[[-81.05590630000006,31.992769500000577],[-81.05614620000051,31.993145899999945],[-81.05606690000059,31.99318940000012],[-81.05581519999942,31.99280429999999],[-81.05590630000006,31.992769500000577]]},"properties":{"k":"b","n":null,"c":"fixed bridge","v":null,"cc":null,"co":null}},{"type":"Feature","geometry":{"type":"LineString","coordinates":[[-81.05732250000074,31.997969300000477],[-81.0573387000004,31.998143799999525],[-81.05724659999942,31.99814619999961],[-81.05723100000068,31.997977700000774],[-81.05732250000074,31.997969300000477]]},"properties":{"k":"b","n":null,"c":"fixed bridge","v":null,"cc":null,"co":null}},{"type":"Feature","geometry":{"type":"LineString","coordinates":[[-81.1793503000008,32.3607090000005],[-81.1794589000001,32.36071450000054],[-81.1795001999999,32.36106649999965],[-81.1793959000006,32.36106280000058],[-81.1793503000008,32.3607090000005]]},"properties":{"k":"b","n":null,"c":"fixed bridge","v":null,"cc":null,"co":null}},{"type":"Feature","geometry":{"type":"LineString","coordinates":[[-80.86705040000015,32.006503700000394],[-80.86681920000046,32.00637789999928],[-80.86687359999996,32.00631710000016],[-80.86710449999919,32.00644780000039],[-80.86705040000015,32.006503700000394]]},"properties":{"k":"b","n":null,"c":"fixed bridge","v":null,"cc":null,"co":null}},{"type":"Feature","geometry":{"type":"LineString","coordinates":[[-81.08381299999928,32.0856703999998],[-81.08377269999983,32.085428799999136],[-81.08433540000078,32.085509399999864],[-81.08461840000018,32.085805900000196],[-81.08381299999928,32.0856703999998]]},"properties":{"k":"b","n":null,"c":"fixed bridge","v":null,"cc":null,"co":null}},{"type":"Feature","geometry":{"type":"LineString","coordinates":[[-81.03133349999916,32.03855579999981],[-81.0311098000002,32.038659499999994],[-81.03091060000042,32.03848950000065],[-81.03121730000021,32.03837829999975],[-81.03133349999916,32.03855579999981]]},"properties":{"k":"b","n":null,"c":"fixed bridge","v":null,"cc":null,"co":null}},{"type":"Feature","geometry":{"type":"LineString","coordinates":[[-81.0285569000007,32.06143150000025],[-81.02957699999934,32.061933599999975],[-81.0297128000002,32.062000399999306],[-81.02962619999926,32.06212550000055],[-81.02844360000017,32.061559800000396],[-81.0285569000007,32.06143150000025]]},"properties":{"k":"b","n":null,"c":"fixed bridge","v":null,"cc":null,"co":null}},{"type":"Feature","geometry":{"type":"LineString","coordinates":[[-81.0297128000002,32.062000399999306],[-81.03002070000002,32.062139800000296],[-81.02993450000031,32.06227209999997],[-81.02962619999926,32.06212550000055],[-81.0297128000002,32.062000399999306]]},"properties":{"k":"b","n":null,"c":"bascule bridge","v":null,"cc":null,"co":null}},{"type":"Feature","geometry":{"type":"LineString","coordinates":[[-81.03002070000002,32.062139800000296],[-81.03036339999926,32.06231789999947],[-81.03028079999967,32.06246160000046],[-81.02993450000031,32.06227209999997],[-81.03002070000002,32.062139800000296]]},"properties":{"k":"b","n":null,"c":"fixed bridge","v":null,"cc":null,"co":null}},{"type":"Feature","geometry":{"type":"LineString","coordinates":[[-81.0150520999996,32.07469309999942],[-81.0151038999993,32.074754100000064],[-81.01487880000059,32.07486029999927],[-81.01483740000003,32.07479059999969],[-81.0150520999996,32.07469309999942]]},"properties":{"k":"b","n":null,"c":"fixed bridge","v":null,"cc":null,"co":null}},{"type":"Feature","geometry":{"type":"LineString","coordinates":[[-81.08825520000028,32.12639119999949],[-81.08785610000086,32.12698239999918],[-81.08770130000084,32.127020699999775],[-81.0882074000001,32.12635290000071],[-81.08825520000028,32.12639119999949]]},"properties":{"k":"b","n":null,"c":"fixed bridge","v":null,"cc":null,"co":null}},{"type":"Feature","geometry":{"type":"LineString","coordinates":[[-80.76305710000088,32.16908239999975],[-80.76313020000089,32.169158900000184],[-80.76302700000087,32.169244299999264],[-80.76295220000065,32.169173899999805],[-80.76305710000088,32.16908239999975]]},"properties":{"k":"b","n":null,"c":"fixed bridge","v":null,"cc":null,"co":null}},{"type":"Feature","geometry":{"type":"LineString","coordinates":[[-80.7594840999991,32.17111459999978],[-80.7596023999995,32.17115310000008],[-80.75957109999945,32.17124519999925],[-80.75943410000036,32.17120310000064],[-80.7594840999991,32.17111459999978]]},"properties":{"k":"b","n":null,"c":"fixed bridge","v":null,"cc":null,"co":null}},{"type":"Feature","geometry":{"type":"LineString","coordinates":[[-80.7595524999997,32.16889049999918],[-80.75960909999958,32.16899059999923],[-80.75942070000019,32.16903810000076],[-80.75938870000027,32.16897550000067],[-80.7595524999997,32.16889049999918]]},"properties":{"k":"b","n":null,"c":"fixed bridge","v":null,"cc":null,"co":null}},{"type":"Feature","geometry":{"type":"LineString","coordinates":[[-80.7592366000008,32.16679470000054],[-80.75928380000005,32.16697550000026],[-80.75916110000071,32.16699940000035],[-80.75910880000083,32.166822299999694],[-80.7592366000008,32.16679470000054]]},"properties":{"k":"b","n":null,"c":"fixed bridge","v":null,"cc":null,"co":null}},{"type":"Feature","geometry":{"type":"LineString","coordinates":[[-80.72727889999987,32.18152200000077],[-80.72734370000035,32.18195770000057],[-80.72723310000038,32.18198180000036],[-80.72716319999927,32.181528700000854],[-80.72727889999987,32.18152200000077]]},"properties":{"k":"b","n":null,"c":"fixed bridge","v":null,"cc":null,"co":null}},{"type":"Feature","geometry":{"type":"LineString","coordinates":[[-80.66822519999914,32.424094399999376],[-80.66853730000003,32.424934500000745],[-80.66912009999942,32.427187699999195],[-80.66899890000059,32.42720879999979],[-80.66837730000043,32.42474890000085],[-80.66812209999989,32.42411419999917],[-80.66822519999914,32.424094399999376]]},"properties":{"k":"b","n":"Ladies Island Bridge","c":"fixed bridge","v":null,"cc":null,"co":null}},{"type":"Feature","geometry":{"type":"LineString","coordinates":[[-80.69974000000002,32.50521029999982],[-80.69995740000013,32.50529219999953],[-80.69980919999944,32.505552599999646],[-80.69938039999943,32.50537860000077],[-80.69961999999941,32.50532620000013],[-80.69974000000002,32.50521029999982]]},"properties":{"k":"b","n":null,"c":"fixed bridge","v":null,"cc":null,"co":null}},{"type":"Feature","geometry":{"type":"LineString","coordinates":[[-80.45156209999914,32.56056069999977],[-80.45156029999998,32.56069860000025],[-80.45126580000033,32.560714799999914],[-80.45127560000037,32.5605656000007],[-80.45156209999914,32.56056069999977]]},"properties":{"k":"b","n":null,"c":"fixed bridge","v":null,"cc":null,"co":null}},{"type":"Feature","geometry":{"type":"LineString","coordinates":[[-80.37100640000062,32.55571930000042],[-80.37129239999922,32.55625359999976],[-80.37119300000086,32.556303900000785],[-80.37087339999925,32.55572849999953],[-80.37100640000062,32.55571930000042]]},"properties":{"k":"b","n":null,"c":"fixed bridge","v":null,"cc":null,"co":null}},{"type":"Feature","geometry":{"type":"LineString","coordinates":[[-80.34645669999918,32.597699199999624],[-80.34663899999941,32.59770930000013],[-80.34653120000075,32.598568199999136],[-80.34636470000078,32.598470999999336],[-80.34645669999918,32.597699199999624]]},"properties":{"k":"b","n":null,"c":"fixed bridge","v":null,"cc":null,"co":null}},{"type":"Feature","geometry":{"type":"LineString","coordinates":[[-80.1322252000009,32.60369410000021],[-80.13257049999993,32.6040150000008],[-80.13241000000016,32.60409939999954],[-80.13209900000038,32.60374950000005],[-80.1322252000009,32.60369410000021]]},"properties":{"k":"b","n":null,"c":"fixed bridge","v":null,"cc":null,"co":null}},{"type":"Feature","geometry":{"type":"LineString","coordinates":[[-80.1399550999995,32.59050439999919],[-80.1399437,32.590604000000894],[-80.13958590000038,32.59064600000056],[-80.13957800000026,32.59055029999945],[-80.1399550999995,32.59050439999919]]},"properties":{"k":"b","n":null,"c":"fixed bridge","v":null,"cc":null,"co":null}},{"type":"Feature","geometry":{"type":"LineString","coordinates":[[-80.1518218000001,32.574979999999414],[-80.1517117000003,32.5753349000006],[-80.14988409999933,32.5761265000001],[-80.14990650000072,32.575832399999854],[-80.1518218000001,32.574979999999414]]},"properties":{"k":"b","n":null,"c":"fixed bridge","v":null,"cc":null,"co":null}},{"type":"Feature","geometry":{"type":"LineString","coordinates":[[-80.24014999999963,32.69675300000017],[-80.24019299999964,32.69693299999926],[-80.23976500000026,32.69702099999995],[-80.23971700000038,32.696860000000015],[-80.24014999999963,32.69675300000017]]},"properties":{"k":"b","n":null,"c":"fixed bridge","v":null,"cc":null,"co":null}},{"type":"Feature","geometry":{"type":"LineString","coordinates":[[-80.23001330000079,32.70098700000017],[-80.23017299999992,32.70113599999968],[-80.22990460000074,32.70121950000066],[-80.22978610000064,32.70103689999996],[-80.23001330000079,32.70098700000017]]},"properties":{"k":"b","n":null,"c":"fixed bridge","v":null,"cc":null,"co":null}},{"type":"Feature","geometry":{"type":"LineString","coordinates":[[-80.11299789999975,32.77470519999952],[-80.11318860000029,32.774963600000774],[-80.11315040000045,32.774999999999636],[-80.11267290000069,32.774999999999636],[-80.11299789999975,32.77470519999952]]},"properties":{"k":"b","n":null,"c":"fixed bridge","v":null,"cc":null,"co":null}},{"type":"Feature","geometry":{"type":"LineString","coordinates":[[-80.11267290000069,32.774999999999636],[-80.11315040000045,32.774999999999636],[-80.11295880000034,32.77518280000004],[-80.11259009999958,32.77507510000032],[-80.11267290000069,32.774999999999636]]},"properties":{"k":"b","n":null,"c":"fixed bridge","v":null,"cc":null,"co":null}},{"type":"Feature","geometry":{"type":"LineString","coordinates":[[-80.14605400000073,32.78750199999922],[-80.14596700000038,32.78783900000053],[-80.14561200000026,32.78784599999926],[-80.1457160000009,32.78749500000049],[-80.14605400000073,32.78750199999922]]},"properties":{"k":"b","n":null,"c":"fixed bridge","v":null,"cc":null,"co":null}},{"type":"Feature","geometry":{"type":"LineString","coordinates":[[-80.13537139999971,32.79600349999964],[-80.13502130000052,32.79622989999916],[-80.1345982999992,32.79604330000075],[-80.13489280000067,32.795780399999785],[-80.13537139999971,32.79600349999964]]},"properties":{"k":"b","n":null,"c":"fixed bridge","v":null,"cc":null,"co":null}},{"type":"Feature","geometry":{"type":"LineString","coordinates":[[-79.82416449999982,32.92499999999927],[-79.82441739999922,32.92499999999927],[-79.82336749999922,32.92591089999951],[-79.82323309999992,32.92579400000068],[-79.82416449999982,32.92499999999927]]},"properties":{"k":"b","n":null,"c":"fixed bridge","v":null,"cc":null,"co":null}},{"type":"Feature","geometry":{"type":"LineString","coordinates":[[-79.72552800000085,32.94529049999983],[-79.72577959999944,32.9453541999992],[-79.72575700000016,32.94548140000006],[-79.72552600000017,32.94539939999959],[-79.72552800000085,32.94529049999983]]},"properties":{"k":"b","n":"Ward Bridge","c":"fixed bridge","v":null,"cc":null,"co":null}},{"type":"Feature","geometry":{"type":"LineString","coordinates":[[-79.95819309999933,33.05709919999936],[-79.95871939999961,33.05719069999941],[-79.95871289999923,33.05734819999998],[-79.95817349999925,33.05723840000064],[-79.95819309999933,33.05709919999936]]},"properties":{"k":"b","n":null,"c":"fixed bridge","v":null,"cc":null,"co":null}},{"type":"Feature","geometry":{"type":"LineString","coordinates":[[-79.32797099999999,33.185562000000004],[-79.32781399999999,33.185411999999985]]},"properties":{"k":"b","n":null,"c":"fixed bridge","v":null,"cc":null,"co":null}},{"type":"Feature","geometry":{"type":"LineString","coordinates":[[-79.93201210000001,32.80237720000002],[-79.93192169999998,32.80219269999998]]},"properties":{"k":"b","n":null,"c":"footbridge","v":null,"cc":null,"co":null}},{"type":"Feature","geometry":{"type":"LineString","coordinates":[[-79.88331169999998,32.79233599999998],[-79.88322829999998,32.792353100000014]]},"properties":{"k":"b","n":null,"c":"footbridge","v":null,"cc":null,"co":null}},{"type":"Feature","geometry":{"type":"LineString","coordinates":[[-79.97951640000002,32.869679099999985],[-79.97951640000002,32.869219199999975]]},"properties":{"k":"b","n":null,"c":"fixed bridge","v":null,"cc":null,"co":null}},{"type":"Feature","geometry":{"type":"LineString","coordinates":[[-81.048292,32.022328800000025],[-81.04834269999998,32.02257909999997]]},"properties":{"k":"b","n":null,"c":"fixed bridge","v":null,"cc":null,"co":null}},{"type":"Feature","geometry":{"type":"LineString","coordinates":[[-81.12217829999997,32.30740900000001],[-81.1221203,32.30735069999997]]},"properties":{"k":"b","n":null,"c":"fixed bridge","v":null,"cc":null,"co":null}},{"type":"Feature","geometry":{"type":"LineString","coordinates":[[-81.4278574,32.70371340000003],[-81.42816879999998,32.703722700000014]]},"properties":{"k":"b","n":null,"c":"fixed bridge","v":null,"cc":null,"co":null}},{"type":"Feature","geometry":{"type":"LineString","coordinates":[[-81.15372889999998,32.22596600000003],[-81.15341790000002,32.22619300000002]]},"properties":{"k":"b","n":"SCL Railroad","c":"fixed bridge","v":null,"cc":null,"co":null}},{"type":"Feature","geometry":{"type":"LineString","coordinates":[[-80.77774099999999,32.21567879999998],[-80.77747310000001,32.2159044]]},"properties":{"k":"b","n":null,"c":"footbridge","v":null,"cc":null,"co":null}},{"type":"Feature","geometry":{"type":"LineString","coordinates":[[-80.78197590000002,32.215834700000016],[-80.78188010000002,32.215691600000014]]},"properties":{"k":"b","n":null,"c":"footbridge","v":null,"cc":null,"co":null}},{"type":"Feature","geometry":{"type":"LineString","coordinates":[[-80.69236130000002,32.41851830000002],[-80.69236230000001,32.41868249999999]]},"properties":{"k":"b","n":null,"c":"fixed bridge","v":null,"cc":null,"co":null}},{"type":"Feature","geometry":{"type":"LineString","coordinates":[[-80.3979339,32.526228300000014],[-80.39792240000003,32.5261021]]},"properties":{"k":"b","n":null,"c":"fixed bridge","v":null,"cc":null,"co":null}},{"type":"Feature","geometry":{"type":"LineString","coordinates":[[-80.45055209999998,32.59365789999998],[-80.45025809999999,32.593905800000016]]},"properties":{"k":"b","n":null,"c":"fixed bridge","v":null,"cc":null,"co":null}},{"type":"Feature","geometry":{"type":"LineString","coordinates":[[-80.45261929999998,32.58480830000002],[-80.45243649999998,32.58441479999999]]},"properties":{"k":"b","n":null,"c":"fixed bridge","v":null,"cc":null,"co":null}},{"type":"Feature","geometry":{"type":"LineString","coordinates":[[-80.344651,32.613479600000005],[-80.34486520000002,32.611487599999975]]},"properties":{"k":"b","n":null,"c":"fixed bridge","v":null,"cc":null,"co":null}},{"type":"Feature","geometry":{"type":"LineString","coordinates":[[-80.27819570000003,32.55842849999999],[-80.27838400000002,32.55824439999998]]},"properties":{"k":"b","n":null,"c":"fixed bridge","v":null,"cc":null,"co":null}},{"type":"Feature","geometry":{"type":"LineString","coordinates":[[-80.27968809999999,32.55862680000001],[-80.2796836,32.5589521]]},"properties":{"k":"b","n":null,"c":"fixed bridge","v":null,"cc":null,"co":null}},{"type":"Feature","geometry":{"type":"LineString","coordinates":[[-80.20320709999999,32.65719489999998],[-80.20268600000003,32.65703400000001]]},"properties":{"k":"b","n":null,"c":"fixed bridge","v":null,"cc":null,"co":null}},{"type":"Feature","geometry":{"type":"LineString","coordinates":[[-80.13117399999999,32.78660830000001],[-80.13037000000003,32.786857999999995]]},"properties":{"k":"b","n":null,"c":"fixed bridge","v":null,"cc":null,"co":null}},{"type":"Feature","geometry":{"type":"LineString","coordinates":[[-79.7490752,32.807058100000006],[-79.74884179999998,32.80678590000002]]},"properties":{"k":"b","n":null,"c":"fixed bridge","v":null,"cc":null,"co":null}},{"type":"Feature","geometry":{"type":"LineString","coordinates":[[-79.9922168,32.92660799999999],[-79.9918189,32.92615189999998]]},"properties":{"k":"b","n":null,"c":"fixed bridge","v":null,"cc":null,"co":null}},{"type":"Feature","geometry":{"type":"LineString","coordinates":[[-79.93901269999998,32.93567189999999],[-79.93822310000002,32.93586110000001]]},"properties":{"k":"b","n":null,"c":"fixed bridge","v":null,"cc":null,"co":null}},{"type":"Feature","geometry":{"type":"LineString","coordinates":[[-79.76340470000002,32.95658259999999],[-79.7633773,32.95635979999997]]},"properties":{"k":"b","n":"Guerin Bridge","c":"fixed bridge","v":null,"cc":null,"co":null}},{"type":"Feature","geometry":{"type":"LineString","coordinates":[[-79.95278880000001,33.063658799999985],[-79.95275400000003,33.06386939999999]]},"properties":{"k":"b","n":null,"c":"fixed bridge","v":null,"cc":null,"co":null}},{"type":"Feature","geometry":{"type":"LineString","coordinates":[[-79.95843889999998,33.055762300000026],[-79.9588412,33.056057099999975]]},"properties":{"k":"b","n":null,"c":"fixed bridge","v":null,"cc":null,"co":null}},{"type":"Feature","geometry":{"type":"LineString","coordinates":[[-79.88370759999998,33.071691999999985],[-79.8838773,33.07041939999999]]},"properties":{"k":"b","n":null,"c":"fixed bridge","v":null,"cc":null,"co":null}},{"type":"Feature","geometry":{"type":"LineString","coordinates":[[-79.951484,33.08694700000001],[-79.95136000000002,33.08702390000002]]},"properties":{"k":"b","n":null,"c":"fixed bridge","v":null,"cc":null,"co":null}},{"type":"Feature","geometry":{"type":"LineString","coordinates":[[-79.30863140000002,33.35577519999998],[-79.30916669999999,33.35419439999998]]},"properties":{"k":"c","n":null,"c":" ","v":null,"cc":null,"co":null}},{"type":"Feature","geometry":{"type":"LineString","coordinates":[[-79.95466379999999,32.741113799999994],[-79.95341009999999,32.7405622]]},"properties":{"k":"c","n":null,"c":"power line","v":null,"cc":null,"co":null}},{"type":"Feature","geometry":{"type":"LineString","coordinates":[[-79.97272950000001,32.894026499999995],[-79.9726316,32.89364039999998],[-79.97216839999999,32.892839200000026],[-79.97222190000002,32.892148599999985],[-79.97269849999998,32.89187270000002]]},"properties":{"k":"c","n":null,"c":"power line","v":null,"cc":null,"co":null}},{"type":"Feature","geometry":{"type":"LineString","coordinates":[[-79.9739935,32.893522700000005],[-79.9720393,32.89308519999997]]},"properties":{"k":"c","n":null,"c":"power line","v":null,"cc":null,"co":null}},{"type":"Feature","geometry":{"type":"LineString","coordinates":[[-79.82995629999999,32.91699879999999],[-79.83014459999998,32.9155849]]},"properties":{"k":"c","n":null,"c":"power line","v":null,"cc":null,"co":null}},{"type":"Feature","geometry":{"type":"LineString","coordinates":[[-79.80378969999998,32.87066679999998],[-79.80007999999998,32.868293300000005]]},"properties":{"k":"c","n":null,"c":"power line","v":null,"cc":null,"co":null}},{"type":"Feature","geometry":{"type":"LineString","coordinates":[[-79.83305209999997,32.92500000000001],[-79.83213819999997,32.92383749999999]]},"properties":{"k":"c","n":null,"c":"power line","v":null,"cc":null,"co":null}},{"type":"Feature","geometry":{"type":"LineString","coordinates":[[-81.05724409999999,32.010172599999976],[-81.05448660000002,32.01054319999997]]},"properties":{"k":"c","n":null,"c":"telephone","v":null,"cc":null,"co":null}},{"type":"Feature","geometry":{"type":"LineString","coordinates":[[-81.05724409999999,32.010172599999976],[-81.05448660000002,32.01054319999997]]},"properties":{"k":"c","n":null,"c":"power line","v":null,"cc":null,"co":null}},{"type":"Feature","geometry":{"type":"LineString","coordinates":[[-81.19052190000002,32.38276509999997],[-81.1908588,32.38355360000003]]},"properties":{"k":"c","n":null,"c":" ","v":null,"cc":null,"co":null}},{"type":"Feature","geometry":{"type":"LineString","coordinates":[[-80.86721610000001,32.0064883],[-80.86644669999998,32.006206599999985]]},"properties":{"k":"c","n":null,"c":"power line","v":null,"cc":null,"co":null}},{"type":"Feature","geometry":{"type":"LineString","coordinates":[[-81.0151545,32.074584200000004],[-81.01417459999999,32.07506790000002]]},"properties":{"k":"c","n":null,"c":"transmission line","v":null,"cc":null,"co":null}},{"type":"Feature","geometry":{"type":"LineString","coordinates":[[-81.02998639999998,32.03861640000002],[-81.03187939999998,32.03801199999998]]},"properties":{"k":"c","n":null,"c":"power line","v":null,"cc":null,"co":null}},{"type":"Feature","geometry":{"type":"LineString","coordinates":[[-80.89476079999997,32.13746309999999],[-80.89417079999998,32.138029500000016],[-80.89286349999998,32.140528200000006]]},"properties":{"k":"c","n":null,"c":"power line","v":null,"cc":null,"co":null}},{"type":"Feature","geometry":{"type":"LineString","coordinates":[[-80.887246,32.14490699999999],[-80.88584329999998,32.145897400000024]]},"properties":{"k":"c","n":null,"c":"power line","v":null,"cc":null,"co":null}},{"type":"Feature","geometry":{"type":"LineString","coordinates":[[-80.89282120000001,32.1181052],[-80.89238219999999,32.117414999999994]]},"properties":{"k":"c","n":null,"c":"power line","v":null,"cc":null,"co":null}},{"type":"Feature","geometry":{"type":"LineString","coordinates":[[-80.87544930000001,32.16014799999999],[-80.87460299999998,32.16157020000003]]},"properties":{"k":"c","n":null,"c":"power line","v":null,"cc":null,"co":null}},{"type":"Feature","geometry":{"type":"LineString","coordinates":[[-80.70528680000001,32.200199199999986],[-80.7058629,32.19911930000001],[-80.70865809999998,32.20061900000002]]},"properties":{"k":"c","n":null,"c":"power line","v":null,"cc":null,"co":null}},{"type":"Feature","geometry":{"type":"LineString","coordinates":[[-80.72644009999999,32.1812784],[-80.72560979999997,32.18194089999997]]},"properties":{"k":"c","n":null,"c":"power line","v":null,"cc":null,"co":null}},{"type":"Feature","geometry":{"type":"LineString","coordinates":[[-80.70866999999998,32.2007036],[-80.70596410000002,32.19924200000003],[-80.70547640000001,32.20019669999999]]},"properties":{"k":"c","n":null,"c":" ","v":null,"cc":null,"co":null}},{"type":"Feature","geometry":{"type":"LineString","coordinates":[[-80.65660500000001,32.401465599999995],[-80.6578558,32.400782100000015]]},"properties":{"k":"c","n":null,"c":"power line","v":null,"cc":null,"co":null}},{"type":"Feature","geometry":{"type":"LineString","coordinates":[[-80.6911126,32.415129200000024],[-80.69184430000001,32.41637459999998],[-80.69090999999997,32.418828399999995],[-80.6919327,32.41987399999999]]},"properties":{"k":"c","n":null,"c":"power line","v":null,"cc":null,"co":null}},{"type":"Feature","geometry":{"type":"LineString","coordinates":[[-80.69916810000001,32.43533000000002],[-80.69999999999999,32.43556369999999]]},"properties":{"k":"c","n":null,"c":"power line","v":null,"cc":null,"co":null}},{"type":"Feature","geometry":{"type":"LineString","coordinates":[[-80.69242969999999,32.41805219999998],[-80.69242910000003,32.41944289999998]]},"properties":{"k":"c","n":null,"c":"power line","v":null,"cc":null,"co":null}},{"type":"Feature","geometry":{"type":"LineString","coordinates":[[-80.69160740000001,32.41941459999998],[-80.6908694,32.41706959999999],[-80.69203069999998,32.4152436]]},"properties":{"k":"c","n":null,"c":"power line","v":null,"cc":null,"co":null}},{"type":"Feature","geometry":{"type":"LineString","coordinates":[[-80.6701698,32.544446100000016],[-80.67077440000003,32.5434391]]},"properties":{"k":"c","n":null,"c":" ","v":null,"cc":null,"co":null}},{"type":"Feature","geometry":{"type":"LineString","coordinates":[[-80.69927050000001,32.50535919999999],[-80.69999999999999,32.50562530000002]]},"properties":{"k":"c","n":null,"c":"power line","v":null,"cc":null,"co":null}},{"type":"Feature","geometry":{"type":"LineString","coordinates":[[-80.3449364,32.61374649999999],[-80.34518759999997,32.61109640000001]]},"properties":{"k":"c","n":null,"c":"power line","v":null,"cc":null,"co":null}},{"type":"Feature","geometry":{"type":"LineString","coordinates":[[-80.34700079999999,32.59919609999997],[-80.34716079999998,32.59732170000001]]},"properties":{"k":"c","n":null,"c":"power line","v":null,"cc":null,"co":null}},{"type":"Feature","geometry":{"type":"LineString","coordinates":[[-80.27806909999998,32.558628899999974],[-80.27954549999998,32.55831660000001],[-80.27956999999998,32.55897199999998]]},"properties":{"k":"c","n":null,"c":"power line","v":null,"cc":null,"co":null}},{"type":"Feature","geometry":{"type":"LineString","coordinates":[[-80.14844799999997,32.61070699999999],[-80.14764200000002,32.60977600000001]]},"properties":{"k":"c","n":null,"c":"power line","v":null,"cc":null,"co":null}},{"type":"Feature","geometry":{"type":"LineString","coordinates":[[-80.14481180000001,32.788736700000015],[-80.14496300000002,32.786809000000005]]},"properties":{"k":"c","n":null,"c":"telephone","v":null,"cc":null,"co":null}},{"type":"Feature","geometry":{"type":"LineString","coordinates":[[-80.1345169,32.79495730000002],[-80.13212720000001,32.79659400000003]]},"properties":{"k":"c","n":null,"c":"power line","v":null,"cc":null,"co":null}},{"type":"Feature","geometry":{"type":"LineString","coordinates":[[-80.14481180000001,32.788736700000015],[-80.14496300000002,32.786809000000005]]},"properties":{"k":"c","n":null,"c":"power line","v":null,"cc":null,"co":null}},{"type":"Feature","geometry":{"type":"LineString","coordinates":[[-80.13641580000001,32.79557920000002],[-80.13443949999998,32.79669209999997]]},"properties":{"k":"c","n":null,"c":"power line","v":null,"cc":null,"co":null}},{"type":"Feature","geometry":{"type":"LineString","coordinates":[[-80.1420913,32.78920900000003],[-80.14440560000003,32.787349199999994]]},"properties":{"k":"c","n":null,"c":"power line","v":null,"cc":null,"co":null}},{"type":"Feature","geometry":{"type":"LineString","coordinates":[[-80.14617420000002,32.789002900000014],[-80.14673970000001,32.78627970000002]]},"properties":{"k":"c","n":null,"c":"power line","v":null,"cc":null,"co":null}},{"type":"Feature","geometry":{"type":"LineString","coordinates":[[-80.14617420000002,32.789002900000014],[-80.14673970000001,32.78627970000002]]},"properties":{"k":"c","n":null,"c":"telephone","v":null,"cc":null,"co":null}},{"type":"Feature","geometry":{"type":"LineString","coordinates":[[-80.1420913,32.78920900000003],[-80.14440560000003,32.787349199999994]]},"properties":{"k":"c","n":null,"c":"telephone","v":null,"cc":null,"co":null}},{"type":"Feature","geometry":{"type":"LineString","coordinates":[[-80.13536950000002,32.79497909999998],[-80.13321230000003,32.79621209999999]]},"properties":{"k":"c","n":null,"c":"power line","v":null,"cc":null,"co":null}},{"type":"Feature","geometry":{"type":"LineString","coordinates":[[-79.76030320000001,32.80320160000002],[-79.75690989999998,32.80510880000003]]},"properties":{"k":"c","n":null,"c":" ","v":null,"cc":null,"co":null}},{"type":"Feature","geometry":{"type":"LineString","coordinates":[[-79.65753439999997,32.88142490000001],[-79.65779250000003,32.88164360000002],[-79.65778840000002,32.881934899999976]]},"properties":{"k":"c","n":null,"c":" ","v":null,"cc":null,"co":null}},{"type":"Feature","geometry":{"type":"LineString","coordinates":[[-79.9373769,32.92810170000001],[-79.939479,32.92931140000002]]},"properties":{"k":"c","n":null,"c":" ","v":null,"cc":null,"co":null}},{"type":"Feature","geometry":{"type":"LineString","coordinates":[[-79.83451050000002,32.92677500000002],[-79.83305209999997,32.92500000000001]]},"properties":{"k":"c","n":null,"c":"power line","v":null,"cc":null,"co":null}},{"type":"Feature","geometry":{"type":"LineString","coordinates":[[-79.94957090000003,33.02199569999999],[-79.94595620000001,33.022542999999985]]},"properties":{"k":"c","n":null,"c":"power line","v":null,"cc":null,"co":null}},{"type":"Feature","geometry":{"type":"LineString","coordinates":[[-79.94927660000002,33.02182749999997],[-79.94586140000001,33.02229360000001]]},"properties":{"k":"c","n":null,"c":"power line","v":null,"cc":null,"co":null}},{"type":"Feature","geometry":{"type":"LineString","coordinates":[[-79.9492396,33.021616800000004],[-79.9456601,33.022114699999975]]},"properties":{"k":"c","n":null,"c":"power line","v":null,"cc":null,"co":null}},{"type":"Feature","geometry":{"type":"LineString","coordinates":[[-79.94907439999997,33.02130349999999],[-79.94557630000003,33.021818499999995]]},"properties":{"k":"c","n":null,"c":"power line","v":null,"cc":null,"co":null}},{"type":"Feature","geometry":{"type":"LineString","coordinates":[[-80.97627369999998,32.0719914],[-80.97139659999999,32.06917720000001]]},"properties":{"k":"b","n":null,"c":"fixed bridge","v":null,"cc":null,"co":null}},{"type":"Feature","geometry":{"type":"LineString","coordinates":[[-80.7670263,32.530833900000005],[-80.768081,32.53333989999999]]},"properties":{"k":"b","n":null,"c":"fixed bridge","v":null,"cc":null,"co":null}},{"type":"Feature","geometry":{"type":"LineString","coordinates":[[-80.84210660000002,32.51900180000001],[-80.83516830000002,32.52369329999999]]},"properties":{"k":"b","n":null,"c":"fixed bridge","v":null,"cc":null,"co":null}},{"type":"Feature","geometry":{"type":"LineString","coordinates":[[-80.74563210000002,32.539498200000025],[-80.7451944,32.54146029999998]]},"properties":{"k":"b","n":null,"c":"fixed bridge","v":null,"cc":null,"co":null}},{"type":"Feature","geometry":{"type":"LineString","coordinates":[[-80.02324700000003,32.835672999999986],[-80.01872700000001,32.84061300000002]]},"properties":{"k":"b","n":null,"c":"fixed bridge","v":null,"cc":null,"co":null}},{"type":"Feature","geometry":{"type":"LineString","coordinates":[[-80.56298140000001,32.4320649],[-80.56344639999998,32.43259949999998],[-80.56411070000001,32.433081200000004],[-80.56725269999998,32.43473349999999],[-80.57173740000002,32.4358512]]},"properties":{"k":"c","n":null,"c":"power line","v":null,"cc":null,"co":null}}]}