{"type":"FeatureCollection","features":[{"type":"Feature","geometry":{"type":"LineString","coordinates":[[-80.88893,32.03032],[-80.88136,32.03254],[-80.87381,32.03303],[-80.85641,32.0342]]},"properties":{"catslc":"pier","watlev":2}},{"type":"Feature","geometry":{"type":"LineString","coordinates":[[-80.88336,32.03931],[-80.85859,32.04143]]},"properties":{"catslc":"pier","watlev":2}},{"type":"Feature","geometry":{"type":"LineString","coordinates":[[-80.8969,32.04166],[-80.90193,32.04663],[-80.90545,32.0528]]},"properties":{"catslc":"pier","watlev":3}},{"type":"Feature","geometry":{"type":"LineString","coordinates":[[-81.10943,32.09677],[-81.11087,32.09824],[-81.112,32.09912]]},"properties":{"catslc":"wharf","watlev":null}},{"type":"Feature","geometry":{"type":"LineString","coordinates":[[-81.07834,32.09529],[-81.0815,32.09717]]},"properties":{"catslc":"rip rap","watlev":2}},{"type":"Feature","geometry":{"type":"LineString","coordinates":[[-80.59713,32.27838],[-80.5959,32.27842],[-80.59555,32.27843],[-80.59423,32.2795],[-80.59427,32.28022]]},"properties":{"catslc":"rip rap","watlev":null}},{"type":"Feature","geometry":{"type":"LineString","coordinates":[[-80.50151,32.30715],[-80.49979,32.30612],[-80.49809,32.30624],[-80.49646,32.30706],[-80.49604,32.30727],[-80.49581,32.30739],[-80.49509,32.30776],[-80.4941,32.30828]]},"properties":{"catslc":"rip rap","watlev":2}},{"type":"Feature","geometry":{"type":"LineString","coordinates":[[-80.68798,32.37024],[-80.68867,32.37046],[-80.69049,32.37103],[-80.69225,32.37158],[-80.69427,32.37415],[-80.69475,32.37475]]},"properties":{"catslc":"rip rap","watlev":2}},{"type":"Feature","geometry":{"type":"LineString","coordinates":[[-80.9257,32.04578],[-80.92563,32.04577],[-80.92418,32.04543],[-80.92301,32.04464]]},"properties":{"catslc":"rip rap","watlev":2}},{"type":"Feature","geometry":{"type":"LineString","coordinates":[[-81.08205,32.09995],[-81.08128,32.09983],[-81.08027,32.09967],[-81.07887,32.09942],[-81.07797,32.09925]]},"properties":{"catslc":"rip rap","watlev":2}},{"type":"Feature","geometry":{"type":"LineString","coordinates":[[-80.70661,32.25649],[-80.7082,32.25787],[-80.70831,32.25797],[-80.70896,32.25853],[-80.70956,32.25906],[-80.70959,32.25908],[-80.71009,32.25953],[-80.71123,32.26048],[-80.71224,32.26135],[-80.71298,32.2619],[-80.71342,32.26223],[-80.7148,32.26329],[-80.71593,32.26436],[-80.71636,32.26486],[-80.71636,32.26486],[-80.71681,32.26538],[-80.71739,32.26606],[-80.71743,32.26611],[-80.71748,32.26617],[-80.7178,32.26654],[-80.71798,32.26656],[-80.71889,32.26666],[-80.71922,32.2667],[-80.7212,32.26779],[-80.72292,32.26747]]},"properties":{"catslc":"rip rap","watlev":2}},{"type":"Feature","geometry":{"type":"LineString","coordinates":[[-81.02715,32.08604],[-81.02466,32.08608],[-81.02316,32.08643],[-81.02218,32.08725],[-81.0207,32.08759],[-81.02053,32.08762],[-81.01906,32.08819]]},"properties":{"catslc":"rip rap","watlev":2}},{"type":"Feature","geometry":{"type":"LineString","coordinates":[[-80.9941,32.09597],[-80.99416,32.09629],[-80.99455,32.09845],[-80.99456,32.09849],[-80.99464,32.09856],[-80.99549,32.09934],[-80.99668,32.10003],[-80.99671,32.10005],[-80.99678,32.10009],[-80.99782,32.10078],[-80.99785,32.10081],[-80.99789,32.10082],[-80.99903,32.10119],[-80.99912,32.10122],[-80.99917,32.10124],[-80.99924,32.1013],[-80.99963,32.10164],[-81.00023,32.10217],[-81.00159,32.10281],[-81.0016,32.10281],[-81.00164,32.10281],[-81.00299,32.10275],[-81.00493,32.1028]]},"properties":{"catslc":"rip rap","watlev":2}},{"type":"Feature","geometry":{"type":"LineString","coordinates":[[-80.98106,32.08109],[-80.97988,32.08031],[-80.97983,32.0803],[-80.97979,32.08029],[-80.97971,32.08028],[-80.97844,32.08004],[-80.97825,32.08001],[-80.97808,32.07994],[-80.97688,32.07949]]},"properties":{"catslc":"rip rap","watlev":2}},{"type":"Feature","geometry":{"type":"LineString","coordinates":[[-80.94889,32.06734],[-80.94745,32.06654],[-80.94667,32.0655],[-80.94588,32.06455],[-80.94419,32.0638],[-80.94377,32.0634],[-80.94311,32.06278],[-80.94139,32.06203],[-80.94046,32.06087],[-80.93879,32.05954],[-80.93786,32.05869],[-80.93731,32.05825],[-80.9367,32.05777],[-80.9357,32.05693],[-80.9354,32.05553],[-80.93526,32.05489]]},"properties":{"catslc":"rip rap","watlev":2}},{"type":"Feature","geometry":{"type":"LineString","coordinates":[[-80.53678,32.45138],[-80.53545,32.451],[-80.53534,32.45097],[-80.53391,32.45055]]},"properties":{"catslc":"seawall","watlev":2}},{"type":"Feature","geometry":{"type":"LineString","coordinates":[[-80.53389,32.44681],[-80.53212,32.44858]]},"properties":{"catslc":"seawall","watlev":2}},{"type":"Feature","geometry":{"type":"LineString","coordinates":[[-80.58142,32.48363],[-80.57924,32.48394]]},"properties":{"catslc":"seawall","watlev":2}},{"type":"Feature","geometry":{"type":"LineString","coordinates":[[-80.55102,32.43955],[-80.55111,32.43971],[-80.55178,32.44106],[-80.55196,32.44162],[-80.55248,32.44315],[-80.55322,32.44472],[-80.55324,32.44476],[-80.55401,32.44583]]},"properties":{"catslc":"seawall","watlev":2}},{"type":"Feature","geometry":{"type":"LineString","coordinates":[[-80.56788,32.43543],[-80.5666,32.43658],[-80.56538,32.43714]]},"properties":{"catslc":"pier","watlev":2}},{"type":"Feature","geometry":{"type":"LineString","coordinates":[[-81.04955,32.08154],[-81.04962,32.08149],[-81.04936,32.08152],[-81.04938,32.08153],[-81.04939,32.08153],[-81.04941,32.08154],[-81.04947,32.08158],[-81.04955,32.08154]]},"properties":{"catslc":"pier","watlev":3}},{"type":"Feature","geometry":{"type":"LineString","coordinates":[[-81.05001,32.08145],[-81.04962,32.08149],[-81.04955,32.08154],[-81.04947,32.08158],[-81.04947,32.08159],[-81.04948,32.08159],[-81.04971,32.08161],[-81.05036,32.08157],[-81.05028,32.08155],[-81.05022,32.08154],[-81.05013,32.08153],[-81.05011,32.08152],[-81.05001,32.08145]]},"properties":{"catslc":"pier","watlev":4}},{"type":"Feature","geometry":{"type":"LineString","coordinates":[[-81.06123,32.08222],[-81.06124,32.08223],[-81.06127,32.08226],[-81.06143,32.08229],[-81.06172,32.0822],[-81.06178,32.08216],[-81.06181,32.08216],[-81.06191,32.08224],[-81.06199,32.08221],[-81.06204,32.08222],[-81.06209,32.08225],[-81.06211,32.08214],[-81.06212,32.08208],[-81.06215,32.08204],[-81.06154,32.08207],[-81.06144,32.08209],[-81.06119,32.08211],[-81.06115,32.08211],[-81.06101,32.08211],[-81.06079,32.08211],[-81.06052,32.0821],[-81.06028,32.0821],[-81.0594,32.0821],[-81.05912,32.0821],[-81.05807,32.0821],[-81.05727,32.08209],[-81.05715,32.08209],[-81.05713,32.08192],[-81.0571,32.08173],[-81.05691,32.08173],[-81.0569,32.08182],[-81.05695,32.08183],[-81.05697,32.08206],[-81.05628,32.08204],[-81.05537,32.082],[-81.05541,32.08165],[-81.05523,32.08164],[-81.05522,32.08172],[-81.05528,32.08172],[-81.05524,32.08199],[-81.05455,32.08191],[-81.05388,32.08179],[-81.05382,32.08178],[-81.05307,32.08162],[-81.0528,32.08156],[-81.05277,32.08156],[-81.05255,32.08152],[-81.05229,32.08146],[-81.05156,32.08144],[-81.05138,32.08144],[-81.05097,32.08143],[-81.05043,32.08143],[-81.05043,32.08125],[-81.05043,32.0812],[-81.05045,32.0812],[-81.05045,32.08111],[-81.05031,32.08111],[-81.0503,32.08123],[-81.05034,32.08123],[-81.05034,32.08125],[-81.05033,32.08145],[-81.05026,32.08145],[-81.05016,32.08145],[-81.05009,32.08145],[-81.05001,32.08145],[-81.05011,32.08152],[-81.05013,32.08153],[-81.05022,32.08154],[-81.05028,32.08155],[-81.05036,32.08157],[-81.0506,32.08156],[-81.05069,32.08156],[-81.05089,32.08156],[-81.05134,32.08158],[-81.0514,32.08158],[-81.0514,32.08158],[-81.05144,32.08158],[-81.05147,32.08158],[-81.05149,32.08158],[-81.05153,32.08159],[-81.05159,32.08159],[-81.05224,32.08158],[-81.0525,32.08167],[-81.05261,32.08166],[-81.0527,32.08171],[-81.05284,32.08176],[-81.05296,32.08178],[-81.05306,32.08176],[-81.05313,32.08179],[-81.05315,32.0818],[-81.05316,32.0818],[-81.05318,32.08179],[-81.0532,32.08179],[-81.05323,32.08178],[-81.05326,32.08177],[-81.05328,32.08176],[-81.0533,32.08176],[-81.05334,32.08176],[-81.05337,32.08177],[-81.0534,32.08177],[-81.05341,32.08178],[-81.05344,32.08178],[-81.05345,32.08178],[-81.05347,32.08178],[-81.05348,32.08178],[-81.05349,32.08177],[-81.0535,32.08177],[-81.05353,32.08178],[-81.05355,32.08179],[-81.05359,32.08182],[-81.05362,32.08184],[-81.05364,32.08187],[-81.05366,32.08187],[-81.05367,32.08187],[-81.05371,32.08187],[-81.05374,32.0819],[-81.05458,32.08203],[-81.05491,32.08206],[-81.05555,32.08211],[-81.05611,32.08213],[-81.05712,32.08218],[-81.05774,32.08222],[-81.06002,32.08221],[-81.06087,32.08221],[-81.06105,32.08223],[-81.06115,32.08222],[-81.06115,32.08222],[-81.06123,32.08222],[-81.06123,32.08222]]},"properties":{"catslc":"pier","watlev":3}},{"type":"Feature","geometry":{"type":"LineString","coordinates":[[-81.04651,32.08189],[-81.04564,32.08203],[-81.04561,32.08197],[-81.04545,32.08197],[-81.04548,32.08204],[-81.04513,32.08212],[-81.04401,32.08225],[-81.04209,32.08289],[-81.04208,32.0829],[-81.04208,32.0829],[-81.04216,32.08303],[-81.04398,32.08247],[-81.04415,32.08241],[-81.04453,32.08235],[-81.04622,32.08211],[-81.04627,32.08205],[-81.04628,32.08204],[-81.04637,32.08198],[-81.04646,32.08194],[-81.04651,32.08194],[-81.04651,32.08189]]},"properties":{"catslc":"pier","watlev":3}},{"type":"Feature","geometry":{"type":"LineString","coordinates":[[-81.04746,32.08178],[-81.04746,32.08175],[-81.04744,32.08172],[-81.0473,32.08173],[-81.04731,32.0817],[-81.0473,32.08168],[-81.04716,32.0817],[-81.04716,32.08171],[-81.04716,32.08173],[-81.04718,32.08186],[-81.04694,32.0819],[-81.04695,32.0819],[-81.047,32.08191],[-81.04708,32.08191],[-81.04711,32.08192],[-81.04713,32.08195],[-81.04716,32.08194],[-81.04723,32.08192],[-81.04733,32.08188],[-81.04744,32.08183],[-81.04746,32.08182],[-81.04749,32.08182],[-81.04754,32.08181],[-81.04757,32.08181],[-81.04759,32.08181],[-81.0476,32.0818],[-81.04765,32.0818],[-81.04768,32.08179],[-81.04771,32.08178],[-81.04775,32.08175],[-81.04746,32.08178]]},"properties":{"catslc":"pier","watlev":3}},{"type":"Feature","geometry":{"type":"LineString","coordinates":[[-81.04711,32.08192],[-81.04708,32.08191],[-81.047,32.08191],[-81.04695,32.0819],[-81.04694,32.0819],[-81.04651,32.08194],[-81.04646,32.08194],[-81.04637,32.08198],[-81.04628,32.08204],[-81.04627,32.08205],[-81.04622,32.08211],[-81.04663,32.08204],[-81.04677,32.08205],[-81.04679,32.08204],[-81.0468,32.08203],[-81.04685,32.082],[-81.04689,32.08198],[-81.0469,32.08198],[-81.04693,32.08197],[-81.04696,32.08197],[-81.04698,32.08197],[-81.047,32.08197],[-81.04701,32.08197],[-81.04704,32.08198],[-81.04707,32.08198],[-81.04708,32.08198],[-81.04709,32.08198],[-81.0471,32.08197],[-81.04713,32.08195],[-81.04711,32.08192]]},"properties":{"catslc":"pier","watlev":4}},{"type":"Feature","geometry":{"type":"LineString","coordinates":[[-80.9042,32.05099],[-80.90311,32.04758],[-80.90296,32.04761],[-80.90285,32.04762],[-80.90286,32.04763],[-80.90394,32.05107],[-80.90399,32.05122],[-80.90428,32.05122],[-80.9042,32.05099]]},"properties":{"catslc":"pier","watlev":3}},{"type":"Feature","geometry":{"type":"LineString","coordinates":[[-80.90007,32.04368],[-80.90007,32.04369],[-80.90003,32.04371],[-80.9,32.04372],[-80.9,32.04395],[-80.90183,32.04615],[-80.90192,32.04602],[-80.90194,32.04587],[-80.90007,32.04368]]},"properties":{"catslc":"pier","watlev":4}},{"type":"Feature","geometry":{"type":"LineString","coordinates":[[-80.90399,32.05122],[-80.90437,32.05242],[-80.90463,32.05223],[-80.90428,32.05122],[-80.90399,32.05122]]},"properties":{"catslc":"pier","watlev":4}},{"type":"Feature","geometry":{"type":"LineString","coordinates":[[-80.82049,32.04551],[-80.81478,32.04139],[-80.81306,32.04021],[-80.8118,32.03944],[-80.81072,32.03879],[-80.81009,32.03852],[-80.809,32.03788],[-80.80763,32.0371],[-80.80693,32.03672],[-80.8056,32.03625],[-80.80441,32.03567],[-80.8036,32.03538],[-80.80233,32.03497],[-80.80224,32.03523],[-80.80289,32.03548],[-80.80424,32.03595],[-80.8059,32.0366],[-80.80718,32.0372],[-80.80855,32.03797],[-80.81011,32.03884],[-80.81104,32.03937],[-80.81207,32.03998],[-80.81379,32.04115],[-80.81697,32.04337],[-80.81733,32.04363],[-80.81775,32.044],[-80.81805,32.04422],[-80.81858,32.04462],[-80.81895,32.04484],[-80.81926,32.04509],[-80.8199,32.04553],[-80.82088,32.04628],[-80.82112,32.04602],[-80.82049,32.04551]]},"properties":{"catslc":"breakwater","watlev":3}},{"type":"Feature","geometry":{"type":"LineString","coordinates":[[-81.14239,32.13379],[-81.14228,32.13381],[-81.14221,32.13383],[-81.14258,32.13461],[-81.1426,32.1346],[-81.14263,32.1346],[-81.14279,32.13456],[-81.14278,32.1345],[-81.14274,32.13451],[-81.14274,32.13444],[-81.1427,32.13445],[-81.14265,32.13435],[-81.14256,32.13414],[-81.14239,32.13379]]},"properties":{"catslc":"pier","watlev":3}},{"type":"Feature","geometry":{"type":"LineString","coordinates":[[-81.1284,32.1135],[-81.12852,32.11341],[-81.12857,32.11337],[-81.12858,32.11333],[-81.12855,32.11329],[-81.12854,32.11327],[-81.12851,32.11328],[-81.12849,32.1133],[-81.12843,32.11332],[-81.12841,32.11333],[-81.12838,32.11335],[-81.1283,32.1134],[-81.12827,32.11341],[-81.12825,32.11342],[-81.12822,32.11344],[-81.12816,32.11346],[-81.12813,32.11347],[-81.12811,32.11347],[-81.12809,32.11348],[-81.12806,32.11348],[-81.12804,32.11348],[-81.12801,32.11348],[-81.12799,32.11347],[-81.12797,32.11347],[-81.12794,32.11345],[-81.12788,32.11343],[-81.12786,32.11342],[-81.12778,32.11338],[-81.12776,32.11336],[-81.12772,32.11333],[-81.1277,32.11332],[-81.12761,32.11326],[-81.12754,32.11321],[-81.12749,32.11317],[-81.12737,32.1131],[-81.12736,32.11309],[-81.12735,32.11308],[-81.12734,32.11306],[-81.12734,32.11305],[-81.12734,32.11304],[-81.12734,32.11303],[-81.12734,32.11302],[-81.12736,32.11296],[-81.12737,32.11291],[-81.12736,32.11288],[-81.12712,32.113],[-81.12779,32.11368],[-81.12785,32.11374],[-81.12837,32.11428],[-81.1285,32.11442],[-81.1286,32.11451],[-81.1288,32.11437],[-81.12861,32.11417],[-81.12852,32.11408],[-81.12832,32.11387],[-81.1284,32.11379],[-81.12848,32.11372],[-81.12855,32.11362],[-81.12857,32.11352],[-81.12848,32.11358],[-81.12848,32.11358],[-81.1284,32.1135]]},"properties":{"catslc":"pier","watlev":3}},{"type":"Feature","geometry":{"type":"LineString","coordinates":[[-80.89711,32.1234],[-80.89709,32.12347],[-80.89711,32.12347],[-80.89717,32.12349],[-80.89719,32.12345],[-80.89719,32.12342],[-80.89713,32.1234],[-80.89711,32.1234]]},"properties":{"catslc":"pier","watlev":2}},{"type":"Feature","geometry":{"type":"LineString","coordinates":[[-80.69619,32.37551],[-80.6963,32.37558],[-80.69644,32.37545],[-80.69615,32.37519],[-80.69599,32.37532],[-80.69619,32.37551]]},"properties":{"catslc":"pier","watlev":3}},{"type":"Feature","geometry":{"type":"LineString","coordinates":[[-80.66981,32.4261],[-80.66981,32.42676],[-80.66981,32.42693],[-80.67001,32.42692],[-80.67001,32.42679],[-80.66998,32.4261],[-80.66981,32.4261]]},"properties":{"catslc":" ","watlev":3}},{"type":"Feature","geometry":{"type":"LineString","coordinates":[[-80.66996,32.42968],[-80.67,32.42966],[-80.66999,32.42962],[-80.67001,32.42849],[-80.6698,32.42847],[-80.66982,32.42962],[-80.66984,32.42973],[-80.66988,32.42971],[-80.66996,32.42968]]},"properties":{"catslc":" ","watlev":3}},{"type":"Feature","geometry":{"type":"LineString","coordinates":[[-81.39052,31.53413],[-81.39032,31.53407],[-81.39,31.53398]]},"properties":{"catslc":"pier","watlev":2}},{"type":"Feature","geometry":{"type":"LineString","coordinates":[[-81.30147,31.59119],[-81.30149,31.5912],[-81.30161,31.59122]]},"properties":{"catslc":"pier","watlev":2}},{"type":"Feature","geometry":{"type":"LineString","coordinates":[[-81.41255,31.53323],[-81.41244,31.5334],[-81.41204,31.53333]]},"properties":{"catslc":"pier","watlev":2}},{"type":"Feature","geometry":{"type":"LineString","coordinates":[[-81.30579,31.65072],[-81.306,31.65083],[-81.30615,31.65091]]},"properties":{"catslc":"pier","watlev":2}},{"type":"Feature","geometry":{"type":"LineString","coordinates":[[-81.41459,31.53495],[-81.41442,31.53474],[-81.4144,31.53468],[-81.41437,31.53458],[-81.41417,31.53442]]},"properties":{"catslc":"pier","watlev":2}},{"type":"Feature","geometry":{"type":"LineString","coordinates":[[-81.38648,31.53753],[-81.38648,31.53735],[-81.38648,31.53675]]},"properties":{"catslc":"pier","watlev":2}},{"type":"Feature","geometry":{"type":"LineString","coordinates":[[-81.30167,31.59018],[-81.30171,31.59018],[-81.30176,31.59018],[-81.30181,31.59017]]},"properties":{"catslc":"pier","watlev":2}},{"type":"Feature","geometry":{"type":"LineString","coordinates":[[-81.31343,31.57757],[-81.31351,31.57764],[-81.31357,31.57769]]},"properties":{"catslc":"pier","watlev":2}},{"type":"Feature","geometry":{"type":"LineString","coordinates":[[-81.30135,31.59152],[-81.30147,31.59119],[-81.3016,31.59065]]},"properties":{"catslc":"pier","watlev":2}},{"type":"Feature","geometry":{"type":"LineString","coordinates":[[-81.30686,31.65065],[-81.30664,31.65093],[-81.30659,31.65099],[-81.3063,31.65137]]},"properties":{"catslc":"pier","watlev":2}},{"type":"Feature","geometry":{"type":"LineString","coordinates":[[-81.31077,31.58068],[-81.31055,31.58048],[-81.3104,31.58034]]},"properties":{"catslc":"pier","watlev":2}},{"type":"Feature","geometry":{"type":"LineString","coordinates":[[-81.30613,31.65039],[-81.30603,31.65072],[-81.30602,31.65076],[-81.306,31.65083]]},"properties":{"catslc":"pier","watlev":2}},{"type":"Feature","geometry":{"type":"LineString","coordinates":[[-81.30187,31.64913],[-81.30148,31.64895],[-81.30134,31.6489]]},"properties":{"catslc":"pier","watlev":2}},{"type":"Feature","geometry":{"type":"LineString","coordinates":[[-81.37303,31.54795],[-81.37298,31.54785],[-81.37287,31.54762]]},"properties":{"catslc":"pier","watlev":2}},{"type":"Feature","geometry":{"type":"LineString","coordinates":[[-81.37434,31.54282],[-81.37395,31.54273],[-81.37377,31.54268]]},"properties":{"catslc":"pier","watlev":2}},{"type":"Feature","geometry":{"type":"LineString","coordinates":[[-81.37176,31.54908],[-81.37168,31.54896],[-81.37146,31.54862]]},"properties":{"catslc":"pier","watlev":2}},{"type":"Feature","geometry":{"type":"LineString","coordinates":[[-81.30316,31.64918],[-81.30304,31.64943],[-81.30301,31.6495]]},"properties":{"catslc":"pier","watlev":2}},{"type":"Feature","geometry":{"type":"LineString","coordinates":[[-81.39,31.53493],[-81.38985,31.53483],[-81.38968,31.53473]]},"properties":{"catslc":"pier","watlev":2}},{"type":"Feature","geometry":{"type":"LineString","coordinates":[[-81.30163,31.5905],[-81.30167,31.59018],[-81.30178,31.58942],[-81.30181,31.58843]]},"properties":{"catslc":"pier","watlev":2}},{"type":"Feature","geometry":{"type":"LineString","coordinates":[[-81.30166,31.64865],[-81.30148,31.64895]]},"properties":{"catslc":"pier","watlev":2}},{"type":"Feature","geometry":{"type":"LineString","coordinates":[[-81.37202,31.54877],[-81.37193,31.54863],[-81.37177,31.54839]]},"properties":{"catslc":"pier","watlev":2}},{"type":"Feature","geometry":{"type":"LineString","coordinates":[[-81.3092,31.58189],[-81.30887,31.58161],[-81.30868,31.58145]]},"properties":{"catslc":"pier","watlev":2}},{"type":"Feature","geometry":{"type":"LineString","coordinates":[[-81.3133,31.57775],[-81.31343,31.57757],[-81.31356,31.57736]]},"properties":{"catslc":"pier","watlev":2}},{"type":"Feature","geometry":{"type":"LineString","coordinates":[[-81.23394,31.58852],[-81.23409,31.58852],[-81.2343,31.58852],[-81.2343,31.58845]]},"properties":{"catslc":"pier","watlev":2}},{"type":"Feature","geometry":{"type":"LineString","coordinates":[[-81.2355,31.58425],[-81.23534,31.58418]]},"properties":{"catslc":"pier","watlev":2}},{"type":"Feature","geometry":{"type":"LineString","coordinates":[[-81.28735,31.60177],[-81.28731,31.60163],[-81.28725,31.60144]]},"properties":{"catslc":"pier","watlev":2}},{"type":"Feature","geometry":{"type":"LineString","coordinates":[[-81.23593,31.58365],[-81.23583,31.58377],[-81.23561,31.58375]]},"properties":{"catslc":"pier","watlev":2}},{"type":"Feature","geometry":{"type":"LineString","coordinates":[[-81.23508,31.58504],[-81.23508,31.58501],[-81.23507,31.58492],[-81.23489,31.58481]]},"properties":{"catslc":"pier","watlev":2}},{"type":"Feature","geometry":{"type":"LineString","coordinates":[[-81.23499,31.58525],[-81.23499,31.58516],[-81.23496,31.58514],[-81.23475,31.58503]]},"properties":{"catslc":"pier","watlev":2}},{"type":"Feature","geometry":{"type":"LineString","coordinates":[[-81.23665,31.58269],[-81.23684,31.5825]]},"properties":{"catslc":"pier","watlev":2}},{"type":"Feature","geometry":{"type":"LineString","coordinates":[[-81.14546,31.76469],[-81.1452,31.76486]]},"properties":{"catslc":"pier","watlev":2}},{"type":"Feature","geometry":{"type":"LineString","coordinates":[[-81.23489,31.58554],[-81.2349,31.58539],[-81.23481,31.58534],[-81.23469,31.58528]]},"properties":{"catslc":"pier","watlev":2}},{"type":"Feature","geometry":{"type":"LineString","coordinates":[[-81.23462,31.58626],[-81.23456,31.58644],[-81.23436,31.58636],[-81.23432,31.58634]]},"properties":{"catslc":"pier","watlev":2}},{"type":"Feature","geometry":{"type":"LineString","coordinates":[[-81.28414,31.61459],[-81.2838,31.61442]]},"properties":{"catslc":"pier","watlev":2}},{"type":"Feature","geometry":{"type":"LineString","coordinates":[[-81.28731,31.60163],[-81.28716,31.60166],[-81.28699,31.60169]]},"properties":{"catslc":"pier","watlev":2}},{"type":"Feature","geometry":{"type":"LineString","coordinates":[[-81.23404,31.58706],[-81.23432,31.58713],[-81.23432,31.58718],[-81.23432,31.58725]]},"properties":{"catslc":"pier","watlev":2}},{"type":"Feature","geometry":{"type":"LineString","coordinates":[[-81.26357,31.61998],[-81.26341,31.61993],[-81.26343,31.61959]]},"properties":{"catslc":"pier","watlev":2}},{"type":"Feature","geometry":{"type":"LineString","coordinates":[[-81.23684,31.5825],[-81.2368,31.58248],[-81.23664,31.58245]]},"properties":{"catslc":"pier","watlev":2}},{"type":"Feature","geometry":{"type":"LineString","coordinates":[[-81.2718,31.69474],[-81.27169,31.6952],[-81.27166,31.69561]]},"properties":{"catslc":"pier","watlev":2}},{"type":"Feature","geometry":{"type":"LineString","coordinates":[[-81.28372,31.69699],[-81.28353,31.69686]]},"properties":{"catslc":"pier","watlev":2}},{"type":"Feature","geometry":{"type":"LineString","coordinates":[[-81.14067,31.61701],[-81.14085,31.61694]]},"properties":{"catslc":"pier","watlev":2}},{"type":"Feature","geometry":{"type":"LineString","coordinates":[[-81.28343,31.69694],[-81.28353,31.69686],[-81.28374,31.69669]]},"properties":{"catslc":"pier","watlev":2}},{"type":"Feature","geometry":{"type":"LineString","coordinates":[[-81.29622,31.69971],[-81.29623,31.69946],[-81.29625,31.69929],[-81.29628,31.69883],[-81.29628,31.69879]]},"properties":{"catslc":"pier","watlev":2}},{"type":"Feature","geometry":{"type":"LineString","coordinates":[[-81.18259,31.56162],[-81.18232,31.56137],[-81.1821,31.5611],[-81.1819,31.56073]]},"properties":{"catslc":"pier","watlev":2}},{"type":"Feature","geometry":{"type":"LineString","coordinates":[[-81.27146,31.69518],[-81.27166,31.6952],[-81.27169,31.6952]]},"properties":{"catslc":"pier","watlev":2}},{"type":"Feature","geometry":{"type":"LineString","coordinates":[[-81.27816,31.77055],[-81.27742,31.77057]]},"properties":{"catslc":"pier","watlev":2}},{"type":"Feature","geometry":{"type":"LineString","coordinates":[[-81.29603,31.6993],[-81.29621,31.69929],[-81.29625,31.69929]]},"properties":{"catslc":"pier","watlev":2}},{"type":"Feature","geometry":{"type":"LineString","coordinates":[[-81.23684,31.5825],[-81.23693,31.58241]]},"properties":{"catslc":"pier","watlev":2}},{"type":"Feature","geometry":{"type":"LineString","coordinates":[[-81.10283,32.09022],[-81.10594,32.09318],[-81.10596,32.0937]]},"properties":{"catslc":"wharf","watlev":2}},{"type":"Feature","geometry":{"type":"LineString","coordinates":[[-81.10074,32.08883],[-81.10095,32.08867],[-81.10212,32.08984],[-81.10283,32.09022]]},"properties":{"catslc":"wharf","watlev":2}},{"type":"Feature","geometry":{"type":"LineString","coordinates":[[-81.08128,32.09983],[-81.07951,32.09952],[-81.07922,32.09948],[-81.07887,32.09942],[-81.07795,32.09926],[-81.07794,32.09925],[-81.07768,32.09917],[-81.07732,32.09905]]},"properties":{"catslc":"rip rap","watlev":2}},{"type":"Feature","geometry":{"type":"LineString","coordinates":[[-81.04838,32.02338],[-81.04824,32.02346],[-81.04799,32.0236]]},"properties":{"catslc":"pier","watlev":2}},{"type":"Feature","geometry":{"type":"LineString","coordinates":[[-81.04999,32.03157],[-81.04953,32.03151]]},"properties":{"catslc":"pier","watlev":2}},{"type":"Feature","geometry":{"type":"LineString","coordinates":[[-81.05042,32.02946],[-81.05003,32.02942]]},"properties":{"catslc":"pier","watlev":2}},{"type":"Feature","geometry":{"type":"LineString","coordinates":[[-81.05031,32.03047],[-81.04982,32.03041]]},"properties":{"catslc":"pier","watlev":2}},{"type":"Feature","geometry":{"type":"LineString","coordinates":[[-81.10804,32.09547],[-81.10818,32.09541],[-81.10836,32.09557],[-81.1085,32.09559],[-81.10926,32.09618],[-81.10988,32.09624],[-81.10995,32.09637],[-81.1096,32.09678],[-81.1096,32.09678]]},"properties":{"catslc":"seawall","watlev":2}},{"type":"Feature","geometry":{"type":"LineString","coordinates":[[-81.1096,32.09678],[-81.10968,32.09684],[-81.11051,32.0975],[-81.1112,32.09688],[-81.11164,32.09699],[-81.11123,32.09736],[-81.11098,32.09758],[-81.11099,32.09761],[-81.11104,32.09775],[-81.11112,32.09799],[-81.11112,32.09799],[-81.11129,32.09812],[-81.11158,32.09833]]},"properties":{"catslc":"wharf","watlev":2}},{"type":"Feature","geometry":{"type":"LineString","coordinates":[[-81.11642,31.9635],[-81.11634,31.96344],[-81.11609,31.96327]]},"properties":{"catslc":"pier","watlev":2}},{"type":"Feature","geometry":{"type":"LineString","coordinates":[[-81.04357,32.07924],[-81.0433,32.07935],[-81.04229,32.07975],[-81.04224,32.07977],[-81.04221,32.07975],[-81.042,32.07953],[-81.04189,32.07942]]},"properties":{"catslc":"rip rap","watlev":2}},{"type":"Feature","geometry":{"type":"LineString","coordinates":[[-81.02665,32.08517],[-81.02607,32.08558],[-81.02595,32.08558],[-81.02547,32.08559],[-81.02505,32.08545],[-81.02466,32.08608],[-81.02411,32.08621],[-81.0236,32.08624],[-81.02298,32.08651],[-81.02254,32.08675],[-81.02218,32.08725]]},"properties":{"catslc":"rip rap","watlev":2}},{"type":"Feature","geometry":{"type":"LineString","coordinates":[[-81.07852,32.09527],[-81.08054,32.09594],[-81.08084,32.09603],[-81.08235,32.09653]]},"properties":{"catslc":"rip rap","watlev":2}},{"type":"Feature","geometry":{"type":"LineString","coordinates":[[-81.04507,32.08268],[-81.04563,32.08252],[-81.04563,32.08252],[-81.04577,32.08248]]},"properties":{"catslc":"rip rap","watlev":2}},{"type":"Feature","geometry":{"type":"LineString","coordinates":[[-81.02118,32.08712],[-81.02053,32.08762],[-81.01987,32.08789],[-81.01946,32.08784],[-81.01931,32.08797],[-81.01922,32.08805],[-81.01906,32.08819]]},"properties":{"catslc":"rip rap","watlev":2}},{"type":"Feature","geometry":{"type":"LineString","coordinates":[[-81.29038,31.81657],[-81.29063,31.81651],[-81.29076,31.81648]]},"properties":{"catslc":"pier","watlev":2}},{"type":"Feature","geometry":{"type":"LineString","coordinates":[[-81.084,31.95204],[-81.08376,31.95191],[-81.08369,31.95169],[-81.08365,31.95157],[-81.08362,31.95146],[-81.08381,31.95124]]},"properties":{"catslc":"fender","watlev":2}},{"type":"Feature","geometry":{"type":"LineString","coordinates":[[-81.08324,31.95114],[-81.08346,31.95138],[-81.08349,31.9515],[-81.08351,31.95162],[-81.08358,31.9519],[-81.08345,31.95201]]},"properties":{"catslc":"fender","watlev":2}},{"type":"Feature","geometry":{"type":"LineString","coordinates":[[-81.00047,32.00237],[-81.00014,32.00256]]},"properties":{"catslc":"pier","watlev":2}},{"type":"Feature","geometry":{"type":"LineString","coordinates":[[-81.08215,31.81602],[-81.08221,31.8155]]},"properties":{"catslc":"pier","watlev":2}},{"type":"Feature","geometry":{"type":"LineString","coordinates":[[-81.04507,32.08268],[-81.04347,32.08343],[-81.04271,32.08398]]},"properties":{"catslc":"pier","watlev":2}},{"type":"Feature","geometry":{"type":"LineString","coordinates":[[-81.15231,31.93496],[-81.15271,31.93463]]},"properties":{"catslc":"pier","watlev":2}},{"type":"Feature","geometry":{"type":"LineString","coordinates":[[-81.15304,31.93536],[-81.1532,31.93497]]},"properties":{"catslc":"pier","watlev":2}},{"type":"Feature","geometry":{"type":"LineString","coordinates":[[-81.1534,31.93557],[-81.15348,31.93526],[-81.15352,31.9351]]},"properties":{"catslc":"pier","watlev":2}},{"type":"Feature","geometry":{"type":"LineString","coordinates":[[-81.12743,31.95873],[-81.12776,31.95879],[-81.12789,31.95882]]},"properties":{"catslc":"pier","watlev":2}},{"type":"Feature","geometry":{"type":"LineString","coordinates":[[-81.12606,31.9632],[-81.12602,31.96319],[-81.12586,31.96347],[-81.12592,31.96349]]},"properties":{"catslc":"seawall","watlev":2}},{"type":"Feature","geometry":{"type":"LineString","coordinates":[[-81.26197,31.90861],[-81.26198,31.90958]]},"properties":{"catslc":"pier","watlev":2}},{"type":"Feature","geometry":{"type":"LineString","coordinates":[[-81.20975,31.88592],[-81.20995,31.88633]]},"properties":{"catslc":"pier","watlev":2}},{"type":"Feature","geometry":{"type":"LineString","coordinates":[[-81.20863,31.8864],[-81.2089,31.88689]]},"properties":{"catslc":"pier","watlev":2}},{"type":"Feature","geometry":{"type":"LineString","coordinates":[[-81.04921,32.03116],[-81.04916,32.0313]]},"properties":{"catslc":"pier","watlev":2}},{"type":"Feature","geometry":{"type":"LineString","coordinates":[[-81.08473,32.08265],[-81.08461,32.08295],[-81.08461,32.08333],[-81.08466,32.08487],[-81.08454,32.08573],[-81.0845,32.08641],[-81.0846,32.08708],[-81.08457,32.08742],[-81.08446,32.08745],[-81.08432,32.08747],[-81.08441,32.08694],[-81.08438,32.08576],[-81.08406,32.08574],[-81.08405,32.08669],[-81.08377,32.08668],[-81.0838,32.08562],[-81.08377,32.08538]]},"properties":{"catslc":"seawall","watlev":2}},{"type":"Feature","geometry":{"type":"LineString","coordinates":[[-81.08945,32.08394],[-81.08937,32.08574],[-81.08947,32.08611],[-81.08948,32.08778],[-81.08935,32.08795],[-81.0889,32.08804],[-81.08858,32.08797],[-81.08843,32.08777],[-81.08844,32.08745],[-81.08859,32.0865],[-81.0886,32.08511],[-81.08865,32.08369]]},"properties":{"catslc":"seawall","watlev":2}},{"type":"Feature","geometry":{"type":"LineString","coordinates":[[-81.04873,32.02512],[-81.04839,32.02534],[-81.04871,32.02565]]},"properties":{"catslc":"pier","watlev":2}},{"type":"Feature","geometry":{"type":"LineString","coordinates":[[-81.04787,32.02446],[-81.04753,32.02465]]},"properties":{"catslc":"pier","watlev":2}},{"type":"Feature","geometry":{"type":"LineString","coordinates":[[-81.04802,32.0251],[-81.04753,32.02465],[-81.04699,32.02444]]},"properties":{"catslc":"pier","watlev":2}},{"type":"Feature","geometry":{"type":"LineString","coordinates":[[-81.04824,32.02346],[-81.04852,32.02378]]},"properties":{"catslc":"pier","watlev":2}},{"type":"Feature","geometry":{"type":"LineString","coordinates":[[-81.11158,32.09833],[-81.11204,32.09851],[-81.11219,32.0988],[-81.1122,32.09883],[-81.11225,32.09892]]},"properties":{"catslc":"rip rap","watlev":2}},{"type":"Feature","geometry":{"type":"LineString","coordinates":[[-81.08377,32.08538],[-81.08369,32.08499],[-81.0835,32.08399],[-81.08361,32.08332],[-81.08382,32.08279]]},"properties":{"catslc":"seawall","watlev":2}},{"type":"Feature","geometry":{"type":"LineString","coordinates":[[-81.09334,32.08273],[-81.09509,32.08371],[-81.09578,32.08423],[-81.0965,32.08454]]},"properties":{"catslc":"seawall","watlev":2}},{"type":"Feature","geometry":{"type":"LineString","coordinates":[[-81.05011,32.03119],[-81.04921,32.03116],[-81.04932,32.03066]]},"properties":{"catslc":"pier","watlev":2}},{"type":"Feature","geometry":{"type":"LineString","coordinates":[[-81.04937,32.03136],[-81.04953,32.03076],[-81.05026,32.03074]]},"properties":{"catslc":"pier","watlev":2}},{"type":"Feature","geometry":{"type":"LineString","coordinates":[[-81.01085,31.95788],[-81.01056,31.95825],[-81.01058,31.95841]]},"properties":{"catslc":"pier","watlev":2}},{"type":"Feature","geometry":{"type":"LineString","coordinates":[[-81.21096,31.97025],[-81.21027,31.96979]]},"properties":{"catslc":"pier","watlev":2}},{"type":"Feature","geometry":{"type":"LineString","coordinates":[[-81.01172,31.95883],[-81.01099,31.95907],[-81.01071,31.95867],[-81.01071,31.95849]]},"properties":{"catslc":"pier","watlev":2}},{"type":"Feature","geometry":{"type":"LineString","coordinates":[[-80.99736,32.00786],[-80.99725,32.00848],[-80.99918,32.0099]]},"properties":{"catslc":"pier","watlev":null}},{"type":"Feature","geometry":{"type":"LineString","coordinates":[[-80.88227,32.09071],[-80.88162,32.09076],[-80.88094,32.09071],[-80.88039,32.09057]]},"properties":{"catslc":"seawall","watlev":2}},{"type":"Feature","geometry":{"type":"LineString","coordinates":[[-80.85416,32.02911],[-80.85382,32.02869]]},"properties":{"catslc":"pier","watlev":3}},{"type":"Feature","geometry":{"type":"LineString","coordinates":[[-80.84118,32.02453],[-80.8408,32.02459]]},"properties":{"catslc":"pier","watlev":3}},{"type":"Feature","geometry":{"type":"LineString","coordinates":[[-80.87944,32.0394],[-80.87921,32.0394],[-80.87837,32.03947],[-80.87723,32.03956],[-80.87675,32.0396],[-80.87675,32.0396],[-80.86688,32.04034],[-80.85879,32.0409],[-80.85472,32.04118],[-80.85206,32.04128],[-80.85015,32.04136],[-80.84937,32.04139],[-80.8492,32.04139]]},"properties":{"catslc":"pier","watlev":1}},{"type":"Feature","geometry":{"type":"LineString","coordinates":[[-80.86862,32.05801],[-80.86802,32.05851],[-80.86772,32.0588],[-80.86754,32.05927],[-80.86759,32.05957],[-80.86785,32.05989],[-80.86827,32.06006],[-80.86848,32.06008],[-80.86864,32.06009],[-80.869,32.05999],[-80.86932,32.05977],[-80.86986,32.05933]]},"properties":{"catslc":"rip rap","watlev":2}},{"type":"Feature","geometry":{"type":"LineString","coordinates":[[-80.99304,32.09672],[-80.99305,32.09672],[-80.99338,32.09714],[-80.9934,32.09717],[-80.9935,32.09729],[-80.99392,32.09776]]},"properties":{"catslc":"rip rap","watlev":2}},{"type":"Feature","geometry":{"type":"LineString","coordinates":[[-80.9946,32.09851],[-80.99464,32.09856],[-80.99494,32.09898],[-80.99549,32.09934],[-80.99608,32.09986],[-80.99655,32.1]]},"properties":{"catslc":"rip rap","watlev":2}},{"type":"Feature","geometry":{"type":"LineString","coordinates":[[-80.85382,32.02869],[-80.85331,32.02805]]},"properties":{"catslc":"pier","watlev":4}},{"type":"Feature","geometry":{"type":"LineString","coordinates":[[-80.84227,32.02586],[-80.84353,32.02519]]},"properties":{"catslc":"pier","watlev":3}},{"type":"Feature","geometry":{"type":"LineString","coordinates":[[-80.88243,32.03239],[-80.88136,32.03254]]},"properties":{"catslc":"pier","watlev":3}},{"type":"Feature","geometry":{"type":"LineString","coordinates":[[-80.88039,32.09057],[-80.88009,32.09035],[-80.87956,32.09002],[-80.87938,32.0897],[-80.87884,32.08932],[-80.87845,32.08898]]},"properties":{"catslc":"rip rap","watlev":2}},{"type":"Feature","geometry":{"type":"LineString","coordinates":[[-80.87688,32.08336],[-80.87686,32.08308],[-80.87683,32.08258]]},"properties":{"catslc":"seawall","watlev":2}},{"type":"Feature","geometry":{"type":"LineString","coordinates":[[-80.90763,32.02863],[-80.90781,32.02817]]},"properties":{"catslc":"pier","watlev":2}},{"type":"Feature","geometry":{"type":"LineString","coordinates":[[-80.98097,32.08124],[-80.98032,32.08064],[-80.97983,32.0803],[-80.97983,32.0803],[-80.97979,32.08029],[-80.97886,32.08016],[-80.97844,32.08004],[-80.97808,32.07994],[-80.97799,32.07992],[-80.97688,32.07949]]},"properties":{"catslc":"rip rap","watlev":2}},{"type":"Feature","geometry":{"type":"LineString","coordinates":[[-80.97305,32.07805],[-80.972,32.07756],[-80.97078,32.07753],[-80.96961,32.07745],[-80.9688,32.0771],[-80.96797,32.07641],[-80.96699,32.07614],[-80.96598,32.07594],[-80.9659,32.07593],[-80.96514,32.07565],[-80.96466,32.07548],[-80.9636,32.0752],[-80.96255,32.07578]]},"properties":{"catslc":"rip rap","watlev":2}},{"type":"Feature","geometry":{"type":"LineString","coordinates":[[-80.95613,32.07296],[-80.95581,32.07287],[-80.95547,32.07267],[-80.95519,32.07235]]},"properties":{"catslc":"rip rap","watlev":2}},{"type":"Feature","geometry":{"type":"LineString","coordinates":[[-80.95385,32.07172],[-80.95328,32.07163],[-80.9528,32.07127]]},"properties":{"catslc":"rip rap","watlev":2}},{"type":"Feature","geometry":{"type":"LineString","coordinates":[[-80.94892,32.0674],[-80.94776,32.06688],[-80.94693,32.0658],[-80.9457,32.06441],[-80.94452,32.06396],[-80.94363,32.06353],[-80.94307,32.06276],[-80.94225,32.0624],[-80.9412,32.06184],[-80.94055,32.06095],[-80.93965,32.06036],[-80.9393,32.06003],[-80.93914,32.05987],[-80.93874,32.05949],[-80.93767,32.05844],[-80.93701,32.05785]]},"properties":{"catslc":"rip rap","watlev":2}},{"type":"Feature","geometry":{"type":"LineString","coordinates":[[-80.9357,32.05693],[-80.93562,32.05594],[-80.93542,32.05541],[-80.93529,32.05493]]},"properties":{"catslc":"rip rap","watlev":2}},{"type":"Feature","geometry":{"type":"LineString","coordinates":[[-80.84365,32.0241],[-80.84292,32.02422],[-80.84118,32.02453]]},"properties":{"catslc":"pier","watlev":4}},{"type":"Feature","geometry":{"type":"LineString","coordinates":[[-80.80229,32.0351],[-80.80427,32.0358],[-80.807,32.03693],[-80.8119,32.03971],[-80.81468,32.04155],[-80.82099,32.04615]]},"properties":{"catslc":"breakwater","watlev":3}},{"type":"Feature","geometry":{"type":"LineString","coordinates":[[-80.88016,32.02297],[-80.87991,32.02291],[-80.8798,32.02285],[-80.87974,32.0228],[-80.87972,32.02266],[-80.87978,32.02261],[-80.87986,32.02257],[-80.88003,32.02251],[-80.88044,32.02244],[-80.88072,32.02236],[-80.8808,32.02236],[-80.88084,32.02238],[-80.88085,32.02245],[-80.88061,32.02249],[-80.88004,32.02259],[-80.88,32.02283],[-80.88031,32.0229],[-80.8803,32.02297],[-80.88025,32.02298],[-80.88016,32.02297]]},"properties":{"catslc":"rip rap","watlev":null}},{"type":"Feature","geometry":{"type":"LineString","coordinates":[[-80.89436,32.03808],[-80.89473,32.03808],[-80.8952,32.0381],[-80.89527,32.03824],[-80.89528,32.03828],[-80.8954,32.03853]]},"properties":{"catslc":"rip rap","watlev":2}},{"type":"Feature","geometry":{"type":"LineString","coordinates":[[-80.92575,32.04586],[-80.92518,32.04575],[-80.9243,32.04551],[-80.92379,32.04515],[-80.92337,32.04484],[-80.92301,32.04464]]},"properties":{"catslc":"rip rap","watlev":2}},{"type":"Feature","geometry":{"type":"LineString","coordinates":[[-80.84384,32.02418],[-80.84408,32.02489],[-80.84353,32.02519]]},"properties":{"catslc":"pier","watlev":4}},{"type":"Feature","geometry":{"type":"LineString","coordinates":[[-80.88444,32.03914],[-80.88164,32.03933],[-80.88153,32.03934],[-80.87944,32.0394]]},"properties":{"catslc":"rip rap","watlev":2}},{"type":"Feature","geometry":{"type":"LineString","coordinates":[[-80.87381,32.03303],[-80.87254,32.03314],[-80.86793,32.03346],[-80.86657,32.03355],[-80.85121,32.03456]]},"properties":{"catslc":"pier","watlev":3}},{"type":"Feature","geometry":{"type":"LineString","coordinates":[[-80.88136,32.03254],[-80.88068,32.0326],[-80.87999,32.03265],[-80.87959,32.03267],[-80.87896,32.0327],[-80.8786,32.03273],[-80.87792,32.03278],[-80.87747,32.0328],[-80.8768,32.03284],[-80.87606,32.0329],[-80.87537,32.03295],[-80.87502,32.03298],[-80.87468,32.033],[-80.87434,32.03303],[-80.87381,32.03303]]},"properties":{"catslc":"pier","watlev":4}},{"type":"Feature","geometry":{"type":"LineString","coordinates":[[-80.9033,32.04799],[-80.90296,32.04808],[-80.90423,32.05189],[-80.90472,32.05219],[-80.90467,32.05212],[-80.90463,32.05204],[-80.9033,32.04799]]},"properties":{"catslc":"pier","watlev":3}},{"type":"Feature","geometry":{"type":"LineString","coordinates":[[-80.89973,32.04373],[-80.89928,32.04385],[-80.89927,32.04385],[-80.9009,32.04543],[-80.90171,32.04643],[-80.90192,32.04613],[-80.90195,32.0461],[-80.90179,32.04589],[-80.89973,32.04373]]},"properties":{"catslc":"pier","watlev":4}},{"type":"Feature","geometry":{"type":"LineString","coordinates":[[-80.90304,32.04722],[-80.90268,32.04721],[-80.90296,32.04808],[-80.9033,32.04799],[-80.90304,32.04722]]},"properties":{"catslc":"pier","watlev":4}},{"type":"Feature","geometry":{"type":"LineString","coordinates":[[-80.90423,32.05189],[-80.90429,32.05207],[-80.9044,32.05243],[-80.90445,32.05239],[-80.90472,32.05219],[-80.90423,32.05189]]},"properties":{"catslc":"pier","watlev":4}},{"type":"Feature","geometry":{"type":"LineString","coordinates":[[-80.46091,32.33174],[-80.4595,32.33062],[-80.45752,32.32927],[-80.45669,32.32786],[-80.45538,32.32727],[-80.45424,32.32523],[-80.45354,32.32383],[-80.45301,32.32239],[-80.45486,32.32212],[-80.4569,32.32149]]},"properties":{"catslc":"rip rap","watlev":2}},{"type":"Feature","geometry":{"type":"LineString","coordinates":[[-81.29057,32.55538],[-81.29011,32.55512],[-81.28978,32.55491],[-81.28965,32.55482],[-81.28957,32.55481],[-81.28951,32.55485],[-81.28937,32.55511],[-81.28935,32.55515],[-81.2893,32.55524],[-81.28942,32.55528],[-81.28959,32.55534],[-81.28989,32.55545],[-81.2901,32.55556],[-81.29036,32.55567],[-81.29056,32.55572],[-81.29064,32.55573],[-81.29074,32.55573],[-81.29078,32.55562],[-81.2908,32.55554],[-81.29079,32.55551],[-81.29057,32.55538]]},"properties":{"catslc":"revetment","watlev":3}},{"type":"Feature","geometry":{"type":"LineString","coordinates":[[-79.83921,32.75473],[-79.83852,32.75294],[-79.83791,32.75146],[-79.8368,32.7493],[-79.83543,32.74676],[-79.83384,32.74367],[-79.83256,32.74173]]},"properties":{"catslc":"pier","watlev":3}},{"type":"Feature","geometry":{"type":"LineString","coordinates":[[-79.83256,32.74173],[-79.83189,32.74092],[-79.83146,32.74042]]},"properties":{"catslc":"pier","watlev":2}},{"type":"Feature","geometry":{"type":"LineString","coordinates":[[-79.83146,32.74042],[-79.83044,32.7393],[-79.82942,32.73833],[-79.82796,32.73709],[-79.8266,32.73609],[-79.82477,32.73493],[-79.82231,32.73365],[-79.82005,32.73247],[-79.81784,32.73132],[-79.81538,32.73],[-79.81309,32.72879],[-79.81164,32.72803]]},"properties":{"catslc":"pier","watlev":2}},{"type":"Feature","geometry":{"type":"LineString","coordinates":[[-79.8378,32.87601],[-79.83938,32.87451]]},"properties":{"catslc":"pier","watlev":2}},{"type":"Feature","geometry":{"type":"LineString","coordinates":[[-79.9808,32.84037],[-79.97942,32.84279]]},"properties":{"catslc":"pier","watlev":2}},{"type":"Feature","geometry":{"type":"LineString","coordinates":[[-79.98223,32.83821],[-79.98431,32.8353]]},"properties":{"catslc":"pier","watlev":2}},{"type":"Feature","geometry":{"type":"LineString","coordinates":[[-79.57478,32.95894],[-79.57191,32.96025],[-79.56829,32.96259],[-79.56564,32.96543],[-79.56334,32.96798]]},"properties":{"catslc":"pier","watlev":2}},{"type":"Feature","geometry":{"type":"LineString","coordinates":[[-79.86901,32.7316],[-79.85483,32.73086],[-79.84643,32.73052],[-79.84402,32.73043],[-79.83567,32.72963],[-79.83229,32.72901],[-79.83104,32.72878],[-79.82944,32.72794],[-79.81386,32.71979],[-79.81357,32.71964],[-79.81324,32.71947]]},"properties":{"catslc":"pier","watlev":3}},{"type":"Feature","geometry":{"type":"LineString","coordinates":[[-80.01002,32.75322],[-80.00999,32.75302],[-80.00844,32.75318],[-80.00855,32.7532],[-80.00861,32.75327],[-80.00868,32.75333],[-80.0087,32.75337],[-80.01002,32.75322]]},"properties":{"catslc":" ","watlev":3}},{"type":"Feature","geometry":{"type":"LineString","coordinates":[[-80.01274,32.75275],[-80.01273,32.75274],[-80.01079,32.75293],[-80.01083,32.75314],[-80.01278,32.75294],[-80.01274,32.75275]]},"properties":{"catslc":" ","watlev":3}},{"type":"Feature","geometry":{"type":"LineString","coordinates":[[-79.9112,32.77313],[-79.9112,32.77288],[-79.91121,32.77261],[-79.91121,32.77261],[-79.91121,32.77256],[-79.9108,32.77255],[-79.9108,32.77258],[-79.9108,32.77259],[-79.9108,32.77262],[-79.9111,32.77264],[-79.9111,32.77286],[-79.91109,32.77306],[-79.91109,32.77329],[-79.91119,32.77329],[-79.9112,32.77313]]},"properties":{"catslc":"pier","watlev":3}},{"type":"Feature","geometry":{"type":"LineString","coordinates":[[-79.91119,32.77329],[-79.91109,32.77329],[-79.91109,32.77334],[-79.91111,32.77336],[-79.91118,32.77334],[-79.91119,32.77334],[-79.91119,32.77334],[-79.91119,32.7733],[-79.91119,32.77329]]},"properties":{"catslc":"pier","watlev":4}},{"type":"Feature","geometry":{"type":"LineString","coordinates":[[-79.87361,32.7383],[-79.87364,32.7384],[-79.87365,32.73844],[-79.87423,32.73847],[-79.87427,32.73846],[-79.87427,32.73835],[-79.87423,32.73832],[-79.87361,32.7383]]},"properties":{"catslc":"pier","watlev":3}},{"type":"Feature","geometry":{"type":"LineString","coordinates":[[-79.96337,32.82311],[-79.9636,32.82303],[-79.96365,32.82302],[-79.96368,32.82308],[-79.96378,32.82304],[-79.96367,32.82284],[-79.96359,32.82287],[-79.96358,32.82287],[-79.96359,32.82289],[-79.9636,32.82292],[-79.96359,32.82292],[-79.96334,32.823],[-79.96337,32.82311]]},"properties":{"catslc":"pier","watlev":3}},{"type":"Feature","geometry":{"type":"LineString","coordinates":[[-79.96753,32.80442],[-79.96747,32.80434],[-79.96661,32.80457],[-79.96665,32.80458],[-79.96666,32.80465],[-79.96753,32.80442]]},"properties":{"catslc":"pier","watlev":4}},{"type":"Feature","geometry":{"type":"LineString","coordinates":[[-79.96361,32.81448],[-79.96358,32.81455],[-79.96355,32.8146],[-79.96366,32.8146],[-79.9637,32.8146],[-79.9637,32.81474],[-79.96391,32.81472],[-79.96392,32.81449],[-79.96393,32.81446],[-79.96393,32.8144],[-79.96391,32.8144],[-79.96378,32.8144],[-79.96373,32.8144],[-79.96372,32.8144],[-79.96372,32.8144],[-79.96372,32.81448],[-79.96369,32.81448],[-79.96361,32.81448]]},"properties":{"catslc":"pier","watlev":3}},{"type":"Feature","geometry":{"type":"LineString","coordinates":[[-79.96348,32.81903],[-79.96346,32.81892],[-79.96343,32.8186],[-79.96332,32.81862],[-79.9633,32.81866],[-79.96321,32.81866],[-79.9632,32.81869],[-79.9632,32.81887],[-79.96327,32.819],[-79.96337,32.81902],[-79.96338,32.8191],[-79.9635,32.81908],[-79.96348,32.81903]]},"properties":{"catslc":"pier","watlev":4}},{"type":"Feature","geometry":{"type":"LineString","coordinates":[[-79.96753,32.83257],[-79.96734,32.83266],[-79.96738,32.83274],[-79.96759,32.83265],[-79.96753,32.83257]]},"properties":{"catslc":"pier","watlev":4}},{"type":"Feature","geometry":{"type":"LineString","coordinates":[[-79.9635,32.81908],[-79.96355,32.81908],[-79.96356,32.81907],[-79.96355,32.81893],[-79.96352,32.81859],[-79.96348,32.8186],[-79.96343,32.8186],[-79.96346,32.81892],[-79.96348,32.81903],[-79.9635,32.81908]]},"properties":{"catslc":"pier","watlev":3}},{"type":"Feature","geometry":{"type":"LineString","coordinates":[[-79.96361,32.81448],[-79.96333,32.81448],[-79.9633,32.81456],[-79.9633,32.81459],[-79.96355,32.8146],[-79.96358,32.81455],[-79.96361,32.81448]]},"properties":{"catslc":"pier","watlev":4}},{"type":"Feature","geometry":{"type":"LineString","coordinates":[[-79.96775,32.80486],[-79.96759,32.80486],[-79.96755,32.80493],[-79.96775,32.80492],[-79.96775,32.80486]]},"properties":{"catslc":"pier","watlev":3}},{"type":"Feature","geometry":{"type":"LineString","coordinates":[[-79.96792,32.83236],[-79.96787,32.83239],[-79.96753,32.83257],[-79.96759,32.83265],[-79.96762,32.83263],[-79.96765,32.83261],[-79.96782,32.83254],[-79.96793,32.8325],[-79.96801,32.83247],[-79.96802,32.83245],[-79.96792,32.83236]]},"properties":{"catslc":"pier","watlev":3}},{"type":"Feature","geometry":{"type":"LineString","coordinates":[[-79.96759,32.80486],[-79.96643,32.80487],[-79.96642,32.80497],[-79.96755,32.80493],[-79.96759,32.80486]]},"properties":{"catslc":"pier","watlev":4}},{"type":"Feature","geometry":{"type":"LineString","coordinates":[[-79.93152,32.81228],[-79.9315,32.81233],[-79.93149,32.81236],[-79.9317,32.81244],[-79.93172,32.81242],[-79.93178,32.81237],[-79.93152,32.81228]]},"properties":{"catslc":"pier","watlev":4}},{"type":"Feature","geometry":{"type":"LineString","coordinates":[[-79.9333,32.80652],[-79.93299,32.80664],[-79.93289,32.80668],[-79.93289,32.80668],[-79.93281,32.80671],[-79.9328,32.80671],[-79.93273,32.80673],[-79.93281,32.80681],[-79.93281,32.80681],[-79.93282,32.80681],[-79.93289,32.80679],[-79.93289,32.80679],[-79.93298,32.80676],[-79.93336,32.80663],[-79.9333,32.80652]]},"properties":{"catslc":"pier","watlev":3}},{"type":"Feature","geometry":{"type":"LineString","coordinates":[[-79.91658,32.8187],[-79.91635,32.81911],[-79.91654,32.81912],[-79.91674,32.81875],[-79.91658,32.8187]]},"properties":{"catslc":"pier","watlev":4}},{"type":"Feature","geometry":{"type":"LineString","coordinates":[[-79.92451,32.78004],[-79.92379,32.78013],[-79.92381,32.78027],[-79.92449,32.78017],[-79.92448,32.78008],[-79.92451,32.78004]]},"properties":{"catslc":"pier","watlev":3}},{"type":"Feature","geometry":{"type":"LineString","coordinates":[[-79.92993,32.81427],[-79.92995,32.81427],[-79.92998,32.8142],[-79.93004,32.81425],[-79.93013,32.81432],[-79.93007,32.81398],[-79.93088,32.81213],[-79.93149,32.81236],[-79.9315,32.81233],[-79.93152,32.81228],[-79.93107,32.81211],[-79.93092,32.81206],[-79.93122,32.81141],[-79.93134,32.81115],[-79.93125,32.81112],[-79.93097,32.81175],[-79.93085,32.812],[-79.92985,32.81418],[-79.92983,32.81424],[-79.92986,32.81425],[-79.92992,32.81426],[-79.92993,32.81427]]},"properties":{"catslc":"pier","watlev":3}},{"type":"Feature","geometry":{"type":"LineString","coordinates":[[-79.91692,32.81841],[-79.91716,32.8185],[-79.91722,32.81842],[-79.91648,32.81811],[-79.91645,32.81821],[-79.91677,32.81835],[-79.91677,32.81838],[-79.91673,32.81845],[-79.91673,32.81845],[-79.91666,32.81857],[-79.9166,32.81867],[-79.91658,32.8187],[-79.91674,32.81875],[-79.91682,32.81861],[-79.91686,32.81852],[-79.91686,32.81852],[-79.91692,32.81841]]},"properties":{"catslc":"pier","watlev":3}},{"type":"Feature","geometry":{"type":"LineString","coordinates":[[-79.94641,32.83664],[-79.94635,32.83672],[-79.94648,32.83676],[-79.94649,32.83674],[-79.94664,32.83679],[-79.94714,32.83692],[-79.94715,32.83687],[-79.94641,32.83664]]},"properties":{"catslc":"pier","watlev":3}},{"type":"Feature","geometry":{"type":"LineString","coordinates":[[-79.94518,32.83627],[-79.94499,32.83621],[-79.94495,32.83632],[-79.94616,32.83667],[-79.94619,32.83653],[-79.94518,32.83627]]},"properties":{"catslc":"pier","watlev":3}},{"type":"Feature","geometry":{"type":"LineString","coordinates":[[-79.93175,32.83287],[-79.93175,32.83294],[-79.93176,32.83376],[-79.93179,32.83375],[-79.93186,32.83375],[-79.93186,32.83355],[-79.93186,32.83319],[-79.93186,32.83304],[-79.93186,32.83268],[-79.93187,32.83207],[-79.93173,32.83207],[-79.93174,32.83217],[-79.93175,32.83287]]},"properties":{"catslc":"pier","watlev":3}},{"type":"Feature","geometry":{"type":"LineString","coordinates":[[-79.93522,32.92203],[-79.93522,32.92202],[-79.9352,32.922],[-79.93503,32.92208],[-79.93483,32.92218],[-79.93481,32.92219],[-79.93473,32.92224],[-79.93466,32.92227],[-79.93462,32.92229],[-79.93457,32.92232],[-79.93457,32.92232],[-79.93428,32.92247],[-79.93428,32.92247],[-79.93426,32.92247],[-79.93429,32.92251],[-79.93431,32.9225],[-79.93449,32.92243],[-79.9346,32.92237],[-79.93471,32.92232],[-79.93473,32.92231],[-79.93477,32.92229],[-79.93478,32.92228],[-79.93488,32.92223],[-79.93488,32.92223],[-79.93491,32.92222],[-79.93503,32.92215],[-79.93507,32.92212],[-79.93509,32.92212],[-79.93524,32.92206],[-79.93524,32.92205],[-79.93522,32.92203]]},"properties":{"catslc":"pier","watlev":3}},{"type":"Feature","geometry":{"type":"LineString","coordinates":[[-79.93485,32.92208],[-79.93485,32.92208],[-79.93481,32.92203],[-79.9348,32.92201],[-79.93476,32.92197],[-79.93474,32.92196],[-79.93472,32.92197],[-79.93472,32.92199],[-79.93473,32.92201],[-79.93475,32.92205],[-79.93478,32.9221],[-79.93479,32.9221],[-79.93481,32.92211],[-79.93483,32.92211],[-79.93484,32.92211],[-79.93485,32.9221],[-79.93485,32.92208]]},"properties":{"catslc":"pier","watlev":3}},{"type":"Feature","geometry":{"type":"LineString","coordinates":[[-79.93749,32.92808],[-79.93747,32.92811],[-79.93743,32.92816],[-79.93742,32.92817],[-79.9374,32.9282],[-79.93809,32.92857],[-79.93813,32.9285],[-79.93817,32.92844],[-79.93749,32.92808]]},"properties":{"catslc":"pier","watlev":4}},{"type":"Feature","geometry":{"type":"LineString","coordinates":[[-79.44209,33.0584],[-79.43866,33.05836]]},"properties":{"catslc":"pier","watlev":2}},{"type":"Feature","geometry":{"type":"LineString","coordinates":[[-79.26076,33.11984],[-79.25953,33.11881],[-79.25734,33.11839],[-79.25734,33.11839],[-79.25349,33.12006]]},"properties":{"catslc":"pier","watlev":2}},{"type":"Feature","geometry":{"type":"LineString","coordinates":[[-79.15098,33.20391],[-79.15348,33.20391],[-79.15454,33.20391],[-79.16308,33.20391],[-79.16407,33.20391],[-79.16782,33.20547],[-79.17166,33.20708],[-79.17191,33.20729],[-79.17198,33.20734],[-79.17541,33.21005],[-79.17542,33.21006],[-79.17579,33.21035],[-79.17591,33.21045],[-79.17601,33.21053],[-79.1761,33.21059]]},"properties":{"catslc":"pier","watlev":3}},{"type":"Feature","geometry":{"type":"LineString","coordinates":[[-79.13705,33.1905],[-79.14974,33.1905],[-79.14984,33.1905],[-79.14992,33.1905],[-79.16853,33.19049],[-79.1825,33.19049],[-79.18289,33.19049]]},"properties":{"catslc":"pier","watlev":3}},{"type":"Feature","geometry":{"type":"LineString","coordinates":[[-79.1757,33.21001],[-79.17566,33.21003],[-79.17559,33.21004],[-79.17554,33.21004],[-79.17545,33.21004],[-79.1754,33.21004],[-79.17542,33.21006],[-79.17617,33.21065],[-79.17619,33.21067],[-79.17626,33.21043],[-79.17582,33.21011],[-79.1757,33.21001]]},"properties":{"catslc":"pier","watlev":4}},{"type":"Feature","geometry":{"type":"LineString","coordinates":[[-79.15098,33.20391],[-79.15466,33.20391],[-79.15735,33.20391],[-79.15745,33.20391],[-79.16308,33.20391],[-79.16407,33.20391],[-79.17166,33.20708],[-79.17198,33.20734],[-79.17245,33.20772],[-79.1754,33.21004],[-79.17545,33.21004],[-79.17554,33.21004],[-79.17559,33.21004],[-79.17566,33.21003],[-79.1757,33.21001],[-79.17295,33.2077],[-79.17177,33.20668],[-79.17045,33.20614],[-79.17044,33.20614],[-79.16523,33.204],[-79.16393,33.20346],[-79.15992,33.20349],[-79.15676,33.20351],[-79.15428,33.20353],[-79.15056,33.20355],[-79.15079,33.20383],[-79.15098,33.20391]]},"properties":{"catslc":"pier","watlev":3}},{"type":"Feature","geometry":{"type":"LineString","coordinates":[[-79.18332,33.19025],[-79.1832,33.19037],[-79.183,33.19046],[-79.18296,33.19049],[-79.18313,33.19049],[-79.18316,33.19046],[-79.18317,33.19045],[-79.18326,33.19034],[-79.18332,33.19025]]},"properties":{"catslc":"pier","watlev":4}},{"type":"Feature","geometry":{"type":"LineString","coordinates":[[-79.18321,33.1901],[-79.18303,33.1901],[-79.18067,33.1901],[-79.17417,33.1901],[-79.17166,33.1901],[-79.16127,33.1901],[-79.14984,33.1901],[-79.14984,33.19035],[-79.14984,33.1904],[-79.14984,33.19046],[-79.14984,33.19049],[-79.14984,33.1905],[-79.1499,33.1905],[-79.15108,33.1905],[-79.15455,33.1905],[-79.15505,33.1905],[-79.16125,33.1905],[-79.16677,33.19049],[-79.16853,33.19049],[-79.17573,33.19049],[-79.1825,33.19049],[-79.18296,33.19049],[-79.183,33.19046],[-79.1832,33.19037],[-79.18332,33.19025],[-79.18341,33.19013],[-79.18321,33.1901]]},"properties":{"catslc":"pier","watlev":3}},{"type":"Feature","geometry":{"type":"LineString","coordinates":[[-79.27851,33.28194],[-79.27951,33.28398],[-79.2795,33.28392],[-79.27954,33.28371],[-79.27944,33.28353],[-79.27929,33.28336],[-79.27916,33.28317],[-79.27904,33.28291],[-79.27897,33.28261],[-79.27889,33.28236],[-79.27868,33.28207],[-79.27851,33.28194]]},"properties":{"catslc":"pier","watlev":4}},{"type":"Feature","geometry":{"type":"LineString","coordinates":[[-79.27806,33.28064],[-79.27806,33.28064],[-79.27813,33.28091],[-79.27813,33.28108],[-79.27806,33.28117],[-79.27831,33.28159],[-79.27834,33.28157],[-79.2783,33.28133],[-79.27834,33.28123],[-79.2783,33.28115],[-79.27806,33.28064]]},"properties":{"catslc":"pier","watlev":4}},{"type":"Feature","geometry":{"type":"LineString","coordinates":[[-79.27951,33.28398],[-79.28075,33.28653],[-79.281,33.28846],[-79.28147,33.29211],[-79.28147,33.29222],[-79.28142,33.29453],[-79.28139,33.29595],[-79.28158,33.29595],[-79.28161,33.29426],[-79.28165,33.29213],[-79.28145,33.29059],[-79.28135,33.2898],[-79.28116,33.28841],[-79.28092,33.28649],[-79.27938,33.28336],[-79.27834,33.28123],[-79.2783,33.28133],[-79.27834,33.28157],[-79.27831,33.28159],[-79.27844,33.2818],[-79.27851,33.28194],[-79.27868,33.28207],[-79.27889,33.28236],[-79.27897,33.28261],[-79.27904,33.28291],[-79.27916,33.28317],[-79.27929,33.28336],[-79.27944,33.28353],[-79.27954,33.28371],[-79.2795,33.28392],[-79.27951,33.28398]]},"properties":{"catslc":"pier","watlev":3}},{"type":"Feature","geometry":{"type":"LineString","coordinates":[[-79.24656,33.26159],[-79.241,33.26035],[-79.24075,33.26029],[-79.24074,33.26048],[-79.24497,33.26139],[-79.24592,33.26159],[-79.24689,33.26177],[-79.24656,33.26159]]},"properties":{"catslc":"pier","watlev":4}}]}