{"type":"FeatureCollection","features":[{"type":"Feature","properties":{},"geometry":{"type":"Polygon","coordinates":[[[-75.61622569999997,39.52499999999998],[-75.61557699999997,39.52499999999998],[-75.6066338,39.52499999999998],[-75.6060109,39.52499999999998],[-75.60547889999998,39.52499999999998],[-75.60479199999997,39.52499999999998],[-75.60409340000001,39.52499999999998],[-75.60259980000001,39.52499999999998],[-75.60000000000002,39.52499999999998],[-75.60000000000002,39.50460850000002],[-75.60000000000002,39.50074919999997],[-75.60000000000002,39.500187900000014],[-75.60000000000002,39.49975380000001],[-75.60000000000002,39.49850249999997],[-75.60000000000002,39.4982162],[-75.60000000000002,39.49755290000002],[-75.60000000000002,39.497082499999976],[-75.60000000000002,39.493833300000006],[-75.60000000000002,39.49342630000001],[-75.60000000000002,39.493252900000016],[-75.60000000000002,39.4905607],[-75.60000000000002,39.48086760000001],[-75.60000000000002,39.479924400000016],[-75.60000000000002,39.479873699999985],[-75.60000000000002,39.4774223],[-75.60000000000002,39.4772653],[-75.60000000000002,39.476794900000016],[-75.60000000000002,39.4760948],[-75.60000000000002,39.4745461],[-75.60000000000002,39.47321640000001],[-75.60000000000002,39.472047599999996],[-75.60000000000002,39.47082769999997],[-75.60000000000002,39.468470000000025],[-75.60000000000002,39.46741479999997],[-75.60000000000002,39.46545900000001],[-75.60000000000002,39.464439200000015],[-75.60000000000002,39.46365730000002],[-75.60000000000002,39.4636223],[-75.60000000000002,39.4627974],[-75.60000000000002,39.46234149999998],[-75.60000000000002,39.461493099999984],[-75.60000000000002,39.46135270000002],[-75.60000000000002,39.45961829999999],[-75.60000000000002,39.45957979999997],[-75.60000000000002,39.459160199999985],[-75.60000000000002,39.45653829999998],[-75.60000000000002,39.45612369999998],[-75.60000000000002,39.45580819999998],[-75.60000000000002,39.44710070000002],[-75.60000000000002,39.446293500000024],[-75.60000000000002,39.44402500000001],[-75.60000000000002,39.44360820000003],[-75.60000000000002,39.441834099999994],[-75.60000000000002,39.435795900000016],[-75.60000000000002,39.43454109999999],[-75.60000000000002,39.433106899999984],[-75.60000000000002,39.431385499999976],[-75.60000000000002,39.43038899999999],[-75.60000000000002,39.43004380000002],[-75.60000000000002,39.42901039999998],[-75.60000000000002,39.42746349999999],[-75.60000000000002,39.42685260000002],[-75.60000000000002,39.426389400000005],[-75.60000000000002,39.42565400000001],[-75.60000000000002,39.4246814],[-75.60000000000002,39.42363180000001],[-75.60000000000002,39.423114999999996],[-75.60000000000002,39.42109570000002],[-75.60000000000002,39.4183223],[-75.60000000000002,39.417905099999984],[-75.60000000000002,39.413139899999976],[-75.60000000000002,39.41016930000001],[-75.60000000000002,39.409430799999996],[-75.60000000000002,39.408832700000005],[-75.60000000000002,39.40786800000001],[-75.60000000000002,39.40736500000003],[-75.60000000000002,39.40685610000003],[-75.60000000000002,39.403592100000026],[-75.60000000000002,39.40327380000002],[-75.60000000000002,39.40240490000002],[-75.60000000000002,39.40161640000002],[-75.60000000000002,39.39798960000002],[-75.60000000000002,39.3956321],[-75.60000000000002,39.39425399999999],[-75.60000000000002,39.393819699999995],[-75.60000000000002,39.39111750000001],[-75.60000000000002,39.375],[-75.60000000000002,39.35011100000003],[-75.655,39.35011100000003],[-75.655,39.52499999999998],[-75.61622569999997,39.52499999999998]]]}},{"type":"Feature","properties":{},"geometry":{"type":"Polygon","coordinates":[[[-75.36171039999999,39.14999999999998],[-75.375,39.14999999999998],[-75.375,39.16459070000002],[-75.375,39.212827800000014],[-75.375,39.217069400000014],[-75.375,39.22500000000002],[-75.35256900000002,39.22500000000002],[-75.3488403,39.22500000000002],[-75.34576980000003,39.22500000000002],[-75.3392662,39.22500000000002],[-75.33776360000002,39.22500000000002],[-75.3307858,39.22500000000002],[-75.3222882,39.22500000000002],[-75.31772610000002,39.22500000000002],[-75.31427710000003,39.22500000000002],[-75.30813010000003,39.22500000000002],[-75.30473560000001,39.22500000000002],[-75.30000000000001,39.22500000000002],[-75.30000000000001,39.220234600000026],[-75.30000000000001,39.217119500000024],[-75.30000000000001,39.217058099999974],[-75.30000000000001,39.21287419999999],[-75.30000000000001,39.2102003],[-75.30000000000001,39.206353200000024],[-75.30000000000001,39.204569900000024],[-75.30000000000001,39.20255959999997],[-75.30000000000001,39.197701300000006],[-75.30000000000001,39.194466999999975],[-75.30000000000001,39.19416719999998],[-75.30000000000001,39.19228609999999],[-75.30000000000001,39.18913450000002],[-75.30000000000001,39.1883335],[-75.30000000000001,39.184052699999995],[-75.30000000000001,39.177616],[-75.30000000000001,39.1727563],[-75.30000000000001,39.16014000000001],[-75.30000000000001,39.1590913],[-75.30000000000001,39.15714059999999],[-75.30000000000001,39.1531296],[-75.30000000000001,39.14999999999998],[-75.30315430000002,39.14999999999998],[-75.3161556,39.14999999999998],[-75.31868450000002,39.14999999999998],[-75.32185659999999,39.14999999999998],[-75.3262224,39.14999999999998],[-75.3331733,39.14999999999998],[-75.36171039999999,39.14999999999998]]]}},{"type":"Feature","properties":{},"geometry":{"type":"Polygon","coordinates":[[[-75.2963413,39.14999999999998],[-75.30000000000001,39.14999999999998],[-75.30000000000001,39.1531296],[-75.30000000000001,39.15714059999999],[-75.30000000000001,39.1590913],[-75.30000000000001,39.16014000000001],[-75.30000000000001,39.1727563],[-75.30000000000001,39.177616],[-75.30000000000001,39.184052699999995],[-75.30000000000001,39.1883335],[-75.30000000000001,39.18913450000002],[-75.30000000000001,39.19228609999999],[-75.30000000000001,39.19416719999998],[-75.30000000000001,39.194466999999975],[-75.30000000000001,39.197701300000006],[-75.30000000000001,39.20255959999997],[-75.30000000000001,39.204569900000024],[-75.30000000000001,39.206353200000024],[-75.30000000000001,39.2102003],[-75.30000000000001,39.21287419999999],[-75.30000000000001,39.217058099999974],[-75.30000000000001,39.217119500000024],[-75.30000000000001,39.220234600000026],[-75.30000000000001,39.22500000000002],[-75.29956470000002,39.22500000000002],[-75.29956429999999,39.22500000000002],[-75.29859579999999,39.22500000000002],[-75.29762690000001,39.22500000000002],[-75.29665799999998,39.22500000000002],[-75.29568899999998,39.22500000000002],[-75.2919033,39.22500000000002],[-75.2908349,39.22500000000002],[-75.28447690000002,39.22500000000002],[-75.26602700000001,39.22500000000002],[-75.2487365,39.22500000000002],[-75.2350965,39.22500000000002],[-75.23299129999998,39.22500000000002],[-75.22500000000002,39.22500000000002],[-75.22500000000002,39.220327],[-75.22500000000002,39.21794990000001],[-75.22500000000002,39.21361780000001],[-75.22500000000002,39.212115900000015],[-75.22500000000002,39.208184200000005],[-75.22500000000002,39.20513140000003],[-75.22500000000002,39.20013899999998],[-75.22500000000002,39.17690670000002],[-75.22500000000002,39.17330040000002],[-75.22500000000002,39.17267529999998],[-75.22500000000002,39.16421759999997],[-75.22500000000002,39.14999999999998],[-75.22602920000003,39.14999999999998],[-75.2272802,39.14999999999998],[-75.2287187,39.14999999999998],[-75.2289467,39.14999999999998],[-75.2332844,39.14999999999998],[-75.2337703,39.14999999999998],[-75.2421453,39.14999999999998],[-75.24322009999997,39.14999999999998],[-75.24429479999998,39.14999999999998],[-75.2453696,39.14999999999998],[-75.24643250000003,39.14999999999998],[-75.24780040000002,39.14999999999998],[-75.24801939999998,39.14999999999998],[-75.2538859,39.14999999999998],[-75.25726789999999,39.14999999999998],[-75.26185759999998,39.14999999999998],[-75.26273379999998,39.14999999999998],[-75.26528439999998,39.14999999999998],[-75.26643849999999,39.14999999999998],[-75.26920860000001,39.14999999999998],[-75.27483699999999,39.14999999999998],[-75.27692009999998,39.14999999999998],[-75.2936087,39.14999999999998],[-75.2963413,39.14999999999998]]]}},{"type":"Feature","properties":{},"geometry":{"type":"Polygon","coordinates":[[[-75.44999999999999,39.22648190000001],[-75.44999999999999,39.22746769999998],[-75.44999999999999,39.23412000000002],[-75.44999999999999,39.23436299999997],[-75.44999999999999,39.236336600000016],[-75.44999999999999,39.23677930000002],[-75.44999999999999,39.237399900000014],[-75.44999999999999,39.23828090000001],[-75.44999999999999,39.240992199999994],[-75.44999999999999,39.241311800000005],[-75.44999999999999,39.24209589999998],[-75.44999999999999,39.2437195],[-75.44999999999999,39.25792560000002],[-75.44999999999999,39.258602199999984],[-75.44999999999999,39.25891230000002],[-75.44999999999999,39.2610406],[-75.44999999999999,39.261116500000014],[-75.44999999999999,39.261398199999974],[-75.44999999999999,39.262786800000015],[-75.44999999999999,39.26330200000001],[-75.44999999999999,39.27614620000003],[-75.44999999999999,39.27631029999998],[-75.44999999999999,39.27957070000002],[-75.44999999999999,39.280868199999986],[-75.44999999999999,39.28602810000001],[-75.44999999999999,39.28608939999998],[-75.44999999999999,39.28695349999998],[-75.44999999999999,39.28845630000001],[-75.44999999999999,39.289347599999985],[-75.44999999999999,39.29398900000001],[-75.44999999999999,39.29460030000001],[-75.44999999999999,39.294814599999995],[-75.44999999999999,39.2952899],[-75.44999999999999,39.29536200000001],[-75.44999999999999,39.30000000000001],[-75.44383599999998,39.30000000000001],[-75.44068470000002,39.30000000000001],[-75.43795999999998,39.30000000000001],[-75.43776659999997,39.30000000000001],[-75.4374904,39.30000000000001],[-75.437273,39.30000000000001],[-75.43433470000002,39.30000000000001],[-75.42477780000002,39.30000000000001],[-75.410102,39.30000000000001],[-75.4090612,39.30000000000001],[-75.40661390000002,39.30000000000001],[-75.40631450000001,39.30000000000001],[-75.40623490000002,39.30000000000001],[-75.40402410000002,39.30000000000001],[-75.40256590000001,39.30000000000001],[-75.40094749999997,39.30000000000001],[-75.40001480000001,39.30000000000001],[-75.39962589999999,39.30000000000001],[-75.39858379999998,39.30000000000001],[-75.3978457,39.30000000000001],[-75.3972435,39.30000000000001],[-75.39643699999999,39.30000000000001],[-75.39568910000003,39.30000000000001],[-75.3954946,39.30000000000001],[-75.3936281,39.30000000000001],[-75.3919525,39.30000000000001],[-75.39091180000003,39.30000000000001],[-75.39040189999997,39.30000000000001],[-75.38910249999998,39.30000000000001],[-75.38687859999999,39.30000000000001],[-75.38519789999998,39.30000000000001],[-75.38507190000001,39.30000000000001],[-75.3849975,39.30000000000001],[-75.38486130000001,39.30000000000001],[-75.3824444,39.30000000000001],[-75.38125780000001,39.30000000000001],[-75.38007119999997,39.30000000000001],[-75.37888459999999,39.30000000000001],[-75.37769800000001,39.30000000000001],[-75.37601339999998,39.30000000000001],[-75.3754677,39.30000000000001],[-75.375,39.30000000000001],[-75.375,39.299416399999984],[-75.375,39.299120500000015],[-75.375,39.29766269999999],[-75.375,39.29663479999999],[-75.375,39.295606899999996],[-75.375,39.294579],[-75.375,39.2935511],[-75.375,39.290317500000015],[-75.375,39.28944389999998],[-75.375,39.28677590000001],[-75.375,39.28562899999997],[-75.375,39.273655899999994],[-75.375,39.26335719999997],[-75.375,39.26185400000003],[-75.375,39.2605901],[-75.375,39.25939970000002],[-75.375,39.25811190000002],[-75.375,39.25420300000002],[-75.375,39.22500000000002],[-75.38945050000001,39.22500000000002],[-75.3919558,39.22500000000002],[-75.39858729999997,39.22500000000002],[-75.40568029999997,39.22500000000002],[-75.40682809999998,39.22500000000002],[-75.40718199999998,39.22500000000002],[-75.43169490000002,39.22500000000002],[-75.43177709999998,39.22500000000002],[-75.4319683,39.22500000000002],[-75.4330736,39.22500000000002],[-75.43354390000002,39.22500000000002],[-75.4337337,39.22500000000002],[-75.43377129999999,39.22500000000002],[-75.4412259,39.22500000000002],[-75.44894420000003,39.22500000000002],[-75.44967150000002,39.22500000000002],[-75.44999999999999,39.22500000000002],[-75.44999999999999,39.22648190000001]]]}},{"type":"Feature","properties":{},"geometry":{"type":"Polygon","coordinates":[[[-75.35256900000002,39.22500000000002],[-75.375,39.22500000000002],[-75.375,39.25420300000002],[-75.375,39.25811190000002],[-75.375,39.25939970000002],[-75.375,39.2605901],[-75.375,39.26185400000003],[-75.375,39.26335719999997],[-75.375,39.273655899999994],[-75.375,39.28562899999997],[-75.375,39.28677590000001],[-75.375,39.28944389999998],[-75.375,39.290317500000015],[-75.375,39.2935511],[-75.375,39.294579],[-75.375,39.295606899999996],[-75.375,39.29663479999999],[-75.375,39.29766269999999],[-75.375,39.299120500000015],[-75.375,39.299416399999984],[-75.375,39.30000000000001],[-75.36994010000001,39.30000000000001],[-75.36675430000003,39.30000000000001],[-75.36447529999998,39.30000000000001],[-75.36184050000003,39.30000000000001],[-75.35979259999999,39.30000000000001],[-75.35893900000002,39.30000000000001],[-75.35835170000001,39.30000000000001],[-75.35295289999999,39.30000000000001],[-75.34768609999998,39.30000000000001],[-75.33842240000001,39.30000000000001],[-75.33376220000002,39.30000000000001],[-75.32851149999999,39.30000000000001],[-75.323691,39.30000000000001],[-75.32004210000002,39.30000000000001],[-75.31836179999999,39.30000000000001],[-75.30534030000001,39.30000000000001],[-75.3026777,39.30000000000001],[-75.30038100000002,39.30000000000001],[-75.30000000000001,39.30000000000001],[-75.30000000000001,39.29982699999999],[-75.30000000000001,39.29966009999998],[-75.30000000000001,39.29516990000002],[-75.30000000000001,39.289423899999974],[-75.30000000000001,39.28923980000002],[-75.30000000000001,39.286362800000006],[-75.30000000000001,39.28118189999998],[-75.30000000000001,39.28053449999999],[-75.30000000000001,39.275380600000005],[-75.30000000000001,39.26755320000001],[-75.30000000000001,39.25568800000002],[-75.30000000000001,39.25499289999999],[-75.30000000000001,39.246474999999975],[-75.30000000000001,39.237275899999986],[-75.30000000000001,39.234620199999995],[-75.30000000000001,39.23402570000002],[-75.30000000000001,39.232395499999996],[-75.30000000000001,39.23073310000001],[-75.30000000000001,39.22907090000001],[-75.30000000000001,39.22740879999998],[-75.30000000000001,39.22574739999999],[-75.30000000000001,39.2257467],[-75.30000000000001,39.22500000000002],[-75.30473560000001,39.22500000000002],[-75.30813010000003,39.22500000000002],[-75.31427710000003,39.22500000000002],[-75.31772610000002,39.22500000000002],[-75.3222882,39.22500000000002],[-75.3307858,39.22500000000002],[-75.33776360000002,39.22500000000002],[-75.3392662,39.22500000000002],[-75.34576980000003,39.22500000000002],[-75.3488403,39.22500000000002],[-75.35256900000002,39.22500000000002]]]}},{"type":"Feature","properties":{},"geometry":{"type":"Polygon","coordinates":[[[-75.29956470000002,39.22500000000002],[-75.30000000000001,39.22500000000002],[-75.30000000000001,39.2257467],[-75.30000000000001,39.22574739999999],[-75.30000000000001,39.22740879999998],[-75.30000000000001,39.22907090000001],[-75.30000000000001,39.23073310000001],[-75.30000000000001,39.232395499999996],[-75.30000000000001,39.23402570000002],[-75.30000000000001,39.234620199999995],[-75.30000000000001,39.237275899999986],[-75.30000000000001,39.246474999999975],[-75.30000000000001,39.25499289999999],[-75.30000000000001,39.25568800000002],[-75.30000000000001,39.26755320000001],[-75.30000000000001,39.275380600000005],[-75.30000000000001,39.28053449999999],[-75.30000000000001,39.28118189999998],[-75.30000000000001,39.286362800000006],[-75.30000000000001,39.28923980000002],[-75.30000000000001,39.289423899999974],[-75.30000000000001,39.29516990000002],[-75.30000000000001,39.29966009999998],[-75.30000000000001,39.29982699999999],[-75.30000000000001,39.30000000000001],[-75.29894059999998,39.30000000000001],[-75.2988593,39.30000000000001],[-75.28611840000002,39.30000000000001],[-75.28586100000001,39.30000000000001],[-75.27738390000002,39.30000000000001],[-75.27366890000002,39.30000000000001],[-75.25489499999998,39.30000000000001],[-75.2524965,39.30000000000001],[-75.250677,39.30000000000001],[-75.24776609999998,39.30000000000001],[-75.24510750000002,39.30000000000001],[-75.23877499999998,39.30000000000001],[-75.23312229999999,39.30000000000001],[-75.23002129999998,39.30000000000001],[-75.22953990000002,39.30000000000001],[-75.22815530000003,39.30000000000001],[-75.22800810000001,39.30000000000001],[-75.22500000000002,39.30000000000001],[-75.22500000000002,39.2957907],[-75.22500000000002,39.2936287],[-75.22500000000002,39.28747609999999],[-75.22500000000002,39.286665700000015],[-75.22500000000002,39.286638400000015],[-75.22500000000002,39.2859704],[-75.22500000000002,39.285114299999975],[-75.22500000000002,39.283962299999985],[-75.22500000000002,39.28295129999998],[-75.22500000000002,39.281671500000016],[-75.22500000000002,39.2796821],[-75.22500000000002,39.27945649999998],[-75.22500000000002,39.2791459],[-75.22500000000002,39.27874559999998],[-75.22500000000002,39.27796480000001],[-75.22500000000002,39.276657399999976],[-75.22500000000002,39.276556700000015],[-75.22500000000002,39.27581570000001],[-75.22500000000002,39.27481949999998],[-75.22500000000002,39.272554300000024],[-75.22500000000002,39.27237680000002],[-75.22500000000002,39.26830860000001],[-75.22500000000002,39.2682332],[-75.22500000000002,39.26722569999998],[-75.22500000000002,39.264709700000026],[-75.22500000000002,39.26392440000001],[-75.22500000000002,39.25521309999999],[-75.22500000000002,39.250153599999976],[-75.22500000000002,39.2441685],[-75.22500000000002,39.23984280000002],[-75.22500000000002,39.229850399999975],[-75.22500000000002,39.22554109999999],[-75.22500000000002,39.22500000000002],[-75.23299129999998,39.22500000000002],[-75.2350965,39.22500000000002],[-75.2487365,39.22500000000002],[-75.26602700000001,39.22500000000002],[-75.28447690000002,39.22500000000002],[-75.2908349,39.22500000000002],[-75.2919033,39.22500000000002],[-75.29568899999998,39.22500000000002],[-75.29665799999998,39.22500000000002],[-75.29762690000001,39.22500000000002],[-75.29859579999999,39.22500000000002],[-75.29956429999999,39.22500000000002],[-75.29956470000002,39.22500000000002]]]}},{"type":"Feature","properties":{},"geometry":{"type":"Polygon","coordinates":[[[-75.50135160000002,39.30000000000001],[-75.52499999999998,39.30000000000001],[-75.52499999999998,39.315555500000016],[-75.52499999999998,39.31883879999998],[-75.52499999999998,39.34012389999998],[-75.52499999999998,39.34045309999999],[-75.52499999999998,39.35011100000003],[-75.52499999999998,39.35447260000001],[-75.52499999999998,39.357024000000024],[-75.52499999999998,39.359504300000026],[-75.52499999999998,39.3601314],[-75.52499999999998,39.36098879999997],[-75.52499999999998,39.36248039999998],[-75.52499999999998,39.369942200000025],[-75.52499999999998,39.371992999999975],[-75.52499999999998,39.375],[-75.52305360000003,39.375],[-75.51792560000001,39.375],[-75.51603269999998,39.375],[-75.5135421,39.375],[-75.50846869999998,39.375],[-75.49924820000001,39.375],[-75.4972788,39.375],[-75.49098959999998,39.375],[-75.48997709999998,39.375],[-75.48066080000001,39.375],[-75.46873670000002,39.375],[-75.46778469999998,39.375],[-75.4668327,39.375],[-75.46638339999998,39.375],[-75.4658753,39.375],[-75.46492339999998,39.375],[-75.46354930000001,39.375],[-75.45540360000001,39.375],[-75.4506887,39.375],[-75.44999999999999,39.375],[-75.44999999999999,39.3743475],[-75.44999999999999,39.37245039999999],[-75.44999999999999,39.363318400000026],[-75.44999999999999,39.3621321],[-75.44999999999999,39.36131139999998],[-75.44999999999999,39.3609429],[-75.44999999999999,39.360488799999985],[-75.44999999999999,39.35966819999999],[-75.44999999999999,39.35884759999999],[-75.44999999999999,39.35094889999999],[-75.44999999999999,39.35011100000003],[-75.44999999999999,39.339680999999985],[-75.44999999999999,39.3353113],[-75.44999999999999,39.33398039999997],[-75.44999999999999,39.32907369999998],[-75.44999999999999,39.3289307],[-75.44999999999999,39.31772189999998],[-75.44999999999999,39.31684289999998],[-75.44999999999999,39.31679810000003],[-75.44999999999999,39.316659200000004],[-75.44999999999999,39.3095022],[-75.44999999999999,39.30811130000001],[-75.44999999999999,39.30474809999998],[-75.44999999999999,39.30470919999999],[-75.44999999999999,39.30000000000001],[-75.45238260000002,39.30000000000001],[-75.4594793,39.30000000000001],[-75.461255,39.30000000000001],[-75.461343,39.30000000000001],[-75.46286620000001,39.30000000000001],[-75.4629104,39.30000000000001],[-75.46368589999997,39.30000000000001],[-75.46922999999998,39.30000000000001],[-75.46971719999999,39.30000000000001],[-75.46974890000001,39.30000000000001],[-75.4829191,39.30000000000001],[-75.48318740000002,39.30000000000001],[-75.48612939999998,39.30000000000001],[-75.48634579999998,39.30000000000001],[-75.4882341,39.30000000000001],[-75.48938720000001,39.30000000000001],[-75.50135160000002,39.30000000000001]]]}},{"type":"Feature","properties":{},"geometry":{"type":"Polygon","coordinates":[[[-75.44383599999998,39.30000000000001],[-75.44999999999999,39.30000000000001],[-75.44999999999999,39.30436550000002],[-75.44999999999999,39.30470919999999],[-75.44999999999999,39.30474809999998],[-75.44999999999999,39.30508659999998],[-75.44999999999999,39.30612309999998],[-75.44999999999999,39.30811130000001],[-75.44999999999999,39.30950230000002],[-75.44999999999999,39.316659200000004],[-75.44999999999999,39.31679810000003],[-75.44999999999999,39.31684289999998],[-75.44999999999999,39.31772189999998],[-75.44999999999999,39.3289307],[-75.44999999999999,39.32907369999998],[-75.44999999999999,39.33398039999997],[-75.44999999999999,39.3353113],[-75.44999999999999,39.339680999999985],[-75.44999999999999,39.35011100000003],[-75.44999999999999,39.35094889999999],[-75.44999999999999,39.35884759999999],[-75.44999999999999,39.35966819999999],[-75.44999999999999,39.360488799999985],[-75.44999999999999,39.3609429],[-75.44999999999999,39.36131139999998],[-75.44999999999999,39.3621321],[-75.44999999999999,39.363318400000026],[-75.44999999999999,39.37245039999999],[-75.44999999999999,39.3743475],[-75.44999999999999,39.375],[-75.4428891,39.375],[-75.4403954,39.375],[-75.4390075,39.375],[-75.43009590000003,39.375],[-75.41777880000001,39.375],[-75.4038448,39.375],[-75.401365,39.375],[-75.3975476,39.375],[-75.39647200000002,39.375],[-75.39400169999999,39.375],[-75.38697079999997,39.375],[-75.38184260000003,39.375],[-75.37947589999999,39.375],[-75.37908099999999,39.375],[-75.3769777,39.375],[-75.375,39.375],[-75.375,39.374174100000005],[-75.375,39.37350900000001],[-75.375,39.36849539999997],[-75.375,39.365738599999986],[-75.375,39.3655521],[-75.375,39.36471499999999],[-75.375,39.363727299999994],[-75.375,39.362668600000006],[-75.375,39.3626362],[-75.375,39.358946300000014],[-75.375,39.35872979999999],[-75.375,39.35442640000002],[-75.375,39.3538997],[-75.375,39.353752199999974],[-75.375,39.3537235],[-75.375,39.35347300000001],[-75.375,39.35011100000003],[-75.375,39.34525389999999],[-75.375,39.337646500000005],[-75.375,39.33296259999997],[-75.375,39.3218746],[-75.375,39.314752999999996],[-75.375,39.30600479999998],[-75.375,39.30288430000002],[-75.375,39.302110500000026],[-75.375,39.30000000000001],[-75.3754677,39.30000000000001],[-75.37601339999998,39.30000000000001],[-75.37769800000001,39.30000000000001],[-75.37888459999999,39.30000000000001],[-75.38007119999997,39.30000000000001],[-75.38125780000001,39.30000000000001],[-75.3824444,39.30000000000001],[-75.38486130000001,39.30000000000001],[-75.3849975,39.30000000000001],[-75.38507190000001,39.30000000000001],[-75.38519789999998,39.30000000000001],[-75.38687859999999,39.30000000000001],[-75.38910249999998,39.30000000000001],[-75.39040189999997,39.30000000000001],[-75.39091180000003,39.30000000000001],[-75.3919525,39.30000000000001],[-75.3936281,39.30000000000001],[-75.3954946,39.30000000000001],[-75.39568910000003,39.30000000000001],[-75.39643699999999,39.30000000000001],[-75.3972435,39.30000000000001],[-75.3978457,39.30000000000001],[-75.39858379999998,39.30000000000001],[-75.39962589999999,39.30000000000001],[-75.40001480000001,39.30000000000001],[-75.40094749999997,39.30000000000001],[-75.40256590000001,39.30000000000001],[-75.40402410000002,39.30000000000001],[-75.40623490000002,39.30000000000001],[-75.40631450000001,39.30000000000001],[-75.40661390000002,39.30000000000001],[-75.4090612,39.30000000000001],[-75.410102,39.30000000000001],[-75.42477780000002,39.30000000000001],[-75.43433470000002,39.30000000000001],[-75.437273,39.30000000000001],[-75.4374904,39.30000000000001],[-75.43776659999997,39.30000000000001],[-75.43795999999998,39.30000000000001],[-75.44068470000002,39.30000000000001],[-75.44383599999998,39.30000000000001]]]}},{"type":"Feature","properties":{},"geometry":{"type":"Polygon","coordinates":[[[-75.375,39.302110500000026],[-75.375,39.30288430000002],[-75.375,39.30600479999998],[-75.375,39.314752999999996],[-75.375,39.3218746],[-75.375,39.33296259999997],[-75.375,39.337646500000005],[-75.375,39.34525389999999],[-75.375,39.35011100000003],[-75.375,39.35347300000001],[-75.375,39.3537235],[-75.375,39.353752199999974],[-75.375,39.3538997],[-75.375,39.35442640000002],[-75.375,39.35872979999999],[-75.375,39.358946300000014],[-75.375,39.3626362],[-75.375,39.362668600000006],[-75.375,39.363727299999994],[-75.375,39.36471499999999],[-75.375,39.3655521],[-75.375,39.365738599999986],[-75.375,39.36849539999997],[-75.375,39.37350900000001],[-75.375,39.374174100000005],[-75.375,39.375],[-75.36896389999998,39.375],[-75.36770560000002,39.375],[-75.36519379999999,39.375],[-75.35285490000001,39.375],[-75.35209579999997,39.375],[-75.3514983,39.375],[-75.35036059999999,39.375],[-75.3470428,39.375],[-75.3468995,39.375],[-75.33298200000002,39.375],[-75.33165409999998,39.375],[-75.33017000000001,39.375],[-75.32794100000001,39.375],[-75.31105309999998,39.375],[-75.310292,39.375],[-75.30000000000001,39.375],[-75.30000000000001,39.35261379999997],[-75.30000000000001,39.33464939999999],[-75.30000000000001,39.33366819999998],[-75.30000000000001,39.32758239999998],[-75.30000000000001,39.32711139999998],[-75.30000000000001,39.32653069999998],[-75.30000000000001,39.3263422],[-75.30000000000001,39.326031899999975],[-75.30000000000001,39.324987899999996],[-75.30000000000001,39.32045629999999],[-75.30000000000001,39.320258799999976],[-75.30000000000001,39.31785239999999],[-75.30000000000001,39.31764079999999],[-75.30000000000001,39.31728340000001],[-75.30000000000001,39.3171562],[-75.30000000000001,39.30450939999997],[-75.30000000000001,39.30414189999999],[-75.30000000000001,39.3025255],[-75.30000000000001,39.3019764],[-75.30000000000001,39.30118110000001],[-75.30000000000001,39.30098079999999],[-75.30000000000001,39.30000000000001],[-75.30038100000002,39.30000000000001],[-75.3026777,39.30000000000001],[-75.30534030000001,39.30000000000001],[-75.31836179999999,39.30000000000001],[-75.32004210000002,39.30000000000001],[-75.323691,39.30000000000001],[-75.32851149999999,39.30000000000001],[-75.33376220000002,39.30000000000001],[-75.33842240000001,39.30000000000001],[-75.34768609999998,39.30000000000001],[-75.35295289999999,39.30000000000001],[-75.35835170000001,39.30000000000001],[-75.35893900000002,39.30000000000001],[-75.35979259999999,39.30000000000001],[-75.36184050000003,39.30000000000001],[-75.36447529999998,39.30000000000001],[-75.36675430000003,39.30000000000001],[-75.36994010000001,39.30000000000001],[-75.375,39.30000000000001],[-75.375,39.302110500000026]]]}},{"type":"Feature","properties":{},"geometry":{"type":"Polygon","coordinates":[[[-75.58827580000002,39.375],[-75.60000000000002,39.375],[-75.60000000000002,39.39111750000001],[-75.60000000000002,39.393819699999995],[-75.60000000000002,39.39425399999999],[-75.60000000000002,39.3956321],[-75.60000000000002,39.39798960000002],[-75.60000000000002,39.40161640000002],[-75.60000000000002,39.40240490000002],[-75.60000000000002,39.40327380000002],[-75.60000000000002,39.403592100000026],[-75.60000000000002,39.40685610000003],[-75.60000000000002,39.40736500000003],[-75.60000000000002,39.40786800000001],[-75.60000000000002,39.408832700000005],[-75.60000000000002,39.409430799999996],[-75.60000000000002,39.41016930000001],[-75.60000000000002,39.413139899999976],[-75.60000000000002,39.417905099999984],[-75.60000000000002,39.4183223],[-75.60000000000002,39.42109570000002],[-75.60000000000002,39.423114999999996],[-75.60000000000002,39.42363180000001],[-75.60000000000002,39.4246814],[-75.60000000000002,39.42565400000001],[-75.60000000000002,39.426389400000005],[-75.60000000000002,39.42685260000002],[-75.60000000000002,39.42746349999999],[-75.60000000000002,39.42901039999998],[-75.60000000000002,39.43004380000002],[-75.60000000000002,39.43038899999999],[-75.60000000000002,39.431385499999976],[-75.60000000000002,39.433106899999984],[-75.60000000000002,39.43454109999999],[-75.60000000000002,39.435795900000016],[-75.60000000000002,39.441834099999994],[-75.60000000000002,39.44360820000003],[-75.60000000000002,39.44402500000001],[-75.60000000000002,39.446293500000024],[-75.60000000000002,39.44710070000002],[-75.60000000000002,39.44999999999999],[-75.59704720000002,39.44999999999999],[-75.59663710000001,39.44999999999999],[-75.58808520000002,39.44999999999999],[-75.58786579999997,39.44999999999999],[-75.58438869999998,39.44999999999999],[-75.58363100000003,39.44999999999999],[-75.58320459999999,39.44999999999999],[-75.58304989999999,39.44999999999999],[-75.58153529999998,39.44999999999999],[-75.58022,39.44999999999999],[-75.57497699999999,39.44999999999999],[-75.565922,39.44999999999999],[-75.56463259999998,39.44999999999999],[-75.5646102,39.44999999999999],[-75.56359020000002,39.44999999999999],[-75.55573629999998,39.44999999999999],[-75.55478349999998,39.44999999999999],[-75.55383080000001,39.44999999999999],[-75.55379540000001,39.44999999999999],[-75.55244979999998,39.44999999999999],[-75.5511631,39.44999999999999],[-75.53392659999997,39.44999999999999],[-75.52499999999998,39.44999999999999],[-75.52499999999998,39.446027000000015],[-75.52499999999998,39.44155940000002],[-75.52499999999998,39.42680189999999],[-75.52499999999998,39.4259806],[-75.52499999999998,39.42529339999999],[-75.52499999999998,39.42514540000002],[-75.52499999999998,39.4243242],[-75.52499999999998,39.42350299999998],[-75.52499999999998,39.415684399999975],[-75.52499999999998,39.410371699999985],[-75.52499999999998,39.409119499999974],[-75.52499999999998,39.4069073],[-75.52499999999998,39.394566999999995],[-75.52499999999998,39.39386560000003],[-75.52499999999998,39.39113759999998],[-75.52499999999998,39.389949899999976],[-75.52499999999998,39.38846960000001],[-75.52499999999998,39.388172999999995],[-75.52499999999998,39.387338399999976],[-75.52499999999998,39.3756214],[-75.52499999999998,39.375],[-75.5262692,39.375],[-75.55052469999998,39.375],[-75.55216760000002,39.375],[-75.55880509999997,39.375],[-75.57697960000002,39.375],[-75.57796669999999,39.375],[-75.58533310000001,39.375],[-75.58827580000002,39.375]]]}},{"type":"Feature","properties":{},"geometry":{"type":"Polygon","coordinates":[[[-75.52305360000003,39.375],[-75.52499999999998,39.375],[-75.52499999999998,39.3756214],[-75.52499999999998,39.387338399999976],[-75.52499999999998,39.388172999999995],[-75.52499999999998,39.38846960000001],[-75.52499999999998,39.389949899999976],[-75.52499999999998,39.39113759999998],[-75.52499999999998,39.39386560000003],[-75.52499999999998,39.394566999999995],[-75.52499999999998,39.4069073],[-75.52499999999998,39.409119499999974],[-75.52499999999998,39.410371699999985],[-75.52499999999998,39.415684399999975],[-75.52499999999998,39.42350299999998],[-75.52499999999998,39.4243242],[-75.52499999999998,39.42514540000002],[-75.52499999999998,39.42529339999999],[-75.52499999999998,39.4259806],[-75.52499999999998,39.42680189999999],[-75.52499999999998,39.44155940000002],[-75.52499999999998,39.446027000000015],[-75.52499999999998,39.44999999999999],[-75.5236329,39.44999999999999],[-75.52296139999999,39.44999999999999],[-75.52225720000001,39.44999999999999],[-75.5172336,39.44999999999999],[-75.5066865,39.44999999999999],[-75.50519980000001,39.44999999999999],[-75.5049143,39.44999999999999],[-75.50355050000002,39.44999999999999],[-75.5013568,39.44999999999999],[-75.4995748,39.44999999999999],[-75.4932867,39.44999999999999],[-75.49265980000001,39.44999999999999],[-75.48137550000001,39.44999999999999],[-75.48045029999997,39.44999999999999],[-75.47975989999998,39.44999999999999],[-75.47223739999998,39.44999999999999],[-75.4720218,39.44999999999999],[-75.47094149999998,39.44999999999999],[-75.47073219999999,39.44999999999999],[-75.46876709999998,39.44999999999999],[-75.46751419999998,39.44999999999999],[-75.46738210000001,39.44999999999999],[-75.46532150000002,39.44999999999999],[-75.46509859999998,39.44999999999999],[-75.46109999999999,39.44999999999999],[-75.45783469999998,39.44999999999999],[-75.45717880000001,39.44999999999999],[-75.45585249999999,39.44999999999999],[-75.45561780000003,39.44999999999999],[-75.45133019999997,39.44999999999999],[-75.44999999999999,39.44999999999999],[-75.44999999999999,39.445751400000006],[-75.44999999999999,39.44499760000002],[-75.44999999999999,39.439349600000014],[-75.44999999999999,39.43867210000002],[-75.44999999999999,39.43036619999998],[-75.44999999999999,39.42780570000002],[-75.44999999999999,39.42136249999999],[-75.44999999999999,39.42110079999998],[-75.44999999999999,39.4177545],[-75.44999999999999,39.416226600000016],[-75.44999999999999,39.41404349999999],[-75.44999999999999,39.41037840000001],[-75.44999999999999,39.3973211],[-75.44999999999999,39.39597309999999],[-75.44999999999999,39.39428149999998],[-75.44999999999999,39.38823719999999],[-75.44999999999999,39.386718599999995],[-75.44999999999999,39.375],[-75.4506887,39.375],[-75.45540360000001,39.375],[-75.46354930000001,39.375],[-75.46492339999998,39.375],[-75.4658753,39.375],[-75.46638339999998,39.375],[-75.4668327,39.375],[-75.46778469999998,39.375],[-75.46873670000002,39.375],[-75.48066080000001,39.375],[-75.48997709999998,39.375],[-75.49098959999998,39.375],[-75.4972788,39.375],[-75.49924820000001,39.375],[-75.50846869999998,39.375],[-75.5135421,39.375],[-75.51603269999998,39.375],[-75.51792560000001,39.375],[-75.52305360000003,39.375]]]}},{"type":"Feature","properties":{},"geometry":{"type":"Polygon","coordinates":[[[-75.44999999999999,39.386718599999995],[-75.44999999999999,39.38823719999999],[-75.44999999999999,39.39428149999998],[-75.44999999999999,39.39597309999999],[-75.44999999999999,39.3973211],[-75.44999999999999,39.41037840000001],[-75.44999999999999,39.41404349999999],[-75.44999999999999,39.416226600000016],[-75.44999999999999,39.4177545],[-75.44999999999999,39.42110079999998],[-75.44999999999999,39.42136249999999],[-75.44999999999999,39.42780570000002],[-75.44999999999999,39.43036619999998],[-75.44999999999999,39.43867210000002],[-75.44999999999999,39.439349600000014],[-75.44999999999999,39.44499760000002],[-75.44999999999999,39.445751400000006],[-75.44999999999999,39.44999999999999],[-75.44888839999999,39.44999999999999],[-75.44813929999998,39.44999999999999],[-75.44231350000001,39.44999999999999],[-75.44174340000001,39.44999999999999],[-75.4288153,39.44999999999999],[-75.42772230000003,39.44999999999999],[-75.42760019999997,39.44999999999999],[-75.42700070000001,39.44999999999999],[-75.4268434,39.44999999999999],[-75.42292909999998,39.44999999999999],[-75.42195129999999,39.44999999999999],[-75.4201448,39.44999999999999],[-75.41836369999999,39.44999999999999],[-75.41777330000002,39.44999999999999],[-75.41715829999998,39.44999999999999],[-75.4169622,39.44999999999999],[-75.4166902,39.44999999999999],[-75.41633819999998,39.44999999999999],[-75.41481470000002,39.44999999999999],[-75.41395499999999,39.44999999999999],[-75.41355570000002,39.44999999999999],[-75.4129188,39.44999999999999],[-75.41242599999998,39.44999999999999],[-75.4118858,39.44999999999999],[-75.41047409999999,39.44999999999999],[-75.40972199999999,39.44999999999999],[-75.40640730000001,39.44999999999999],[-75.40431840000002,39.44999999999999],[-75.40368139999998,39.44999999999999],[-75.375,39.44999999999999],[-75.375,39.42340489999998],[-75.375,39.42288739999998],[-75.375,39.42281600000001],[-75.375,39.422450200000014],[-75.375,39.37991269999998],[-75.375,39.3755774],[-75.375,39.375],[-75.3769777,39.375],[-75.37908099999999,39.375],[-75.37947589999999,39.375],[-75.38184260000003,39.375],[-75.38697079999997,39.375],[-75.39400169999999,39.375],[-75.39647200000002,39.375],[-75.39651939999999,39.375],[-75.3975476,39.375],[-75.401365,39.375],[-75.4038448,39.375],[-75.41777880000001,39.375],[-75.43009590000003,39.375],[-75.4390075,39.375],[-75.4403954,39.375],[-75.4428891,39.375],[-75.44999999999999,39.375],[-75.44999999999999,39.386718599999995]]]}},{"type":"Feature","properties":{},"geometry":{"type":"Polygon","coordinates":[[[-75.59704720000002,39.44999999999999],[-75.60000000000002,39.44999999999999],[-75.60000000000002,39.45580819999998],[-75.60000000000002,39.45612369999998],[-75.60000000000002,39.45653829999998],[-75.60000000000002,39.459160199999985],[-75.60000000000002,39.45957979999997],[-75.60000000000002,39.45961829999999],[-75.60000000000002,39.46135270000002],[-75.60000000000002,39.461493099999984],[-75.60000000000002,39.46234149999998],[-75.60000000000002,39.4627974],[-75.60000000000002,39.4636223],[-75.60000000000002,39.46365730000002],[-75.60000000000002,39.464439200000015],[-75.60000000000002,39.46545900000001],[-75.60000000000002,39.46741479999997],[-75.60000000000002,39.468470000000025],[-75.60000000000002,39.47082769999997],[-75.60000000000002,39.472047599999996],[-75.60000000000002,39.47321640000001],[-75.60000000000002,39.4745461],[-75.60000000000002,39.4760948],[-75.60000000000002,39.476794900000016],[-75.60000000000002,39.4772653],[-75.60000000000002,39.4774223],[-75.60000000000002,39.479873699999985],[-75.60000000000002,39.479924400000016],[-75.60000000000002,39.48086760000001],[-75.60000000000002,39.4905607],[-75.60000000000002,39.493252900000016],[-75.60000000000002,39.49342630000001],[-75.60000000000002,39.493833300000006],[-75.60000000000002,39.497082499999976],[-75.60000000000002,39.49755290000002],[-75.60000000000002,39.4982162],[-75.60000000000002,39.49850249999997],[-75.60000000000002,39.49975380000001],[-75.60000000000002,39.500187900000014],[-75.60000000000002,39.50074919999997],[-75.60000000000002,39.50460850000002],[-75.60000000000002,39.52499999999998],[-75.57273320000002,39.52499999999998],[-75.57104939999999,39.52499999999998],[-75.57028059999999,39.52499999999998],[-75.56903649999998,39.52499999999998],[-75.56809329999999,39.52499999999998],[-75.56487299999998,39.52499999999998],[-75.56267129999998,39.52499999999998],[-75.5578127,39.52499999999998],[-75.55649,39.52499999999998],[-75.55612880000001,39.52499999999998],[-75.55488730000002,39.52499999999998],[-75.55178569999998,39.52499999999998],[-75.550186,39.52499999999998],[-75.5501812,39.52499999999998],[-75.5494506,39.52499999999998],[-75.54875129999999,39.52499999999998],[-75.54871329999997,39.52499999999998],[-75.54795480000001,39.52499999999998],[-75.54724449999998,39.52499999999998],[-75.54065939999998,39.52499999999998],[-75.53800439999998,39.52499999999998],[-75.53713499999998,39.52499999999998],[-75.53551479999999,39.52499999999998],[-75.53456360000001,39.52499999999998],[-75.53277709999998,39.52499999999998],[-75.5263215,39.52499999999998],[-75.52499999999998,39.52499999999998],[-75.52499999999998,39.523541799999975],[-75.52499999999998,39.52296890000002],[-75.52499999999998,39.51942439999999],[-75.52499999999998,39.515371200000004],[-75.52499999999998,39.515075000000024],[-75.52499999999998,39.50892399999998],[-75.52499999999998,39.507097999999985],[-75.52499999999998,39.500037299999974],[-75.52499999999998,39.50002569999998],[-75.52499999999998,39.498077799999976],[-75.52499999999998,39.4930703],[-75.52499999999998,39.492742299999975],[-75.52499999999998,39.48990730000003],[-75.52499999999998,39.48484289999999],[-75.52499999999998,39.48452830000002],[-75.52499999999998,39.48408439999997],[-75.52499999999998,39.4836952],[-75.52499999999998,39.48356740000003],[-75.52499999999998,39.48233479999999],[-75.52499999999998,39.482165399999985],[-75.52499999999998,39.481185700000026],[-75.52499999999998,39.4803096],[-75.52499999999998,39.480141],[-75.52499999999998,39.47077760000002],[-75.52499999999998,39.47029370000001],[-75.52499999999998,39.469639599999994],[-75.52499999999998,39.462987],[-75.52499999999998,39.46263920000001],[-75.52499999999998,39.46078030000001],[-75.52499999999998,39.46070470000001],[-75.52499999999998,39.457509500000015],[-75.52499999999998,39.45730120000002],[-75.52499999999998,39.45508890000002],[-75.52499999999998,39.450999000000024],[-75.52499999999998,39.450843899999995],[-75.52499999999998,39.44999999999999],[-75.53392659999997,39.44999999999999],[-75.5511631,39.44999999999999],[-75.55244979999998,39.44999999999999],[-75.55379540000001,39.44999999999999],[-75.55383080000001,39.44999999999999],[-75.55478349999998,39.44999999999999],[-75.55573629999998,39.44999999999999],[-75.56359020000002,39.44999999999999],[-75.5646102,39.44999999999999],[-75.56463259999998,39.44999999999999],[-75.565922,39.44999999999999],[-75.57497699999999,39.44999999999999],[-75.58022,39.44999999999999],[-75.58153529999998,39.44999999999999],[-75.58304989999999,39.44999999999999],[-75.58320459999999,39.44999999999999],[-75.58363100000003,39.44999999999999],[-75.58438869999998,39.44999999999999],[-75.58786579999997,39.44999999999999],[-75.58808520000002,39.44999999999999],[-75.59663710000001,39.44999999999999],[-75.59704720000002,39.44999999999999]]]}},{"type":"Feature","properties":{},"geometry":{"type":"Polygon","coordinates":[[[-75.52296139999999,39.44999999999999],[-75.5236329,39.44999999999999],[-75.52499999999998,39.44999999999999],[-75.52499999999998,39.450843899999995],[-75.52499999999998,39.450999000000024],[-75.52499999999998,39.45508890000002],[-75.52499999999998,39.45730120000002],[-75.52499999999998,39.457509500000015],[-75.52499999999998,39.46070470000001],[-75.52499999999998,39.46078030000001],[-75.52499999999998,39.46263920000001],[-75.52499999999998,39.462987],[-75.52499999999998,39.469639599999994],[-75.52499999999998,39.47029370000001],[-75.52499999999998,39.47077760000002],[-75.52499999999998,39.480141],[-75.52499999999998,39.4803096],[-75.52499999999998,39.481185700000026],[-75.52499999999998,39.482165399999985],[-75.52499999999998,39.48233479999999],[-75.52499999999998,39.48356740000003],[-75.52499999999998,39.4836952],[-75.52499999999998,39.48408439999997],[-75.52499999999998,39.48452830000002],[-75.52499999999998,39.48484289999999],[-75.52499999999998,39.48990730000003],[-75.52499999999998,39.492742299999975],[-75.52499999999998,39.4930703],[-75.52499999999998,39.498077799999976],[-75.52499999999998,39.50002569999998],[-75.52499999999998,39.500037299999974],[-75.52499999999998,39.507097999999985],[-75.52499999999998,39.50892399999998],[-75.52499999999998,39.515075000000024],[-75.52499999999998,39.515371200000004],[-75.52499999999998,39.51942439999999],[-75.52499999999998,39.52296890000002],[-75.52499999999998,39.523541799999975],[-75.52499999999998,39.52499999999998],[-75.5244257,39.52499999999998],[-75.52404109999998,39.52499999999998],[-75.51494609999997,39.52499999999998],[-75.51342490000002,39.52499999999998],[-75.51294999999999,39.52499999999998],[-75.5127569,39.52499999999998],[-75.5092194,39.52499999999998],[-75.50903419999997,39.52499999999998],[-75.50821280000002,39.52499999999998],[-75.5031156,39.52499999999998],[-75.5024186,39.52499999999998],[-75.50222780000001,39.52499999999998],[-75.5018958,39.52499999999998],[-75.46037899999999,39.52499999999998],[-75.4600519,39.52499999999998],[-75.45986950000002,39.52499999999998],[-75.45907110000002,39.52499999999998],[-75.45845780000002,39.52499999999998],[-75.45813930000003,39.52499999999998],[-75.45763629999999,39.52499999999998],[-75.45491659999999,39.52499999999998],[-75.4523011,39.52499999999998],[-75.45114760000001,39.52499999999998],[-75.44999999999999,39.52499999999998],[-75.44999999999999,39.52010059999998],[-75.44999999999999,39.519924600000024],[-75.44999999999999,39.51864360000002],[-75.44999999999999,39.516676099999984],[-75.44999999999999,39.51505839999999],[-75.44999999999999,39.51480750000002],[-75.44999999999999,39.51433609999998],[-75.44999999999999,39.51389440000003],[-75.44999999999999,39.51091919999999],[-75.44999999999999,39.50970560000002],[-75.44999999999999,39.50530329999998],[-75.44999999999999,39.504481699999985],[-75.44999999999999,39.50357459999998],[-75.44999999999999,39.502898000000016],[-75.44999999999999,39.5016784],[-75.44999999999999,39.50120700000002],[-75.44999999999999,39.499753],[-75.44999999999999,39.49891179999997],[-75.44999999999999,39.4951135],[-75.44999999999999,39.493176800000015],[-75.44999999999999,39.49103580000002],[-75.44999999999999,39.49076939999998],[-75.44999999999999,39.48603969999999],[-75.44999999999999,39.48586970000002],[-75.44999999999999,39.480846799999995],[-75.44999999999999,39.479476999999974],[-75.44999999999999,39.4790314],[-75.44999999999999,39.47889029999999],[-75.44999999999999,39.47784139999999],[-75.44999999999999,39.4633432],[-75.44999999999999,39.463039400000014],[-75.44999999999999,39.46078610000001],[-75.44999999999999,39.46044619999998],[-75.44999999999999,39.45701530000002],[-75.44999999999999,39.456886699999984],[-75.44999999999999,39.45645860000002],[-75.44999999999999,39.45579859999998],[-75.44999999999999,39.45534889999999],[-75.44999999999999,39.4551285],[-75.44999999999999,39.451043700000014],[-75.44999999999999,39.45039830000002],[-75.44999999999999,39.44999999999999],[-75.45133019999997,39.44999999999999],[-75.45561780000003,39.44999999999999],[-75.45585249999999,39.44999999999999],[-75.45717880000001,39.44999999999999],[-75.45783469999998,39.44999999999999],[-75.46109999999999,39.44999999999999],[-75.46509859999998,39.44999999999999],[-75.46532150000002,39.44999999999999],[-75.46738210000001,39.44999999999999],[-75.46751419999998,39.44999999999999],[-75.46876709999998,39.44999999999999],[-75.47073219999999,39.44999999999999],[-75.47094149999998,39.44999999999999],[-75.4720218,39.44999999999999],[-75.47223739999998,39.44999999999999],[-75.47975989999998,39.44999999999999],[-75.48045029999997,39.44999999999999],[-75.48137550000001,39.44999999999999],[-75.49265980000001,39.44999999999999],[-75.4932867,39.44999999999999],[-75.4995748,39.44999999999999],[-75.5013568,39.44999999999999],[-75.50355050000002,39.44999999999999],[-75.5049143,39.44999999999999],[-75.50519980000001,39.44999999999999],[-75.5066865,39.44999999999999],[-75.5172336,39.44999999999999],[-75.52225720000001,39.44999999999999],[-75.52296139999999,39.44999999999999]]]}},{"type":"Feature","properties":{},"geometry":{"type":"Polygon","coordinates":[[[-75.6211783,39.60000000000002],[-75.61336779999999,39.60000000000002],[-75.6125212,39.60000000000002],[-75.60589879999998,39.60000000000002],[-75.60327310000002,39.60000000000002],[-75.6030058,39.60000000000002],[-75.60249299999998,39.60000000000002],[-75.60208219999998,39.60000000000002],[-75.60000000000002,39.60000000000002],[-75.60000000000002,39.595491200000026],[-75.60000000000002,39.5940033],[-75.60000000000002,39.593317300000024],[-75.60000000000002,39.59221489999999],[-75.60000000000002,39.59180309999999],[-75.60000000000002,39.59004970000001],[-75.60000000000002,39.5898545],[-75.60000000000002,39.58960819999999],[-75.60000000000002,39.589229999999986],[-75.60000000000002,39.58904610000002],[-75.60000000000002,39.58881769999999],[-75.60000000000002,39.58747820000002],[-75.60000000000002,39.58248600000002],[-75.60000000000002,39.579459299999996],[-75.60000000000002,39.57926220000002],[-75.60000000000002,39.57722369999999],[-75.60000000000002,39.576001599999984],[-75.60000000000002,39.57458650000001],[-75.60000000000002,39.57353649999999],[-75.60000000000002,39.569575199999974],[-75.60000000000002,39.56906959999998],[-75.60000000000002,39.56669670000002],[-75.60000000000002,39.55740370000001],[-75.60000000000002,39.55672449999997],[-75.60000000000002,39.55657739999998],[-75.60000000000002,39.55650650000001],[-75.60000000000002,39.5563401],[-75.60000000000002,39.556025799999986],[-75.60000000000002,39.55539700000003],[-75.60000000000002,39.555082700000014],[-75.60000000000002,39.55494040000002],[-75.60000000000002,39.55479860000003],[-75.60000000000002,39.5546966],[-75.60000000000002,39.554375900000025],[-75.60000000000002,39.553042800000014],[-75.60000000000002,39.55291080000001],[-75.60000000000002,39.55215670000001],[-75.60000000000002,39.55101389999999],[-75.60000000000002,39.55000719999998],[-75.60000000000002,39.54917790000002],[-75.60000000000002,39.544508199999996],[-75.60000000000002,39.53911390000002],[-75.60000000000002,39.53571169999998],[-75.60000000000002,39.532391200000006],[-75.60000000000002,39.53150690000001],[-75.60000000000002,39.52966300000003],[-75.60000000000002,39.52786170000002],[-75.60000000000002,39.52499999999998],[-75.60259980000001,39.52499999999998],[-75.60409340000001,39.52499999999998],[-75.60479199999997,39.52499999999998],[-75.60547889999998,39.52499999999998],[-75.6060109,39.52499999999998],[-75.6066338,39.52499999999998],[-75.61557699999997,39.52499999999998],[-75.61622569999997,39.52499999999998],[-75.655,39.52499999999998],[-75.655,39.60000000000002],[-75.6211783,39.60000000000002]]]}},{"type":"Feature","properties":{},"geometry":{"type":"Polygon","coordinates":[[[-75.57273320000002,39.52499999999998],[-75.60000000000002,39.52499999999998],[-75.60000000000002,39.52786170000002],[-75.60000000000002,39.52966300000003],[-75.60000000000002,39.53150690000001],[-75.60000000000002,39.532391200000006],[-75.60000000000002,39.53571169999998],[-75.60000000000002,39.53911390000002],[-75.60000000000002,39.544508199999996],[-75.60000000000002,39.54917790000002],[-75.60000000000002,39.55000719999998],[-75.60000000000002,39.55101389999999],[-75.60000000000002,39.55215670000001],[-75.60000000000002,39.55291080000001],[-75.60000000000002,39.553042800000014],[-75.60000000000002,39.554375900000025],[-75.60000000000002,39.5546966],[-75.60000000000002,39.55479860000003],[-75.60000000000002,39.55494040000002],[-75.60000000000002,39.555082700000014],[-75.60000000000002,39.55539700000003],[-75.60000000000002,39.556025799999986],[-75.60000000000002,39.5563401],[-75.60000000000002,39.55650650000001],[-75.60000000000002,39.556569000000025],[-75.60000000000002,39.55657739999998],[-75.60000000000002,39.55672449999997],[-75.60000000000002,39.55740370000001],[-75.60000000000002,39.56669670000002],[-75.60000000000002,39.56906959999998],[-75.60000000000002,39.569575199999974],[-75.60000000000002,39.57353649999999],[-75.60000000000002,39.57458650000001],[-75.60000000000002,39.576001599999984],[-75.60000000000002,39.57722369999999],[-75.60000000000002,39.57926220000002],[-75.60000000000002,39.579459299999996],[-75.60000000000002,39.58248600000002],[-75.60000000000002,39.58747820000002],[-75.60000000000002,39.58881769999999],[-75.60000000000002,39.58904610000002],[-75.60000000000002,39.589229999999986],[-75.60000000000002,39.58960819999999],[-75.60000000000002,39.5898545],[-75.60000000000002,39.59004970000001],[-75.60000000000002,39.59180309999999],[-75.60000000000002,39.59221489999999],[-75.60000000000002,39.593317300000024],[-75.60000000000002,39.5940033],[-75.60000000000002,39.595491200000026],[-75.60000000000002,39.60000000000002],[-75.59907049999998,39.60000000000002],[-75.5986517,39.60000000000002],[-75.59581680000002,39.60000000000002],[-75.5926665,39.60000000000002],[-75.5905062,39.60000000000002],[-75.58710580000002,39.60000000000002],[-75.58171470000002,39.60000000000002],[-75.58113409999999,39.60000000000002],[-75.58075439999999,39.60000000000002],[-75.5797594,39.60000000000002],[-75.5786266,39.60000000000002],[-75.57656379999997,39.60000000000002],[-75.57580680000001,39.60000000000002],[-75.5753709,39.60000000000002],[-75.57471340000001,39.60000000000002],[-75.57411630000001,39.60000000000002],[-75.57060949999999,39.60000000000002],[-75.56978980000002,39.60000000000002],[-75.56903890000001,39.60000000000002],[-75.56901779999998,39.60000000000002],[-75.56828730000001,39.60000000000002],[-75.56746129999999,39.60000000000002],[-75.56314179999998,39.60000000000002],[-75.56162010000003,39.60000000000002],[-75.56086520000002,39.60000000000002],[-75.56068099999999,39.60000000000002],[-75.55506550000001,39.60000000000002],[-75.5534553,39.60000000000002],[-75.5498801,39.60000000000002],[-75.54947879999997,39.60000000000002],[-75.54919740000003,39.60000000000002],[-75.54660960000001,39.60000000000002],[-75.54505160000002,39.60000000000002],[-75.54498160000003,39.60000000000002],[-75.5439174,39.60000000000002],[-75.5436717,39.60000000000002],[-75.54351869999999,39.60000000000002],[-75.5429327,39.60000000000002],[-75.54129719999997,39.60000000000002],[-75.54097469999999,39.60000000000002],[-75.54063930000001,39.60000000000002],[-75.5405604,39.60000000000002],[-75.5403076,39.60000000000002],[-75.5398624,39.60000000000002],[-75.53954679999998,39.60000000000002],[-75.5393737,39.60000000000002],[-75.53920240000002,39.60000000000002],[-75.5388342,39.60000000000002],[-75.5384828,39.60000000000002],[-75.5381557,39.60000000000002],[-75.53711179999999,39.60000000000002],[-75.53685769999998,39.60000000000002],[-75.53220449999998,39.60000000000002],[-75.5317207,39.60000000000002],[-75.5253141,39.60000000000002],[-75.52508840000002,39.60000000000002],[-75.52499999999998,39.60000000000002],[-75.52499999999998,39.599534300000016],[-75.52499999999998,39.598533799999984],[-75.52499999999998,39.59796660000001],[-75.52499999999998,39.597625300000004],[-75.52499999999998,39.596292500000004],[-75.52499999999998,39.5955457],[-75.52499999999998,39.592828699999984],[-75.52499999999998,39.59246519999999],[-75.52499999999998,39.59177949999997],[-75.52499999999998,39.591731100000004],[-75.52499999999998,39.58873829999999],[-75.52499999999998,39.58844110000001],[-75.52499999999998,39.5883738],[-75.52499999999998,39.58814560000002],[-75.52499999999998,39.5873095],[-75.52499999999998,39.587041899999974],[-75.52499999999998,39.58661949999998],[-75.52499999999998,39.5865756],[-75.52499999999998,39.586512200000016],[-75.52499999999998,39.586449500000015],[-75.52499999999998,39.586366399999974],[-75.52499999999998,39.586286400000006],[-75.52499999999998,39.58624520000001],[-75.52499999999998,39.586096699999985],[-75.52499999999998,39.585965199999976],[-75.52499999999998,39.585854600000005],[-75.52499999999998,39.585616200000004],[-75.52499999999998,39.58488699999998],[-75.52499999999998,39.584315100000026],[-75.52499999999998,39.58419650000002],[-75.52499999999998,39.583777399999974],[-75.52499999999998,39.58328089999998],[-75.52499999999998,39.57323020000001],[-75.52499999999998,39.565766499999995],[-75.52499999999998,39.56426069999998],[-75.52499999999998,39.56179750000001],[-75.52499999999998,39.560092499999996],[-75.52499999999998,39.55972200000002],[-75.52499999999998,39.55972159999999],[-75.52499999999998,39.55949320000002],[-75.52499999999998,39.559490900000014],[-75.52499999999998,39.55903519999998],[-75.52499999999998,39.559030699999994],[-75.52499999999998,39.55880669999999],[-75.52499999999998,39.558800099999985],[-75.52499999999998,39.55876599999999],[-75.52499999999998,39.5583297],[-75.52499999999998,39.5492744],[-75.52499999999998,39.543881699999986],[-75.52499999999998,39.5406069],[-75.52499999999998,39.54047370000001],[-75.52499999999998,39.540278899999976],[-75.52499999999998,39.540259400000025],[-75.52499999999998,39.53989819999998],[-75.52499999999998,39.53607219999998],[-75.52499999999998,39.53535929999998],[-75.52499999999998,39.535218199999974],[-75.52499999999998,39.53266769999999],[-75.52499999999998,39.53237439999998],[-75.52499999999998,39.53097989999998],[-75.52499999999998,39.53033770000002],[-75.52499999999998,39.52499999999998],[-75.52598030000001,39.52499999999998],[-75.5263215,39.52499999999998],[-75.53277709999998,39.52499999999998],[-75.53456360000001,39.52499999999998],[-75.53551479999999,39.52499999999998],[-75.53713499999998,39.52499999999998],[-75.53800439999998,39.52499999999998],[-75.54065939999998,39.52499999999998],[-75.54724449999998,39.52499999999998],[-75.54795480000001,39.52499999999998],[-75.54871329999997,39.52499999999998],[-75.54875129999999,39.52499999999998],[-75.5494506,39.52499999999998],[-75.5501812,39.52499999999998],[-75.550186,39.52499999999998],[-75.55178569999998,39.52499999999998],[-75.55488730000002,39.52499999999998],[-75.55612880000001,39.52499999999998],[-75.55649,39.52499999999998],[-75.5578127,39.52499999999998],[-75.56267129999998,39.52499999999998],[-75.56487299999998,39.52499999999998],[-75.56809329999999,39.52499999999998],[-75.56903649999998,39.52499999999998],[-75.57028059999999,39.52499999999998],[-75.57104939999999,39.52499999999998],[-75.57273320000002,39.52499999999998]]]}},{"type":"Feature","properties":{},"geometry":{"type":"Polygon","coordinates":[[[-75.5244257,39.52499999999998],[-75.52499999999998,39.52499999999998],[-75.52499999999998,39.53033770000002],[-75.52499999999998,39.53097989999998],[-75.52499999999998,39.53237439999998],[-75.52499999999998,39.53266769999999],[-75.52499999999998,39.535218199999974],[-75.52499999999998,39.53535929999998],[-75.52499999999998,39.53607219999998],[-75.52499999999998,39.53989819999998],[-75.52499999999998,39.540259400000025],[-75.52499999999998,39.540278899999976],[-75.52499999999998,39.54047370000001],[-75.52499999999998,39.5406069],[-75.52499999999998,39.543881699999986],[-75.52499999999998,39.5492744],[-75.52499999999998,39.5583297],[-75.52499999999998,39.55876599999999],[-75.52499999999998,39.558800099999985],[-75.52499999999998,39.55880669999999],[-75.52499999999998,39.559030699999994],[-75.52499999999998,39.55903519999998],[-75.52499999999998,39.559490900000014],[-75.52499999999998,39.55949320000002],[-75.52499999999998,39.55972159999999],[-75.52499999999998,39.55972200000002],[-75.52499999999998,39.560092499999996],[-75.52499999999998,39.56179750000001],[-75.52499999999998,39.56426069999998],[-75.52499999999998,39.565766499999995],[-75.52499999999998,39.57323020000001],[-75.52499999999998,39.58328089999998],[-75.52499999999998,39.583777399999974],[-75.52499999999998,39.58419650000002],[-75.52499999999998,39.584315100000026],[-75.52499999999998,39.585616200000004],[-75.52499999999998,39.585854600000005],[-75.52499999999998,39.585965199999976],[-75.52499999999998,39.586096699999985],[-75.52499999999998,39.58624520000001],[-75.52499999999998,39.586286400000006],[-75.52499999999998,39.586366399999974],[-75.52499999999998,39.586449500000015],[-75.52499999999998,39.586512200000016],[-75.52499999999998,39.5865756],[-75.52499999999998,39.58661949999998],[-75.52499999999998,39.587041899999974],[-75.52499999999998,39.5873095],[-75.52499999999998,39.58814560000002],[-75.52499999999998,39.5883738],[-75.52499999999998,39.58844110000001],[-75.52499999999998,39.58873829999999],[-75.52499999999998,39.591731100000004],[-75.52499999999998,39.59177949999997],[-75.52499999999998,39.59246519999999],[-75.52499999999998,39.592828699999984],[-75.52499999999998,39.5955457],[-75.52499999999998,39.596292500000004],[-75.52499999999998,39.597625300000004],[-75.52499999999998,39.59796660000001],[-75.52499999999998,39.598533799999984],[-75.52499999999998,39.599534300000016],[-75.52499999999998,39.60000000000002],[-75.52369549999997,39.60000000000002],[-75.5213235,39.60000000000002],[-75.52040729999999,39.60000000000002],[-75.52001389999998,39.60000000000002],[-75.51916729999999,39.60000000000002],[-75.51713819999998,39.60000000000002],[-75.51708689999998,39.60000000000002],[-75.5169373,39.60000000000002],[-75.51576899999998,39.60000000000002],[-75.5155062,39.60000000000002],[-75.51521939999998,39.60000000000002],[-75.51464120000003,39.60000000000002],[-75.51430319999997,39.60000000000002],[-75.50953449999997,39.60000000000002],[-75.49821830000002,39.60000000000002],[-75.49482139999998,39.60000000000002],[-75.4944936,39.60000000000002],[-75.49088749999999,39.60000000000002],[-75.48809169999998,39.60000000000002],[-75.48593349999999,39.60000000000002],[-75.48496060000002,39.60000000000002],[-75.47850440000002,39.60000000000002],[-75.47395210000002,39.60000000000002],[-75.45561029999999,39.60000000000002],[-75.45534559999999,39.60000000000002],[-75.44999999999999,39.60000000000002],[-75.44999999999999,39.59780790000002],[-75.44999999999999,39.59765399999998],[-75.44999999999999,39.59703539999998],[-75.44999999999999,39.59685459999997],[-75.44999999999999,39.585415599999976],[-75.44999999999999,39.58458519999999],[-75.44999999999999,39.58053560000002],[-75.44999999999999,39.5779392],[-75.44999999999999,39.57778300000001],[-75.44999999999999,39.57755529999997],[-75.44999999999999,39.5771924],[-75.44999999999999,39.576313700000014],[-75.44999999999999,39.56863049999998],[-75.44999999999999,39.56753149999997],[-75.44999999999999,39.56728800000002],[-75.44999999999999,39.564640999999995],[-75.44999999999999,39.534607900000026],[-75.44999999999999,39.5338021],[-75.44999999999999,39.53370840000002],[-75.44999999999999,39.53064210000002],[-75.44999999999999,39.52990940000001],[-75.44999999999999,39.52834530000001],[-75.44999999999999,39.5281966],[-75.44999999999999,39.52756210000001],[-75.44999999999999,39.52499999999998],[-75.45114760000001,39.52499999999998],[-75.4523011,39.52499999999998],[-75.45491659999999,39.52499999999998],[-75.45763629999999,39.52499999999998],[-75.45813930000003,39.52499999999998],[-75.45845780000002,39.52499999999998],[-75.45907110000002,39.52499999999998],[-75.45986950000002,39.52499999999998],[-75.4600519,39.52499999999998],[-75.46037899999999,39.52499999999998],[-75.5018958,39.52499999999998],[-75.50222780000001,39.52499999999998],[-75.5024186,39.52499999999998],[-75.5031156,39.52499999999998],[-75.50821280000002,39.52499999999998],[-75.50903419999997,39.52499999999998],[-75.5092194,39.52499999999998],[-75.5127569,39.52499999999998],[-75.51294999999999,39.52499999999998],[-75.51342490000002,39.52499999999998],[-75.51494609999997,39.52499999999998],[-75.52404109999998,39.52499999999998],[-75.5244257,39.52499999999998]]]}}]}