{"type":"FeatureCollection","features":[{"type":"Feature","properties":{},"geometry":{"type":"Polygon","coordinates":[[[-76.5900628,39.14999999999998],[-76.64999999999998,39.14999999999998],[-76.64999999999998,39.2142513],[-76.64999999999998,39.221962700000006],[-76.64999999999998,39.22500000000002],[-76.6464671,39.22500000000002],[-76.64571710000001,39.22500000000002],[-76.64529900000002,39.22500000000002],[-76.6415687,39.22500000000002],[-76.64123799999999,39.22500000000002],[-76.64045449999998,39.22500000000002],[-76.63867620000002,39.22500000000002],[-76.63582839999998,39.22500000000002],[-76.6303254,39.22500000000002],[-76.62966940000001,39.22500000000002],[-76.62816850000002,39.22500000000002],[-76.6277088,39.22500000000002],[-76.62751559999998,39.22500000000002],[-76.62603080000002,39.22500000000002],[-76.61722659999998,39.22500000000002],[-76.58679540000003,39.22500000000002],[-76.58617880000003,39.22500000000002],[-76.58526389999997,39.22500000000002],[-76.5801406,39.22500000000002],[-76.5800135,39.22500000000002],[-76.57988169999999,39.22500000000002],[-76.57966979999998,39.22500000000002],[-76.57961010000002,39.22500000000002],[-76.5788564,39.22500000000002],[-76.57866330000002,39.22500000000002],[-76.5780097,39.22500000000002],[-76.57788269999998,39.22500000000002],[-76.5777986,39.22500000000002],[-76.57763490000002,39.22500000000002],[-76.57675760000001,39.22500000000002],[-76.57506130000002,39.22500000000002],[-76.57499999999999,39.22500000000002],[-76.57499999999999,39.22493589999999],[-76.57499999999999,39.224432999999976],[-76.57499999999999,39.224172599999974],[-76.57499999999999,39.224142700000016],[-76.57499999999999,39.22402060000002],[-76.57499999999999,39.22398750000002],[-76.57499999999999,39.2239376],[-76.57499999999999,39.22380579999998],[-76.57499999999999,39.223799499999984],[-76.57499999999999,39.22367839999998],[-76.57499999999999,39.2236355],[-76.57499999999999,39.223403700000006],[-76.57499999999999,39.221204899999975],[-76.57499999999999,39.220450700000015],[-76.57499999999999,39.22027050000003],[-76.57499999999999,39.22017599999998],[-76.57499999999999,39.219925699999976],[-76.57499999999999,39.2199114],[-76.57499999999999,39.219383900000025],[-76.57499999999999,39.21936950000003],[-76.57499999999999,39.218841999999995],[-76.57499999999999,39.21882770000002],[-76.57499999999999,39.21830010000002],[-76.57499999999999,39.21828579999999],[-76.57499999999999,39.217758300000014],[-76.57499999999999,39.21774399999998],[-76.57499999999999,39.217495799999995],[-76.57499999999999,39.21717480000001],[-76.57499999999999,39.213208099999974],[-76.57499999999999,39.212596399999995],[-76.57499999999999,39.21177269999998],[-76.57499999999999,39.21110729999998],[-76.57499999999999,39.210975399999995],[-76.57499999999999,39.2106134],[-76.57499999999999,39.20912440000001],[-76.57499999999999,39.208818199999996],[-76.57499999999999,39.20880390000002],[-76.57499999999999,39.208786599999996],[-76.57499999999999,39.20871949999997],[-76.57499999999999,39.20863650000001],[-76.57499999999999,39.20861409999998],[-76.57499999999999,39.20850159999998],[-76.57499999999999,39.20847370000001],[-76.57499999999999,39.20835119999998],[-76.57499999999999,39.2078755],[-76.57499999999999,39.20338959999998],[-76.57499999999999,39.20331379999999],[-76.57499999999999,39.20321710000002],[-76.57499999999999,39.20301760000001],[-76.57499999999999,39.20157280000001],[-76.57499999999999,39.20148769999997],[-76.57499999999999,39.201451599999984],[-76.57499999999999,39.20105510000002],[-76.57499999999999,39.20072859999999],[-76.57499999999999,39.20058610000001],[-76.57499999999999,39.200527799999975],[-76.57499999999999,39.20036959999999],[-76.57499999999999,39.20036520000002],[-76.57499999999999,39.200055299999974],[-76.57499999999999,39.20005090000001],[-76.57499999999999,39.20000920000001],[-76.57499999999999,39.199175000000025],[-76.57499999999999,39.1991706],[-76.57499999999999,39.198284],[-76.57499999999999,39.1982797],[-76.57499999999999,39.1979685],[-76.57499999999999,39.19796409999998],[-76.57499999999999,39.19541629999998],[-76.57499999999999,39.19541179999999],[-76.57499999999999,39.19190600000002],[-76.57499999999999,39.191897600000004],[-76.57499999999999,39.1918331],[-76.57499999999999,39.19156989999999],[-76.57499999999999,39.191409799999974],[-76.57499999999999,39.19079790000001],[-76.57499999999999,39.19040819999998],[-76.57499999999999,39.18798140000001],[-76.57499999999999,39.18743840000002],[-76.57499999999999,39.18611149999998],[-76.57499999999999,39.18517830000002],[-76.57499999999999,39.1828744],[-76.57499999999999,39.18204480000003],[-76.57499999999999,39.178823799999975],[-76.57499999999999,39.17711159999999],[-76.57499999999999,39.14999999999998],[-76.5900628,39.14999999999998]]]}},{"type":"Feature","properties":{},"geometry":{"type":"Polygon","coordinates":[[[-76.55202259999999,39.14999999999998],[-76.57499999999999,39.14999999999998],[-76.57499999999999,39.17711159999999],[-76.57499999999999,39.178823799999975],[-76.57499999999999,39.18204480000003],[-76.57499999999999,39.1828744],[-76.57499999999999,39.18517830000002],[-76.57499999999999,39.18611149999998],[-76.57499999999999,39.18743840000002],[-76.57499999999999,39.18798140000001],[-76.57499999999999,39.19040819999998],[-76.57499999999999,39.19079790000001],[-76.57499999999999,39.191409799999974],[-76.57499999999999,39.19156989999999],[-76.57499999999999,39.1918331],[-76.57499999999999,39.191897600000004],[-76.57499999999999,39.19190600000002],[-76.57499999999999,39.19541179999999],[-76.57499999999999,39.19541629999998],[-76.57499999999999,39.19796409999998],[-76.57499999999999,39.1979685],[-76.57499999999999,39.1982797],[-76.57499999999999,39.198284],[-76.57499999999999,39.1991706],[-76.57499999999999,39.199175000000025],[-76.57499999999999,39.20000920000001],[-76.57499999999999,39.20005090000001],[-76.57499999999999,39.200055299999974],[-76.57499999999999,39.20036520000002],[-76.57499999999999,39.20036959999999],[-76.57499999999999,39.200527799999975],[-76.57499999999999,39.20058610000001],[-76.57499999999999,39.20072859999999],[-76.57499999999999,39.20105510000002],[-76.57499999999999,39.201451599999984],[-76.57499999999999,39.20148769999997],[-76.57499999999999,39.20157280000001],[-76.57499999999999,39.20301760000001],[-76.57499999999999,39.20321710000002],[-76.57499999999999,39.20331379999999],[-76.57499999999999,39.20338959999998],[-76.57499999999999,39.2078755],[-76.57499999999999,39.20835119999998],[-76.57499999999999,39.20847370000001],[-76.57499999999999,39.20850159999998],[-76.57499999999999,39.20861409999998],[-76.57499999999999,39.20863650000001],[-76.57499999999999,39.20871949999997],[-76.57499999999999,39.208786599999996],[-76.57499999999999,39.20880390000002],[-76.57499999999999,39.208818199999996],[-76.57499999999999,39.20912440000001],[-76.57499999999999,39.2106134],[-76.57499999999999,39.210975399999995],[-76.57499999999999,39.21110729999998],[-76.57499999999999,39.21177269999998],[-76.57499999999999,39.212596399999995],[-76.57499999999999,39.213208099999974],[-76.57499999999999,39.21717480000001],[-76.57499999999999,39.217495799999995],[-76.57499999999999,39.21774399999998],[-76.57499999999999,39.217758300000014],[-76.57499999999999,39.21828579999999],[-76.57499999999999,39.21830010000002],[-76.57499999999999,39.21882770000002],[-76.57499999999999,39.218841999999995],[-76.57499999999999,39.21936950000003],[-76.57499999999999,39.219383900000025],[-76.57499999999999,39.2199114],[-76.57499999999999,39.219925699999976],[-76.57499999999999,39.22017599999998],[-76.57499999999999,39.22027050000003],[-76.57499999999999,39.220450700000015],[-76.57499999999999,39.221204899999975],[-76.57499999999999,39.223403700000006],[-76.57499999999999,39.2236355],[-76.57499999999999,39.22367839999998],[-76.57499999999999,39.223799499999984],[-76.57499999999999,39.22380579999998],[-76.57499999999999,39.2239376],[-76.57499999999999,39.22398750000002],[-76.57499999999999,39.22402060000002],[-76.57499999999999,39.224142700000016],[-76.57499999999999,39.224172599999974],[-76.57499999999999,39.224432999999976],[-76.57499999999999,39.22493589999999],[-76.57499999999999,39.22500000000002],[-76.57389799999999,39.22500000000002],[-76.57330940000003,39.22500000000002],[-76.5694815,39.22500000000002],[-76.56780780000003,39.22500000000002],[-76.56743239999997,39.22500000000002],[-76.56736460000002,39.22500000000002],[-76.56681759999998,39.22500000000002],[-76.56620700000002,39.22500000000002],[-76.56553000000002,39.22500000000002],[-76.56414669999998,39.22500000000002],[-76.56328880000001,39.22500000000002],[-76.56246900000002,39.22500000000002],[-76.56201010000001,39.22500000000002],[-76.56161659999998,39.22500000000002],[-76.558246,39.22500000000002],[-76.55800140000002,39.22500000000002],[-76.55599089999998,39.22500000000002],[-76.5545343,39.22500000000002],[-76.55261489999998,39.22500000000002],[-76.55259890000002,39.22500000000002],[-76.54792780000002,39.22500000000002],[-76.54055199999999,39.22500000000002],[-76.54046369999998,39.22500000000002],[-76.53910439999999,39.22500000000002],[-76.53875119999998,39.22500000000002],[-76.53871959999998,39.22500000000002],[-76.53826320000002,39.22500000000002],[-76.5375884,39.22500000000002],[-76.53668240000002,39.22500000000002],[-76.5366755,39.22500000000002],[-76.53576240000001,39.22500000000002],[-76.53513450000003,39.22500000000002],[-76.5350775,39.22500000000002],[-76.5350239,39.22500000000002],[-76.5348401,39.22500000000002],[-76.53478819999998,39.22500000000002],[-76.53449389999997,39.22500000000002],[-76.53408830000001,39.22500000000002],[-76.52892939999998,39.22500000000002],[-76.5278098,39.22500000000002],[-76.52758419999998,39.22500000000002],[-76.52464509999999,39.22500000000002],[-76.52404139999999,39.22500000000002],[-76.52185379999997,39.22500000000002],[-76.5215379,39.22500000000002],[-76.51964199999998,39.22500000000002],[-76.5191226,39.22500000000002],[-76.51863250000002,39.22500000000002],[-76.5172867,39.22500000000002],[-76.51562139999999,39.22500000000002],[-76.51087990000002,39.22500000000002],[-76.51000570000002,39.22500000000002],[-76.50275679999999,39.22500000000002],[-76.5005304,39.22500000000002],[-76.5,39.22500000000002],[-76.5,39.224343799999986],[-76.5,39.22407820000001],[-76.5,39.22381130000002],[-76.5,39.22179240000003],[-76.5,39.22166249999998],[-76.5,39.22095660000002],[-76.5,39.220819800000015],[-76.5,39.219842200000016],[-76.5,39.21945340000002],[-76.5,39.21916429999999],[-76.5,39.218998399999975],[-76.5,39.218850799999984],[-76.5,39.21880629999998],[-76.5,39.21865159999999],[-76.5,39.21668],[-76.5,39.21592220000002],[-76.5,39.2158364],[-76.5,39.21507100000002],[-76.5,39.21498810000003],[-76.5,39.21437980000002],[-76.5,39.214248999999995],[-76.5,39.21381939999998],[-76.5,39.21326110000001],[-76.5,39.2128414],[-76.5,39.2126902],[-76.5,39.212429199999974],[-76.5,39.21202979999998],[-76.5,39.21195599999999],[-76.5,39.21106830000002],[-76.5,39.2109724],[-76.5,39.210656900000004],[-76.5,39.207795499999975],[-76.5,39.20606839999999],[-76.5,39.2014552],[-76.5,39.19950590000002],[-76.5,39.19942930000002],[-76.5,39.1991089],[-76.5,39.19907710000001],[-76.5,39.19890600000002],[-76.5,39.19859330000003],[-76.5,39.19808069999999],[-76.5,39.19807789999999],[-76.5,39.19748329999999],[-76.5,39.19725],[-76.5,39.19704710000002],[-76.5,39.19673999999998],[-76.5,39.19673820000003],[-76.5,39.1967368],[-76.5,39.1965639],[-76.5,39.19585749999999],[-76.5,39.195603000000006],[-76.5,39.194214699999975],[-76.5,39.192191200000025],[-76.5,39.1915573],[-76.5,39.19040819999998],[-76.5,39.181607499999984],[-76.5,39.172926700000005],[-76.5,39.168942200000004],[-76.5,39.16143099999999],[-76.5,39.1587955],[-76.5,39.15831650000001],[-76.5,39.156387499999994],[-76.5,39.156201099999976],[-76.5,39.15509070000002],[-76.5,39.15458610000002],[-76.5,39.15411790000002],[-76.5,39.153289700000016],[-76.5,39.15233139999998],[-76.5,39.1515804],[-76.5,39.14999999999998],[-76.50421499999999,39.14999999999998],[-76.50463339999999,39.14999999999998],[-76.5056472,39.14999999999998],[-76.50609960000003,39.14999999999998],[-76.50767280000002,39.14999999999998],[-76.51012359999999,39.14999999999998],[-76.51125610000003,39.14999999999998],[-76.51215719999999,39.14999999999998],[-76.5135722,39.14999999999998],[-76.51441820000002,39.14999999999998],[-76.53804860000002,39.14999999999998],[-76.53825840000002,39.14999999999998],[-76.54315009999999,39.14999999999998],[-76.54416880000002,39.14999999999998],[-76.54776429999998,39.14999999999998],[-76.54815550000001,39.14999999999998],[-76.55014940000001,39.14999999999998],[-76.5507366,39.14999999999998],[-76.55084260000001,39.14999999999998],[-76.55202259999999,39.14999999999998]]]}},{"type":"Feature","properties":{},"geometry":{"type":"Polygon","coordinates":[[[-76.49548870000001,39.14999999999998],[-76.5,39.14999999999998],[-76.5,39.1515804],[-76.5,39.15233139999998],[-76.5,39.153289700000016],[-76.5,39.15411790000002],[-76.5,39.15458610000002],[-76.5,39.15509070000002],[-76.5,39.156201099999976],[-76.5,39.156387499999994],[-76.5,39.15831650000001],[-76.5,39.1587955],[-76.5,39.16143099999999],[-76.5,39.168942200000004],[-76.5,39.172926700000005],[-76.5,39.181607499999984],[-76.5,39.19040819999998],[-76.5,39.1915573],[-76.5,39.192191200000025],[-76.5,39.194214699999975],[-76.5,39.195603000000006],[-76.5,39.19585749999999],[-76.5,39.1965639],[-76.5,39.1967368],[-76.5,39.19673820000003],[-76.5,39.19673999999998],[-76.5,39.196741900000006],[-76.5,39.19704710000002],[-76.5,39.19725],[-76.5,39.19748329999999],[-76.5,39.1978373],[-76.5,39.19807789999999],[-76.5,39.19808069999999],[-76.5,39.19859330000003],[-76.5,39.19890600000002],[-76.5,39.19891960000001],[-76.5,39.19907710000001],[-76.5,39.1991089],[-76.5,39.19942930000002],[-76.5,39.19950590000002],[-76.5,39.2014552],[-76.5,39.20606839999999],[-76.5,39.207795499999975],[-76.5,39.210656900000004],[-76.5,39.2109724],[-76.5,39.21106830000002],[-76.5,39.21195599999999],[-76.5,39.21202979999998],[-76.5,39.212429199999974],[-76.5,39.2126902],[-76.5,39.2128414],[-76.5,39.21326110000001],[-76.5,39.21381939999998],[-76.5,39.214248999999995],[-76.5,39.21437980000002],[-76.5,39.21498810000003],[-76.5,39.21507100000002],[-76.5,39.2158364],[-76.5,39.21592220000002],[-76.5,39.21668],[-76.5,39.21865159999999],[-76.5,39.21880629999998],[-76.5,39.218998399999975],[-76.5,39.21916429999999],[-76.5,39.21945340000002],[-76.5,39.219842200000016],[-76.5,39.220819800000015],[-76.5,39.22095660000002],[-76.5,39.22166249999998],[-76.5,39.22179240000003],[-76.5,39.22381130000002],[-76.5,39.22407820000001],[-76.5,39.224343799999986],[-76.5,39.22500000000002],[-76.4989837,39.22500000000002],[-76.49873250000002,39.22500000000002],[-76.4965924,39.22500000000002],[-76.4935284,39.22500000000002],[-76.46666629999999,39.22500000000002],[-76.4637447,39.22500000000002],[-76.46266680000002,39.22500000000002],[-76.4607024,39.22500000000002],[-76.44509369999997,39.22500000000002],[-76.44326480000001,39.22500000000002],[-76.44317539999997,39.22500000000002],[-76.43800959999999,39.22500000000002],[-76.42500000000001,39.22500000000002],[-76.42500000000001,39.22219469999999],[-76.42500000000001,39.221026499999994],[-76.42500000000001,39.20776540000003],[-76.42500000000001,39.20758369999999],[-76.42500000000001,39.205654700000025],[-76.42500000000001,39.201636399999984],[-76.42500000000001,39.19891209999997],[-76.42500000000001,39.194813099999976],[-76.42500000000001,39.19213239999999],[-76.42500000000001,39.18955999999997],[-76.42500000000001,39.180004199999985],[-76.42500000000001,39.176957200000004],[-76.42500000000001,39.176843899999994],[-76.42500000000001,39.1766088],[-76.42500000000001,39.1765082],[-76.42500000000001,39.17630009999999],[-76.42500000000001,39.17585839999998],[-76.42500000000001,39.17541649999998],[-76.42500000000001,39.174974899999995],[-76.42500000000001,39.17453339999997],[-76.42500000000001,39.16987280000001],[-76.42500000000001,39.168791899999974],[-76.42500000000001,39.16851409999998],[-76.42500000000001,39.168195000000026],[-76.42500000000001,39.16787770000002],[-76.42500000000001,39.166324599999996],[-76.42500000000001,39.16493889999998],[-76.42500000000001,39.1644053],[-76.42500000000001,39.16400920000001],[-76.42500000000001,39.162991999999974],[-76.42500000000001,39.161651500000005],[-76.42500000000001,39.160547699999995],[-76.42500000000001,39.15879810000001],[-76.42500000000001,39.157413599999984],[-76.42500000000001,39.1563137],[-76.42500000000001,39.15378199999998],[-76.42500000000001,39.15081300000003],[-76.42500000000001,39.15068000000002],[-76.42500000000001,39.14999999999998],[-76.42589859999998,39.14999999999998],[-76.42703180000001,39.14999999999998],[-76.44599210000001,39.14999999999998],[-76.453913,39.14999999999998],[-76.46298359999997,39.14999999999998],[-76.46361200000001,39.14999999999998],[-76.4660447,39.14999999999998],[-76.46661180000001,39.14999999999998],[-76.46710300000001,39.14999999999998],[-76.46755180000002,39.14999999999998],[-76.46923099999998,39.14999999999998],[-76.4700211,39.14999999999998],[-76.49353589999998,39.14999999999998],[-76.49548870000001,39.14999999999998]]]}},{"type":"Feature","properties":{},"geometry":{"type":"Polygon","coordinates":[[[-76.42006650000002,39.14999999999998],[-76.42500000000001,39.14999999999998],[-76.42500000000001,39.15068000000002],[-76.42500000000001,39.15081300000003],[-76.42500000000001,39.15378199999998],[-76.42500000000001,39.1563137],[-76.42500000000001,39.157413599999984],[-76.42500000000001,39.15879810000001],[-76.42500000000001,39.160547699999995],[-76.42500000000001,39.161651500000005],[-76.42500000000001,39.162991999999974],[-76.42500000000001,39.16400920000001],[-76.42500000000001,39.1644053],[-76.42500000000001,39.16493889999998],[-76.42500000000001,39.166324599999996],[-76.42500000000001,39.16787770000002],[-76.42500000000001,39.168195000000026],[-76.42500000000001,39.16851409999998],[-76.42500000000001,39.168791899999974],[-76.42500000000001,39.16987280000001],[-76.42500000000001,39.17453339999997],[-76.42500000000001,39.174974899999995],[-76.42500000000001,39.17541649999998],[-76.42500000000001,39.17585839999998],[-76.42500000000001,39.17630009999999],[-76.42500000000001,39.1765082],[-76.42500000000001,39.1766088],[-76.42500000000001,39.176843899999994],[-76.42500000000001,39.176957200000004],[-76.42500000000001,39.180004199999985],[-76.42500000000001,39.18955999999997],[-76.42500000000001,39.19213239999999],[-76.42500000000001,39.194813099999976],[-76.42500000000001,39.19891209999997],[-76.42500000000001,39.201636399999984],[-76.42500000000001,39.205654700000025],[-76.42500000000001,39.20758369999999],[-76.42500000000001,39.20776540000003],[-76.42500000000001,39.221026499999994],[-76.42500000000001,39.22219469999999],[-76.42500000000001,39.22500000000002],[-76.42224060000001,39.22500000000002],[-76.41902290000002,39.22500000000002],[-76.4163236,39.22500000000002],[-76.41411110000001,39.22500000000002],[-76.40991709999997,39.22500000000002],[-76.4019591,39.22500000000002],[-76.39589949999998,39.22500000000002],[-76.3944123,39.22500000000002],[-76.3928325,39.22500000000002],[-76.3924624,39.22500000000002],[-76.39234340000002,39.22500000000002],[-76.380964,39.22500000000002],[-76.37437829999999,39.22500000000002],[-76.37292059999999,39.22500000000002],[-76.36573709999999,39.22500000000002],[-76.36446210000003,39.22500000000002],[-76.3536244,39.22500000000002],[-76.35000000000002,39.22500000000002],[-76.35000000000002,39.21682199999998],[-76.35000000000002,39.216290300000026],[-76.35000000000002,39.17529330000002],[-76.35000000000002,39.17200359999998],[-76.35000000000002,39.1597855],[-76.35000000000002,39.15717990000002],[-76.35000000000002,39.156796299999996],[-76.35000000000002,39.1535753],[-76.35000000000002,39.15313400000002],[-76.35000000000002,39.1526887],[-76.35000000000002,39.15224690000002],[-76.35000000000002,39.1518044],[-76.35000000000002,39.14999999999998],[-76.35489059999998,39.14999999999998],[-76.35523669999998,39.14999999999998],[-76.35802719999998,39.14999999999998],[-76.35891559999999,39.14999999999998],[-76.36170670000001,39.14999999999998],[-76.3620611,39.14999999999998],[-76.3630109,39.14999999999998],[-76.36822239999998,39.14999999999998],[-76.37310869999999,39.14999999999998],[-76.38068550000003,39.14999999999998],[-76.39436890000002,39.14999999999998],[-76.40214559999998,39.14999999999998],[-76.40474940000001,39.14999999999998],[-76.41012189999998,39.14999999999998],[-76.41044679999999,39.14999999999998],[-76.41045050000002,39.14999999999998],[-76.41083470000001,39.14999999999998],[-76.41091549999999,39.14999999999998],[-76.41124610000003,39.14999999999998],[-76.41139800000002,39.14999999999998],[-76.41263909999998,39.14999999999998],[-76.41411010000002,39.14999999999998],[-76.41414630000003,39.14999999999998],[-76.41440089999998,39.14999999999998],[-76.41467189999997,39.14999999999998],[-76.41472390000001,39.14999999999998],[-76.41493300000002,39.14999999999998],[-76.41765400000003,39.14999999999998],[-76.42006650000002,39.14999999999998]]]}},{"type":"Feature","properties":{},"geometry":{"type":"Polygon","coordinates":[[[-76.35000000000002,39.1518044],[-76.35000000000002,39.15224690000002],[-76.35000000000002,39.1526887],[-76.35000000000002,39.15313400000002],[-76.35000000000002,39.1535753],[-76.35000000000002,39.156796299999996],[-76.35000000000002,39.15717990000002],[-76.35000000000002,39.1597855],[-76.35000000000002,39.17200359999998],[-76.35000000000002,39.17529330000002],[-76.35000000000002,39.216290300000026],[-76.35000000000002,39.21682199999998],[-76.35000000000002,39.22500000000002],[-76.33384219999999,39.22500000000002],[-76.3330689,39.22500000000002],[-76.3197634,39.22500000000002],[-76.31397320000002,39.22500000000002],[-76.292347,39.22500000000002],[-76.28825369999998,39.22500000000002],[-76.2852297,39.22500000000002],[-76.27499999999998,39.22500000000002],[-76.27499999999998,39.216042300000026],[-76.27499999999998,39.203580699999975],[-76.27499999999998,39.20347600000002],[-76.27499999999998,39.19295199999999],[-76.27499999999998,39.19074440000003],[-76.27499999999998,39.19011660000001],[-76.27499999999998,39.189488600000004],[-76.27499999999998,39.18946599999998],[-76.27499999999998,39.188863500000025],[-76.27499999999998,39.188237300000026],[-76.27499999999998,39.186244999999985],[-76.27499999999998,39.185777299999984],[-76.27499999999998,39.185570900000016],[-76.27499999999998,39.18513890000003],[-76.27499999999998,39.1796746],[-76.27499999999998,39.17940329999999],[-76.27499999999998,39.16314879999999],[-76.27499999999998,39.15732459999998],[-76.27499999999998,39.15519389999997],[-76.27499999999998,39.14999999999998],[-76.27647250000001,39.14999999999998],[-76.27735630000001,39.14999999999998],[-76.2876129,39.14999999999998],[-76.28884110000001,39.14999999999998],[-76.29021469999998,39.14999999999998],[-76.29856640000003,39.14999999999998],[-76.3061022,39.14999999999998],[-76.31788990000001,39.14999999999998],[-76.31859209999999,39.14999999999998],[-76.31926190000001,39.14999999999998],[-76.31928979999998,39.14999999999998],[-76.31999139999999,39.14999999999998],[-76.32069940000002,39.14999999999998],[-76.32162899999997,39.14999999999998],[-76.33820020000002,39.14999999999998],[-76.33965669999998,39.14999999999998],[-76.34112770000002,39.14999999999998],[-76.34258569999997,39.14999999999998],[-76.34404599999999,39.14999999999998],[-76.35000000000002,39.14999999999998],[-76.35000000000002,39.1518044]]]}},{"type":"Feature","properties":{},"geometry":{"type":"Polygon","coordinates":[[[-76.27499999999998,39.15519389999997],[-76.27499999999998,39.15732459999998],[-76.27499999999998,39.16314879999999],[-76.27499999999998,39.17940329999999],[-76.27499999999998,39.1796746],[-76.27499999999998,39.18513890000003],[-76.27499999999998,39.185570900000016],[-76.27499999999998,39.185777299999984],[-76.27499999999998,39.186244999999985],[-76.27499999999998,39.188237300000026],[-76.27499999999998,39.188863500000025],[-76.27499999999998,39.18946599999998],[-76.27499999999998,39.189488600000004],[-76.27499999999998,39.19011660000001],[-76.27499999999998,39.19074440000003],[-76.27499999999998,39.19295199999999],[-76.27499999999998,39.20347600000002],[-76.27499999999998,39.203580699999975],[-76.27499999999998,39.216042300000026],[-76.27499999999998,39.22500000000002],[-76.27259900000001,39.22500000000002],[-76.2650506,39.22500000000002],[-76.25666369999999,39.22500000000002],[-76.2539653,39.22500000000002],[-76.24784110000002,39.22500000000002],[-76.245926,39.22500000000002],[-76.2453463,39.22500000000002],[-76.24476570000002,39.22500000000002],[-76.24418589999999,39.22500000000002],[-76.24360619999999,39.22500000000002],[-76.2432326,39.22500000000002],[-76.24203299999999,39.22500000000002],[-76.2415757,39.22500000000002],[-76.24104979999998,39.22500000000002],[-76.24065610000002,39.22500000000002],[-76.23995550000001,39.22500000000002],[-76.2388229,39.22500000000002],[-76.23451590000002,39.22500000000002],[-76.23371980000002,39.22500000000002],[-76.19999999999999,39.22500000000002],[-76.19999999999999,39.159159999999986],[-76.19999999999999,39.15856880000001],[-76.19999999999999,39.14999999999998],[-76.2391667,39.14999999999998],[-76.24581389999997,39.14999999999998],[-76.2465426,39.14999999999998],[-76.24683599999997,39.14999999999998],[-76.24745960000001,39.14999999999998],[-76.24768569999998,39.14999999999998],[-76.2489028,39.14999999999998],[-76.24907080000003,39.14999999999998],[-76.25046070000002,39.14999999999998],[-76.25126419999998,39.14999999999998],[-76.2513035,39.14999999999998],[-76.25136900000001,39.14999999999998],[-76.25580839999998,39.14999999999998],[-76.2582208,39.14999999999998],[-76.2621426,39.14999999999998],[-76.2626922,39.14999999999998],[-76.26570220000002,39.14999999999998],[-76.26656889999998,39.14999999999998],[-76.26666669999997,39.14999999999998],[-76.27499999999998,39.14999999999998],[-76.27499999999998,39.15519389999997]]]}},{"type":"Feature","properties":{},"geometry":{"type":"Polygon","coordinates":[[[-76.6464671,39.22500000000002],[-76.64999999999998,39.22500000000002],[-76.64999999999998,39.229013899999984],[-76.64999999999998,39.22934320000002],[-76.64999999999998,39.22958670000003],[-76.64999999999998,39.23220730000003],[-76.64999999999998,39.29179429999999],[-76.64999999999998,39.30000000000001],[-76.59412730000003,39.30000000000001],[-76.57499999999999,39.30000000000001],[-76.57499999999999,39.29179490000001],[-76.57499999999999,39.289758800000016],[-76.57499999999999,39.28636799999998],[-76.57499999999999,39.27708150000001],[-76.57499999999999,39.276975600000014],[-76.57499999999999,39.27656860000002],[-76.57499999999999,39.276160000000004],[-76.57499999999999,39.2760973],[-76.57499999999999,39.27546330000001],[-76.57499999999999,39.274164600000006],[-76.57499999999999,39.27414540000001],[-76.57499999999999,39.27412029999999],[-76.57499999999999,39.272624699999994],[-76.57499999999999,39.27194270000001],[-76.57499999999999,39.27123210000002],[-76.57499999999999,39.26871240000003],[-76.57499999999999,39.26624099999998],[-76.57499999999999,39.264748],[-76.57499999999999,39.26281210000002],[-76.57499999999999,39.26210500000002],[-76.57499999999999,39.26188239999999],[-76.57499999999999,39.26133229999999],[-76.57499999999999,39.26100969999999],[-76.57499999999999,39.26027290000002],[-76.57499999999999,39.26004619999998],[-76.57499999999999,39.26004039999998],[-76.57499999999999,39.25969220000002],[-76.57499999999999,39.2592391],[-76.57499999999999,39.25873250000001],[-76.57499999999999,39.258621800000014],[-76.57499999999999,39.256450700000016],[-76.57499999999999,39.256392800000015],[-76.57499999999999,39.25598100000002],[-76.57499999999999,39.2555691],[-76.57499999999999,39.25515730000001],[-76.57499999999999,39.25474550000001],[-76.57499999999999,39.25446740000001],[-76.57499999999999,39.253865399999995],[-76.57499999999999,39.25379220000002],[-76.57499999999999,39.2527523],[-76.57499999999999,39.2526239],[-76.57499999999999,39.251649999999984],[-76.57499999999999,39.25151549999998],[-76.57499999999999,39.25117540000002],[-76.57499999999999,39.25108949999998],[-76.57499999999999,39.24850279999998],[-76.57499999999999,39.24826669999999],[-76.57499999999999,39.247809200000006],[-76.57499999999999,39.24774389999999],[-76.57499999999999,39.24729689999998],[-76.57499999999999,39.24689330000001],[-76.57499999999999,39.2260594],[-76.57499999999999,39.22550699999999],[-76.57499999999999,39.22500000000002],[-76.57506130000002,39.22500000000002],[-76.57675760000001,39.22500000000002],[-76.57763490000002,39.22500000000002],[-76.5777986,39.22500000000002],[-76.57788269999998,39.22500000000002],[-76.5780097,39.22500000000002],[-76.57866330000002,39.22500000000002],[-76.5788564,39.22500000000002],[-76.57961010000002,39.22500000000002],[-76.57966979999998,39.22500000000002],[-76.57988169999999,39.22500000000002],[-76.5800135,39.22500000000002],[-76.5801406,39.22500000000002],[-76.58526389999997,39.22500000000002],[-76.58617880000003,39.22500000000002],[-76.58679540000003,39.22500000000002],[-76.61722659999998,39.22500000000002],[-76.62603080000002,39.22500000000002],[-76.62751559999998,39.22500000000002],[-76.6277088,39.22500000000002],[-76.62816850000002,39.22500000000002],[-76.62966940000001,39.22500000000002],[-76.6303254,39.22500000000002],[-76.63582839999998,39.22500000000002],[-76.63867620000002,39.22500000000002],[-76.64045449999998,39.22500000000002],[-76.64123799999999,39.22500000000002],[-76.6415687,39.22500000000002],[-76.64529900000002,39.22500000000002],[-76.64571710000001,39.22500000000002],[-76.6464671,39.22500000000002]]]}},{"type":"Feature","properties":{},"geometry":{"type":"Polygon","coordinates":[[[-76.57389799999999,39.22500000000002],[-76.57499999999999,39.22500000000002],[-76.57499999999999,39.22550699999999],[-76.57499999999999,39.2260594],[-76.57499999999999,39.24689330000001],[-76.57499999999999,39.24729689999998],[-76.57499999999999,39.24774389999999],[-76.57499999999999,39.247809200000006],[-76.57499999999999,39.24826669999999],[-76.57499999999999,39.24850279999998],[-76.57499999999999,39.25108949999998],[-76.57499999999999,39.25117540000002],[-76.57499999999999,39.25151549999998],[-76.57499999999999,39.251649999999984],[-76.57499999999999,39.2526239],[-76.57499999999999,39.2527523],[-76.57499999999999,39.25379220000002],[-76.57499999999999,39.253865399999995],[-76.57499999999999,39.25446740000001],[-76.57499999999999,39.25474550000001],[-76.57499999999999,39.25515730000001],[-76.57499999999999,39.2555691],[-76.57499999999999,39.25598100000002],[-76.57499999999999,39.25638470000001],[-76.57499999999999,39.256392800000015],[-76.57499999999999,39.256450700000016],[-76.57499999999999,39.258621800000014],[-76.57499999999999,39.25873250000001],[-76.57499999999999,39.2592391],[-76.57499999999999,39.25969220000002],[-76.57499999999999,39.26004039999998],[-76.57499999999999,39.26004619999998],[-76.57499999999999,39.26027290000002],[-76.57499999999999,39.26100969999999],[-76.57499999999999,39.26133229999999],[-76.57499999999999,39.26188239999999],[-76.57499999999999,39.26210500000002],[-76.57499999999999,39.26281210000002],[-76.57499999999999,39.264748],[-76.57499999999999,39.26624099999998],[-76.57499999999999,39.26871240000003],[-76.57499999999999,39.27123210000002],[-76.57499999999999,39.27194270000001],[-76.57499999999999,39.272624699999994],[-76.57499999999999,39.27412029999999],[-76.57499999999999,39.27414540000001],[-76.57499999999999,39.274164600000006],[-76.57499999999999,39.27546330000001],[-76.57499999999999,39.2760973],[-76.57499999999999,39.276160000000004],[-76.57499999999999,39.27656860000002],[-76.57499999999999,39.276975600000014],[-76.57499999999999,39.27708150000001],[-76.57499999999999,39.28636799999998],[-76.57499999999999,39.289758800000016],[-76.57499999999999,39.29179490000001],[-76.57499999999999,39.30000000000001],[-76.51281690000002,39.30000000000001],[-76.5,39.30000000000001],[-76.5,39.29179490000001],[-76.5,39.28732860000002],[-76.5,39.26785990000002],[-76.5,39.24954070000001],[-76.5,39.249317399999995],[-76.5,39.248800200000005],[-76.5,39.24795519999998],[-76.5,39.24784729999999],[-76.5,39.247696399999995],[-76.5,39.242003599999975],[-76.5,39.24192620000002],[-76.5,39.241382999999985],[-76.5,39.24005269999998],[-76.5,39.23964239999998],[-76.5,39.239307999999994],[-76.5,39.23831990000002],[-76.5,39.23766660000001],[-76.5,39.237605599999995],[-76.5,39.23702129999998],[-76.5,39.2367534],[-76.5,39.2361846],[-76.5,39.235917700000016],[-76.5,39.23553989999999],[-76.5,39.231340999999986],[-76.5,39.22941070000002],[-76.5,39.22901949999999],[-76.5,39.22561350000001],[-76.5,39.22500000000002],[-76.5005304,39.22500000000002],[-76.50275679999999,39.22500000000002],[-76.51000570000002,39.22500000000002],[-76.51087990000002,39.22500000000002],[-76.51562139999999,39.22500000000002],[-76.5172867,39.22500000000002],[-76.51863250000002,39.22500000000002],[-76.5191226,39.22500000000002],[-76.51964199999998,39.22500000000002],[-76.5215379,39.22500000000002],[-76.52185379999997,39.22500000000002],[-76.52404139999999,39.22500000000002],[-76.52464509999999,39.22500000000002],[-76.52758419999998,39.22500000000002],[-76.5278098,39.22500000000002],[-76.52892939999998,39.22500000000002],[-76.53408830000001,39.22500000000002],[-76.53449389999997,39.22500000000002],[-76.5348401,39.22500000000002],[-76.5350239,39.22500000000002],[-76.5350775,39.22500000000002],[-76.53513450000003,39.22500000000002],[-76.53576240000001,39.22500000000002],[-76.5366755,39.22500000000002],[-76.53668240000002,39.22500000000002],[-76.5375884,39.22500000000002],[-76.53826320000002,39.22500000000002],[-76.53871959999998,39.22500000000002],[-76.53875119999998,39.22500000000002],[-76.53910439999999,39.22500000000002],[-76.54046369999998,39.22500000000002],[-76.54055199999999,39.22500000000002],[-76.55259890000002,39.22500000000002],[-76.55261489999998,39.22500000000002],[-76.5545343,39.22500000000002],[-76.55599089999998,39.22500000000002],[-76.55800140000002,39.22500000000002],[-76.558246,39.22500000000002],[-76.56161659999998,39.22500000000002],[-76.56201010000001,39.22500000000002],[-76.56246900000002,39.22500000000002],[-76.56328880000001,39.22500000000002],[-76.56414669999998,39.22500000000002],[-76.56553000000002,39.22500000000002],[-76.56620700000002,39.22500000000002],[-76.56681759999998,39.22500000000002],[-76.56736460000002,39.22500000000002],[-76.56743239999997,39.22500000000002],[-76.56780780000003,39.22500000000002],[-76.5694815,39.22500000000002],[-76.57330940000003,39.22500000000002],[-76.57389799999999,39.22500000000002]]]}},{"type":"Feature","properties":{},"geometry":{"type":"Polygon","coordinates":[[[-76.5,39.22561350000001],[-76.5,39.22901949999999],[-76.5,39.22941070000002],[-76.5,39.231340999999986],[-76.5,39.23553989999999],[-76.5,39.235917700000016],[-76.5,39.2361846],[-76.5,39.2367534],[-76.5,39.23702129999998],[-76.5,39.237605599999995],[-76.5,39.23766660000001],[-76.5,39.23831990000002],[-76.5,39.239307999999994],[-76.5,39.23964239999998],[-76.5,39.24005269999998],[-76.5,39.241382999999985],[-76.5,39.24192620000002],[-76.5,39.242003599999975],[-76.5,39.247696399999995],[-76.5,39.24784729999999],[-76.5,39.24795519999998],[-76.5,39.248800200000005],[-76.5,39.249317399999995],[-76.5,39.24954070000001],[-76.5,39.26785990000002],[-76.5,39.27777800000001],[-76.5,39.28732860000002],[-76.5,39.30000000000001],[-76.49097899999998,39.30000000000001],[-76.4904674,39.30000000000001],[-76.48856210000002,39.30000000000001],[-76.47474899999997,39.30000000000001],[-76.47459140000001,39.30000000000001],[-76.4695385,39.30000000000001],[-76.46774770000002,39.30000000000001],[-76.4648947,39.30000000000001],[-76.464587,39.30000000000001],[-76.4638079,39.30000000000001],[-76.462739,39.30000000000001],[-76.4578487,39.30000000000001],[-76.45293750000002,39.30000000000001],[-76.4521949,39.30000000000001],[-76.45201939999998,39.30000000000001],[-76.43726240000001,39.30000000000001],[-76.43203820000002,39.30000000000001],[-76.43170550000002,39.30000000000001],[-76.43153369999999,39.30000000000001],[-76.43120169999997,39.30000000000001],[-76.42500000000001,39.30000000000001],[-76.42500000000001,39.25408340000001],[-76.42500000000001,39.252181399999984],[-76.42500000000001,39.238099999999974],[-76.42500000000001,39.23553959999998],[-76.42500000000001,39.23430130000003],[-76.42500000000001,39.23278920000001],[-76.42500000000001,39.22500000000002],[-76.43800959999999,39.22500000000002],[-76.44317539999997,39.22500000000002],[-76.44326480000001,39.22500000000002],[-76.44509369999997,39.22500000000002],[-76.4607024,39.22500000000002],[-76.46266680000002,39.22500000000002],[-76.4637447,39.22500000000002],[-76.46666629999999,39.22500000000002],[-76.4935284,39.22500000000002],[-76.4965924,39.22500000000002],[-76.49873250000002,39.22500000000002],[-76.4989837,39.22500000000002],[-76.5,39.22500000000002],[-76.5,39.22561350000001]]]}},{"type":"Feature","properties":{},"geometry":{"type":"Polygon","coordinates":[[[-76.42224060000001,39.22500000000002],[-76.42500000000001,39.22500000000002],[-76.42500000000001,39.23278920000001],[-76.42500000000001,39.23430130000003],[-76.42500000000001,39.23553959999998],[-76.42500000000001,39.238099999999974],[-76.42500000000001,39.252181399999984],[-76.42500000000001,39.25408340000001],[-76.42500000000001,39.30000000000001],[-76.41913119999998,39.30000000000001],[-76.41903009999999,39.30000000000001],[-76.41787870000002,39.30000000000001],[-76.4161919,39.30000000000001],[-76.40930889999998,39.30000000000001],[-76.40210530000002,39.30000000000001],[-76.40028790000002,39.30000000000001],[-76.39930120000002,39.30000000000001],[-76.39897339999999,39.30000000000001],[-76.39831750000002,39.30000000000001],[-76.39798969999998,39.30000000000001],[-76.3959898,39.30000000000001],[-76.3864532,39.30000000000001],[-76.38509149999999,39.30000000000001],[-76.3841979,39.30000000000001],[-76.38318900000002,39.30000000000001],[-76.37758810000003,39.30000000000001],[-76.3771989,39.30000000000001],[-76.37593199999998,39.30000000000001],[-76.37513869999998,39.30000000000001],[-76.36928410000002,39.30000000000001],[-76.35910630000001,39.30000000000001],[-76.35823060000001,39.30000000000001],[-76.35786869999998,39.30000000000001],[-76.35636579999999,39.30000000000001],[-76.35188679999999,39.30000000000001],[-76.35000000000002,39.30000000000001],[-76.35000000000002,39.29897110000002],[-76.35000000000002,39.29786300000001],[-76.35000000000002,39.29590589999998],[-76.35000000000002,39.29109319999998],[-76.35000000000002,39.290684999999996],[-76.35000000000002,39.27318459999998],[-76.35000000000002,39.273034199999984],[-76.35000000000002,39.27123719999997],[-76.35000000000002,39.26703279999998],[-76.35000000000002,39.26534729999997],[-76.35000000000002,39.25978329999998],[-76.35000000000002,39.248615400000006],[-76.35000000000002,39.22667689999997],[-76.35000000000002,39.22500000000002],[-76.3536244,39.22500000000002],[-76.36446210000003,39.22500000000002],[-76.36573709999999,39.22500000000002],[-76.37292059999999,39.22500000000002],[-76.37437829999999,39.22500000000002],[-76.380964,39.22500000000002],[-76.39234340000002,39.22500000000002],[-76.3924624,39.22500000000002],[-76.3928325,39.22500000000002],[-76.3944123,39.22500000000002],[-76.39589949999998,39.22500000000002],[-76.4019591,39.22500000000002],[-76.40991709999997,39.22500000000002],[-76.41411110000001,39.22500000000002],[-76.4163236,39.22500000000002],[-76.41902290000002,39.22500000000002],[-76.42224060000001,39.22500000000002]]]}},{"type":"Feature","properties":{},"geometry":{"type":"Polygon","coordinates":[[[-76.3330689,39.22500000000002],[-76.33384219999999,39.22500000000002],[-76.35000000000002,39.22500000000002],[-76.35000000000002,39.22667689999997],[-76.35000000000002,39.248615400000006],[-76.35000000000002,39.25978329999998],[-76.35000000000002,39.26534729999997],[-76.35000000000002,39.26703279999998],[-76.35000000000002,39.27123719999997],[-76.35000000000002,39.273034199999984],[-76.35000000000002,39.27318459999998],[-76.35000000000002,39.290684999999996],[-76.35000000000002,39.29109319999998],[-76.35000000000002,39.29590589999998],[-76.35000000000002,39.29786300000001],[-76.35000000000002,39.29897110000002],[-76.35000000000002,39.30000000000001],[-76.34954549999998,39.30000000000001],[-76.34101820000001,39.30000000000001],[-76.3396864,39.30000000000001],[-76.33713210000002,39.30000000000001],[-76.33230129999998,39.30000000000001],[-76.33127940000003,39.30000000000001],[-76.33031920000002,39.30000000000001],[-76.3230757,39.30000000000001],[-76.30220939999998,39.30000000000001],[-76.29875779999998,39.30000000000001],[-76.28887409999999,39.30000000000001],[-76.28714439999999,39.30000000000001],[-76.28667719999999,39.30000000000001],[-76.2839189,39.30000000000001],[-76.2817081,39.30000000000001],[-76.28061539999999,39.30000000000001],[-76.27926230000003,39.30000000000001],[-76.27665089999999,39.30000000000001],[-76.27648110000001,39.30000000000001],[-76.27499999999998,39.30000000000001],[-76.27499999999998,39.29903519999999],[-76.27499999999998,39.29740149999998],[-76.27499999999998,39.29645690000001],[-76.27499999999998,39.29397110000002],[-76.27499999999998,39.290442900000016],[-76.27499999999998,39.284764800000005],[-76.27499999999998,39.27736440000001],[-76.27499999999998,39.27535569999998],[-76.27499999999998,39.2728927],[-76.27499999999998,39.27128750000003],[-76.27499999999998,39.26491570000002],[-76.27499999999998,39.25510910000003],[-76.27499999999998,39.23441559999998],[-76.27499999999998,39.2261972],[-76.27499999999998,39.22500000000002],[-76.2852297,39.22500000000002],[-76.28825369999998,39.22500000000002],[-76.292347,39.22500000000002],[-76.31397320000002,39.22500000000002],[-76.3197634,39.22500000000002],[-76.3330689,39.22500000000002]]]}},{"type":"Feature","properties":{},"geometry":{"type":"Polygon","coordinates":[[[-76.27259900000001,39.22500000000002],[-76.27499999999998,39.22500000000002],[-76.27499999999998,39.2261972],[-76.27499999999998,39.23441559999998],[-76.27499999999998,39.25510910000003],[-76.27499999999998,39.26491570000002],[-76.27499999999998,39.27128750000003],[-76.27499999999998,39.2728927],[-76.27499999999998,39.27535569999998],[-76.27499999999998,39.27736440000001],[-76.27499999999998,39.284764800000005],[-76.27499999999998,39.290442900000016],[-76.27499999999998,39.29397110000002],[-76.27499999999998,39.29645690000001],[-76.27499999999998,39.29740149999998],[-76.27499999999998,39.29903519999999],[-76.27499999999998,39.30000000000001],[-76.2740799,39.30000000000001],[-76.2719659,39.30000000000001],[-76.26434610000001,39.30000000000001],[-76.2605739,39.30000000000001],[-76.24273090000003,39.30000000000001],[-76.24216009999998,39.30000000000001],[-76.23972650000002,39.30000000000001],[-76.238564,39.30000000000001],[-76.23660419999999,39.30000000000001],[-76.23657580000003,39.30000000000001],[-76.2354532,39.30000000000001],[-76.2335529,39.30000000000001],[-76.23318039999998,39.30000000000001],[-76.22446100000002,39.30000000000001],[-76.22420369999998,39.30000000000001],[-76.2237897,39.30000000000001],[-76.22338860000002,39.30000000000001],[-76.22298009999997,39.30000000000001],[-76.22255430000001,39.30000000000001],[-76.22242399999999,39.30000000000001],[-76.20944500000002,39.30000000000001],[-76.2043807,39.30000000000001],[-76.2017495,39.30000000000001],[-76.19999999999999,39.30000000000001],[-76.19999999999999,39.29644639999998],[-76.19999999999999,39.28188449999999],[-76.19999999999999,39.280553],[-76.19999999999999,39.28016050000002],[-76.19999999999999,39.276727900000026],[-76.19999999999999,39.25456430000003],[-76.19999999999999,39.25439019999999],[-76.19999999999999,39.2506396],[-76.19999999999999,39.22500000000002],[-76.23371980000002,39.22500000000002],[-76.23451590000002,39.22500000000002],[-76.2388229,39.22500000000002],[-76.23995550000001,39.22500000000002],[-76.24065610000002,39.22500000000002],[-76.24104979999998,39.22500000000002],[-76.2415757,39.22500000000002],[-76.24203299999999,39.22500000000002],[-76.2432326,39.22500000000002],[-76.24360619999999,39.22500000000002],[-76.24418589999999,39.22500000000002],[-76.24476570000002,39.22500000000002],[-76.2453463,39.22500000000002],[-76.245926,39.22500000000002],[-76.24784110000002,39.22500000000002],[-76.2539653,39.22500000000002],[-76.25666369999999,39.22500000000002],[-76.2650506,39.22500000000002],[-76.27259900000001,39.22500000000002]]]}},{"type":"Feature","properties":{},"geometry":{"type":"Polygon","coordinates":[[[-76.49097899999998,39.30000000000001],[-76.5,39.30000000000001],[-76.5,39.302595],[-76.5,39.30274780000002],[-76.5,39.30309820000002],[-76.5,39.30391780000002],[-76.5,39.30418930000002],[-76.5,39.30484439999998],[-76.5,39.30669230000001],[-76.5,39.323614599999985],[-76.5,39.375],[-76.42500000000001,39.375],[-76.42500000000001,39.334685200000024],[-76.42500000000001,39.33390170000001],[-76.42500000000001,39.332818799999984],[-76.42500000000001,39.332309399999986],[-76.42500000000001,39.3312133],[-76.42500000000001,39.33049990000001],[-76.42500000000001,39.32826469999998],[-76.42500000000001,39.3281614],[-76.42500000000001,39.32785369999999],[-76.42500000000001,39.32712550000002],[-76.42500000000001,39.32673870000002],[-76.42500000000001,39.32635520000002],[-76.42500000000001,39.32001300000002],[-76.42500000000001,39.319229500000006],[-76.42500000000001,39.31890550000003],[-76.42500000000001,39.318309899999974],[-76.42500000000001,39.31820049999999],[-76.42500000000001,39.317501900000025],[-76.42500000000001,39.317190100000005],[-76.42500000000001,39.31656609999999],[-76.42500000000001,39.316500399999995],[-76.42500000000001,39.3162542],[-76.42500000000001,39.31388390000001],[-76.42500000000001,39.31271400000003],[-76.42500000000001,39.30448749999999],[-76.42500000000001,39.302933499999995],[-76.42500000000001,39.30000000000001],[-76.43120169999997,39.30000000000001],[-76.43153369999999,39.30000000000001],[-76.43170550000002,39.30000000000001],[-76.43203820000002,39.30000000000001],[-76.43726240000001,39.30000000000001],[-76.45201939999998,39.30000000000001],[-76.4521949,39.30000000000001],[-76.45293750000002,39.30000000000001],[-76.4578487,39.30000000000001],[-76.462739,39.30000000000001],[-76.4638079,39.30000000000001],[-76.464587,39.30000000000001],[-76.4648947,39.30000000000001],[-76.46774770000002,39.30000000000001],[-76.4695385,39.30000000000001],[-76.47459140000001,39.30000000000001],[-76.47474899999997,39.30000000000001],[-76.48856210000002,39.30000000000001],[-76.4904674,39.30000000000001],[-76.49097899999998,39.30000000000001]]]}},{"type":"Feature","properties":{},"geometry":{"type":"Polygon","coordinates":[[[-76.42500000000001,39.302933499999995],[-76.42500000000001,39.30448749999999],[-76.42500000000001,39.31271400000003],[-76.42500000000001,39.31388390000001],[-76.42500000000001,39.3162542],[-76.42500000000001,39.316500399999995],[-76.42500000000001,39.31656609999999],[-76.42500000000001,39.317190100000005],[-76.42500000000001,39.317501900000025],[-76.42500000000001,39.31820049999999],[-76.42500000000001,39.318309899999974],[-76.42500000000001,39.31890550000003],[-76.42500000000001,39.319229500000006],[-76.42500000000001,39.32001300000002],[-76.42500000000001,39.32635520000002],[-76.42500000000001,39.32673870000002],[-76.42500000000001,39.32712550000002],[-76.42500000000001,39.32785369999999],[-76.42500000000001,39.3281614],[-76.42500000000001,39.32826469999998],[-76.42500000000001,39.33049990000001],[-76.42500000000001,39.3312133],[-76.42500000000001,39.332309399999986],[-76.42500000000001,39.332818799999984],[-76.42500000000001,39.33390170000001],[-76.42500000000001,39.334685200000024],[-76.42500000000001,39.375],[-76.38244379999998,39.375],[-76.38153069999998,39.375],[-76.3774497,39.375],[-76.3716609,39.375],[-76.37138290000001,39.375],[-76.35020759999998,39.375],[-76.35000000000002,39.375],[-76.35000000000002,39.37497029999997],[-76.35000000000002,39.374884399999985],[-76.35000000000002,39.370030199999974],[-76.35000000000002,39.369536400000015],[-76.35000000000002,39.366856799999994],[-76.35000000000002,39.3664948],[-76.35000000000002,39.359386099999995],[-76.35000000000002,39.358493399999986],[-76.35000000000002,39.358385399999975],[-76.35000000000002,39.35545400000001],[-76.35000000000002,39.35178969999998],[-76.35000000000002,39.35011850000001],[-76.35000000000002,39.34996410000002],[-76.35000000000002,39.34970179999999],[-76.35000000000002,39.34935350000001],[-76.35000000000002,39.34896149999997],[-76.35000000000002,39.346945300000016],[-76.35000000000002,39.346670399999994],[-76.35000000000002,39.345471599999996],[-76.35000000000002,39.34397849999999],[-76.35000000000002,39.340862000000016],[-76.35000000000002,39.340680599999985],[-76.35000000000002,39.3405568],[-76.35000000000002,39.33413159999998],[-76.35000000000002,39.33368150000001],[-76.35000000000002,39.32595429999998],[-76.35000000000002,39.324334299999975],[-76.35000000000002,39.323784699999976],[-76.35000000000002,39.31782679999998],[-76.35000000000002,39.31721479999999],[-76.35000000000002,39.30889530000002],[-76.35000000000002,39.30885139999998],[-76.35000000000002,39.308476299999995],[-76.35000000000002,39.30712740000001],[-76.35000000000002,39.30370970000001],[-76.35000000000002,39.30000000000001],[-76.35188679999999,39.30000000000001],[-76.35636579999999,39.30000000000001],[-76.35786869999998,39.30000000000001],[-76.35823060000001,39.30000000000001],[-76.35910630000001,39.30000000000001],[-76.36928410000002,39.30000000000001],[-76.37513869999998,39.30000000000001],[-76.37593199999998,39.30000000000001],[-76.3771989,39.30000000000001],[-76.37758810000003,39.30000000000001],[-76.38318900000002,39.30000000000001],[-76.3841979,39.30000000000001],[-76.38509149999999,39.30000000000001],[-76.3864532,39.30000000000001],[-76.3959898,39.30000000000001],[-76.39798969999998,39.30000000000001],[-76.39831750000002,39.30000000000001],[-76.39897339999999,39.30000000000001],[-76.39930120000002,39.30000000000001],[-76.40028790000002,39.30000000000001],[-76.40210530000002,39.30000000000001],[-76.40930889999998,39.30000000000001],[-76.4161919,39.30000000000001],[-76.41787870000002,39.30000000000001],[-76.41903009999999,39.30000000000001],[-76.41913119999998,39.30000000000001],[-76.42500000000001,39.30000000000001],[-76.42500000000001,39.302933499999995]]]}},{"type":"Feature","properties":{},"geometry":{"type":"Polygon","coordinates":[[[-76.34954549999998,39.30000000000001],[-76.35000000000002,39.30000000000001],[-76.35000000000002,39.30370970000001],[-76.35000000000002,39.30712740000001],[-76.35000000000002,39.308476299999995],[-76.35000000000002,39.30885139999998],[-76.35000000000002,39.30889530000002],[-76.35000000000002,39.31721479999999],[-76.35000000000002,39.31782679999998],[-76.35000000000002,39.323784699999976],[-76.35000000000002,39.324334299999975],[-76.35000000000002,39.32595429999998],[-76.35000000000002,39.33368150000001],[-76.35000000000002,39.33413159999998],[-76.35000000000002,39.3405568],[-76.35000000000002,39.340680599999985],[-76.35000000000002,39.340862000000016],[-76.35000000000002,39.34397849999999],[-76.35000000000002,39.345471599999996],[-76.35000000000002,39.346670399999994],[-76.35000000000002,39.346945300000016],[-76.35000000000002,39.34896149999997],[-76.35000000000002,39.34935350000001],[-76.35000000000002,39.34970179999999],[-76.35000000000002,39.34996410000002],[-76.35000000000002,39.35011850000001],[-76.35000000000002,39.35178969999998],[-76.35000000000002,39.35545400000001],[-76.35000000000002,39.358385399999975],[-76.35000000000002,39.358493399999986],[-76.35000000000002,39.359386099999995],[-76.35000000000002,39.3664948],[-76.35000000000002,39.366856799999994],[-76.35000000000002,39.369536400000015],[-76.35000000000002,39.370030199999974],[-76.35000000000002,39.374884399999985],[-76.35000000000002,39.37497029999997],[-76.35000000000002,39.375],[-76.3499812,39.375],[-76.34898140000001,39.375],[-76.34736229999999,39.375],[-76.3459714,39.375],[-76.34587190000002,39.375],[-76.34348390000002,39.375],[-76.34344929999997,39.375],[-76.33491629999997,39.375],[-76.33340930000003,39.375],[-76.3113826,39.375],[-76.30121109999999,39.375],[-76.27499999999998,39.375],[-76.27499999999998,39.374684100000025],[-76.27499999999998,39.37403560000001],[-76.27499999999998,39.363339499999995],[-76.27499999999998,39.3620621],[-76.27499999999998,39.36163160000001],[-76.27499999999998,39.3615494],[-76.27499999999998,39.36134920000001],[-76.27499999999998,39.36099359999997],[-76.27499999999998,39.36017559999999],[-76.27499999999998,39.359810400000015],[-76.27499999999998,39.35772830000002],[-76.27499999999998,39.357491400000015],[-76.27499999999998,39.35723410000003],[-76.27499999999998,39.356508700000006],[-76.27499999999998,39.35095419999999],[-76.27499999999998,39.3506352],[-76.27499999999998,39.35003599999999],[-76.27499999999998,39.34884740000001],[-76.27499999999998,39.34480910000002],[-76.27499999999998,39.34407299999998],[-76.27499999999998,39.33911599999999],[-76.27499999999998,39.3361458],[-76.27499999999998,39.335929599999986],[-76.27499999999998,39.335795700000006],[-76.27499999999998,39.33569080000001],[-76.27499999999998,39.33372409999998],[-76.27499999999998,39.33266570000001],[-76.27499999999998,39.329315099999974],[-76.27499999999998,39.32919959999998],[-76.27499999999998,39.326376100000004],[-76.27499999999998,39.324583099999984],[-76.27499999999998,39.323637599999984],[-76.27499999999998,39.31972109999998],[-76.27499999999998,39.315489000000014],[-76.27499999999998,39.3115851],[-76.27499999999998,39.31105830000001],[-76.27499999999998,39.30000000000001],[-76.27665089999999,39.30000000000001],[-76.27926230000003,39.30000000000001],[-76.28061539999999,39.30000000000001],[-76.2817081,39.30000000000001],[-76.2839189,39.30000000000001],[-76.28667719999999,39.30000000000001],[-76.28714439999999,39.30000000000001],[-76.28887409999999,39.30000000000001],[-76.29875779999998,39.30000000000001],[-76.30220939999998,39.30000000000001],[-76.3230757,39.30000000000001],[-76.33031920000002,39.30000000000001],[-76.33127940000003,39.30000000000001],[-76.33230129999998,39.30000000000001],[-76.33713210000002,39.30000000000001],[-76.3396864,39.30000000000001],[-76.34014209999998,39.30000000000001],[-76.34954549999998,39.30000000000001]]]}},{"type":"Feature","properties":{},"geometry":{"type":"Polygon","coordinates":[[[-76.2740799,39.30000000000001],[-76.27499999999998,39.30000000000001],[-76.27499999999998,39.31105830000001],[-76.27499999999998,39.3115851],[-76.27499999999998,39.315489000000014],[-76.27499999999998,39.31972109999998],[-76.27499999999998,39.323637599999984],[-76.27499999999998,39.324583099999984],[-76.27499999999998,39.326376100000004],[-76.27499999999998,39.32919959999998],[-76.27499999999998,39.329315099999974],[-76.27499999999998,39.33266570000001],[-76.27499999999998,39.33372409999998],[-76.27499999999998,39.33569080000001],[-76.27499999999998,39.335795700000006],[-76.27499999999998,39.335929599999986],[-76.27499999999998,39.3361458],[-76.27499999999998,39.33911599999999],[-76.27499999999998,39.34407299999998],[-76.27499999999998,39.34480910000002],[-76.27499999999998,39.34884740000001],[-76.27499999999998,39.35003599999999],[-76.27499999999998,39.3506352],[-76.27499999999998,39.35095419999999],[-76.27499999999998,39.356508700000006],[-76.27499999999998,39.35723410000003],[-76.27499999999998,39.357491400000015],[-76.27499999999998,39.35772830000002],[-76.27499999999998,39.359810400000015],[-76.27499999999998,39.36017559999999],[-76.27499999999998,39.36099359999997],[-76.27499999999998,39.36134920000001],[-76.27499999999998,39.3615494],[-76.27499999999998,39.36163160000001],[-76.27499999999998,39.3620621],[-76.27499999999998,39.363339499999995],[-76.27499999999998,39.37403560000001],[-76.27499999999998,39.374684100000025],[-76.27499999999998,39.375],[-76.2746368,39.375],[-76.27395999999999,39.375],[-76.26880740000001,39.375],[-76.25818479999998,39.375],[-76.25352400000003,39.375],[-76.24930410000002,39.375],[-76.24669749999998,39.375],[-76.24591620000001,39.375],[-76.19999999999999,39.375],[-76.19999999999999,39.37167440000002],[-76.19999999999999,39.37083660000002],[-76.19999999999999,39.370457699999974],[-76.19999999999999,39.36860919999998],[-76.19999999999999,39.36660710000001],[-76.19999999999999,39.365470800000026],[-76.19999999999999,39.364703599999984],[-76.19999999999999,39.36424010000002],[-76.19999999999999,39.360754199999974],[-76.19999999999999,39.358338600000025],[-76.19999999999999,39.357149600000014],[-76.19999999999999,39.35696230000002],[-76.19999999999999,39.34664550000002],[-76.19999999999999,39.34537660000001],[-76.19999999999999,39.340384099999994],[-76.19999999999999,39.33980170000001],[-76.19999999999999,39.33805510000002],[-76.19999999999999,39.3350767],[-76.19999999999999,39.333811500000024],[-76.19999999999999,39.3287684],[-76.19999999999999,39.3283457],[-76.19999999999999,39.327935000000025],[-76.19999999999999,39.32751330000002],[-76.19999999999999,39.3270943],[-76.19999999999999,39.32669609999999],[-76.19999999999999,39.315536899999984],[-76.19999999999999,39.315311399999985],[-76.19999999999999,39.306066799999996],[-76.19999999999999,39.301578500000005],[-76.19999999999999,39.30000000000001],[-76.2017495,39.30000000000001],[-76.2043807,39.30000000000001],[-76.20921650000003,39.30000000000001],[-76.22242399999999,39.30000000000001],[-76.22255430000001,39.30000000000001],[-76.22298009999997,39.30000000000001],[-76.22338860000002,39.30000000000001],[-76.2237897,39.30000000000001],[-76.22420369999998,39.30000000000001],[-76.22446100000002,39.30000000000001],[-76.23318039999998,39.30000000000001],[-76.2335529,39.30000000000001],[-76.2354532,39.30000000000001],[-76.23657580000003,39.30000000000001],[-76.23660419999999,39.30000000000001],[-76.238564,39.30000000000001],[-76.23972650000002,39.30000000000001],[-76.24273090000003,39.30000000000001],[-76.2605739,39.30000000000001],[-76.26434610000001,39.30000000000001],[-76.2719659,39.30000000000001],[-76.2740799,39.30000000000001]]]}},{"type":"Feature","properties":{},"geometry":{"type":"Polygon","coordinates":[[[-76.19999999999999,39.301578500000005],[-76.19999999999999,39.306066799999996],[-76.19999999999999,39.315311399999985],[-76.19999999999999,39.315536899999984],[-76.19999999999999,39.32669609999999],[-76.19999999999999,39.3270943],[-76.19999999999999,39.32751330000002],[-76.19999999999999,39.327935000000025],[-76.19999999999999,39.3283457],[-76.19999999999999,39.3287684],[-76.19999999999999,39.333811500000024],[-76.19999999999999,39.3350767],[-76.19999999999999,39.33805510000002],[-76.19999999999999,39.33980170000001],[-76.19999999999999,39.340384099999994],[-76.19999999999999,39.34537660000001],[-76.19999999999999,39.34664550000002],[-76.19999999999999,39.35696230000002],[-76.19999999999999,39.357149600000014],[-76.19999999999999,39.358338600000025],[-76.19999999999999,39.360754199999974],[-76.19999999999999,39.36424010000002],[-76.19999999999999,39.364703599999984],[-76.19999999999999,39.365470800000026],[-76.19999999999999,39.36660710000001],[-76.19999999999999,39.36860919999998],[-76.19999999999999,39.370457699999974],[-76.19999999999999,39.37083660000002],[-76.19999999999999,39.37167440000002],[-76.19999999999999,39.375],[-76.19264099999998,39.375],[-76.19090670000003,39.375],[-76.18940090000001,39.375],[-76.1831449,39.375],[-76.176448,39.375],[-76.17544040000001,39.375],[-76.1741356,39.375],[-76.17244670000002,39.375],[-76.17036839999997,39.375],[-76.16888410000001,39.375],[-76.16783199999998,39.375],[-76.16385930000001,39.375],[-76.14073789999998,39.375],[-76.13824599999998,39.375],[-76.13552700000002,39.375],[-76.13368639999999,39.375],[-76.125,39.375],[-76.125,39.37458720000001],[-76.125,39.37155000000001],[-76.125,39.37118179999999],[-76.125,39.37087009999999],[-76.125,39.370458299999996],[-76.125,39.37008750000001],[-76.125,39.367207500000006],[-76.125,39.364968799999986],[-76.125,39.363348299999984],[-76.125,39.36269679999998],[-76.125,39.35760060000001],[-76.125,39.35720620000001],[-76.125,39.355833200000006],[-76.125,39.33896440000001],[-76.125,39.337795700000015],[-76.125,39.337156300000004],[-76.125,39.33417350000002],[-76.125,39.3334471],[-76.125,39.329009499999984],[-76.125,39.32835069999999],[-76.125,39.32382519999999],[-76.125,39.317445299999974],[-76.125,39.31725180000001],[-76.125,39.31588399999998],[-76.125,39.30000000000001],[-76.17850170000003,39.30000000000001],[-76.17990170000002,39.30000000000001],[-76.1977177,39.30000000000001],[-76.19999999999999,39.30000000000001],[-76.19999999999999,39.301578500000005]]]}},{"type":"Feature","properties":{},"geometry":{"type":"Polygon","coordinates":[[[-76.125,39.31588399999998],[-76.125,39.31725180000001],[-76.125,39.317445299999974],[-76.125,39.32382519999999],[-76.125,39.32835069999999],[-76.125,39.329009499999984],[-76.125,39.3334471],[-76.125,39.33417350000002],[-76.125,39.337156300000004],[-76.125,39.337795700000015],[-76.125,39.33896440000001],[-76.125,39.355833200000006],[-76.125,39.35720620000001],[-76.125,39.35760060000001],[-76.125,39.36269679999998],[-76.125,39.363348299999984],[-76.125,39.364968799999986],[-76.125,39.367207500000006],[-76.125,39.37008750000001],[-76.125,39.370458299999996],[-76.125,39.37087009999999],[-76.125,39.37118179999999],[-76.125,39.37155000000001],[-76.125,39.37458720000001],[-76.125,39.375],[-76.1243427,39.375],[-76.11800419999997,39.375],[-76.11725910000001,39.375],[-76.1166417,39.375],[-76.11575490000001,39.375],[-76.1155865,39.375],[-76.11457360000003,39.375],[-76.10520150000002,39.375],[-76.09596820000002,39.375],[-76.09168399999999,39.375],[-76.08929289999998,39.375],[-76.07716470000003,39.375],[-76.0712337,39.375],[-76.05000000000001,39.375],[-76.05000000000001,39.37281139999999],[-76.05000000000001,39.37212249999999],[-76.05000000000001,39.37069459999998],[-76.05000000000001,39.37030379999999],[-76.05000000000001,39.36906750000003],[-76.05000000000001,39.30000000000001],[-76.125,39.30000000000001],[-76.125,39.31588399999998]]]}},{"type":"Feature","properties":{},"geometry":{"type":"Polygon","coordinates":[[[-76.05000000000001,39.30000000000001],[-76.05000000000001,39.36906750000003],[-76.05000000000001,39.37030379999999],[-76.05000000000001,39.37069459999998],[-76.05000000000001,39.37212249999999],[-76.05000000000001,39.37281139999999],[-76.05000000000001,39.375],[-76.04219119999999,39.375],[-75.9959589,39.375],[-75.99448710000001,39.375],[-75.99156269999997,39.375],[-75.99115,39.375],[-75.98592660000003,39.375],[-75.98551220000002,39.375],[-75.98346249999997,39.375],[-75.98231399999997,39.375],[-75.97812149999999,39.375],[-75.97500000000002,39.375],[-75.97500000000002,39.373664899999994],[-75.97500000000002,39.372516099999984],[-75.97500000000002,39.36817150000002],[-75.97500000000002,39.36539590000001],[-75.97500000000002,39.36417369999998],[-75.97500000000002,39.3565653],[-75.97500000000002,39.35552230000002],[-75.97500000000002,39.34973209999998],[-75.97500000000002,39.34550760000002],[-75.97500000000002,39.345191399999976],[-75.97500000000002,39.30000000000001],[-76.05000000000001,39.30000000000001]]]}},{"type":"Feature","properties":{},"geometry":{"type":"Polygon","coordinates":[[[-75.97500000000002,39.345191399999976],[-75.97500000000002,39.34550760000002],[-75.97500000000002,39.34973209999998],[-75.97500000000002,39.35552230000002],[-75.97500000000002,39.3565653],[-75.97500000000002,39.36417369999998],[-75.97500000000002,39.36539590000001],[-75.97500000000002,39.36817150000002],[-75.97500000000002,39.372516099999984],[-75.97500000000002,39.373664899999994],[-75.97500000000002,39.375],[-75.9730659,39.375],[-75.97141859999999,39.375],[-75.9663516,39.375],[-75.95621649999998,39.375],[-75.95271819999999,39.375],[-75.9471658,39.375],[-75.94596080000002,39.375],[-75.94173690000002,39.375],[-75.93573120000002,39.375],[-75.92296499999998,39.375],[-75.92257419999999,39.375],[-75.92236969999999,39.375],[-75.89999999999998,39.375],[-75.89999999999998,39.37460199999998],[-75.89999999999998,39.37408720000002],[-75.89999999999998,39.37374080000001],[-75.89999999999998,39.372760099999994],[-75.89999999999998,39.36689769999998],[-75.89999999999998,39.36629879999998],[-75.89999999999998,39.36625520000001],[-75.89999999999998,39.3660878],[-75.89999999999998,39.36604010000002],[-75.89999999999998,39.3644147],[-75.89999999999998,39.36362329999997],[-75.89999999999998,39.36285090000001],[-75.89999999999998,39.30000000000001],[-75.97500000000002,39.30000000000001],[-75.97500000000002,39.345191399999976]]]}},{"type":"Feature","properties":{},"geometry":{"type":"Polygon","coordinates":[[[-76.38244379999998,39.375],[-76.42500000000001,39.375],[-76.42500000000001,39.44999999999999],[-76.383194,39.44999999999999],[-76.35000000000002,39.44999999999999],[-76.35000000000002,39.39614469999998],[-76.35000000000002,39.395764199999974],[-76.35000000000002,39.395471799999996],[-76.35000000000002,39.39519680000001],[-76.35000000000002,39.394933700000024],[-76.35000000000002,39.394050900000025],[-76.35000000000002,39.39132230000001],[-76.35000000000002,39.38511629999999],[-76.35000000000002,39.3850898],[-76.35000000000002,39.384943299999975],[-76.35000000000002,39.38478479999998],[-76.35000000000002,39.375],[-76.35020759999998,39.375],[-76.37138290000001,39.375],[-76.3716609,39.375],[-76.3774497,39.375],[-76.38153069999998,39.375],[-76.38244379999998,39.375]]]}},{"type":"Feature","properties":{},"geometry":{"type":"Polygon","coordinates":[[[-76.3459714,39.375],[-76.34736229999999,39.375],[-76.34898140000001,39.375],[-76.3499812,39.375],[-76.35000000000002,39.375],[-76.35000000000002,39.38478479999998],[-76.35000000000002,39.384943299999975],[-76.35000000000002,39.3850898],[-76.35000000000002,39.38511629999999],[-76.35000000000002,39.39132230000001],[-76.35000000000002,39.394050900000025],[-76.35000000000002,39.394933700000024],[-76.35000000000002,39.39519680000001],[-76.35000000000002,39.395471799999996],[-76.35000000000002,39.395764199999974],[-76.35000000000002,39.39614469999998],[-76.35000000000002,39.44999999999999],[-76.27729679999999,39.44999999999999],[-76.27686460000001,39.44999999999999],[-76.27499999999998,39.44999999999999],[-76.27499999999998,39.4418306],[-76.27499999999998,39.43973829999999],[-76.27499999999998,39.42325310000001],[-76.27499999999998,39.4198404],[-76.27499999999998,39.41953419999999],[-76.27499999999998,39.41943409999999],[-76.27499999999998,39.419220499999994],[-76.27499999999998,39.4176276],[-76.27499999999998,39.41727850000001],[-76.27499999999998,39.416402500000004],[-76.27499999999998,39.41615630000001],[-76.27499999999998,39.41232359999998],[-76.27499999999998,39.412006399999996],[-76.27499999999998,39.410964999999976],[-76.27499999999998,39.40997859999999],[-76.27499999999998,39.40897639999997],[-76.27499999999998,39.40679669999997],[-76.27499999999998,39.406288200000006],[-76.27499999999998,39.40587909999999],[-76.27499999999998,39.39445060000003],[-76.27499999999998,39.38910950000002],[-76.27499999999998,39.38481860000002],[-76.27499999999998,39.38428640000001],[-76.27499999999998,39.38317919999997],[-76.27499999999998,39.38238580000001],[-76.27499999999998,39.382264299999974],[-76.27499999999998,39.37995319999999],[-76.27499999999998,39.379774699999984],[-76.27499999999998,39.379536099999996],[-76.27499999999998,39.37856670000002],[-76.27499999999998,39.37817910000001],[-76.27499999999998,39.375],[-76.30121109999999,39.375],[-76.3113826,39.375],[-76.33340930000003,39.375],[-76.33491629999997,39.375],[-76.34344929999997,39.375],[-76.34348390000002,39.375],[-76.34587190000002,39.375],[-76.3459714,39.375]]]}},{"type":"Feature","properties":{},"geometry":{"type":"Polygon","coordinates":[[[-76.2746368,39.375],[-76.27499999999998,39.375],[-76.27499999999998,39.37817910000001],[-76.27499999999998,39.37856670000002],[-76.27499999999998,39.379536099999996],[-76.27499999999998,39.379774699999984],[-76.27499999999998,39.37995319999999],[-76.27499999999998,39.382264299999974],[-76.27499999999998,39.38238580000001],[-76.27499999999998,39.38317919999997],[-76.27499999999998,39.38428640000001],[-76.27499999999998,39.38481860000002],[-76.27499999999998,39.38910950000002],[-76.27499999999998,39.39445060000003],[-76.27499999999998,39.40587909999999],[-76.27499999999998,39.406288200000006],[-76.27499999999998,39.40679669999997],[-76.27499999999998,39.40897639999997],[-76.27499999999998,39.40997859999999],[-76.27499999999998,39.410964999999976],[-76.27499999999998,39.412006399999996],[-76.27499999999998,39.41232359999998],[-76.27499999999998,39.41615630000001],[-76.27499999999998,39.416402500000004],[-76.27499999999998,39.41727850000001],[-76.27499999999998,39.4176276],[-76.27499999999998,39.419220499999994],[-76.27499999999998,39.41943409999999],[-76.27499999999998,39.41953419999999],[-76.27499999999998,39.4198404],[-76.27499999999998,39.42325310000001],[-76.27499999999998,39.43973829999999],[-76.27499999999998,39.4418306],[-76.27499999999998,39.44999999999999],[-76.270288,39.44999999999999],[-76.25919800000003,39.44999999999999],[-76.25898339999998,39.44999999999999],[-76.25822849999997,39.44999999999999],[-76.2578724,39.44999999999999],[-76.25720189999998,39.44999999999999],[-76.25657439999998,39.44999999999999],[-76.25172049999998,39.44999999999999],[-76.25128690000003,39.44999999999999],[-76.25115540000002,39.44999999999999],[-76.25061950000003,39.44999999999999],[-76.23269829999998,39.44999999999999],[-76.20537990000003,39.44999999999999],[-76.19999999999999,39.44999999999999],[-76.19999999999999,39.39354580000003],[-76.19999999999999,39.39232800000002],[-76.19999999999999,39.391937600000006],[-76.19999999999999,39.39165989999998],[-76.19999999999999,39.39004870000002],[-76.19999999999999,39.38781999999998],[-76.19999999999999,39.38622029999999],[-76.19999999999999,39.38028029999998],[-76.19999999999999,39.38011039999998],[-76.19999999999999,39.379461900000024],[-76.19999999999999,39.375],[-76.24591620000001,39.375],[-76.24669749999998,39.375],[-76.24930410000002,39.375],[-76.25352400000003,39.375],[-76.25818479999998,39.375],[-76.26880740000001,39.375],[-76.27395999999999,39.375],[-76.2746368,39.375]]]}},{"type":"Feature","properties":{},"geometry":{"type":"Polygon","coordinates":[[[-76.19264099999998,39.375],[-76.19999999999999,39.375],[-76.19999999999999,39.379461900000024],[-76.19999999999999,39.38011039999998],[-76.19999999999999,39.38028029999998],[-76.19999999999999,39.38622029999999],[-76.19999999999999,39.38781999999998],[-76.19999999999999,39.39004870000002],[-76.19999999999999,39.39165989999998],[-76.19999999999999,39.391937600000006],[-76.19999999999999,39.39232800000002],[-76.19999999999999,39.39354580000003],[-76.19999999999999,39.44999999999999],[-76.125,39.44999999999999],[-76.125,39.440060700000004],[-76.125,39.439468999999974],[-76.125,39.43868620000001],[-76.125,39.437133500000016],[-76.125,39.436856499999976],[-76.125,39.43548290000001],[-76.125,39.43511810000001],[-76.125,39.43478909999999],[-76.125,39.434579799999995],[-76.125,39.42978219999998],[-76.125,39.428405],[-76.125,39.427385300000026],[-76.125,39.42662200000001],[-76.125,39.42406920000002],[-76.125,39.42063910000002],[-76.125,39.419533899999976],[-76.125,39.415621199999975],[-76.125,39.41407830000003],[-76.125,39.412537199999974],[-76.125,39.40973309999998],[-76.125,39.407766400000014],[-76.125,39.403826700000025],[-76.125,39.4014952],[-76.125,39.399787],[-76.125,39.39854860000003],[-76.125,39.38450399999999],[-76.125,39.38034190000002],[-76.125,39.37946979999998],[-76.125,39.375],[-76.13368639999999,39.375],[-76.13552700000002,39.375],[-76.13824599999998,39.375],[-76.14073789999998,39.375],[-76.16385930000001,39.375],[-76.16783199999998,39.375],[-76.16888410000001,39.375],[-76.17036839999997,39.375],[-76.17244670000002,39.375],[-76.1741356,39.375],[-76.17544040000001,39.375],[-76.176448,39.375],[-76.1831449,39.375],[-76.18940090000001,39.375],[-76.19090670000003,39.375],[-76.19264099999998,39.375]]]}},{"type":"Feature","properties":{},"geometry":{"type":"Polygon","coordinates":[[[-76.125,39.37946979999998],[-76.125,39.38034190000002],[-76.125,39.38450399999999],[-76.125,39.39854860000003],[-76.125,39.399787],[-76.125,39.4014952],[-76.125,39.403826700000025],[-76.125,39.407766400000014],[-76.125,39.40973309999998],[-76.125,39.412537199999974],[-76.125,39.41407830000003],[-76.125,39.415621199999975],[-76.125,39.419533899999976],[-76.125,39.42063910000002],[-76.125,39.42406920000002],[-76.125,39.42662200000001],[-76.125,39.427385300000026],[-76.125,39.428405],[-76.125,39.42978219999998],[-76.125,39.434579799999995],[-76.125,39.43478909999999],[-76.125,39.43511810000001],[-76.125,39.43548290000001],[-76.125,39.436856499999976],[-76.125,39.437133500000016],[-76.125,39.43868620000001],[-76.125,39.439468999999974],[-76.125,39.440060700000004],[-76.125,39.44999999999999],[-76.11396000000002,39.44999999999999],[-76.11145299999998,39.44999999999999],[-76.11049939999998,39.44999999999999],[-76.10926460000002,39.44999999999999],[-76.1073834,39.44999999999999],[-76.1057616,39.44999999999999],[-76.10542450000003,39.44999999999999],[-76.1006893,39.44999999999999],[-76.09890760000002,39.44999999999999],[-76.0987422,39.44999999999999],[-76.09614049999999,39.44999999999999],[-76.09484700000002,39.44999999999999],[-76.09343840000003,39.44999999999999],[-76.09317700000003,39.44999999999999],[-76.09203350000001,39.44999999999999],[-76.08851349999998,39.44999999999999],[-76.08817490000001,39.44999999999999],[-76.08639970000002,39.44999999999999],[-76.08569460000001,39.44999999999999],[-76.08554980000002,39.44999999999999],[-76.08429100000001,39.44999999999999],[-76.08291029999998,39.44999999999999],[-76.07721980000002,39.44999999999999],[-76.07666339999997,39.44999999999999],[-76.0741832,39.44999999999999],[-76.06093390000001,39.44999999999999],[-76.05996399999998,39.44999999999999],[-76.05511689999997,39.44999999999999],[-76.05171560000002,39.44999999999999],[-76.05000000000001,39.44999999999999],[-76.05000000000001,39.446264600000006],[-76.05000000000001,39.423197200000004],[-76.05000000000001,39.412721999999974],[-76.05000000000001,39.400631499999974],[-76.05000000000001,39.39995019999998],[-76.05000000000001,39.399168599999996],[-76.05000000000001,39.398441400000024],[-76.05000000000001,39.39829420000001],[-76.05000000000001,39.398214800000005],[-76.05000000000001,39.397999700000014],[-76.05000000000001,39.39766020000002],[-76.05000000000001,39.39249810000001],[-76.05000000000001,39.38903379999999],[-76.05000000000001,39.38153510000001],[-76.05000000000001,39.375],[-76.0712337,39.375],[-76.07716470000003,39.375],[-76.08929289999998,39.375],[-76.09168399999999,39.375],[-76.09596820000002,39.375],[-76.10520150000002,39.375],[-76.11457360000003,39.375],[-76.1155865,39.375],[-76.11575490000001,39.375],[-76.1166417,39.375],[-76.11725910000001,39.375],[-76.11800419999997,39.375],[-76.1243427,39.375],[-76.125,39.375],[-76.125,39.37946979999998]]]}},{"type":"Feature","properties":{},"geometry":{"type":"Polygon","coordinates":[[[-76.04219119999999,39.375],[-76.05000000000001,39.375],[-76.05000000000001,39.38153510000001],[-76.05000000000001,39.38903379999999],[-76.05000000000001,39.39249810000001],[-76.05000000000001,39.39766020000002],[-76.05000000000001,39.397999700000014],[-76.05000000000001,39.398214800000005],[-76.05000000000001,39.39829420000001],[-76.05000000000001,39.398441400000024],[-76.05000000000001,39.399168599999996],[-76.05000000000001,39.39995019999998],[-76.05000000000001,39.400631499999974],[-76.05000000000001,39.412721999999974],[-76.05000000000001,39.423197200000004],[-76.05000000000001,39.446264600000006],[-76.05000000000001,39.44999999999999],[-76.04870030000001,39.44999999999999],[-76.04021039999998,39.44999999999999],[-76.03789979999999,39.44999999999999],[-76.0315415,39.44999999999999],[-76.02334669999999,39.44999999999999],[-76.01798259999998,39.44999999999999],[-76.0179369,39.44999999999999],[-76.0173964,39.44999999999999],[-76.01572429999999,39.44999999999999],[-76.01058669999998,39.44999999999999],[-76.00299810000001,39.44999999999999],[-75.9968596,39.44999999999999],[-75.99608849999998,39.44999999999999],[-75.9926868,39.44999999999999],[-75.9924307,39.44999999999999],[-75.99041039999997,39.44999999999999],[-75.98986810000002,39.44999999999999],[-75.98931870000001,39.44999999999999],[-75.98930000000001,39.44999999999999],[-75.9887966,39.44999999999999],[-75.98825520000003,39.44999999999999],[-75.98417039999998,39.44999999999999],[-75.98349589999998,39.44999999999999],[-75.97995070000002,39.44999999999999],[-75.97616099999999,39.44999999999999],[-75.97500000000002,39.44999999999999],[-75.97500000000002,39.448160599999994],[-75.97500000000002,39.43595379999999],[-75.97500000000002,39.43313690000002],[-75.97500000000002,39.431633499999975],[-75.97500000000002,39.429801399999974],[-75.97500000000002,39.42470700000001],[-75.97500000000002,39.42422720000002],[-75.97500000000002,39.414729799999975],[-75.97500000000002,39.41357499999998],[-75.97500000000002,39.37967739999999],[-75.97500000000002,39.375],[-75.97812149999999,39.375],[-75.98231399999997,39.375],[-75.98346249999997,39.375],[-75.98551220000002,39.375],[-75.98592660000003,39.375],[-75.99115,39.375],[-75.99156269999997,39.375],[-75.99448710000001,39.375],[-75.9959589,39.375],[-76.04219119999999,39.375]]]}},{"type":"Feature","properties":{},"geometry":{"type":"Polygon","coordinates":[[[-75.97500000000002,39.37967739999999],[-75.97500000000002,39.41357499999998],[-75.97500000000002,39.414729799999975],[-75.97500000000002,39.42422720000002],[-75.97500000000002,39.42470700000001],[-75.97500000000002,39.429801399999974],[-75.97500000000002,39.431633499999975],[-75.97500000000002,39.43313690000002],[-75.97500000000002,39.43595379999999],[-75.97500000000002,39.448160599999994],[-75.97500000000002,39.44999999999999],[-75.97428680000002,39.44999999999999],[-75.945041,39.44999999999999],[-75.9445948,39.44999999999999],[-75.94306999999998,39.44999999999999],[-75.89999999999998,39.44999999999999],[-75.89999999999998,39.375],[-75.92236969999999,39.375],[-75.92257419999999,39.375],[-75.92296499999998,39.375],[-75.93573120000002,39.375],[-75.94173690000002,39.375],[-75.94596080000002,39.375],[-75.9471658,39.375],[-75.95271819999999,39.375],[-75.95621649999998,39.375],[-75.9663516,39.375],[-75.97141859999999,39.375],[-75.9730659,39.375],[-75.97500000000002,39.375],[-75.97500000000002,39.37967739999999]]]}},{"type":"Feature","properties":{},"geometry":{"type":"Polygon","coordinates":[[[-76.27729679999999,39.44999999999999],[-76.35000000000002,39.44999999999999],[-76.35000000000002,39.52499999999998],[-76.27499999999998,39.52499999999998],[-76.27499999999998,39.45107730000001],[-76.27499999999998,39.45085419999998],[-76.27499999999998,39.44999999999999],[-76.27686460000001,39.44999999999999],[-76.27729679999999,39.44999999999999]]]}},{"type":"Feature","properties":{},"geometry":{"type":"Polygon","coordinates":[[[-76.27499999999998,39.45085419999998],[-76.27499999999998,39.45107730000001],[-76.27499999999998,39.52499999999998],[-76.19999999999999,39.52499999999998],[-76.19999999999999,39.46023150000002],[-76.19999999999999,39.44999999999999],[-76.20537990000003,39.44999999999999],[-76.23269829999998,39.44999999999999],[-76.25061950000003,39.44999999999999],[-76.25115540000002,39.44999999999999],[-76.25128690000003,39.44999999999999],[-76.25172049999998,39.44999999999999],[-76.25657439999998,39.44999999999999],[-76.25720189999998,39.44999999999999],[-76.2578724,39.44999999999999],[-76.25822849999997,39.44999999999999],[-76.25898339999998,39.44999999999999],[-76.25919800000003,39.44999999999999],[-76.270288,39.44999999999999],[-76.27499999999998,39.44999999999999],[-76.27499999999998,39.45085419999998]]]}},{"type":"Feature","properties":{},"geometry":{"type":"Polygon","coordinates":[[[-76.19999999999999,39.46023150000002],[-76.19999999999999,39.52499999999998],[-76.125,39.52499999999998],[-76.125,39.49927500000001],[-76.125,39.49771019999997],[-76.125,39.49587220000001],[-76.125,39.49447409999999],[-76.125,39.49314959999998],[-76.125,39.48837980000002],[-76.125,39.48449290000002],[-76.125,39.48325779999999],[-76.125,39.44999999999999],[-76.19999999999999,39.44999999999999],[-76.19999999999999,39.46023150000002]]]}},{"type":"Feature","properties":{},"geometry":{"type":"Polygon","coordinates":[[[-76.11396000000002,39.44999999999999],[-76.125,39.44999999999999],[-76.125,39.48325779999999],[-76.125,39.48449290000002],[-76.125,39.48837980000002],[-76.125,39.49314959999998],[-76.125,39.49447409999999],[-76.125,39.49587220000001],[-76.125,39.49771019999997],[-76.125,39.49927500000001],[-76.125,39.52499999999998],[-76.10767829999998,39.52499999999998],[-76.10154999999997,39.52499999999998],[-76.1008607,39.52499999999998],[-76.10037720000003,39.52499999999998],[-76.0908526,39.52499999999998],[-76.08752040000002,39.52499999999998],[-76.08457179999999,39.52499999999998],[-76.08374179999998,39.52499999999998],[-76.08302629999997,39.52499999999998],[-76.08283419999998,39.52499999999998],[-76.0805047,39.52499999999998],[-76.05000000000001,39.52499999999998],[-76.05000000000001,39.52148140000003],[-76.05000000000001,39.520415300000025],[-76.05000000000001,39.496557199999984],[-76.05000000000001,39.47043669999999],[-76.05000000000001,39.4688352],[-76.05000000000001,39.46627480000001],[-76.05000000000001,39.46399459999998],[-76.05000000000001,39.46011770000001],[-76.05000000000001,39.45949830000001],[-76.05000000000001,39.45630010000002],[-76.05000000000001,39.44999999999999],[-76.05171560000002,39.44999999999999],[-76.05511689999997,39.44999999999999],[-76.05996399999998,39.44999999999999],[-76.06093390000001,39.44999999999999],[-76.0741832,39.44999999999999],[-76.07666339999997,39.44999999999999],[-76.07721980000002,39.44999999999999],[-76.08291029999998,39.44999999999999],[-76.08429100000001,39.44999999999999],[-76.08554980000002,39.44999999999999],[-76.08569460000001,39.44999999999999],[-76.08639970000002,39.44999999999999],[-76.08817490000001,39.44999999999999],[-76.08851349999998,39.44999999999999],[-76.09203350000001,39.44999999999999],[-76.09317700000003,39.44999999999999],[-76.09343840000003,39.44999999999999],[-76.09484700000002,39.44999999999999],[-76.09614049999999,39.44999999999999],[-76.0987422,39.44999999999999],[-76.09890760000002,39.44999999999999],[-76.1006893,39.44999999999999],[-76.10542450000003,39.44999999999999],[-76.1057616,39.44999999999999],[-76.1073834,39.44999999999999],[-76.10926460000002,39.44999999999999],[-76.11049939999998,39.44999999999999],[-76.11145299999998,39.44999999999999],[-76.11396000000002,39.44999999999999]]]}},{"type":"Feature","properties":{},"geometry":{"type":"Polygon","coordinates":[[[-76.04870030000001,39.44999999999999],[-76.05000000000001,39.44999999999999],[-76.05000000000001,39.45630010000002],[-76.05000000000001,39.45949830000001],[-76.05000000000001,39.46011770000001],[-76.05000000000001,39.46399459999998],[-76.05000000000001,39.46627480000001],[-76.05000000000001,39.4688352],[-76.05000000000001,39.47043669999999],[-76.05000000000001,39.496557199999984],[-76.05000000000001,39.520415300000025],[-76.05000000000001,39.52148140000003],[-76.05000000000001,39.52499999999998],[-76.0433021,39.52499999999998],[-76.03198780000002,39.52499999999998],[-75.98697499999997,39.52499999999998],[-75.98659880000002,39.52499999999998],[-75.984669,39.52499999999998],[-75.9841179,39.52499999999998],[-75.98240959999998,39.52499999999998],[-75.9805925,39.52499999999998],[-75.97500000000002,39.52499999999998],[-75.97500000000002,39.51949830000001],[-75.97500000000002,39.516727100000026],[-75.97500000000002,39.48491710000002],[-75.97500000000002,39.482680800000026],[-75.97500000000002,39.48210260000002],[-75.97500000000002,39.48077380000001],[-75.97500000000002,39.474189000000024],[-75.97500000000002,39.4710091],[-75.97500000000002,39.46975140000001],[-75.97500000000002,39.465204099999994],[-75.97500000000002,39.46495729999998],[-75.97500000000002,39.463133400000004],[-75.97500000000002,39.46267110000002],[-75.97500000000002,39.46218299999998],[-75.97500000000002,39.46175870000002],[-75.97500000000002,39.46129719999999],[-75.97500000000002,39.45630010000002],[-75.97500000000002,39.45594699999998],[-75.97500000000002,39.45572929999997],[-75.97500000000002,39.4555565],[-75.97500000000002,39.44999999999999],[-75.97616099999999,39.44999999999999],[-75.97995070000002,39.44999999999999],[-75.98349589999998,39.44999999999999],[-75.98417039999998,39.44999999999999],[-75.98825520000003,39.44999999999999],[-75.9887966,39.44999999999999],[-75.98930000000001,39.44999999999999],[-75.98931870000001,39.44999999999999],[-75.98986810000002,39.44999999999999],[-75.99041039999997,39.44999999999999],[-75.9924307,39.44999999999999],[-75.9926868,39.44999999999999],[-75.99608849999998,39.44999999999999],[-75.9968596,39.44999999999999],[-76.00299810000001,39.44999999999999],[-76.01058669999998,39.44999999999999],[-76.01572429999999,39.44999999999999],[-76.0173964,39.44999999999999],[-76.0179369,39.44999999999999],[-76.01798259999998,39.44999999999999],[-76.02334669999999,39.44999999999999],[-76.0315415,39.44999999999999],[-76.03789979999999,39.44999999999999],[-76.04021039999998,39.44999999999999],[-76.04870030000001,39.44999999999999]]]}},{"type":"Feature","properties":{},"geometry":{"type":"Polygon","coordinates":[[[-75.97500000000002,39.4555565],[-75.97500000000002,39.45572929999997],[-75.97500000000002,39.45594699999998],[-75.97500000000002,39.45630010000002],[-75.97500000000002,39.46129719999999],[-75.97500000000002,39.46175870000002],[-75.97500000000002,39.462182900000016],[-75.97500000000002,39.46267110000002],[-75.97500000000002,39.463133400000004],[-75.97500000000002,39.46495729999998],[-75.97500000000002,39.465204099999994],[-75.97500000000002,39.46975140000001],[-75.97500000000002,39.4710091],[-75.97500000000002,39.474189000000024],[-75.97500000000002,39.47606710000002],[-75.97500000000002,39.47830379999999],[-75.97500000000002,39.48077380000001],[-75.97500000000002,39.48210260000002],[-75.97500000000002,39.482680800000026],[-75.97500000000002,39.48491710000002],[-75.97500000000002,39.516727100000026],[-75.97500000000002,39.51949830000001],[-75.97500000000002,39.52499999999998],[-75.95743099999999,39.52499999999998],[-75.92048110000002,39.52499999999998],[-75.91751420000003,39.52499999999998],[-75.91139320000002,39.52499999999998],[-75.89999999999998,39.52499999999998],[-75.89999999999998,39.51905640000001],[-75.89999999999998,39.51453359999999],[-75.89999999999998,39.513846899999976],[-75.89999999999998,39.51099900000003],[-75.89999999999998,39.51043099999998],[-75.89999999999998,39.51024960000001],[-75.89999999999998,39.509824700000024],[-75.89999999999998,39.509434],[-75.89999999999998,39.50919479999999],[-75.89999999999998,39.5090836],[-75.89999999999998,39.508748500000024],[-75.89999999999998,39.5084281],[-75.89999999999998,39.5076042],[-75.89999999999998,39.50743610000001],[-75.89999999999998,39.50681079999998],[-75.89999999999998,39.505328899999995],[-75.89999999999998,39.50478659999999],[-75.89999999999998,39.50473959999999],[-75.89999999999998,39.50471379999999],[-75.89999999999998,39.50393980000001],[-75.89999999999998,39.48721339999997],[-75.89999999999998,39.48352799999998],[-75.89999999999998,39.48274900000001],[-75.89999999999998,39.47620690000002],[-75.89999999999998,39.47347450000001],[-75.89999999999998,39.47106969999999],[-75.89999999999998,39.47001979999999],[-75.89999999999998,39.468980699999975],[-75.89999999999998,39.467686800000024],[-75.89999999999998,39.44999999999999],[-75.94306999999998,39.44999999999999],[-75.9445948,39.44999999999999],[-75.94482649999998,39.44999999999999],[-75.945041,39.44999999999999],[-75.97428680000002,39.44999999999999],[-75.97500000000002,39.44999999999999],[-75.97500000000002,39.4555565]]]}},{"type":"Feature","properties":{},"geometry":{"type":"Polygon","coordinates":[[[-76.1254998,39.60000000000002],[-76.125,39.60000000000002],[-76.125,39.5977843],[-76.125,39.59344119999997],[-76.125,39.59288550000002],[-76.125,39.592321200000015],[-76.125,39.59158389999999],[-76.125,39.59148859999999],[-76.125,39.59106919999999],[-76.125,39.57960600000001],[-76.125,39.57284850000002],[-76.125,39.52499999999998],[-76.19999999999999,39.52499999999998],[-76.19999999999999,39.60000000000002],[-76.12977089999998,39.60000000000002],[-76.1254998,39.60000000000002]]]}},{"type":"Feature","properties":{},"geometry":{"type":"Polygon","coordinates":[[[-76.10767829999998,39.52499999999998],[-76.125,39.52499999999998],[-76.125,39.57284850000002],[-76.125,39.57960600000001],[-76.125,39.59106919999999],[-76.125,39.59148859999999],[-76.125,39.59158389999999],[-76.125,39.592321200000015],[-76.125,39.59288550000002],[-76.125,39.59344119999997],[-76.125,39.5977843],[-76.125,39.60000000000002],[-76.12324080000002,39.60000000000002],[-76.12261489999997,39.60000000000002],[-76.11177959999998,39.60000000000002],[-76.1112574,39.60000000000002],[-76.10026729999998,39.60000000000002],[-76.05000000000001,39.60000000000002],[-76.05000000000001,39.58698850000002],[-76.05000000000001,39.55468250000001],[-76.05000000000001,39.55442649999998],[-76.05000000000001,39.548134600000026],[-76.05000000000001,39.546153300000014],[-76.05000000000001,39.545710199999974],[-76.05000000000001,39.54453339999998],[-76.05000000000001,39.53978510000002],[-76.05000000000001,39.52499999999998],[-76.0805047,39.52499999999998],[-76.08283419999998,39.52499999999998],[-76.08302629999997,39.52499999999998],[-76.08374179999998,39.52499999999998],[-76.08457179999999,39.52499999999998],[-76.08752040000002,39.52499999999998],[-76.0908526,39.52499999999998],[-76.10037720000003,39.52499999999998],[-76.1008607,39.52499999999998],[-76.10154999999997,39.52499999999998],[-76.10767829999998,39.52499999999998]]]}},{"type":"Feature","properties":{},"geometry":{"type":"Polygon","coordinates":[[[-76.05000000000001,39.53978510000002],[-76.05000000000001,39.54453339999998],[-76.05000000000001,39.545710199999974],[-76.05000000000001,39.546153300000014],[-76.05000000000001,39.548134600000026],[-76.05000000000001,39.55442649999998],[-76.05000000000001,39.55468250000001],[-76.05000000000001,39.58698850000002],[-76.05000000000001,39.60000000000002],[-75.99292450000002,39.60000000000002],[-75.97500000000002,39.60000000000002],[-75.97500000000002,39.58349620000001],[-75.97500000000002,39.5707362],[-75.97500000000002,39.570261200000004],[-75.97500000000002,39.56761039999998],[-75.97500000000002,39.563577399999986],[-75.97500000000002,39.557504300000005],[-75.97500000000002,39.554839300000026],[-75.97500000000002,39.549958600000025],[-75.97500000000002,39.54220220000002],[-75.97500000000002,39.54001770000002],[-75.97500000000002,39.53099589999999],[-75.97500000000002,39.52499999999998],[-75.9805925,39.52499999999998],[-75.98240959999998,39.52499999999998],[-75.9841179,39.52499999999998],[-75.984669,39.52499999999998],[-75.98659880000002,39.52499999999998],[-75.98697499999997,39.52499999999998],[-76.03198780000002,39.52499999999998],[-76.0433021,39.52499999999998],[-76.05000000000001,39.52499999999998],[-76.05000000000001,39.53978510000002]]]}},{"type":"Feature","properties":{},"geometry":{"type":"Polygon","coordinates":[[[-75.97500000000002,39.53099589999999],[-75.97500000000002,39.54001770000002],[-75.97500000000002,39.54220220000002],[-75.97500000000002,39.549958600000025],[-75.97500000000002,39.554839300000026],[-75.97500000000002,39.557504300000005],[-75.97500000000002,39.563577399999986],[-75.97500000000002,39.56761039999998],[-75.97500000000002,39.570261200000004],[-75.97500000000002,39.5707362],[-75.97500000000002,39.58349620000001],[-75.97500000000002,39.60000000000002],[-75.95280109999999,39.60000000000002],[-75.95249560000002,39.60000000000002],[-75.94755939999999,39.60000000000002],[-75.94722669999999,39.60000000000002],[-75.89999999999998,39.60000000000002],[-75.89999999999998,39.59205079999998],[-75.89999999999998,39.54122139999998],[-75.89999999999998,39.52499999999998],[-75.91139320000002,39.52499999999998],[-75.91739410000002,39.52499999999998],[-75.92041619999998,39.52499999999998],[-75.95743099999999,39.52499999999998],[-75.96858470000001,39.52499999999998],[-75.97500000000002,39.52499999999998],[-75.97500000000002,39.53099589999999]]]}}]}