{"type":"FeatureCollection","features":[{"type":"Feature","properties":{},"geometry":{"type":"Polygon","coordinates":[[[-76.64999999999998,39.14999999999998],[-76.64999999999998,39.2142513],[-76.64999999999998,39.221962700000006],[-76.64999999999998,39.22500000000002],[-76.6464671,39.22500000000002],[-76.64571710000001,39.22500000000002],[-76.64529900000002,39.22500000000002],[-76.6415687,39.22500000000002],[-76.64123799999999,39.22500000000002],[-76.64045449999998,39.22500000000002],[-76.63867620000002,39.22500000000002],[-76.63582839999998,39.22500000000002],[-76.6303254,39.22500000000002],[-76.62966940000001,39.22500000000002],[-76.62816850000002,39.22500000000002],[-76.6277088,39.22500000000002],[-76.62751559999998,39.22500000000002],[-76.62603080000002,39.22500000000002],[-76.61722659999998,39.22500000000002],[-76.595,39.22500000000002],[-76.595,39.14999999999998],[-76.64999999999998,39.14999999999998]]]}},{"type":"Feature","properties":{},"geometry":{"type":"Polygon","coordinates":[[[-76.61722659999998,39.22500000000002],[-76.62603080000002,39.22500000000002],[-76.62751559999998,39.22500000000002],[-76.6277088,39.22500000000002],[-76.62816850000002,39.22500000000002],[-76.62966940000001,39.22500000000002],[-76.6303254,39.22500000000002],[-76.63582839999998,39.22500000000002],[-76.63867620000002,39.22500000000002],[-76.64045449999998,39.22500000000002],[-76.64123799999999,39.22500000000002],[-76.6415687,39.22500000000002],[-76.64529900000002,39.22500000000002],[-76.64571710000001,39.22500000000002],[-76.6464671,39.22500000000002],[-76.64999999999998,39.22500000000002],[-76.64999999999998,39.229013899999984],[-76.64999999999998,39.22934320000002],[-76.64999999999998,39.22958670000003],[-76.64999999999998,39.23220730000003],[-76.64999999999998,39.255],[-76.595,39.255],[-76.595,39.22500000000002],[-76.61722659999998,39.22500000000002]]]}},{"type":"Feature","properties":{},"geometry":{"type":"Polygon","coordinates":[[[-76.60502279999997,38.92500000000001],[-76.60528699999998,38.92500000000001],[-76.64999999999998,38.92500000000001],[-76.64999999999998,39.0],[-76.6330173,39.0],[-76.63028659999998,39.0],[-76.595,39.0],[-76.595,38.92500000000001],[-76.60502279999997,38.92500000000001]]]}},{"type":"Feature","properties":{},"geometry":{"type":"Polygon","coordinates":[[[-76.63028659999998,39.0],[-76.6330173,39.0],[-76.64999999999998,39.0],[-76.64999999999998,39.01779370000003],[-76.64999999999998,39.0585107],[-76.64999999999998,39.07499999999999],[-76.6330173,39.07499999999999],[-76.60820330000001,39.07499999999999],[-76.60743439999999,39.07499999999999],[-76.6071116,39.07499999999999],[-76.5998712,39.07499999999999],[-76.59744940000002,39.07499999999999],[-76.595,39.07499999999999],[-76.595,39.0],[-76.63028659999998,39.0]]]}},{"type":"Feature","properties":{},"geometry":{"type":"Polygon","coordinates":[[[-76.59744940000002,39.07499999999999],[-76.5998712,39.07499999999999],[-76.6071116,39.07499999999999],[-76.60743439999999,39.07499999999999],[-76.60820330000001,39.07499999999999],[-76.6330173,39.07499999999999],[-76.64999999999998,39.07499999999999],[-76.64999999999998,39.14999999999998],[-76.595,39.14999999999998],[-76.595,39.07499999999999],[-76.59744940000002,39.07499999999999]]]}},{"type":"Feature","properties":{},"geometry":{"type":"Polygon","coordinates":[[[-76.6138889,38.255007999999975],[-76.6138889,38.301388900000006],[-76.65085429999999,38.301388900000006],[-76.6697451,38.390326200000004],[-76.67180150000002,38.39999999999998],[-76.59634799999998,38.39999999999998],[-76.5956309,38.39999999999998],[-76.595,38.39999999999998],[-76.595,38.255007999999975],[-76.6138889,38.255007999999975]]]}},{"type":"Feature","properties":{},"geometry":{"type":"Polygon","coordinates":[[[-77.11719399999998,38.93117059999997],[-77.11676510000001,38.93150880000002],[-77.11670830000003,38.93155359999997],[-77.1164751,38.9317375],[-77.11453929999999,38.933264199999996],[-77.10902779999998,38.93761110000003],[-77.0901503,38.92300660000001],[-77.08210250000002,38.91678059999998],[-77.08913660000002,38.91678059999998],[-77.1002967,38.91678059999998],[-77.10196730000001,38.91678059999998],[-77.10214880000001,38.91678059999998],[-77.10243809999997,38.91678059999998],[-77.10254609999998,38.91678059999998],[-77.10271369999998,38.91678059999998],[-77.10324550000001,38.91678059999998],[-77.10449219999998,38.91678059999998],[-77.10468450000002,38.91678059999998],[-77.10482280000002,38.91678059999998],[-77.10874100000001,38.91678059999998],[-77.10978340000003,38.91678059999998],[-77.12374999999997,38.92599999999999],[-77.11856390000003,38.930090199999995],[-77.11719399999998,38.93117059999997]]]}},{"type":"Feature","properties":{},"geometry":{"type":"Polygon","coordinates":[[[-76.94972689999997,38.9299158],[-76.94917579999998,38.93062629999997],[-76.9431083,38.93844949999999],[-76.94270840000001,38.938965199999984],[-76.9424444,38.93930560000001],[-76.92452780000002,38.930733299999986],[-76.93448210000003,38.91778040000003],[-76.9348607,38.917287699999974],[-76.9352503,38.91678059999998],[-76.93569839999998,38.91678059999998],[-76.9419499,38.91678059999998],[-76.94295729999999,38.91678059999998],[-76.94376740000001,38.91678059999998],[-76.9438371,38.91678059999998],[-76.94448219999998,38.91678059999998],[-76.95990230000001,38.91678059999998],[-76.95228639999999,38.92661559999999],[-76.94972689999997,38.9299158]]]}},{"type":"Feature","properties":{},"geometry":{"type":"Polygon","coordinates":[[[-76.9477784,38.097622100000024],[-76.99211539999999,38.14305159999998],[-77.0353556,38.187357299999974],[-77.0353556,38.25],[-77.02499999999998,38.25],[-76.97311619999999,38.25],[-76.97224990000001,38.25],[-76.97149080000003,38.25],[-76.96613539999998,38.25],[-76.9605583,38.25],[-76.95948859999999,38.25],[-76.9513316,38.25],[-76.95113199999997,38.25],[-76.94999999999999,38.25],[-76.94999999999999,38.25866050000002],[-76.94999999999999,38.26083240000003],[-76.94999999999999,38.2645862],[-76.94999999999999,38.269910400000015],[-76.94999999999999,38.27859110000003],[-76.94999999999999,38.27947280000001],[-76.94999999999999,38.28089560000001],[-76.94999999999999,38.28164700000002],[-76.94999999999999,38.28456299999999],[-76.94999999999999,38.28495579999998],[-76.94999999999999,38.285833500000024],[-76.94999999999999,38.287307699999985],[-76.94999999999999,38.28736909999998],[-76.94999999999999,38.28771130000001],[-76.94999999999999,38.29649920000003],[-76.94999999999999,38.303882199999975],[-76.94999999999999,38.30460959999999],[-76.94999999999999,38.30602959999999],[-76.94999999999999,38.3151201],[-76.94999999999999,38.32499999999999],[-76.94999999999999,38.32715000000002],[-76.94866510000003,38.32715000000002],[-76.94820440000001,38.32715000000002],[-76.94493089999997,38.32715000000002],[-76.94428219999998,38.32715000000002],[-76.93876110000002,38.32715000000002],[-76.93876110000002,38.32786520000002],[-76.93876110000002,38.327869299999975],[-76.93876110000002,38.3282102],[-76.93876110000002,38.328847999999994],[-76.93876110000002,38.33183509999998],[-76.93876110000002,38.33188150000001],[-76.93876110000002,38.33219869999999],[-76.93876110000002,38.33260200000001],[-76.93876110000002,38.33262639999998],[-76.93876110000002,38.332690000000014],[-76.93876110000002,38.3339019],[-76.93876110000002,38.33417680000002],[-76.93876110000002,38.33754720000002],[-76.93876110000002,38.337899600000014],[-76.93876110000002,38.33794649999999],[-76.93876110000002,38.3387745],[-76.93876110000002,38.3903335],[-76.93200300000001,38.39033330000001],[-76.93180380000001,38.39033330000001],[-76.92762970000001,38.39033310000002],[-76.9265734,38.39033310000002],[-76.926196,38.39033310000002],[-76.92397999999997,38.390333],[-76.92389700000001,38.390333],[-76.92366349999998,38.390333],[-76.92249550000003,38.390333],[-76.92022250000002,38.390332899999976],[-76.92006750000002,38.390332899999976],[-76.91339399999998,38.39033280000001],[-76.9107866,38.39033269999999],[-76.9106071,38.39033269999999],[-76.91022320000002,38.39033269999999],[-76.9098601,38.39033269999999],[-76.90962189999999,38.39033269999999],[-76.90793300000001,38.39033260000002],[-76.90783219999997,38.39033260000002],[-76.9071998,38.39033260000002],[-76.90682070000003,38.39033260000002],[-76.9068206,38.39033260000002],[-76.90667539999998,38.39033260000002],[-76.90661010000002,38.39033260000002],[-76.90581600000002,38.3903325],[-76.90571410000001,38.3903325],[-76.90564749999999,38.3903325],[-76.90426480000002,38.3903325],[-76.90179039999998,38.39033239999998],[-76.9016418,38.39033239999998],[-76.89691649999997,38.39033219999999],[-76.89628879999998,38.39033219999999],[-76.89533319999998,38.39033219999999],[-76.89521489999998,38.39033219999999],[-76.89155799999997,38.39033210000002],[-76.89022010000002,38.39033210000002],[-76.88910550000003,38.39033210000002],[-76.87379220000003,38.39033169999999],[-76.86695409999999,38.3903315],[-76.8491808,38.390331],[-76.8386218,38.39033069999999],[-76.6697451,38.390326200000004],[-76.65195729999999,38.306581600000015],[-76.65085429999999,38.301388900000006],[-76.6401563,38.301388900000006],[-76.6138889,38.301388900000006],[-76.6138889,38.28981249999998],[-76.6138889,38.25874279999999],[-76.6138889,38.255007999999975],[-76.595,38.255007999999975],[-76.595,38.095],[-76.94521928955042,38.095],[-76.9477784,38.097622100000024]]]}},{"type":"Feature","properties":{},"geometry":{"type":"Polygon","coordinates":[[[-77.06123600000001,38.25594719999998],[-77.072675,38.25594719999998],[-77.072675,38.25944950000002],[-77.072675,38.28454790000001],[-77.072675,38.2847438],[-77.072675,38.284778800000026],[-77.072675,38.28528610000001],[-77.072675,38.285429299999976],[-77.072675,38.28556090000001],[-77.072675,38.288829599999985],[-77.072675,38.28890480000001],[-77.072675,38.298559599999976],[-77.072675,38.29909759999998],[-77.072675,38.30576669999999],[-77.072675,38.307827599999996],[-77.072675,38.3081914],[-77.072675,38.30837159999999],[-77.072675,38.312146600000005],[-77.072675,38.31224759999998],[-77.072675,38.312679100000025],[-77.072675,38.31279660000001],[-77.072675,38.313692300000014],[-77.072675,38.313819000000024],[-77.072675,38.3150622],[-77.072675,38.315103599999986],[-77.072675,38.326863100000025],[-77.072675,38.328040999999985],[-77.072675,38.355627500000026],[-77.072675,38.374785299999985],[-77.072675,38.375694399999986],[-77.04969360000001,38.375694399999986],[-77.04645310000001,38.375694399999986],[-77.02403600000002,38.375694399999986],[-77.0235801,38.375694399999986],[-77.02177499999999,38.375694399999986],[-77.02130640000001,38.375694399999986],[-77.0209946,38.375694399999986],[-77.02008949999998,38.375694399999986],[-77.01959879999998,38.375694399999986],[-77.01818930000002,38.375694399999986],[-77.0172349,38.375694399999986],[-77.01696950000002,38.375694399999986],[-77.01613750000001,38.375694399999986],[-77.01610640000001,38.375694399999986],[-77.0158791,38.375694399999986],[-77.0158677,38.375694399999986],[-77.01395980000001,38.375694399999986],[-77.01377769999999,38.375694399999986],[-77.01376649999997,38.375694399999986],[-77.01358579999999,38.375694399999986],[-77.013532,38.375694399999986],[-77.01180060000002,38.375694399999986],[-77.00638229999998,38.375694399999986],[-77.00616960000002,38.375694399999986],[-77.00520289999997,38.375694399999986],[-77.00489169999997,38.375694399999986],[-77.00450540000003,38.375694399999986],[-77.00429789999998,38.375694399999986],[-76.99961839999997,38.375694399999986],[-76.9994107,38.375694399999986],[-76.9971554,38.375694399999986],[-76.99026190000001,38.375694399999986],[-76.98768990000002,38.375694399999986],[-76.9872408,38.375694399999986],[-76.98723660000002,38.375694399999986],[-76.98698030000003,38.375694399999986],[-76.98685499999999,38.375694399999986],[-76.98665999999997,38.375694399999986],[-76.98658769999997,38.375694399999986],[-76.9863613,38.375694399999986],[-76.98526120000002,38.375694399999986],[-76.98493930000001,38.375694399999986],[-76.9846966,38.375694399999986],[-76.9845454,38.375694399999986],[-76.98445800000002,38.375694399999986],[-76.98434429999998,38.375694399999986],[-76.9796958,38.375694399999986],[-76.97950980000002,38.375694399999986],[-76.97509880000001,38.375694399999986],[-76.97462919999998,38.375694399999986],[-76.9655917,38.375694399999986],[-76.9655917,38.372927800000014],[-76.9655917,38.37280629999998],[-76.9655917,38.372498699999994],[-76.9655917,38.37184350000001],[-76.9655917,38.357643199999984],[-76.9655917,38.35731470000002],[-76.9655917,38.35663890000001],[-76.9655917,38.3565787],[-76.9655917,38.34106179999998],[-76.9655917,38.34082749999999],[-76.9655917,38.340703099999985],[-76.9655917,38.34068150000002],[-76.9655917,38.34033169999998],[-76.9655917,38.3379736],[-76.9655917,38.33767390000003],[-76.9655917,38.33601599999997],[-76.9655917,38.335429999999974],[-76.9655917,38.33528180000002],[-76.9655917,38.333191],[-76.9655917,38.332620599999984],[-76.9655917,38.33228630000002],[-76.9655917,38.33170519999999],[-76.9655917,38.33061249999997],[-76.9655917,38.32715000000002],[-76.9655917,38.32559259999999],[-76.9655917,38.3255302],[-76.9655917,38.32551799999999],[-76.9655917,38.32297729999999],[-76.9655917,38.32281219999999],[-76.9655917,38.319577400000014],[-76.9655917,38.31945710000002],[-76.9655917,38.318537400000025],[-76.9655917,38.318487000000005],[-76.9655917,38.3172505],[-76.9655917,38.31712449999998],[-76.9655917,38.31570970000001],[-76.9655917,38.31556840000002],[-76.9655917,38.312165100000016],[-76.9655917,38.312124400000016],[-76.9655917,38.309804799999995],[-76.9655917,38.30973519999998],[-76.9655917,38.304936699999985],[-76.9655917,38.2999696],[-76.9655917,38.299789299999986],[-76.9655917,38.299759900000026],[-76.9655917,38.299424499999986],[-76.9655917,38.2977588],[-76.9655917,38.295697399999995],[-76.9655917,38.29561940000002],[-76.9655917,38.29370770000003],[-76.9655917,38.29362370000001],[-76.9655917,38.29071690000001],[-76.9655917,38.290623100000005],[-76.9655917,38.287863800000025],[-76.9655917,38.28771089999998],[-76.9655917,38.28745270000002],[-76.9655917,38.28723409999998],[-76.9655917,38.28672160000002],[-76.9655917,38.28654510000001],[-76.9655917,38.286530700000014],[-76.9655917,38.286293],[-76.9655917,38.28627080000001],[-76.9655917,38.285978899999975],[-76.9655917,38.28363200000001],[-76.9655917,38.281210499999986],[-76.9655917,38.27940719999998],[-76.9655917,38.27891149999999],[-76.9655917,38.27366510000002],[-76.9655917,38.27353499999998],[-76.9655917,38.27342399999998],[-76.9655917,38.267071699999974],[-76.9655917,38.26704539999997],[-76.9655917,38.266778199999976],[-76.9655917,38.26512330000003],[-76.9655917,38.26405829999999],[-76.9655917,38.26395150000002],[-76.9655917,38.26191690000002],[-76.9655917,38.261837300000025],[-76.9655917,38.260794299999986],[-76.9655917,38.26078030000002],[-76.9655917,38.2604905],[-76.9655917,38.26043249999998],[-76.9655917,38.26039639999999],[-76.9655917,38.25594719999998],[-76.98611970000002,38.25594719999998],[-77.00353209999997,38.25594719999998],[-77.004055,38.25594719999998],[-77.06123600000001,38.25594719999998]]]}},{"type":"Feature","properties":{},"geometry":{"type":"Polygon","coordinates":[[[-77.25956109999998,38.554572199999996],[-77.25880560000002,38.554572199999996],[-77.25827520000001,38.554572199999996],[-77.25797749999998,38.554572199999996],[-77.25778630000002,38.554572199999996],[-77.2570993,38.554572199999996],[-77.2567229,38.554572199999996],[-77.24860810000001,38.554572199999996],[-77.24860799999999,38.554572199999996],[-77.2483995,38.554572199999996],[-77.24645420000002,38.554572199999996],[-77.24486830000001,38.554572199999996],[-77.24399249999999,38.554572199999996],[-77.23969010000002,38.554572199999996],[-77.23938270000002,38.554572199999996],[-77.23647469999997,38.554572199999996],[-77.2364025,38.554572199999996],[-77.23614950000001,38.554572199999996],[-77.23526629999998,38.554572199999996],[-77.23517340000001,38.554572199999996],[-77.23411170000003,38.554572199999996],[-77.23239280000001,38.554572199999996],[-77.22452729999998,38.554572199999996],[-77.22300289999998,38.554572199999996],[-77.22291180000002,38.554572199999996],[-77.21969139999999,38.554572199999996],[-77.21937070000001,38.554572199999996],[-77.21839699999998,38.554572199999996],[-77.21765720000002,38.554572199999996],[-77.2167379,38.554572199999996],[-77.20915880000001,38.554572199999996],[-77.20913030000003,38.554572199999996],[-77.20890000000003,38.554572199999996],[-77.20884380000001,38.554572199999996],[-77.19973060000001,38.554572199999996],[-77.1993857,38.554572199999996],[-77.19007210000001,38.554572199999996],[-77.1888032,38.554572199999996],[-76.93876110000002,38.554572199999996],[-76.93876110000002,38.418048999999996],[-76.93876110000002,38.41745279999998],[-76.93876110000002,38.417062499999986],[-76.93876110000002,38.41516840000003],[-76.93876110000002,38.41315300000002],[-76.93876110000002,38.40171429999998],[-76.93876110000002,38.3988597],[-76.93876110000002,38.397079899999994],[-76.93876110000002,38.3903335],[-76.93876110000002,38.3387745],[-76.93876110000002,38.33794649999999],[-76.93876110000002,38.337899600000014],[-76.93876110000002,38.33754720000002],[-76.93876110000002,38.33417680000002],[-76.93876110000002,38.3339019],[-76.93876110000002,38.332690000000014],[-76.93876110000002,38.33262639999998],[-76.93876110000002,38.33260200000001],[-76.93876110000002,38.33219869999999],[-76.93876110000002,38.33188150000001],[-76.93876110000002,38.33183509999998],[-76.93876110000002,38.328847999999994],[-76.93876110000002,38.3282102],[-76.93876110000002,38.327869299999975],[-76.93876110000002,38.32786520000002],[-76.93876110000002,38.32715000000002],[-76.94428219999998,38.32715000000002],[-76.94493089999997,38.32715000000002],[-76.94820440000001,38.32715000000002],[-76.94866510000003,38.32715000000002],[-76.94999999999999,38.32715000000002],[-76.94999999999999,38.32843559999998],[-76.94999999999999,38.32906839999998],[-76.94999999999999,38.332484799999975],[-76.94999999999999,38.33707450000003],[-76.94999999999999,38.33718210000001],[-76.94999999999999,38.33756540000002],[-76.94999999999999,38.3382469],[-76.94999999999999,38.33946950000001],[-76.94999999999999,38.39999999999998],[-76.9810501,38.39999999999998],[-76.9817519,38.39999999999998],[-76.9825763,38.39999999999998],[-76.9838226,38.39999999999998],[-76.98896969999998,38.39999999999998],[-76.9924512,38.39999999999998],[-76.99441259999998,38.39999999999998],[-76.9954583,38.39999999999998],[-76.99717420000002,38.39999999999998],[-77.00204100000002,38.39999999999998],[-77.00402659999997,38.39999999999998],[-77.00431470000001,38.39999999999998],[-77.0164287,38.39999999999998],[-77.01906609999997,38.39999999999998],[-77.02499999999998,38.39999999999998],[-77.02677990000001,38.39999999999998],[-77.0324008,38.39999999999998],[-77.04142130000002,38.39999999999998],[-77.04563359999997,38.39999999999998],[-77.04706449999998,38.39999999999998],[-77.05218889999998,38.39999999999998],[-77.0532915,38.39999999999998],[-77.05403790000003,38.39999999999998],[-77.056014,38.39999999999998],[-77.08159899999998,38.39999999999998],[-77.08919529999997,38.39999999999998],[-77.09729090000002,38.39999999999998],[-77.09927010000001,38.39999999999998],[-77.10000000000002,38.39999999999998],[-77.10000000000002,38.394211799999994],[-77.10000000000002,38.3933768],[-77.10000000000002,38.38856709999999],[-77.10000000000002,38.38724180000003],[-77.10000000000002,38.3810828],[-77.10000000000002,38.3800827],[-77.10000000000002,38.37422249999997],[-77.10000000000002,38.36898230000003],[-77.10000000000002,38.36750919999997],[-77.10000000000002,38.36348079999999],[-77.10000000000002,38.363442299999974],[-77.10000000000002,38.36285609999999],[-77.10000000000002,38.36221440000003],[-77.10000000000002,38.32715000000002],[-77.26135219999998,38.32715000000002],[-77.2623853,38.32715000000002],[-77.26912829999998,38.32715000000002],[-77.269858,38.32715000000002],[-77.27343639999998,38.32715000000002],[-77.3843167,38.32715000000002],[-77.3843167,38.424428999999975],[-77.3843167,38.44275240000002],[-77.3843167,38.443100000000015],[-77.3843167,38.44351369999998],[-77.3843167,38.44357020000001],[-77.3843167,38.44364280000002],[-77.3843167,38.447098100000005],[-77.3843167,38.44716039999997],[-77.3843167,38.44739420000002],[-77.3843167,38.447506799999985],[-77.3843167,38.44776359999997],[-77.3843167,38.45031089999998],[-77.3843167,38.456399799999986],[-77.3843167,38.45640179999998],[-77.3843167,38.45658129999998],[-77.3843167,38.456931199999985],[-77.3843167,38.45732129999999],[-77.3843167,38.45948129999999],[-77.3843167,38.459529299999986],[-77.3843167,38.46006840000001],[-77.3843167,38.460346000000015],[-77.3843167,38.46123369999998],[-77.3843167,38.461636],[-77.3843167,38.46308549999998],[-77.3843167,38.46335379999999],[-77.3843167,38.46354489999999],[-77.3843167,38.46355670000003],[-77.3843167,38.464403300000015],[-77.3843167,38.46469560000003],[-77.3843167,38.46658439999999],[-77.3843167,38.470219499999985],[-77.3843167,38.59260840000002],[-77.30315130000002,38.59260840000002],[-77.2859909,38.59260840000002],[-77.2851152,38.59260840000002],[-77.25956109999998,38.59260840000002],[-77.25956109999998,38.584518100000025],[-77.25956109999998,38.58432590000001],[-77.25956109999998,38.58421249999998],[-77.25956109999998,38.5640545],[-77.25956109999998,38.56376089999998],[-77.25956109999998,38.56373719999999],[-77.25956109999998,38.56360410000002],[-77.25956109999998,38.563313900000026],[-77.25956109999998,38.560328500000026],[-77.25956109999998,38.56000690000002],[-77.25956109999998,38.559800199999984],[-77.25956109999998,38.5569787],[-77.25956109999998,38.554572199999996]]]}},{"type":"Feature","properties":{},"geometry":{"type":"Polygon","coordinates":[[[-77.25956109999998,38.5569787],[-77.25956109999998,38.55897540000001],[-77.25956109999998,38.559800199999984],[-77.25956109999998,38.56000690000002],[-77.25956109999998,38.56038560000002],[-77.25956109999998,38.56204109999999],[-77.25956109999998,38.56297280000001],[-77.25956109999998,38.563194099999976],[-77.25956109999998,38.56352939999999],[-77.25956109999998,38.56373719999999],[-77.25956109999998,38.56376089999998],[-77.25956109999998,38.5640545],[-77.25956109999998,38.582075799999984],[-77.25956109999998,38.58421249999998],[-77.25956109999998,38.584518100000025],[-77.25956109999998,38.584634600000015],[-77.25956109999998,38.60001519999997],[-77.25956109999998,38.600140899999985],[-77.25956109999998,38.60027919999999],[-77.25956109999998,38.60054789999998],[-77.25956109999998,38.60091349999999],[-77.25956109999998,38.60091360000001],[-77.25956109999998,38.601720899999975],[-77.25956109999998,38.60316310000002],[-77.25956109999998,38.60531659999998],[-77.25956109999998,38.6060751],[-77.25956109999998,38.6077037],[-77.25956109999998,38.649934599999995],[-77.25941940000001,38.665213900000026],[-77.2594216,38.6695952],[-77.25942220000002,38.670827799999984],[-77.26213330000002,38.67084169999998],[-77.26215560000003,38.68376110000003],[-77.26148569999998,38.68376860000001],[-77.25943059999997,38.68379169999997],[-77.25942989999999,38.68390849999997],[-77.25942809999998,38.684183399999995],[-77.25942149999997,38.68524380000002],[-77.25942099999997,38.68532909999999],[-77.2594052,38.68785680000002],[-77.25939720000002,38.689136099999985],[-77.25956109999998,38.787030500000014],[-77.08750550000002,38.787030500000014],[-77.08750550000002,38.808599800000025],[-77.08750550000002,38.89038820000002],[-77.08750550000002,38.89069599999999],[-77.08750550000002,38.89964170000002],[-77.10978340000003,38.91678059999998],[-77.10756429999998,38.91678059999998],[-77.1047704,38.91678059999998],[-77.1046852,38.91678059999998],[-77.10468450000002,38.91678059999998],[-77.10254609999998,38.91678059999998],[-77.1025247,38.91678059999998],[-77.10243809999997,38.91678059999998],[-77.1022446,38.91678059999998],[-77.10212689999997,38.91678059999998],[-77.10196730000001,38.91678059999998],[-77.1019369,38.91678059999998],[-77.09009320000001,38.91678059999998],[-77.07621769999997,38.91678059999998],[-77.05885519999998,38.91678059999998],[-77.05871990000003,38.91678059999998],[-76.9815868,38.91678059999998],[-76.95262780000002,38.91678059999998],[-76.95262609999997,38.91678059999998],[-76.94457119999998,38.91678059999998],[-76.94448219999998,38.91678059999998],[-76.94409589999998,38.91678059999998],[-76.9438371,38.91678059999998],[-76.94376740000001,38.91678059999998],[-76.9434407,38.91678059999998],[-76.94295729999999,38.91678059999998],[-76.94286340000002,38.91678059999998],[-76.93454379999997,38.91678059999998],[-76.93303329999998,38.91678059999998],[-76.93303329999998,38.91475170000001],[-76.93303329999998,38.874555499999985],[-76.93303329999998,38.874024299999974],[-76.93303329999998,38.554572199999996],[-77.1739331,38.554572199999996],[-77.18870249999998,38.554572199999996],[-77.1901656,38.554572199999996],[-77.19922229999997,38.554572199999996],[-77.1993857,38.554572199999996],[-77.19973060000001,38.554572199999996],[-77.20884380000001,38.554572199999996],[-77.20890000000003,38.554572199999996],[-77.20913030000003,38.554572199999996],[-77.21669800000001,38.554572199999996],[-77.2167379,38.554572199999996],[-77.21765720000002,38.554572199999996],[-77.21839699999998,38.554572199999996],[-77.21937070000001,38.554572199999996],[-77.21957909999998,38.554572199999996],[-77.21998760000002,38.554572199999996],[-77.22300289999998,38.554572199999996],[-77.22452729999998,38.554572199999996],[-77.23019240000002,38.554572199999996],[-77.23239280000001,38.554572199999996],[-77.23411170000003,38.554572199999996],[-77.23517340000001,38.554572199999996],[-77.23526629999998,38.554572199999996],[-77.23614950000001,38.554572199999996],[-77.2364025,38.554572199999996],[-77.23647469999997,38.554572199999996],[-77.23955380000001,38.554572199999996],[-77.23969010000002,38.554572199999996],[-77.24399249999999,38.554572199999996],[-77.24486830000001,38.554572199999996],[-77.24645420000002,38.554572199999996],[-77.2483995,38.554572199999996],[-77.24860799999999,38.554572199999996],[-77.24860810000001,38.554572199999996],[-77.2567229,38.554572199999996],[-77.2570993,38.554572199999996],[-77.25778630000002,38.554572199999996],[-77.25797749999998,38.554572199999996],[-77.25827520000001,38.554572199999996],[-77.25880560000002,38.554572199999996],[-77.25956109999998,38.554572199999996],[-77.25956109999998,38.5569787]]]}},{"type":"Feature","properties":{},"geometry":{"type":"Polygon","coordinates":[[[-77.2037019,38.17500000000001],[-77.20341150000002,38.17500000000001],[-77.19202109999998,38.17500000000001],[-77.19180749999998,38.17500000000001],[-77.19118409999999,38.17500000000001],[-77.18891280000003,38.17500000000001],[-77.18850789999999,38.17500000000001],[-77.18804949999998,38.17500000000001],[-77.18771609999999,38.17500000000001],[-77.18566299999998,38.17500000000001],[-77.18523099999999,38.17500000000001],[-77.18426340000002,38.17500000000001],[-77.1839822,38.17500000000001],[-77.17500000000001,38.17500000000001],[-77.17500000000001,38.17135139999999],[-77.17500000000001,38.16763550000002],[-77.17500000000001,38.166495499999996],[-77.17500000000001,38.164775299999974],[-77.17500000000001,38.164612499999976],[-77.17500000000001,38.16396850000001],[-77.17500000000001,38.16350299999999],[-77.17500000000001,38.16320480000002],[-77.17500000000001,38.16200140000001],[-77.17500000000001,38.16105060000001],[-77.17500000000001,38.160718799999984],[-77.17500000000001,38.1602408],[-77.17500000000001,38.15969999999999],[-77.17500000000001,38.15933669999998],[-77.17500000000001,38.158221500000025],[-77.17500000000001,38.1580634],[-77.17500000000001,38.15738750000003],[-77.17500000000001,38.1564573],[-77.17500000000001,38.155493999999976],[-77.17500000000001,38.155220299999996],[-77.17500000000001,38.15509780000002],[-77.17500000000001,38.15499340000002],[-77.17500000000001,38.15466459999999],[-77.17500000000001,38.15257509999998],[-77.17500000000001,38.15016509999998],[-77.17500000000001,38.147493499999996],[-77.17500000000001,38.14651220000002],[-77.17500000000001,38.10000000000002],[-77.25,38.10000000000002],[-77.25,38.17500000000001],[-77.20450160000001,38.17500000000001],[-77.2037019,38.17500000000001]]]}},{"type":"Feature","properties":{},"geometry":{"type":"Polygon","coordinates":[[[-77.17500000000001,38.14651220000002],[-77.17500000000001,38.147493499999996],[-77.17500000000001,38.15016509999998],[-77.17500000000001,38.15257509999998],[-77.17500000000001,38.15466459999999],[-77.17500000000001,38.15499340000002],[-77.17500000000001,38.15509780000002],[-77.17500000000001,38.155220299999996],[-77.17500000000001,38.155493999999976],[-77.17500000000001,38.1564573],[-77.17500000000001,38.15738750000003],[-77.17500000000001,38.1580634],[-77.17500000000001,38.158221500000025],[-77.17500000000001,38.15933669999998],[-77.17500000000001,38.15969999999999],[-77.17500000000001,38.1602408],[-77.17500000000001,38.160718799999984],[-77.17500000000001,38.16105060000001],[-77.17500000000001,38.16200140000001],[-77.17500000000001,38.16320480000002],[-77.17500000000001,38.16350299999999],[-77.17500000000001,38.16396850000001],[-77.17500000000001,38.164612499999976],[-77.17500000000001,38.164775299999974],[-77.17500000000001,38.166495499999996],[-77.17500000000001,38.16763550000002],[-77.17500000000001,38.17135139999999],[-77.17500000000001,38.17500000000001],[-77.15781900000002,38.17500000000001],[-77.15734070000002,38.17500000000001],[-77.15332439999997,38.17500000000001],[-77.15304809999998,38.17500000000001],[-77.15252179999999,38.17500000000001],[-77.1519523,38.17500000000001],[-77.1516211,38.17500000000001],[-77.15135579999998,38.17500000000001],[-77.1112488,38.17500000000001],[-77.11041069999999,38.17500000000001],[-77.10282799999999,38.17500000000001],[-77.10219269999999,38.17500000000001],[-77.10000000000002,38.17500000000001],[-77.10000000000002,38.16331120000001],[-77.10000000000002,38.16303529999999],[-77.10000000000002,38.16238329999999],[-77.10000000000002,38.16182409999999],[-77.10000000000002,38.159283000000016],[-77.10000000000002,38.15923750000002],[-77.10000000000002,38.159182499999986],[-77.10000000000002,38.157452999999975],[-77.10000000000002,38.1549847],[-77.10000000000002,38.148597800000005],[-77.10000000000002,38.1435826],[-77.10000000000002,38.14278719999999],[-77.10000000000002,38.10000000000002],[-77.17500000000001,38.10000000000002],[-77.17500000000001,38.14651220000002]]]}},{"type":"Feature","properties":{},"geometry":{"type":"Polygon","coordinates":[[[-77.0624651,38.10000000000002],[-77.10000000000002,38.10000000000002],[-77.10000000000002,38.14278719999999],[-77.10000000000002,38.1435826],[-77.10000000000002,38.148597800000005],[-77.10000000000002,38.1549847],[-77.10000000000002,38.157452999999975],[-77.10000000000002,38.159182499999986],[-77.10000000000002,38.15923750000002],[-77.10000000000002,38.159283000000016],[-77.10000000000002,38.16182409999999],[-77.10000000000002,38.16238329999999],[-77.10000000000002,38.16303529999999],[-77.10000000000002,38.16331120000001],[-77.10000000000002,38.17500000000001],[-77.07951880000002,38.17500000000001],[-77.02499999999998,38.17500000000001],[-77.02499999999998,38.10776329999999],[-77.02499999999998,38.10739319999999],[-77.02499999999998,38.10727229999998],[-77.02499999999998,38.107108100000005],[-77.02499999999998,38.106854999999996],[-77.02499999999998,38.10325710000001],[-77.02499999999998,38.10285490000001],[-77.02499999999998,38.102610500000026],[-77.02499999999998,38.1010713],[-77.02499999999998,38.10024929999997],[-77.02499999999998,38.10000000000002],[-77.02655750000002,38.10000000000002],[-77.0268486,38.10000000000002],[-77.0270587,38.10000000000002],[-77.02732379999998,38.10000000000002],[-77.03670670000002,38.10000000000002],[-77.03698370000001,38.10000000000002],[-77.03728769999998,38.10000000000002],[-77.0390509,38.10000000000002],[-77.03926719999998,38.10000000000002],[-77.03951339999998,38.10000000000002],[-77.04193600000002,38.10000000000002],[-77.04206190000002,38.10000000000002],[-77.05184980000001,38.10000000000002],[-77.05877529999998,38.10000000000002],[-77.05925159999998,38.10000000000002],[-77.05969700000003,38.10000000000002],[-77.05992659999998,38.10000000000002],[-77.06004039999999,38.10000000000002],[-77.06005720000002,38.10000000000002],[-77.06019529999998,38.10000000000002],[-77.06053029999998,38.10000000000002],[-77.0624651,38.10000000000002]]]}},{"type":"Feature","properties":{},"geometry":{"type":"Polygon","coordinates":[[[-77.40211010000002,38.25],[-77.4019859,38.25],[-77.39999999999998,38.25],[-77.39999999999998,38.17500000000001],[-77.47500000000002,38.17500000000001],[-77.47500000000002,38.25],[-77.40231240000003,38.25],[-77.40211010000002,38.25]]]}},{"type":"Feature","properties":{},"geometry":{"type":"Polygon","coordinates":[[[-77.39867720000001,38.25],[-77.39800869999999,38.25],[-77.39736319999997,38.25],[-77.3972063,38.25],[-77.39709169999998,38.25],[-77.39692969999999,38.25],[-77.39433919999999,38.25],[-77.3811624,38.25],[-77.38099629999999,38.25],[-77.38083310000002,38.25],[-77.37955310000001,38.25],[-77.37593570000001,38.25],[-77.3751838,38.25],[-77.3734268,38.25],[-77.35205689999998,38.25],[-77.3516333,38.25],[-77.35112470000001,38.25],[-77.35083049999997,38.25],[-77.34978760000001,38.25],[-77.34965649999998,38.25],[-77.34444860000002,38.25],[-77.33745529999999,38.25],[-77.33697510000002,38.25],[-77.33678600000002,38.25],[-77.33611810000002,38.25],[-77.33564480000001,38.25],[-77.3354759,38.25],[-77.33494530000002,38.25],[-77.3347607,38.25],[-77.3330368,38.25],[-77.33239609999998,38.25],[-77.32840809999999,38.25],[-77.32763879999999,38.25],[-77.3275084,38.25],[-77.32645020000001,38.25],[-77.32499999999999,38.25],[-77.32499999999999,38.24530770000001],[-77.32499999999999,38.24473569999998],[-77.32499999999999,38.24447559999999],[-77.32499999999999,38.24435999999997],[-77.32499999999999,38.24368720000001],[-77.32499999999999,38.24167590000002],[-77.32499999999999,38.240641400000015],[-77.32499999999999,38.17500000000001],[-77.39999999999998,38.17500000000001],[-77.39999999999998,38.25],[-77.3993375,38.25],[-77.39867720000001,38.25]]]}},{"type":"Feature","properties":{},"geometry":{"type":"Polygon","coordinates":[[[-77.32499999999999,38.240641400000015],[-77.32499999999999,38.24167590000002],[-77.32499999999999,38.24368720000001],[-77.32499999999999,38.24435999999997],[-77.32499999999999,38.24447559999999],[-77.32499999999999,38.24473569999998],[-77.32499999999999,38.24530770000001],[-77.32499999999999,38.25],[-77.2730929,38.25],[-77.27116160000003,38.25],[-77.27105360000002,38.25],[-77.26992289999998,38.25],[-77.26219300000002,38.25],[-77.2620617,38.25],[-77.26122559999999,38.25],[-77.2603517,38.25],[-77.25886220000001,38.25],[-77.2560335,38.25],[-77.25196410000001,38.25],[-77.2506272,38.25],[-77.25,38.25],[-77.25,38.24991460000001],[-77.25,38.24929980000002],[-77.25,38.24660799999998],[-77.25,38.24522889999997],[-77.25,38.23240550000003],[-77.25,38.232292099999995],[-77.25,38.23214230000002],[-77.25,38.2313704],[-77.25,38.231048799999996],[-77.25,38.23040630000003],[-77.25,38.230107799999985],[-77.25,38.229960300000016],[-77.25,38.229897600000015],[-77.25,38.22885710000003],[-77.25,38.22577560000002],[-77.25,38.22558959999998],[-77.25,38.22551659999999],[-77.25,38.224862099999996],[-77.25,38.2240046],[-77.25,38.22365079999997],[-77.25,38.2230538],[-77.25,38.211233400000026],[-77.25,38.210758999999996],[-77.25,38.203661599999975],[-77.25,38.2034319],[-77.25,38.20294460000002],[-77.25,38.20276580000001],[-77.25,38.20098150000001],[-77.25,38.19989270000002],[-77.25,38.19874179999999],[-77.25,38.19821080000003],[-77.25,38.195427300000006],[-77.25,38.18905799999999],[-77.25,38.188831300000004],[-77.25,38.18872320000003],[-77.25,38.1885886],[-77.25,38.187838699999986],[-77.25,38.18743869999997],[-77.25,38.17500000000001],[-77.32499999999999,38.17500000000001],[-77.32499999999999,38.240641400000015]]]}},{"type":"Feature","properties":{},"geometry":{"type":"Polygon","coordinates":[[[-77.19180749999998,38.17500000000001],[-77.19202109999998,38.17500000000001],[-77.20341150000002,38.17500000000001],[-77.2037019,38.17500000000001],[-77.20450160000001,38.17500000000001],[-77.25,38.17500000000001],[-77.25,38.18743869999997],[-77.25,38.187838699999986],[-77.25,38.1885886],[-77.25,38.18872320000003],[-77.25,38.188831300000004],[-77.25,38.18905799999999],[-77.25,38.195427300000006],[-77.25,38.19821080000003],[-77.25,38.19874179999999],[-77.25,38.19989270000002],[-77.25,38.20098150000001],[-77.25,38.20276580000001],[-77.25,38.20294460000002],[-77.25,38.2034319],[-77.25,38.203661599999975],[-77.25,38.210758999999996],[-77.25,38.211233400000026],[-77.25,38.2230538],[-77.25,38.22365079999997],[-77.25,38.2240046],[-77.25,38.224862099999996],[-77.25,38.22551659999999],[-77.25,38.22558959999998],[-77.25,38.22577560000002],[-77.25,38.22885710000003],[-77.25,38.229897600000015],[-77.25,38.229960300000016],[-77.25,38.230107799999985],[-77.25,38.23040630000003],[-77.25,38.231048799999996],[-77.25,38.2313704],[-77.25,38.23214230000002],[-77.25,38.232292099999995],[-77.25,38.23240550000003],[-77.25,38.24522889999997],[-77.25,38.24660799999998],[-77.25,38.24929980000002],[-77.25,38.24991460000001],[-77.25,38.25],[-77.2499717,38.25],[-77.24960019999997,38.25],[-77.24865879999999,38.25],[-77.23999409999999,38.25],[-77.23828859999998,38.25],[-77.2376491,38.25],[-77.23726679999999,38.25],[-77.23659140000001,38.25],[-77.23636049999999,38.25],[-77.17500000000001,38.25],[-77.17500000000001,38.17500000000001],[-77.1839822,38.17500000000001],[-77.18426340000002,38.17500000000001],[-77.18523099999999,38.17500000000001],[-77.18566299999998,38.17500000000001],[-77.18771609999999,38.17500000000001],[-77.18804949999998,38.17500000000001],[-77.18850789999999,38.17500000000001],[-77.18891280000003,38.17500000000001],[-77.19118409999999,38.17500000000001],[-77.19180749999998,38.17500000000001]]]}},{"type":"Feature","properties":{},"geometry":{"type":"Polygon","coordinates":[[[-77.15734070000002,38.17500000000001],[-77.15781900000002,38.17500000000001],[-77.17500000000001,38.17500000000001],[-77.17500000000001,38.25],[-77.10000000000002,38.25],[-77.10000000000002,38.177657599999975],[-77.10000000000002,38.17575950000003],[-77.10000000000002,38.17500000000001],[-77.10219269999999,38.17500000000001],[-77.10282799999999,38.17500000000001],[-77.11041069999999,38.17500000000001],[-77.1112488,38.17500000000001],[-77.15135579999998,38.17500000000001],[-77.1516211,38.17500000000001],[-77.1519523,38.17500000000001],[-77.15252179999999,38.17500000000001],[-77.15304809999998,38.17500000000001],[-77.15332439999997,38.17500000000001],[-77.15734070000002,38.17500000000001]]]}},{"type":"Feature","properties":{},"geometry":{"type":"Polygon","coordinates":[[[-77.47500000000002,38.30280970000001],[-77.47500000000002,38.30395199999998],[-77.47500000000002,38.32086099999998],[-77.47500000000002,38.32142449999998],[-77.47500000000002,38.32213089999999],[-77.47500000000002,38.32499999999999],[-77.39999999999998,38.32499999999999],[-77.39999999999998,38.25208479999998],[-77.39999999999998,38.25180280000001],[-77.39999999999998,38.2514587],[-77.39999999999998,38.250933499999974],[-77.39999999999998,38.250428],[-77.39999999999998,38.25],[-77.4019859,38.25],[-77.40211010000002,38.25],[-77.40231240000003,38.25],[-77.47500000000002,38.25],[-77.47500000000002,38.30280970000001]]]}},{"type":"Feature","properties":{},"geometry":{"type":"Polygon","coordinates":[[[-77.39999999999998,38.250428],[-77.39999999999998,38.250933499999974],[-77.39999999999998,38.2514587],[-77.39999999999998,38.25180280000001],[-77.39999999999998,38.25208479999998],[-77.39999999999998,38.32499999999999],[-77.32499999999999,38.32499999999999],[-77.32499999999999,38.25],[-77.32645020000001,38.25],[-77.3275084,38.25],[-77.32763879999999,38.25],[-77.32840809999999,38.25],[-77.33239609999998,38.25],[-77.3330368,38.25],[-77.3347607,38.25],[-77.33494530000002,38.25],[-77.3354759,38.25],[-77.33564480000001,38.25],[-77.33611810000002,38.25],[-77.33678600000002,38.25],[-77.33697510000002,38.25],[-77.33745529999999,38.25],[-77.34444860000002,38.25],[-77.34965649999998,38.25],[-77.34978760000001,38.25],[-77.35083049999997,38.25],[-77.35112470000001,38.25],[-77.3516333,38.25],[-77.35205689999998,38.25],[-77.3734268,38.25],[-77.3751838,38.25],[-77.37593570000001,38.25],[-77.37955310000001,38.25],[-77.38083310000002,38.25],[-77.38099629999999,38.25],[-77.3811624,38.25],[-77.39433919999999,38.25],[-77.39692969999999,38.25],[-77.39709169999998,38.25],[-77.3972063,38.25],[-77.39736319999997,38.25],[-77.39800869999999,38.25],[-77.39867720000001,38.25],[-77.3993375,38.25],[-77.39999999999998,38.25],[-77.39999999999998,38.250428]]]}},{"type":"Feature","properties":{},"geometry":{"type":"Polygon","coordinates":[[[-77.2730929,38.25],[-77.32499999999999,38.25],[-77.32499999999999,38.32499999999999],[-77.25,38.32499999999999],[-77.25,38.25243260000002],[-77.25,38.251439300000015],[-77.25,38.25135540000002],[-77.25,38.2513093],[-77.25,38.25050249999998],[-77.25,38.250023],[-77.25,38.25],[-77.2506272,38.25],[-77.25196410000001,38.25],[-77.2560335,38.25],[-77.25886220000001,38.25],[-77.2603517,38.25],[-77.26122559999999,38.25],[-77.2620617,38.25],[-77.26219300000002,38.25],[-77.26992289999998,38.25],[-77.27105360000002,38.25],[-77.27116160000003,38.25],[-77.2730929,38.25]]]}},{"type":"Feature","properties":{},"geometry":{"type":"Polygon","coordinates":[[[-77.25,38.250023],[-77.25,38.25050249999998],[-77.25,38.2513093],[-77.25,38.25135540000002],[-77.25,38.251439300000015],[-77.25,38.25243260000002],[-77.25,38.32499999999999],[-77.17500000000001,38.32499999999999],[-77.17500000000001,38.25],[-77.23636049999999,38.25],[-77.23659140000001,38.25],[-77.23726679999999,38.25],[-77.2376491,38.25],[-77.23828859999998,38.25],[-77.23999409999999,38.25],[-77.24865879999999,38.25],[-77.24960019999997,38.25],[-77.2499717,38.25],[-77.25,38.25],[-77.25,38.250023]]]}},{"type":"Feature","properties":{},"geometry":{"type":"Polygon","coordinates":[[[-77.0353556,38.25],[-77.10000000000002,38.25],[-77.10000000000002,38.32499999999999],[-77.072675,38.32499999999999],[-77.06695450000001,38.32499999999999],[-77.06603899999999,38.32499999999999],[-77.0658305,38.32499999999999],[-77.0656368,38.32499999999999],[-77.06553539999999,38.32499999999999],[-77.06542009999998,38.32499999999999],[-77.05694340000002,38.32499999999999],[-77.05641759999997,38.32499999999999],[-77.05542939999998,38.32499999999999],[-77.05268560000002,38.32499999999999],[-77.04631840000002,38.32499999999999],[-77.04587850000001,38.32499999999999],[-77.0458501,38.32499999999999],[-77.0453018,38.32499999999999],[-77.04513320000001,38.32499999999999],[-77.03607870000002,38.32499999999999],[-77.0354064,38.32499999999999],[-77.0303705,38.32499999999999],[-77.02499999999998,38.32499999999999],[-77.02499999999998,38.3218311],[-77.02499999999998,38.319147799999996],[-77.02499999999998,38.31438939999998],[-77.02499999999998,38.313822500000015],[-77.02499999999998,38.31229999999999],[-77.02499999999998,38.31167429999999],[-77.02499999999998,38.311170300000015],[-77.02499999999998,38.307064500000024],[-77.02499999999998,38.304778999999996],[-77.02499999999998,38.301719400000025],[-77.02499999999998,38.30155289999999],[-77.02499999999998,38.30002539999998],[-77.02499999999998,38.2989283],[-77.02499999999998,38.29737080000001],[-77.02499999999998,38.297047099999986],[-77.02499999999998,38.296800899999994],[-77.02499999999998,38.294824500000004],[-77.02499999999998,38.271300199999985],[-77.02499999999998,38.26985619999999],[-77.02499999999998,38.26982220000002],[-77.02499999999998,38.26899850000001],[-77.02499999999998,38.2684787],[-77.02499999999998,38.267919199999994],[-77.02499999999998,38.25594719999998],[-77.02499999999998,38.25],[-77.0353556,38.25]]]}},{"type":"Feature","properties":{},"geometry":{"type":"Polygon","coordinates":[[[-76.97311619999999,38.25],[-77.02499999999998,38.25],[-77.02499999999998,38.25594719999998],[-77.02499999999998,38.267919199999994],[-77.02499999999998,38.2684787],[-77.02499999999998,38.26899850000001],[-77.02499999999998,38.26982220000002],[-77.02499999999998,38.26985619999999],[-77.02499999999998,38.271300199999985],[-77.02499999999998,38.294824500000004],[-77.02499999999998,38.296800899999994],[-77.02499999999998,38.297047099999986],[-77.02499999999998,38.29737080000001],[-77.02499999999998,38.2989283],[-77.02499999999998,38.30002539999998],[-77.02499999999998,38.30155289999999],[-77.02499999999998,38.301719400000025],[-77.02499999999998,38.304778999999996],[-77.02499999999998,38.307064500000024],[-77.02499999999998,38.311170300000015],[-77.02499999999998,38.31167429999999],[-77.02499999999998,38.31229999999999],[-77.02499999999998,38.313822500000015],[-77.02499999999998,38.31438939999998],[-77.02499999999998,38.319147799999996],[-77.02499999999998,38.3218311],[-77.02499999999998,38.32499999999999],[-77.0215273,38.32499999999999],[-77.0200974,38.32499999999999],[-77.01813399999998,38.32499999999999],[-76.9965254,38.32499999999999],[-76.99541140000002,38.32499999999999],[-76.99475660000002,38.32499999999999],[-76.99094550000001,38.32499999999999],[-76.98471119999999,38.32499999999999],[-76.97826759999998,38.32499999999999],[-76.97302680000001,38.32499999999999],[-76.97227850000002,38.32499999999999],[-76.97139329999999,38.32499999999999],[-76.9709512,38.32499999999999],[-76.97017019999998,38.32499999999999],[-76.9655917,38.32499999999999],[-76.96459900000002,38.32499999999999],[-76.95629659999997,38.32499999999999],[-76.95513829999999,38.32499999999999],[-76.94999999999999,38.32499999999999],[-76.94999999999999,38.3151201],[-76.94999999999999,38.30602959999999],[-76.94999999999999,38.30460959999999],[-76.94999999999999,38.303882199999975],[-76.94999999999999,38.29649920000003],[-76.94999999999999,38.28771130000001],[-76.94999999999999,38.28736909999998],[-76.94999999999999,38.287307699999985],[-76.94999999999999,38.285833500000024],[-76.94999999999999,38.28495579999998],[-76.94999999999999,38.28456299999999],[-76.94999999999999,38.28164700000002],[-76.94999999999999,38.28089560000001],[-76.94999999999999,38.27947280000001],[-76.94999999999999,38.27859110000003],[-76.94999999999999,38.269910400000015],[-76.94999999999999,38.2645862],[-76.94999999999999,38.26083240000003],[-76.94999999999999,38.25866050000002],[-76.94999999999999,38.25],[-76.95113199999997,38.25],[-76.9513316,38.25],[-76.95948859999999,38.25],[-76.9605583,38.25],[-76.96613539999998,38.25],[-76.97149080000003,38.25],[-76.97224990000001,38.25],[-76.97311619999999,38.25]]]}},{"type":"Feature","properties":{},"geometry":{"type":"Polygon","coordinates":[[[-77.072675,38.32499999999999],[-77.10000000000002,38.32499999999999],[-77.10000000000002,38.32715000000002],[-77.10000000000002,38.36221440000003],[-77.10000000000002,38.36285609999999],[-77.10000000000002,38.363442299999974],[-77.10000000000002,38.36348079999999],[-77.10000000000002,38.36750919999997],[-77.10000000000002,38.36898230000003],[-77.10000000000002,38.37422249999997],[-77.10000000000002,38.3800827],[-77.10000000000002,38.3810828],[-77.10000000000002,38.38724180000003],[-77.10000000000002,38.38856709999999],[-77.10000000000002,38.3933768],[-77.10000000000002,38.394211799999994],[-77.10000000000002,38.39999999999998],[-77.09927010000001,38.39999999999998],[-77.09729090000002,38.39999999999998],[-77.08919529999997,38.39999999999998],[-77.08159899999998,38.39999999999998],[-77.056014,38.39999999999998],[-77.05403790000003,38.39999999999998],[-77.0532915,38.39999999999998],[-77.05218889999998,38.39999999999998],[-77.04706449999998,38.39999999999998],[-77.04563359999997,38.39999999999998],[-77.04142130000002,38.39999999999998],[-77.0324008,38.39999999999998],[-77.02677990000001,38.39999999999998],[-77.02499999999998,38.39999999999998],[-77.02499999999998,38.398439800000006],[-77.02499999999998,38.39510469999999],[-77.02499999999998,38.38621690000002],[-77.02499999999998,38.377596100000005],[-77.02499999999998,38.37615290000002],[-77.02499999999998,38.375694399999986],[-77.02499999999998,38.35463040000002],[-77.02499999999998,38.34025329999997],[-77.02499999999998,38.3400886],[-77.02499999999998,38.33815900000002],[-77.02499999999998,38.33580389999997],[-77.02499999999998,38.33499640000002],[-77.02499999999998,38.33478550000001],[-77.02499999999998,38.33449239999999],[-77.02499999999998,38.33420510000002],[-77.02499999999998,38.33417300000002],[-77.02499999999998,38.329637100000014],[-77.02499999999998,38.32499999999999],[-77.0303705,38.32499999999999],[-77.0354064,38.32499999999999],[-77.03607870000002,38.32499999999999],[-77.04513320000001,38.32499999999999],[-77.0453018,38.32499999999999],[-77.0458501,38.32499999999999],[-77.04587850000001,38.32499999999999],[-77.04631840000002,38.32499999999999],[-77.05268560000002,38.32499999999999],[-77.05542939999998,38.32499999999999],[-77.05641759999997,38.32499999999999],[-77.05694340000002,38.32499999999999],[-77.06542009999998,38.32499999999999],[-77.06553539999999,38.32499999999999],[-77.0656368,38.32499999999999],[-77.0658305,38.32499999999999],[-77.06603899999999,38.32499999999999],[-77.06695450000001,38.32499999999999],[-77.072675,38.32499999999999]]]}},{"type":"Feature","properties":{},"geometry":{"type":"Polygon","coordinates":[[[-77.0215273,38.32499999999999],[-77.02499999999998,38.32499999999999],[-77.02499999999998,38.329637100000014],[-77.02499999999998,38.33417300000002],[-77.02499999999998,38.33420510000002],[-77.02499999999998,38.33449239999999],[-77.02499999999998,38.33478550000001],[-77.02499999999998,38.33499640000002],[-77.02499999999998,38.33580389999997],[-77.02499999999998,38.33815900000002],[-77.02499999999998,38.3400886],[-77.02499999999998,38.34025329999997],[-77.02499999999998,38.35463040000002],[-77.02499999999998,38.375694399999986],[-77.02499999999998,38.37615290000002],[-77.02499999999998,38.377596100000005],[-77.02499999999998,38.38621690000002],[-77.02499999999998,38.39510469999999],[-77.02499999999998,38.398439800000006],[-77.02499999999998,38.39999999999998],[-77.01906609999997,38.39999999999998],[-77.0164287,38.39999999999998],[-77.00431470000001,38.39999999999998],[-77.00402659999997,38.39999999999998],[-77.00204100000002,38.39999999999998],[-76.99717420000002,38.39999999999998],[-76.9954583,38.39999999999998],[-76.99441259999998,38.39999999999998],[-76.9924512,38.39999999999998],[-76.98896969999998,38.39999999999998],[-76.9838226,38.39999999999998],[-76.9825763,38.39999999999998],[-76.9817519,38.39999999999998],[-76.9810501,38.39999999999998],[-76.94999999999999,38.39999999999998],[-76.94999999999999,38.33946950000001],[-76.94999999999999,38.3382469],[-76.94999999999999,38.33756540000002],[-76.94999999999999,38.33718210000001],[-76.94999999999999,38.33707450000003],[-76.94999999999999,38.332484799999975],[-76.94999999999999,38.32906839999998],[-76.94999999999999,38.32843559999998],[-76.94999999999999,38.32715000000002],[-76.94999999999999,38.32499999999999],[-76.95513829999999,38.32499999999999],[-76.95629659999997,38.32499999999999],[-76.96459900000002,38.32499999999999],[-76.9655917,38.32499999999999],[-76.97017019999998,38.32499999999999],[-76.9709512,38.32499999999999],[-76.97139329999999,38.32499999999999],[-76.97227850000002,38.32499999999999],[-76.97302680000001,38.32499999999999],[-76.97826759999998,38.32499999999999],[-76.98471119999999,38.32499999999999],[-76.99094550000001,38.32499999999999],[-76.99475660000002,38.32499999999999],[-76.99541140000002,38.32499999999999],[-76.9965254,38.32499999999999],[-77.01813399999998,38.32499999999999],[-77.0200974,38.32499999999999],[-77.0215273,38.32499999999999]]]}},{"type":"Feature","properties":{},"geometry":{"type":"Polygon","coordinates":[[[-77.05184980000001,38.10000000000002],[-77.04206190000002,38.10000000000002],[-77.04193600000002,38.10000000000002],[-77.03951339999998,38.10000000000002],[-77.03926719999998,38.10000000000002],[-77.0390509,38.10000000000002],[-77.03728769999998,38.10000000000002],[-77.03698370000001,38.10000000000002],[-77.03670670000002,38.10000000000002],[-77.02732379999998,38.10000000000002],[-77.0270587,38.10000000000002],[-77.0268486,38.10000000000002],[-77.02655750000002,38.10000000000002],[-77.02499999999998,38.10000000000002],[-77.02499999999998,38.10024929999997],[-77.02499999999998,38.1010713],[-77.02499999999998,38.102610500000026],[-77.02499999999998,38.10285490000001],[-77.02499999999998,38.10325710000001],[-77.02499999999998,38.106854999999996],[-77.02499999999998,38.107108100000005],[-77.02499999999998,38.10727229999998],[-77.02499999999998,38.10739319999999],[-77.02499999999998,38.10776329999999],[-77.02499999999998,38.17500000000001],[-77.07951880000002,38.17500000000001],[-77.04430550000001,38.19652780000001],[-77.0353556,38.187357299999974],[-76.9477784,38.097622100000024],[-76.94521928955042,38.095],[-77.0469861713159,38.095],[-77.05184980000001,38.10000000000002]]]}}]}