{"type":"FeatureCollection","features":[{"type":"Feature","properties":{},"geometry":{"type":"Polygon","coordinates":[[[-76.71875440000002,37.125],[-76.7158215,37.125],[-76.71557109999998,37.125],[-76.71542829999999,37.125],[-76.70781979999998,37.125],[-76.6821759,37.125],[-76.68048920000001,37.125],[-76.67966560000002,37.125],[-76.67686830000002,37.125],[-76.67365280000001,37.125],[-76.67023610000001,37.125],[-76.665775,37.125],[-76.66502939999998,37.125],[-76.66491960000002,37.125],[-76.65825419999999,37.125],[-76.65396179999999,37.125],[-76.65305439999997,37.125],[-76.65099049999998,37.125],[-76.65038600000003,37.125],[-76.64999999999998,37.125],[-76.64999999999998,37.12183249999998],[-76.64999999999998,37.12030600000003],[-76.64999999999998,37.11961200000002],[-76.64999999999998,37.11613670000003],[-76.64999999999998,37.113833399999976],[-76.64999999999998,37.11192460000001],[-76.64999999999998,37.1093376],[-76.64999999999998,37.10746690000002],[-76.64999999999998,37.10270250000002],[-76.64999999999998,37.1019316],[-76.64999999999998,37.09332999999998],[-76.64999999999998,37.08447849999999],[-76.64999999999998,37.08293789999999],[-76.64999999999998,37.0817462],[-76.64999999999998,37.079994699999986],[-76.64999999999998,37.07623339999998],[-76.64999999999998,37.07606529999998],[-76.64999999999998,37.0742267],[-76.64999999999998,37.0732582],[-76.64999999999998,37.0728823],[-76.64999999999998,37.06454550000001],[-76.64999999999998,37.0542744],[-76.64999999999998,37.05212340000003],[-76.64999999999998,37.05000000000001],[-76.65284960000002,37.05000000000001],[-76.66582310000001,37.05000000000001],[-76.66608100000002,37.05000000000001],[-76.72500000000002,37.05000000000001],[-76.72500000000002,37.125],[-76.719696,37.125],[-76.71875440000002,37.125]]]}},{"type":"Feature","properties":{},"geometry":{"type":"Polygon","coordinates":[[[-76.59999110000001,37.05000000000001],[-76.6021998,37.05000000000001],[-76.60665920000002,37.05000000000001],[-76.61303299999997,37.05000000000001],[-76.62855819999999,37.05000000000001],[-76.64376800000002,37.05000000000001],[-76.64999999999998,37.05000000000001],[-76.64999999999998,37.05212340000003],[-76.64999999999998,37.0542744],[-76.64999999999998,37.06454550000001],[-76.64999999999998,37.0728823],[-76.64999999999998,37.0732582],[-76.64999999999998,37.0742267],[-76.64999999999998,37.07606529999998],[-76.64999999999998,37.07623339999998],[-76.64999999999998,37.079994699999986],[-76.64999999999998,37.0817462],[-76.64999999999998,37.08293789999999],[-76.64999999999998,37.08447849999999],[-76.64999999999998,37.09332999999998],[-76.64999999999998,37.1019316],[-76.64999999999998,37.10270250000002],[-76.64999999999998,37.10746690000002],[-76.64999999999998,37.1093376],[-76.64999999999998,37.11192460000001],[-76.64999999999998,37.113833399999976],[-76.64999999999998,37.11613670000003],[-76.64999999999998,37.11961200000002],[-76.64999999999998,37.12030600000003],[-76.64999999999998,37.12183249999998],[-76.64999999999998,37.125],[-76.64933589999998,37.125],[-76.64864189999997,37.125],[-76.6450198,37.125],[-76.64348150000001,37.125],[-76.6368407,37.125],[-76.63618989999998,37.125],[-76.63561600000003,37.125],[-76.63527149999999,37.125],[-76.63493440000002,37.125],[-76.6195849,37.125],[-76.61957360000002,37.125],[-76.61659170000001,37.125],[-76.61399210000002,37.125],[-76.61308780000002,37.125],[-76.61291649999998,37.125],[-76.61026529999998,37.125],[-76.6003753,37.125],[-76.59819190000002,37.125],[-76.59528519999998,37.125],[-76.595,37.125],[-76.595,37.05000000000001],[-76.59999110000001,37.05000000000001]]]}},{"type":"Feature","properties":{},"geometry":{"type":"Polygon","coordinates":[[[-77.04042149999998,37.19999999999999],[-77.04037770000002,37.19999999999999],[-77.04015099999998,37.19999999999999],[-77.03868540000002,37.19999999999999],[-77.03789710000001,37.19999999999999],[-77.03739990000003,37.19999999999999],[-77.03716580000003,37.19999999999999],[-77.0365678,37.19999999999999],[-77.0347686,37.19999999999999],[-77.0335814,37.19999999999999],[-77.0329342,37.19999999999999],[-77.0308781,37.19999999999999],[-77.03031709999999,37.19999999999999],[-77.02797079999999,37.19999999999999],[-77.02551590000002,37.19999999999999],[-77.02499999999998,37.19999999999999],[-77.02499999999998,37.19600220000001],[-77.02499999999998,37.19537009999999],[-77.02499999999998,37.15014500000001],[-77.02499999999998,37.125],[-77.10000000000002,37.125],[-77.10000000000002,37.15014500000001],[-77.10000000000002,37.19999999999999],[-77.04137650000001,37.19999999999999],[-77.04042149999998,37.19999999999999]]]}},{"type":"Feature","properties":{},"geometry":{"type":"Polygon","coordinates":[[[-76.90274210000001,37.19999999999999],[-76.9023975,37.19999999999999],[-76.8885831,37.19999999999999],[-76.875,37.19999999999999],[-76.875,37.125],[-76.94999999999999,37.125],[-76.94999999999999,37.15014500000001],[-76.94999999999999,37.19999999999999],[-76.91674440000003,37.19999999999999],[-76.90274210000001,37.19999999999999]]]}},{"type":"Feature","properties":{},"geometry":{"type":"Polygon","coordinates":[[[-76.80282199999999,37.19999999999999],[-76.80000000000001,37.19999999999999],[-76.80000000000001,37.1935163],[-76.80000000000001,37.18997000000002],[-76.80000000000001,37.1884579],[-76.80000000000001,37.18809190000002],[-76.80000000000001,37.187625500000024],[-76.80000000000001,37.187004],[-76.80000000000001,37.1865689],[-76.80000000000001,37.18430860000001],[-76.80000000000001,37.18312270000001],[-76.80000000000001,37.1829204],[-76.80000000000001,37.18273749999997],[-76.80000000000001,37.181960000000004],[-76.80000000000001,37.16251829999999],[-76.80000000000001,37.16146170000002],[-76.80000000000001,37.125],[-76.875,37.125],[-76.875,37.19999999999999],[-76.8035926,37.19999999999999],[-76.80282199999999,37.19999999999999]]]}},{"type":"Feature","properties":{},"geometry":{"type":"Polygon","coordinates":[[[-76.80000000000001,37.16146170000002],[-76.80000000000001,37.16251829999999],[-76.80000000000001,37.181960000000004],[-76.80000000000001,37.18273749999997],[-76.80000000000001,37.1829204],[-76.80000000000001,37.18312270000001],[-76.80000000000001,37.18430860000001],[-76.80000000000001,37.1865689],[-76.80000000000001,37.187004],[-76.80000000000001,37.187625500000024],[-76.80000000000001,37.18809190000002],[-76.80000000000001,37.1884579],[-76.80000000000001,37.188851],[-76.80000000000001,37.18997000000002],[-76.80000000000001,37.1935163],[-76.80000000000001,37.19999999999999],[-76.79354239999998,37.19999999999999],[-76.7832285,37.19999999999999],[-76.78201080000002,37.19999999999999],[-76.7783369,37.19999999999999],[-76.77088600000002,37.19999999999999],[-76.76992230000002,37.19999999999999],[-76.7694616,37.19999999999999],[-76.76889030000001,37.19999999999999],[-76.7662335,37.19999999999999],[-76.7650147,37.19999999999999],[-76.76440229999997,37.19999999999999],[-76.76425940000001,37.19999999999999],[-76.76399429999998,37.19999999999999],[-76.76323200000002,37.19999999999999],[-76.76197259999998,37.19999999999999],[-76.75943640000003,37.19999999999999],[-76.75903360000001,37.19999999999999],[-76.75828660000002,37.19999999999999],[-76.75808970000003,37.19999999999999],[-76.7579293,37.19999999999999],[-76.75750019999998,37.19999999999999],[-76.75745460000002,37.19999999999999],[-76.75674329999998,37.19999999999999],[-76.75654780000002,37.19999999999999],[-76.75641660000002,37.19999999999999],[-76.75588749999997,37.19999999999999],[-76.73903910000001,37.19999999999999],[-76.7320307,37.19999999999999],[-76.72997240000001,37.19999999999999],[-76.72780039999998,37.19999999999999],[-76.72535240000002,37.19999999999999],[-76.72507949999999,37.19999999999999],[-76.72500000000002,37.19999999999999],[-76.72500000000002,37.19552090000002],[-76.72500000000002,37.19416180000002],[-76.72500000000002,37.194007399999975],[-76.72500000000002,37.19329579999999],[-76.72500000000002,37.193022499999984],[-76.72500000000002,37.19275249999998],[-76.72500000000002,37.1924712],[-76.72500000000002,37.192194400000005],[-76.72500000000002,37.191449999999975],[-76.72500000000002,37.1910307],[-76.72500000000002,37.1900885],[-76.72500000000002,37.18557929999997],[-76.72500000000002,37.1803036],[-76.72500000000002,37.17492440000001],[-76.72500000000002,37.168674899999985],[-76.72500000000002,37.1675108],[-76.72500000000002,37.14581939999999],[-76.72500000000002,37.1296433],[-76.72500000000002,37.12928790000001],[-76.72500000000002,37.12890779999998],[-76.72500000000002,37.125],[-76.73209309999999,37.125],[-76.7337834,37.125],[-76.7343098,37.125],[-76.78290040000002,37.125],[-76.80000000000001,37.125],[-76.80000000000001,37.16146170000002]]]}},{"type":"Feature","properties":{},"geometry":{"type":"Polygon","coordinates":[[[-76.6821759,37.125],[-76.70781979999998,37.125],[-76.71542829999999,37.125],[-76.71557109999998,37.125],[-76.7158215,37.125],[-76.71875440000002,37.125],[-76.719696,37.125],[-76.72500000000002,37.125],[-76.72500000000002,37.12890779999998],[-76.72500000000002,37.12928790000001],[-76.72500000000002,37.1296433],[-76.72500000000002,37.14581939999999],[-76.72500000000002,37.1675108],[-76.72500000000002,37.168674899999985],[-76.72500000000002,37.17492440000001],[-76.72500000000002,37.1803036],[-76.72500000000002,37.18557929999997],[-76.72500000000002,37.1900885],[-76.72500000000002,37.1910307],[-76.72500000000002,37.191449999999975],[-76.72500000000002,37.192194400000005],[-76.72500000000002,37.1924712],[-76.72500000000002,37.19275249999998],[-76.72500000000002,37.193022499999984],[-76.72500000000002,37.19329579999999],[-76.72500000000002,37.194007399999975],[-76.72500000000002,37.19416180000002],[-76.72500000000002,37.19552090000002],[-76.72500000000002,37.19999999999999],[-76.71869320000002,37.19999999999999],[-76.71647940000003,37.19999999999999],[-76.71557209999997,37.19999999999999],[-76.71519610000001,37.19999999999999],[-76.71482809999998,37.19999999999999],[-76.71442139999999,37.19999999999999],[-76.71403320000002,37.19999999999999],[-76.71293050000003,37.19999999999999],[-76.7075848,37.19999999999999],[-76.70582510000003,37.19999999999999],[-76.69662549999998,37.19999999999999],[-76.69616070000001,37.19999999999999],[-76.69564839999998,37.19999999999999],[-76.69419959999999,37.19999999999999],[-76.68765209999998,37.19999999999999],[-76.68634220000001,37.19999999999999],[-76.68084909999999,37.19999999999999],[-76.6770684,37.19999999999999],[-76.67582670000002,37.19999999999999],[-76.67427659999998,37.19999999999999],[-76.6726544,37.19999999999999],[-76.6598108,37.19999999999999],[-76.64999999999998,37.19999999999999],[-76.64999999999998,37.1953221],[-76.64999999999998,37.19231209999998],[-76.64999999999998,37.1891488],[-76.64999999999998,37.1804272],[-76.64999999999998,37.179699400000004],[-76.64999999999998,37.17774480000003],[-76.64999999999998,37.17272079999998],[-76.64999999999998,37.16956750000003],[-76.64999999999998,37.16949090000003],[-76.64999999999998,37.16658940000002],[-76.64999999999998,37.16468859999998],[-76.64999999999998,37.1588764],[-76.64999999999998,37.157283699999994],[-76.64999999999998,37.14157890000001],[-76.64999999999998,37.13582939999998],[-76.64999999999998,37.13370889999999],[-76.64999999999998,37.131525599999975],[-76.64999999999998,37.12789600000002],[-76.64999999999998,37.12570490000002],[-76.64999999999998,37.125404100000026],[-76.64999999999998,37.125],[-76.65038600000003,37.125],[-76.65099049999998,37.125],[-76.65305439999997,37.125],[-76.65396179999999,37.125],[-76.65825419999999,37.125],[-76.66491960000002,37.125],[-76.66502939999998,37.125],[-76.665775,37.125],[-76.67023610000001,37.125],[-76.67365280000001,37.125],[-76.67686830000002,37.125],[-76.67966560000002,37.125],[-76.68048920000001,37.125],[-76.6821759,37.125]]]}},{"type":"Feature","properties":{},"geometry":{"type":"Polygon","coordinates":[[[-76.59528519999998,37.125],[-76.59819190000002,37.125],[-76.6003753,37.125],[-76.61026529999998,37.125],[-76.61291649999998,37.125],[-76.61308780000002,37.125],[-76.61399210000002,37.125],[-76.61659170000001,37.125],[-76.61957360000002,37.125],[-76.6195849,37.125],[-76.63493440000002,37.125],[-76.63527149999999,37.125],[-76.63561600000003,37.125],[-76.63618989999998,37.125],[-76.6368407,37.125],[-76.64348150000001,37.125],[-76.6450198,37.125],[-76.64864189999997,37.125],[-76.64933589999998,37.125],[-76.64999999999998,37.125],[-76.64999999999998,37.125404100000026],[-76.64999999999998,37.12570490000002],[-76.64999999999998,37.12789600000002],[-76.64999999999998,37.131525599999975],[-76.64999999999998,37.13370889999999],[-76.64999999999998,37.13582939999998],[-76.64999999999998,37.14157890000001],[-76.64999999999998,37.157283699999994],[-76.64999999999998,37.1588764],[-76.64999999999998,37.16468859999998],[-76.64999999999998,37.16658940000002],[-76.64999999999998,37.16949090000003],[-76.64999999999998,37.16956750000003],[-76.64999999999998,37.17272079999998],[-76.64999999999998,37.17774480000003],[-76.64999999999998,37.179699400000004],[-76.64999999999998,37.1804272],[-76.64999999999998,37.1891488],[-76.64999999999998,37.19231209999998],[-76.64999999999998,37.1953221],[-76.64999999999998,37.19999999999999],[-76.64693019999999,37.19999999999999],[-76.6458096,37.19999999999999],[-76.64480850000001,37.19999999999999],[-76.64444129999998,37.19999999999999],[-76.6437077,37.19999999999999],[-76.6433404,37.19999999999999],[-76.64241820000001,37.19999999999999],[-76.64177610000002,37.19999999999999],[-76.6406498,37.19999999999999],[-76.63544969999998,37.19999999999999],[-76.62830969999999,37.19999999999999],[-76.6243384,37.19999999999999],[-76.62412699999999,37.19999999999999],[-76.62295160000002,37.19999999999999],[-76.61877980000003,37.19999999999999],[-76.595,37.19999999999999],[-76.595,37.125],[-76.59528519999998,37.125]]]}},{"type":"Feature","properties":{},"geometry":{"type":"Polygon","coordinates":[[[-77.39999999999998,37.22878609999998],[-77.39999999999998,37.23458210000001],[-77.39999999999998,37.23492879999998],[-77.39999999999998,37.23763880000001],[-77.39999999999998,37.237839699999995],[-77.39999999999998,37.239666],[-77.39999999999998,37.24018699999999],[-77.39999999999998,37.25263000000001],[-77.39999999999998,37.271881399999984],[-77.39999999999998,37.2720142],[-77.39999999999998,37.27211249999999],[-77.39999999999998,37.27499999999998],[-77.39840700000002,37.27499999999998],[-77.39825830000001,37.27499999999998],[-77.39809000000002,37.27499999999998],[-77.394407,37.27499999999998],[-77.3941304,37.27499999999998],[-77.37500720000003,37.27499999999998],[-77.37232749999998,37.27499999999998],[-77.37106349999999,37.27499999999998],[-77.37095749999997,37.27499999999998],[-77.36811490000002,37.27499999999998],[-77.3679856,37.27499999999998],[-77.36739080000001,37.27499999999998],[-77.36671380000001,37.27499999999998],[-77.3652639,37.27499999999998],[-77.36490930000002,37.27499999999998],[-77.3644099,37.27499999999998],[-77.36408719999997,37.27499999999998],[-77.36383990000002,37.27499999999998],[-77.36316299999999,37.27499999999998],[-77.3568017,37.27499999999998],[-77.32499999999999,37.27499999999998],[-77.32499999999999,37.19999999999999],[-77.39999999999998,37.19999999999999],[-77.39999999999998,37.22878609999998]]]}},{"type":"Feature","properties":{},"geometry":{"type":"Polygon","coordinates":[[[-77.16222429999999,37.27499999999998],[-77.1596222,37.27499999999998],[-77.15912500000002,37.27499999999998],[-77.15897489999998,37.27499999999998],[-77.157757,37.27499999999998],[-77.15690940000002,37.27499999999998],[-77.15506570000002,37.27499999999998],[-77.15228059999998,37.27499999999998],[-77.1521098,37.27499999999998],[-77.15111489999998,37.27499999999998],[-77.15084039999999,37.27499999999998],[-77.10363969999997,37.27499999999998],[-77.10293630000001,37.27499999999998],[-77.10235690000002,37.27499999999998],[-77.10175379999998,37.27499999999998],[-77.10142769999999,37.27499999999998],[-77.10074320000001,37.27499999999998],[-77.10046269999998,37.27499999999998],[-77.10000000000002,37.27499999999998],[-77.10000000000002,37.274692500000015],[-77.10000000000002,37.266260699999975],[-77.10000000000002,37.26605999999998],[-77.10000000000002,37.26567720000003],[-77.10000000000002,37.26302820000001],[-77.10000000000002,37.26239989999999],[-77.10000000000002,37.26175189999998],[-77.10000000000002,37.19999999999999],[-77.17500000000001,37.19999999999999],[-77.17500000000001,37.27499999999998],[-77.16319670000001,37.27499999999998],[-77.16222429999999,37.27499999999998]]]}},{"type":"Feature","properties":{},"geometry":{"type":"Polygon","coordinates":[[[-77.0347686,37.19999999999999],[-77.0365678,37.19999999999999],[-77.03716580000003,37.19999999999999],[-77.03739990000003,37.19999999999999],[-77.03789710000001,37.19999999999999],[-77.03868540000002,37.19999999999999],[-77.04015099999998,37.19999999999999],[-77.04037770000002,37.19999999999999],[-77.04042149999998,37.19999999999999],[-77.04137650000001,37.19999999999999],[-77.10000000000002,37.19999999999999],[-77.10000000000002,37.26175189999998],[-77.10000000000002,37.26239989999999],[-77.10000000000002,37.26302820000001],[-77.10000000000002,37.26567720000003],[-77.10000000000002,37.26605999999998],[-77.10000000000002,37.266260699999975],[-77.10000000000002,37.274692500000015],[-77.10000000000002,37.27499999999998],[-77.0988165,37.27499999999998],[-77.0980591,37.27499999999998],[-77.09767060000001,37.27499999999998],[-77.09617809999997,37.27499999999998],[-77.09527550000001,37.27499999999998],[-77.09454790000001,37.27499999999998],[-77.09418010000002,37.27499999999998],[-77.09343100000001,37.27499999999998],[-77.09319779999998,37.27499999999998],[-77.09234040000001,37.27499999999998],[-77.09197369999998,37.27499999999998],[-77.09095209999998,37.27499999999998],[-77.08819510000001,37.27499999999998],[-77.083619,37.27499999999998],[-77.083394,37.27499999999998],[-77.0828009,37.27499999999998],[-77.07828460000002,37.27499999999998],[-77.07759620000002,37.27499999999998],[-77.07637499999998,37.27499999999998],[-77.0755805,37.27499999999998],[-77.0750056,37.27499999999998],[-77.07220050000001,37.27499999999998],[-77.07184480000001,37.27499999999998],[-77.07023809999998,37.27499999999998],[-77.06927510000003,37.27499999999998],[-77.06881829999998,37.27499999999998],[-77.06314830000002,37.27499999999998],[-77.05886650000002,37.27499999999998],[-77.0556029,37.27499999999998],[-77.05163970000001,37.27499999999998],[-77.05128250000001,37.27499999999998],[-77.05056789999998,37.27499999999998],[-77.05021060000001,37.27499999999998],[-77.04595289999997,37.27499999999998],[-77.04555540000001,37.27499999999998],[-77.0444857,37.27499999999998],[-77.02499999999998,37.27499999999998],[-77.02499999999998,37.26550040000001],[-77.02499999999998,37.25599260000001],[-77.02499999999998,37.247694000000024],[-77.02499999999998,37.22970190000001],[-77.02499999999998,37.22949590000002],[-77.02499999999998,37.21480810000003],[-77.02499999999998,37.214235299999984],[-77.02499999999998,37.207103700000005],[-77.02499999999998,37.20638029999998],[-77.02499999999998,37.20586709999998],[-77.02499999999998,37.20515879999999],[-77.02499999999998,37.204628300000024],[-77.02499999999998,37.201047200000005],[-77.02499999999998,37.20034850000002],[-77.02499999999998,37.19999999999999],[-77.02551590000002,37.19999999999999],[-77.02797079999999,37.19999999999999],[-77.03031709999999,37.19999999999999],[-77.0308781,37.19999999999999],[-77.0329342,37.19999999999999],[-77.0335814,37.19999999999999],[-77.0347686,37.19999999999999]]]}},{"type":"Feature","properties":{},"geometry":{"type":"Polygon","coordinates":[[[-77.02499999999998,37.20034850000002],[-77.02499999999998,37.201047200000005],[-77.02499999999998,37.204628300000024],[-77.02499999999998,37.20515879999999],[-77.02499999999998,37.20586709999998],[-77.02499999999998,37.20638029999998],[-77.02499999999998,37.207103700000005],[-77.02499999999998,37.214235299999984],[-77.02499999999998,37.21480810000003],[-77.02499999999998,37.22949590000002],[-77.02499999999998,37.22970190000001],[-77.02499999999998,37.247694000000024],[-77.02499999999998,37.25599260000001],[-77.02499999999998,37.26550040000001],[-77.02499999999998,37.27499999999998],[-77.00654989999998,37.27499999999998],[-76.9973,37.27499999999998],[-76.99675710000002,37.27499999999998],[-76.9936136,37.27499999999998],[-76.99330889999999,37.27499999999998],[-76.9855106,37.27499999999998],[-76.98536869999998,37.27499999999998],[-76.9847858,37.27499999999998],[-76.98282740000002,37.27499999999998],[-76.98181449999998,37.27499999999998],[-76.94999999999999,37.27499999999998],[-76.94999999999999,37.26867850000002],[-76.94999999999999,37.243551500000024],[-76.94999999999999,37.24202489999999],[-76.94999999999999,37.241684899999996],[-76.94999999999999,37.24051209999999],[-76.94999999999999,37.231788800000004],[-76.94999999999999,37.23146750000001],[-76.94999999999999,37.231438200000014],[-76.94999999999999,37.2310832],[-76.94999999999999,37.22959589999999],[-76.94999999999999,37.204669000000024],[-76.94999999999999,37.19999999999999],[-77.02499999999998,37.19999999999999],[-77.02499999999998,37.20034850000002]]]}},{"type":"Feature","properties":{},"geometry":{"type":"Polygon","coordinates":[[[-76.91674440000003,37.19999999999999],[-76.94999999999999,37.19999999999999],[-76.94999999999999,37.204669000000024],[-76.94999999999999,37.22959589999999],[-76.94999999999999,37.2310832],[-76.94999999999999,37.231438200000014],[-76.94999999999999,37.23146750000001],[-76.94999999999999,37.231788800000004],[-76.94999999999999,37.24051209999999],[-76.94999999999999,37.241684899999996],[-76.94999999999999,37.24202489999999],[-76.94999999999999,37.243551500000024],[-76.94999999999999,37.26867850000002],[-76.94999999999999,37.27499999999998],[-76.9265828,37.27499999999998],[-76.92496,37.27499999999998],[-76.88807300000002,37.27499999999998],[-76.88733439999999,37.27499999999998],[-76.8862666,37.27499999999998],[-76.88596990000002,37.27499999999998],[-76.88561670000001,37.27499999999998],[-76.88542560000002,37.27499999999998],[-76.88520970000002,37.27499999999998],[-76.8851416,37.27499999999998],[-76.88438930000001,37.27499999999998],[-76.88380649999999,37.27499999999998],[-76.88055059999999,37.27499999999998],[-76.88024419999999,37.27499999999998],[-76.87861090000001,37.27499999999998],[-76.87645600000002,37.27499999999998],[-76.875,37.27499999999998],[-76.875,37.2743782],[-76.875,37.274176599999976],[-76.875,37.27395419999999],[-76.875,37.27367750000002],[-76.875,37.27302370000001],[-76.875,37.27100999999999],[-76.875,37.27027629999998],[-76.875,37.2695157],[-76.875,37.269111599999974],[-76.875,37.26672389999999],[-76.875,37.26528539999998],[-76.875,37.264777200000026],[-76.875,37.264270599999975],[-76.875,37.26410379999999],[-76.875,37.2639461],[-76.875,37.258937300000014],[-76.875,37.258144300000026],[-76.875,37.251969900000006],[-76.875,37.25144549999999],[-76.875,37.250196500000015],[-76.875,37.250007400000015],[-76.875,37.2425609],[-76.875,37.23853750000001],[-76.875,37.23665510000001],[-76.875,37.23582140000002],[-76.875,37.23476210000001],[-76.875,37.233319900000026],[-76.875,37.23313489999998],[-76.875,37.231716800000015],[-76.875,37.22949999999997],[-76.875,37.22654970000002],[-76.875,37.222668],[-76.875,37.222466199999985],[-76.875,37.21926509999997],[-76.875,37.21849709999998],[-76.875,37.21669600000001],[-76.875,37.215858500000024],[-76.875,37.21565149999998],[-76.875,37.2154309],[-76.875,37.215245100000004],[-76.875,37.21502989999999],[-76.875,37.21295500000002],[-76.875,37.21160279999998],[-76.875,37.21046819999998],[-76.875,37.20495110000002],[-76.875,37.204627500000015],[-76.875,37.19999999999999],[-76.8885831,37.19999999999999],[-76.9023975,37.19999999999999],[-76.90274210000001,37.19999999999999],[-76.91674440000003,37.19999999999999]]]}},{"type":"Feature","properties":{},"geometry":{"type":"Polygon","coordinates":[[[-76.8035926,37.19999999999999],[-76.875,37.19999999999999],[-76.875,37.204627500000015],[-76.875,37.20495110000002],[-76.875,37.21046819999998],[-76.875,37.21160279999998],[-76.875,37.21295500000002],[-76.875,37.21502989999999],[-76.875,37.215245100000004],[-76.875,37.2154309],[-76.875,37.21565149999998],[-76.875,37.215858500000024],[-76.875,37.21669600000001],[-76.875,37.21849709999998],[-76.875,37.21926509999997],[-76.875,37.222466199999985],[-76.875,37.222668],[-76.875,37.22654970000002],[-76.875,37.22949999999997],[-76.875,37.231716800000015],[-76.875,37.23313489999998],[-76.875,37.233319900000026],[-76.875,37.23476210000001],[-76.875,37.23582140000002],[-76.875,37.23665510000001],[-76.875,37.23853750000001],[-76.875,37.2425609],[-76.875,37.250007400000015],[-76.875,37.250196500000015],[-76.875,37.25144549999999],[-76.875,37.251969900000006],[-76.875,37.258144300000026],[-76.875,37.258937300000014],[-76.875,37.2639461],[-76.875,37.26410379999999],[-76.875,37.264270599999975],[-76.875,37.264777200000026],[-76.875,37.26528539999998],[-76.875,37.26672389999999],[-76.875,37.269111599999974],[-76.875,37.2695157],[-76.875,37.27027629999998],[-76.875,37.27100999999999],[-76.875,37.27302370000001],[-76.875,37.27367750000002],[-76.875,37.27395419999999],[-76.875,37.274176599999976],[-76.875,37.2743782],[-76.875,37.27499999999998],[-76.87482189999997,37.27499999999998],[-76.87078070000001,37.27499999999998],[-76.8645128,37.27499999999998],[-76.86376380000002,37.27499999999998],[-76.8590218,37.27499999999998],[-76.8529517,37.27499999999998],[-76.85274220000002,37.27499999999998],[-76.85034999999999,37.27499999999998],[-76.84966839999998,37.27499999999998],[-76.84937409999998,37.27499999999998],[-76.84897130000002,37.27499999999998],[-76.84763220000002,37.27499999999998],[-76.84443090000002,37.27499999999998],[-76.83927540000002,37.27499999999998],[-76.80000000000001,37.27499999999998],[-76.80000000000001,37.23496490000002],[-76.80000000000001,37.23476260000001],[-76.80000000000001,37.22945440000001],[-76.80000000000001,37.22633509999997],[-76.80000000000001,37.225165600000025],[-76.80000000000001,37.224437799999976],[-76.80000000000001,37.22164809999998],[-76.80000000000001,37.22151339999999],[-76.80000000000001,37.217274499999974],[-76.80000000000001,37.2144131],[-76.80000000000001,37.212033899999994],[-76.80000000000001,37.20937240000001],[-76.80000000000001,37.19999999999999],[-76.80282199999999,37.19999999999999],[-76.8035926,37.19999999999999]]]}},{"type":"Feature","properties":{},"geometry":{"type":"Polygon","coordinates":[[[-76.79354239999998,37.19999999999999],[-76.80000000000001,37.19999999999999],[-76.80000000000001,37.20937240000001],[-76.80000000000001,37.212033899999994],[-76.80000000000001,37.2144131],[-76.80000000000001,37.217274499999974],[-76.80000000000001,37.22151339999999],[-76.80000000000001,37.22164809999998],[-76.80000000000001,37.224437799999976],[-76.80000000000001,37.225165600000025],[-76.80000000000001,37.22633509999997],[-76.80000000000001,37.22945440000001],[-76.80000000000001,37.23476260000001],[-76.80000000000001,37.23496490000002],[-76.80000000000001,37.27499999999998],[-76.766413,37.27499999999998],[-76.72500000000002,37.27499999999998],[-76.72500000000002,37.233592699999974],[-76.72500000000002,37.224980000000016],[-76.72500000000002,37.22426630000001],[-76.72500000000002,37.21791330000002],[-76.72500000000002,37.213436],[-76.72500000000002,37.20329959999998],[-76.72500000000002,37.20042269999999],[-76.72500000000002,37.20005680000003],[-76.72500000000002,37.19999999999999],[-76.72507949999999,37.19999999999999],[-76.72535240000002,37.19999999999999],[-76.72780039999998,37.19999999999999],[-76.72997240000001,37.19999999999999],[-76.7320307,37.19999999999999],[-76.73903910000001,37.19999999999999],[-76.75588749999997,37.19999999999999],[-76.75641660000002,37.19999999999999],[-76.75654780000002,37.19999999999999],[-76.75674329999998,37.19999999999999],[-76.75745460000002,37.19999999999999],[-76.75750019999998,37.19999999999999],[-76.7579293,37.19999999999999],[-76.75808970000003,37.19999999999999],[-76.75828660000002,37.19999999999999],[-76.75903360000001,37.19999999999999],[-76.75943640000003,37.19999999999999],[-76.76197259999998,37.19999999999999],[-76.76323200000002,37.19999999999999],[-76.76399429999998,37.19999999999999],[-76.76425940000001,37.19999999999999],[-76.76440229999997,37.19999999999999],[-76.7650147,37.19999999999999],[-76.7662335,37.19999999999999],[-76.76889030000001,37.19999999999999],[-76.7694616,37.19999999999999],[-76.76992230000002,37.19999999999999],[-76.77088600000002,37.19999999999999],[-76.7783369,37.19999999999999],[-76.78201080000002,37.19999999999999],[-76.7832285,37.19999999999999],[-76.79354239999998,37.19999999999999]]]}},{"type":"Feature","properties":{},"geometry":{"type":"Polygon","coordinates":[[[-76.71869320000002,37.19999999999999],[-76.72500000000002,37.19999999999999],[-76.72500000000002,37.20005680000003],[-76.72500000000002,37.20042269999999],[-76.72500000000002,37.20329959999998],[-76.72500000000002,37.213436],[-76.72500000000002,37.21791330000002],[-76.72500000000002,37.22426630000001],[-76.72500000000002,37.224980000000016],[-76.72500000000002,37.233592699999974],[-76.72500000000002,37.27499999999998],[-76.71612909999999,37.27499999999998],[-76.71413949999999,37.27499999999998],[-76.70918269999999,37.27499999999998],[-76.69789359999999,37.27499999999998],[-76.64999999999998,37.27499999999998],[-76.64999999999998,37.221398799999974],[-76.64999999999998,37.2207449],[-76.64999999999998,37.21922319999999],[-76.64999999999998,37.21207820000001],[-76.64999999999998,37.20764730000002],[-76.64999999999998,37.20597950000001],[-76.64999999999998,37.205244600000015],[-76.64999999999998,37.20495540000002],[-76.64999999999998,37.2043774],[-76.64999999999998,37.20408830000002],[-76.64999999999998,37.20333369999997],[-76.64999999999998,37.2025089],[-76.64999999999998,37.19999999999999],[-76.6598108,37.19999999999999],[-76.6726544,37.19999999999999],[-76.67427659999998,37.19999999999999],[-76.67582670000002,37.19999999999999],[-76.6770684,37.19999999999999],[-76.68084909999999,37.19999999999999],[-76.68634220000001,37.19999999999999],[-76.68765209999998,37.19999999999999],[-76.69419959999999,37.19999999999999],[-76.69564839999998,37.19999999999999],[-76.69616070000001,37.19999999999999],[-76.69662549999998,37.19999999999999],[-76.70582510000003,37.19999999999999],[-76.7075848,37.19999999999999],[-76.71293050000003,37.19999999999999],[-76.71403320000002,37.19999999999999],[-76.71442139999999,37.19999999999999],[-76.71482809999998,37.19999999999999],[-76.71519610000001,37.19999999999999],[-76.71557209999997,37.19999999999999],[-76.71647940000003,37.19999999999999],[-76.71869320000002,37.19999999999999]]]}},{"type":"Feature","properties":{},"geometry":{"type":"Polygon","coordinates":[[[-76.61877980000003,37.19999999999999],[-76.62295160000002,37.19999999999999],[-76.62412699999999,37.19999999999999],[-76.6243384,37.19999999999999],[-76.62830969999999,37.19999999999999],[-76.63544969999998,37.19999999999999],[-76.6406498,37.19999999999999],[-76.64177610000002,37.19999999999999],[-76.64241820000001,37.19999999999999],[-76.6433404,37.19999999999999],[-76.6437077,37.19999999999999],[-76.64444129999998,37.19999999999999],[-76.64480850000001,37.19999999999999],[-76.6458096,37.19999999999999],[-76.64693019999999,37.19999999999999],[-76.64999999999998,37.19999999999999],[-76.64999999999998,37.2025089],[-76.64999999999998,37.20333369999997],[-76.64999999999998,37.20408830000002],[-76.64999999999998,37.2043774],[-76.64999999999998,37.20495540000002],[-76.64999999999998,37.205244600000015],[-76.64999999999998,37.20597950000001],[-76.64999999999998,37.20764730000002],[-76.64999999999998,37.21207820000001],[-76.64999999999998,37.21922319999999],[-76.64999999999998,37.2207449],[-76.64999999999998,37.221398799999974],[-76.64999999999998,37.27499999999998],[-76.6048184,37.27499999999998],[-76.60424669999998,37.27499999999998],[-76.6034234,37.27499999999998],[-76.59920019999998,37.27499999999998],[-76.59842200000003,37.27499999999998],[-76.59534719999999,37.27499999999998],[-76.595,37.27499999999998],[-76.595,37.19999999999999],[-76.61877980000003,37.19999999999999]]]}},{"type":"Feature","properties":{},"geometry":{"type":"Polygon","coordinates":[[[-77.39840700000002,37.27499999999998],[-77.39999999999998,37.27499999999998],[-77.39999999999998,37.276054999999985],[-77.39999999999998,37.27626959999998],[-77.39999999999998,37.28322220000001],[-77.39999999999998,37.28347819999999],[-77.39999999999998,37.29133330000002],[-77.39999999999998,37.35000000000002],[-77.34310770000002,37.35000000000002],[-77.32499999999999,37.35000000000002],[-77.32499999999999,37.31196249999999],[-77.32499999999999,37.3095783],[-77.32499999999999,37.30906729999998],[-77.32499999999999,37.308935399999996],[-77.32499999999999,37.30803500000002],[-77.32499999999999,37.30792170000001],[-77.32499999999999,37.307737599999996],[-77.32499999999999,37.30763209999998],[-77.32499999999999,37.306766100000004],[-77.32499999999999,37.30271729999998],[-77.32499999999999,37.30234580000001],[-77.32499999999999,37.28838409999997],[-77.32499999999999,37.27499999999998],[-77.3568017,37.27499999999998],[-77.36316299999999,37.27499999999998],[-77.36383990000002,37.27499999999998],[-77.36408719999997,37.27499999999998],[-77.3644099,37.27499999999998],[-77.36490930000002,37.27499999999998],[-77.3652639,37.27499999999998],[-77.36671380000001,37.27499999999998],[-77.36739080000001,37.27499999999998],[-77.3679856,37.27499999999998],[-77.36811490000002,37.27499999999998],[-77.37095749999997,37.27499999999998],[-77.37106349999999,37.27499999999998],[-77.37232749999998,37.27499999999998],[-77.37500720000003,37.27499999999998],[-77.3941304,37.27499999999998],[-77.394407,37.27499999999998],[-77.39809000000002,37.27499999999998],[-77.39825830000001,37.27499999999998],[-77.39840700000002,37.27499999999998]]]}},{"type":"Feature","properties":{},"geometry":{"type":"Polygon","coordinates":[[[-77.32499999999999,37.30234580000001],[-77.32499999999999,37.30271729999998],[-77.32499999999999,37.306766100000004],[-77.32499999999999,37.30763209999998],[-77.32499999999999,37.307737599999996],[-77.32499999999999,37.30792170000001],[-77.32499999999999,37.30803500000002],[-77.32499999999999,37.308935399999996],[-77.32499999999999,37.30906729999998],[-77.32499999999999,37.3095783],[-77.32499999999999,37.31196249999999],[-77.32499999999999,37.35000000000002],[-77.30526959999997,37.35000000000002],[-77.2722685,37.35000000000002],[-77.27163510000003,37.35000000000002],[-77.27144049999998,37.35000000000002],[-77.27117679999998,37.35000000000002],[-77.27094799999998,37.35000000000002],[-77.27050220000001,37.35000000000002],[-77.27028239999999,37.35000000000002],[-77.26998500000002,37.35000000000002],[-77.2698585,37.35000000000002],[-77.2685995,37.35000000000002],[-77.26490719999998,37.35000000000002],[-77.2643074,37.35000000000002],[-77.263214,37.35000000000002],[-77.2624169,37.35000000000002],[-77.26224509999997,37.35000000000002],[-77.26190630000002,37.35000000000002],[-77.26105769999998,37.35000000000002],[-77.25810530000001,37.35000000000002],[-77.25707160000002,37.35000000000002],[-77.25644110000002,37.35000000000002],[-77.25,37.35000000000002],[-77.25,37.33456159999997],[-77.25,37.3336577],[-77.25,37.333171100000015],[-77.25,37.332991100000015],[-77.25,37.332432600000004],[-77.25,37.33115509999999],[-77.25,37.32361559999998],[-77.25,37.32257679999998],[-77.25,37.32239099999998],[-77.25,37.32089180000003],[-77.25,37.31873059999998],[-77.25,37.31411910000003],[-77.25,37.31192299999998],[-77.25,37.311444900000026],[-77.25,37.30912749999999],[-77.25,37.308793200000025],[-77.25,37.30860580000001],[-77.25,37.3083666],[-77.25,37.308084699999995],[-77.25,37.30778379999998],[-77.25,37.307264299999986],[-77.25,37.306414099999984],[-77.25,37.30620219999997],[-77.25,37.30577770000002],[-77.25,37.30556530000001],[-77.25,37.30490120000002],[-77.25,37.304547000000014],[-77.25,37.297657500000014],[-77.25,37.292418999999995],[-77.25,37.28838409999997],[-77.25,37.27499999999998],[-77.32499999999999,37.27499999999998],[-77.32499999999999,37.28838409999997],[-77.32499999999999,37.30234580000001]]]}},{"type":"Feature","properties":{},"geometry":{"type":"Polygon","coordinates":[[[-77.233224,37.27499999999998],[-77.25,37.27499999999998],[-77.25,37.28838409999997],[-77.25,37.292418999999995],[-77.25,37.297657500000014],[-77.25,37.304547000000014],[-77.25,37.30490120000002],[-77.25,37.30556530000001],[-77.25,37.30577770000002],[-77.25,37.30620219999997],[-77.25,37.306414099999984],[-77.25,37.307264299999986],[-77.25,37.30778379999998],[-77.25,37.308084699999995],[-77.25,37.3083666],[-77.25,37.30860580000001],[-77.25,37.308793200000025],[-77.25,37.30912749999999],[-77.25,37.311444900000026],[-77.25,37.31192299999998],[-77.25,37.31411910000003],[-77.25,37.31873059999998],[-77.25,37.32089180000003],[-77.25,37.32239099999998],[-77.25,37.32257679999998],[-77.25,37.32361559999998],[-77.25,37.33115509999999],[-77.25,37.332432600000004],[-77.25,37.332991100000015],[-77.25,37.333171100000015],[-77.25,37.3336577],[-77.25,37.33456159999997],[-77.25,37.35000000000002],[-77.21361109999998,37.35000000000002],[-77.21194600000001,37.35000000000002],[-77.17500000000001,37.35000000000002],[-77.17500000000001,37.3489141],[-77.17500000000001,37.340725299999974],[-77.17500000000001,37.33514880000001],[-77.17500000000001,37.33322529999998],[-77.17500000000001,37.33299729999999],[-77.17500000000001,37.31221740000001],[-77.17500000000001,37.3104682],[-77.17500000000001,37.30992909999998],[-77.17500000000001,37.30762060000001],[-77.17500000000001,37.30702600000001],[-77.17500000000001,37.30681679999998],[-77.17500000000001,37.30639930000001],[-77.17500000000001,37.3061907],[-77.17500000000001,37.305545499999994],[-77.17500000000001,37.305324600000006],[-77.17500000000001,37.30502899999999],[-77.17500000000001,37.303862400000014],[-77.17500000000001,37.3034596],[-77.17500000000001,37.29977459999998],[-77.17500000000001,37.29946239999998],[-77.17500000000001,37.29910749999999],[-77.17500000000001,37.29896179999997],[-77.17500000000001,37.29782080000001],[-77.17500000000001,37.297574499999996],[-77.17500000000001,37.28908419999999],[-77.17500000000001,37.28832319999998],[-77.17500000000001,37.27499999999998],[-77.233224,37.27499999999998]]]}},{"type":"Feature","properties":{},"geometry":{"type":"Polygon","coordinates":[[[-77.16222429999999,37.27499999999998],[-77.16319670000001,37.27499999999998],[-77.17500000000001,37.27499999999998],[-77.17500000000001,37.28832319999998],[-77.17500000000001,37.28908419999999],[-77.17500000000001,37.297574499999996],[-77.17500000000001,37.29782080000001],[-77.17500000000001,37.29896179999997],[-77.17500000000001,37.29910749999999],[-77.17500000000001,37.29946239999998],[-77.17500000000001,37.29977459999998],[-77.17500000000001,37.3034596],[-77.17500000000001,37.303862400000014],[-77.17500000000001,37.30502899999999],[-77.17500000000001,37.305324600000006],[-77.17500000000001,37.305545499999994],[-77.17500000000001,37.3061907],[-77.17500000000001,37.30639930000001],[-77.17500000000001,37.30681679999998],[-77.17500000000001,37.30702600000001],[-77.17500000000001,37.30762060000001],[-77.17500000000001,37.30992909999998],[-77.17500000000001,37.3104682],[-77.17500000000001,37.31221740000001],[-77.17500000000001,37.33299729999999],[-77.17500000000001,37.33322529999998],[-77.17500000000001,37.33514880000001],[-77.17500000000001,37.340725299999974],[-77.17500000000001,37.3489141],[-77.17500000000001,37.35000000000002],[-77.17438659999999,37.35000000000002],[-77.16572810000002,37.35000000000002],[-77.12363169999998,37.35000000000002],[-77.11423300000001,37.35000000000002],[-77.1107839,37.35000000000002],[-77.10000000000002,37.35000000000002],[-77.10000000000002,37.34023430000002],[-77.10000000000002,37.318789100000004],[-77.10000000000002,37.317890499999976],[-77.10000000000002,37.317305799999986],[-77.10000000000002,37.317134899999985],[-77.10000000000002,37.316468199999974],[-77.10000000000002,37.31621480000001],[-77.10000000000002,37.3138649],[-77.10000000000002,37.312387],[-77.10000000000002,37.31217320000002],[-77.10000000000002,37.31174570000002],[-77.10000000000002,37.311532],[-77.10000000000002,37.310788],[-77.10000000000002,37.310496899999976],[-77.10000000000002,37.31031200000001],[-77.10000000000002,37.3089238],[-77.10000000000002,37.30623780000002],[-77.10000000000002,37.30501320000002],[-77.10000000000002,37.30469529999999],[-77.10000000000002,37.30276170000002],[-77.10000000000002,37.27706210000002],[-77.10000000000002,37.275092700000016],[-77.10000000000002,37.27499999999998],[-77.10046269999998,37.27499999999998],[-77.10074320000001,37.27499999999998],[-77.10142769999999,37.27499999999998],[-77.10175379999998,37.27499999999998],[-77.10235690000002,37.27499999999998],[-77.10293630000001,37.27499999999998],[-77.10363969999997,37.27499999999998],[-77.15084039999999,37.27499999999998],[-77.15111489999998,37.27499999999998],[-77.1521098,37.27499999999998],[-77.15228059999998,37.27499999999998],[-77.15506570000002,37.27499999999998],[-77.15690940000002,37.27499999999998],[-77.157757,37.27499999999998],[-77.15897489999998,37.27499999999998],[-77.15912500000002,37.27499999999998],[-77.1596222,37.27499999999998],[-77.16222429999999,37.27499999999998]]]}},{"type":"Feature","properties":{},"geometry":{"type":"Polygon","coordinates":[[[-77.0980591,37.27499999999998],[-77.0988165,37.27499999999998],[-77.10000000000002,37.27499999999998],[-77.10000000000002,37.275092700000016],[-77.10000000000002,37.27706210000002],[-77.10000000000002,37.30276170000002],[-77.10000000000002,37.30469529999999],[-77.10000000000002,37.30501320000002],[-77.10000000000002,37.30623780000002],[-77.10000000000002,37.3089238],[-77.10000000000002,37.31031200000001],[-77.10000000000002,37.310496899999976],[-77.10000000000002,37.310788],[-77.10000000000002,37.311532],[-77.10000000000002,37.31174570000002],[-77.10000000000002,37.31217320000002],[-77.10000000000002,37.312387],[-77.10000000000002,37.3138649],[-77.10000000000002,37.31621480000001],[-77.10000000000002,37.316468199999974],[-77.10000000000002,37.317134899999985],[-77.10000000000002,37.317305799999986],[-77.10000000000002,37.317890499999976],[-77.10000000000002,37.318789100000004],[-77.10000000000002,37.34023430000002],[-77.10000000000002,37.35000000000002],[-77.06852609999999,37.35000000000002],[-77.06541069999997,37.35000000000002],[-77.04933310000001,37.35000000000002],[-77.02499999999998,37.35000000000002],[-77.02499999999998,37.3335012],[-77.02499999999998,37.330141500000025],[-77.02499999999998,37.329879300000016],[-77.02499999999998,37.329578000000026],[-77.02499999999998,37.326451599999984],[-77.02499999999998,37.325192200000004],[-77.02499999999998,37.324857399999985],[-77.02499999999998,37.31887219999999],[-77.02499999999998,37.31847320000003],[-77.02499999999998,37.317724699999985],[-77.02499999999998,37.31267129999998],[-77.02499999999998,37.30542220000001],[-77.02499999999998,37.30429179999999],[-77.02499999999998,37.304092200000014],[-77.02499999999998,37.29827979999999],[-77.02499999999998,37.29752860000002],[-77.02499999999998,37.29667649999999],[-77.02499999999998,37.29276040000002],[-77.02499999999998,37.27499999999998],[-77.0444857,37.27499999999998],[-77.04555540000001,37.27499999999998],[-77.04595289999997,37.27499999999998],[-77.05021060000001,37.27499999999998],[-77.05056789999998,37.27499999999998],[-77.05128250000001,37.27499999999998],[-77.05163970000001,37.27499999999998],[-77.0556029,37.27499999999998],[-77.05886650000002,37.27499999999998],[-77.06314830000002,37.27499999999998],[-77.06881829999998,37.27499999999998],[-77.06927510000003,37.27499999999998],[-77.07023809999998,37.27499999999998],[-77.07184480000001,37.27499999999998],[-77.07220050000001,37.27499999999998],[-77.0750056,37.27499999999998],[-77.0755805,37.27499999999998],[-77.07637499999998,37.27499999999998],[-77.07759620000002,37.27499999999998],[-77.07828460000002,37.27499999999998],[-77.0828009,37.27499999999998],[-77.083394,37.27499999999998],[-77.083619,37.27499999999998],[-77.08819510000001,37.27499999999998],[-77.09095209999998,37.27499999999998],[-77.09197369999998,37.27499999999998],[-77.09234040000001,37.27499999999998],[-77.09319779999998,37.27499999999998],[-77.09343100000001,37.27499999999998],[-77.09418010000002,37.27499999999998],[-77.09454790000001,37.27499999999998],[-77.09527550000001,37.27499999999998],[-77.09617809999997,37.27499999999998],[-77.09767060000001,37.27499999999998],[-77.0980591,37.27499999999998]]]}},{"type":"Feature","properties":{},"geometry":{"type":"Polygon","coordinates":[[[-77.00654989999998,37.27499999999998],[-77.02499999999998,37.27499999999998],[-77.02499999999998,37.29276040000002],[-77.02499999999998,37.29667649999999],[-77.02499999999998,37.29752860000002],[-77.02499999999998,37.29827979999999],[-77.02499999999998,37.304092200000014],[-77.02499999999998,37.30429179999999],[-77.02499999999998,37.30542220000001],[-77.02499999999998,37.31267129999998],[-77.02499999999998,37.317724699999985],[-77.02499999999998,37.31847320000003],[-77.02499999999998,37.31887219999999],[-77.02499999999998,37.324857399999985],[-77.02499999999998,37.325192200000004],[-77.02499999999998,37.326451599999984],[-77.02499999999998,37.329578000000026],[-77.02499999999998,37.329879300000016],[-77.02499999999998,37.330141500000025],[-77.02499999999998,37.3335012],[-77.02499999999998,37.35000000000002],[-76.94999999999999,37.35000000000002],[-76.94999999999999,37.27499999999998],[-76.98181449999998,37.27499999999998],[-76.98282740000002,37.27499999999998],[-76.9847858,37.27499999999998],[-76.98536869999998,37.27499999999998],[-76.9855106,37.27499999999998],[-76.99330889999999,37.27499999999998],[-76.9936136,37.27499999999998],[-76.99675710000002,37.27499999999998],[-76.9973,37.27499999999998],[-77.00654989999998,37.27499999999998]]]}},{"type":"Feature","properties":{},"geometry":{"type":"Polygon","coordinates":[[[-76.88733439999999,37.27499999999998],[-76.88807300000002,37.27499999999998],[-76.92496,37.27499999999998],[-76.9265828,37.27499999999998],[-76.94999999999999,37.27499999999998],[-76.94999999999999,37.35000000000002],[-76.9158124,37.35000000000002],[-76.91451710000001,37.35000000000002],[-76.91262929999999,37.35000000000002],[-76.91216800000001,37.35000000000002],[-76.91183000000001,37.35000000000002],[-76.90988019999998,37.35000000000002],[-76.90761559999999,37.35000000000002],[-76.90703230000003,37.35000000000002],[-76.9055242,37.35000000000002],[-76.904987,37.35000000000002],[-76.9044197,37.35000000000002],[-76.90420030000001,37.35000000000002],[-76.90396279999999,37.35000000000002],[-76.8949498,37.35000000000002],[-76.89469029999998,37.35000000000002],[-76.88145320000001,37.35000000000002],[-76.8813179,37.35000000000002],[-76.88099110000002,37.35000000000002],[-76.8798071,37.35000000000002],[-76.87941339999998,37.35000000000002],[-76.8754343,37.35000000000002],[-76.875,37.35000000000002],[-76.875,37.34986199999997],[-76.875,37.34932909999998],[-76.875,37.34932550000002],[-76.875,37.348493899999994],[-76.875,37.34777530000002],[-76.875,37.347268299999996],[-76.875,37.34685999999999],[-76.875,37.3450517],[-76.875,37.34337069999998],[-76.875,37.342539699999975],[-76.875,37.34116599999999],[-76.875,37.334698100000026],[-76.875,37.32770049999999],[-76.875,37.318429400000014],[-76.875,37.31275369999997],[-76.875,37.30829019999999],[-76.875,37.30660369999998],[-76.875,37.30270159999998],[-76.875,37.294170199999996],[-76.875,37.28994519999998],[-76.875,37.28963729999998],[-76.875,37.287409000000025],[-76.875,37.28698109999999],[-76.875,37.28397860000001],[-76.875,37.28216149999997],[-76.875,37.28170019999999],[-76.875,37.279008499999975],[-76.875,37.27829159999999],[-76.875,37.276047500000004],[-76.875,37.27499999999998],[-76.87645600000002,37.27499999999998],[-76.87861090000001,37.27499999999998],[-76.88024419999999,37.27499999999998],[-76.88055059999999,37.27499999999998],[-76.88380649999999,37.27499999999998],[-76.88438930000001,37.27499999999998],[-76.8851416,37.27499999999998],[-76.88520970000002,37.27499999999998],[-76.88542560000002,37.27499999999998],[-76.88561670000001,37.27499999999998],[-76.88596990000002,37.27499999999998],[-76.8862666,37.27499999999998],[-76.88733439999999,37.27499999999998]]]}},{"type":"Feature","properties":{},"geometry":{"type":"Polygon","coordinates":[[[-76.875,37.276047500000004],[-76.875,37.27829159999999],[-76.875,37.279008499999975],[-76.875,37.28170019999999],[-76.875,37.28216149999997],[-76.875,37.28397860000001],[-76.875,37.28698109999999],[-76.875,37.287409000000025],[-76.875,37.28963729999998],[-76.875,37.28994519999998],[-76.875,37.294170199999996],[-76.875,37.30270159999998],[-76.875,37.30660369999998],[-76.875,37.30829019999999],[-76.875,37.31275369999997],[-76.875,37.318429400000014],[-76.875,37.32770049999999],[-76.875,37.334698100000026],[-76.875,37.34116599999999],[-76.875,37.342539699999975],[-76.875,37.34337069999998],[-76.875,37.3450517],[-76.875,37.34685999999999],[-76.875,37.347268299999996],[-76.875,37.34777530000002],[-76.875,37.348493899999994],[-76.875,37.34932550000002],[-76.875,37.34932909999998],[-76.875,37.34986199999997],[-76.875,37.35000000000002],[-76.87463960000002,37.35000000000002],[-76.8744729,37.35000000000002],[-76.8644127,37.35000000000002],[-76.86404160000001,37.35000000000002],[-76.86340050000001,37.35000000000002],[-76.86218939999998,37.35000000000002],[-76.84201919999998,37.35000000000002],[-76.84174639999998,37.35000000000002],[-76.84153400000002,37.35000000000002],[-76.84138239999999,37.35000000000002],[-76.839565,37.35000000000002],[-76.83830990000001,37.35000000000002],[-76.8377878,37.35000000000002],[-76.83673579999999,37.35000000000002],[-76.80000000000001,37.35000000000002],[-76.80000000000001,37.27499999999998],[-76.83927540000002,37.27499999999998],[-76.84443090000002,37.27499999999998],[-76.84763220000002,37.27499999999998],[-76.84897130000002,37.27499999999998],[-76.84937409999998,37.27499999999998],[-76.84966839999998,37.27499999999998],[-76.85034999999999,37.27499999999998],[-76.85274220000002,37.27499999999998],[-76.8529517,37.27499999999998],[-76.8590218,37.27499999999998],[-76.86376380000002,37.27499999999998],[-76.8645128,37.27499999999998],[-76.87078070000001,37.27499999999998],[-76.87482189999997,37.27499999999998],[-76.875,37.27499999999998],[-76.875,37.276047500000004]]]}},{"type":"Feature","properties":{},"geometry":{"type":"Polygon","coordinates":[[[-77.42578479999997,37.42500000000001],[-77.42562349999997,37.42500000000001],[-77.42551889999999,37.42500000000001],[-77.4254118,37.42500000000001],[-77.42509039999999,37.42500000000001],[-77.42454750000002,37.42500000000001],[-77.424262,37.42500000000001],[-77.42408260000002,37.42500000000001],[-77.42374760000001,37.42500000000001],[-77.42338489999997,37.42500000000001],[-77.42231770000001,37.42500000000001],[-77.41095769999998,37.42500000000001],[-77.41026570000002,37.42500000000001],[-77.40997290000001,37.42500000000001],[-77.4096778,37.42500000000001],[-77.40913610000001,37.42500000000001],[-77.40802050000002,37.42500000000001],[-77.40764990000002,37.42500000000001],[-77.4072653,37.42500000000001],[-77.40716889999999,37.42500000000001],[-77.4043383,37.42500000000001],[-77.40215189999998,37.42500000000001],[-77.40196379999998,37.42500000000001],[-77.40174669999999,37.42500000000001],[-77.40126040000001,37.42500000000001],[-77.39999999999998,37.42500000000001],[-77.39999999999998,37.42442080000001],[-77.39999999999998,37.4241705],[-77.39999999999998,37.424116000000026],[-77.39999999999998,37.423858300000006],[-77.39999999999998,37.423238500000025],[-77.39999999999998,37.42293519999998],[-77.39999999999998,37.42286760000002],[-77.39999999999998,37.42270530000002],[-77.39999999999998,37.42221719999998],[-77.39999999999998,37.421826399999986],[-77.39999999999998,37.4158893],[-77.39999999999998,37.412601800000004],[-77.39999999999998,37.41193720000001],[-77.39999999999998,37.411092800000006],[-77.39999999999998,37.41068100000001],[-77.39999999999998,37.408279100000016],[-77.39999999999998,37.382567800000004],[-77.39999999999998,37.382237799999984],[-77.39999999999998,37.35433449999999],[-77.39999999999998,37.35000000000002],[-77.47500000000002,37.35000000000002],[-77.47500000000002,37.42500000000001],[-77.44317560000002,37.42500000000001],[-77.4294514,37.42500000000001],[-77.42578479999997,37.42500000000001]]]}},{"type":"Feature","properties":{},"geometry":{"type":"Polygon","coordinates":[[[-77.39999999999998,37.382237799999984],[-77.39999999999998,37.382567800000004],[-77.39999999999998,37.408279100000016],[-77.39999999999998,37.41068100000001],[-77.39999999999998,37.411092800000006],[-77.39999999999998,37.41193720000001],[-77.39999999999998,37.412601800000004],[-77.39999999999998,37.4158893],[-77.39999999999998,37.421826399999986],[-77.39999999999998,37.42221719999998],[-77.39999999999998,37.42270530000002],[-77.39999999999998,37.42286760000002],[-77.39999999999998,37.42293519999998],[-77.39999999999998,37.423238500000025],[-77.39999999999998,37.423858300000006],[-77.39999999999998,37.424116000000026],[-77.39999999999998,37.4241705],[-77.39999999999998,37.42442080000001],[-77.39999999999998,37.42500000000001],[-77.38422689999999,37.42500000000001],[-77.32499999999999,37.42500000000001],[-77.32499999999999,37.41073290000003],[-77.32499999999999,37.404193099999986],[-77.32499999999999,37.4037108],[-77.32499999999999,37.39632799999998],[-77.32499999999999,37.39597409999999],[-77.32499999999999,37.39575739999998],[-77.32499999999999,37.39427760000001],[-77.32499999999999,37.392760099999975],[-77.32499999999999,37.391389000000004],[-77.32499999999999,37.38810860000001],[-77.32499999999999,37.383918300000005],[-77.32499999999999,37.38149659999999],[-77.32499999999999,37.38090299999999],[-77.32499999999999,37.38074820000003],[-77.32499999999999,37.380712700000004],[-77.32499999999999,37.38042919999998],[-77.32499999999999,37.380042100000026],[-77.32499999999999,37.37991579999999],[-77.32499999999999,37.379887499999995],[-77.32499999999999,37.3795743],[-77.32499999999999,37.379407300000025],[-77.32499999999999,37.37907369999999],[-77.32499999999999,37.37890700000003],[-77.32499999999999,37.378396899999984],[-77.32499999999999,37.3782468],[-77.32499999999999,37.3779705],[-77.32499999999999,37.35000000000002],[-77.34310770000002,37.35000000000002],[-77.39999999999998,37.35000000000002],[-77.39999999999998,37.35433449999999],[-77.39999999999998,37.382237799999984]]]}},{"type":"Feature","properties":{},"geometry":{"type":"Polygon","coordinates":[[[-77.30526959999997,37.35000000000002],[-77.32499999999999,37.35000000000002],[-77.32499999999999,37.3779705],[-77.32499999999999,37.3782468],[-77.32499999999999,37.378396899999984],[-77.32499999999999,37.37890700000003],[-77.32499999999999,37.37907369999999],[-77.32499999999999,37.379407300000025],[-77.32499999999999,37.3795743],[-77.32499999999999,37.379887499999995],[-77.32499999999999,37.37991579999999],[-77.32499999999999,37.380042100000026],[-77.32499999999999,37.38042919999998],[-77.32499999999999,37.380712700000004],[-77.32499999999999,37.38074820000003],[-77.32499999999999,37.38090299999999],[-77.32499999999999,37.38149659999999],[-77.32499999999999,37.383918300000005],[-77.32499999999999,37.38810860000001],[-77.32499999999999,37.391389000000004],[-77.32499999999999,37.392760099999975],[-77.32499999999999,37.39427760000001],[-77.32499999999999,37.39575739999998],[-77.32499999999999,37.39597409999999],[-77.32499999999999,37.39632799999998],[-77.32499999999999,37.4037108],[-77.32499999999999,37.404193099999986],[-77.32499999999999,37.41073290000003],[-77.32499999999999,37.42500000000001],[-77.25,37.42500000000001],[-77.25,37.3940518],[-77.25,37.39380460000001],[-77.25,37.3933892],[-77.25,37.39231619999998],[-77.25,37.39225490000001],[-77.25,37.39203859999998],[-77.25,37.388328899999976],[-77.25,37.38685099999998],[-77.25,37.386197400000015],[-77.25,37.38524039999999],[-77.25,37.38386539999999],[-77.25,37.381983100000014],[-77.25,37.38172479999997],[-77.25,37.380563499999994],[-77.25,37.38015899999999],[-77.25,37.3799856],[-77.25,37.37980950000002],[-77.25,37.378732300000024],[-77.25,37.378661299999976],[-77.25,37.3762279],[-77.25,37.3760393],[-77.25,37.376039100000014],[-77.25,37.37537309999999],[-77.25,37.37531230000002],[-77.25,37.37104040000003],[-77.25,37.37079],[-77.25,37.36203990000001],[-77.25,37.360336200000006],[-77.25,37.35990149999998],[-77.25,37.35943099999997],[-77.25,37.35852940000001],[-77.25,37.35671960000002],[-77.25,37.356392400000004],[-77.25,37.35000000000002],[-77.25644110000002,37.35000000000002],[-77.25707160000002,37.35000000000002],[-77.25810530000001,37.35000000000002],[-77.26105769999998,37.35000000000002],[-77.26190630000002,37.35000000000002],[-77.26224509999997,37.35000000000002],[-77.2624169,37.35000000000002],[-77.263214,37.35000000000002],[-77.2643074,37.35000000000002],[-77.26490719999998,37.35000000000002],[-77.2685995,37.35000000000002],[-77.2698585,37.35000000000002],[-77.26998500000002,37.35000000000002],[-77.27028239999999,37.35000000000002],[-77.27050220000001,37.35000000000002],[-77.27094799999998,37.35000000000002],[-77.27117679999998,37.35000000000002],[-77.27144049999998,37.35000000000002],[-77.27163510000003,37.35000000000002],[-77.2722685,37.35000000000002],[-77.30526959999997,37.35000000000002]]]}},{"type":"Feature","properties":{},"geometry":{"type":"Polygon","coordinates":[[[-77.21194600000001,37.35000000000002],[-77.21361109999998,37.35000000000002],[-77.25,37.35000000000002],[-77.25,37.356392400000004],[-77.25,37.35671960000002],[-77.25,37.35852940000001],[-77.25,37.35943099999997],[-77.25,37.35990149999998],[-77.25,37.360336200000006],[-77.25,37.36203990000001],[-77.25,37.37079],[-77.25,37.37104040000003],[-77.25,37.37531230000002],[-77.25,37.37537309999999],[-77.25,37.376039100000014],[-77.25,37.3760393],[-77.25,37.3762279],[-77.25,37.378661299999976],[-77.25,37.378732300000024],[-77.25,37.37980950000002],[-77.25,37.3799856],[-77.25,37.38015899999999],[-77.25,37.380563499999994],[-77.25,37.38172479999997],[-77.25,37.381983100000014],[-77.25,37.38386539999999],[-77.25,37.38524039999999],[-77.25,37.386197400000015],[-77.25,37.38685099999998],[-77.25,37.388328899999976],[-77.25,37.39203859999998],[-77.25,37.39225490000001],[-77.25,37.39231619999998],[-77.25,37.3933892],[-77.25,37.39380460000001],[-77.25,37.3940518],[-77.25,37.42500000000001],[-77.21361109999998,37.42500000000001],[-77.17500000000001,37.42500000000001],[-77.17500000000001,37.35232769999999],[-77.17500000000001,37.35000000000002],[-77.21194600000001,37.35000000000002]]]}},{"type":"Feature","properties":{},"geometry":{"type":"Polygon","coordinates":[[[-76.9158124,37.35000000000002],[-76.94999999999999,37.35000000000002],[-76.94999999999999,37.38215389999999],[-76.94999999999999,37.392197399999986],[-76.94999999999999,37.39235830000001],[-76.94999999999999,37.39560890000001],[-76.94999999999999,37.39601299999998],[-76.94999999999999,37.39634610000002],[-76.94999999999999,37.396396400000015],[-76.94999999999999,37.396561899999995],[-76.94999999999999,37.396733299999994],[-76.94999999999999,37.40232179999998],[-76.94999999999999,37.40750750000001],[-76.94999999999999,37.41115129999997],[-76.94999999999999,37.41461479999998],[-76.94999999999999,37.41476160000002],[-76.94999999999999,37.41504629999997],[-76.94999999999999,37.41770760000003],[-76.94999999999999,37.41794060000001],[-76.94999999999999,37.41978799999998],[-76.94999999999999,37.42199169999998],[-76.94999999999999,37.42500000000001],[-76.89406450000001,37.42500000000001],[-76.875,37.42500000000001],[-76.875,37.38895170000001],[-76.875,37.38831399999998],[-76.875,37.38724760000002],[-76.875,37.371866899999986],[-76.875,37.3703878],[-76.875,37.36901649999999],[-76.875,37.3676231],[-76.875,37.36734039999999],[-76.875,37.3650361],[-76.875,37.36435829999999],[-76.875,37.36278979999997],[-76.875,37.36220250000002],[-76.875,37.36076430000003],[-76.875,37.35796620000002],[-76.875,37.356759899999986],[-76.875,37.35366549999998],[-76.875,37.353055100000006],[-76.875,37.35272900000001],[-76.875,37.3524094],[-76.875,37.35183999999998],[-76.875,37.35169639999998],[-76.875,37.35118670000003],[-76.875,37.35101229999998],[-76.875,37.350687300000004],[-76.875,37.3505088],[-76.875,37.35008140000002],[-76.875,37.35000000000002],[-76.8754343,37.35000000000002],[-76.87941339999998,37.35000000000002],[-76.8798071,37.35000000000002],[-76.88099110000002,37.35000000000002],[-76.8813179,37.35000000000002],[-76.88145320000001,37.35000000000002],[-76.89469029999998,37.35000000000002],[-76.8949498,37.35000000000002],[-76.90396279999999,37.35000000000002],[-76.90420030000001,37.35000000000002],[-76.9044197,37.35000000000002],[-76.904987,37.35000000000002],[-76.9055242,37.35000000000002],[-76.90703230000003,37.35000000000002],[-76.90761559999999,37.35000000000002],[-76.90988019999998,37.35000000000002],[-76.91183000000001,37.35000000000002],[-76.91216800000001,37.35000000000002],[-76.91262929999999,37.35000000000002],[-76.91451710000001,37.35000000000002],[-76.9158124,37.35000000000002]]]}},{"type":"Feature","properties":{},"geometry":{"type":"Polygon","coordinates":[[[-76.84201919999998,37.35000000000002],[-76.86218939999998,37.35000000000002],[-76.86340050000001,37.35000000000002],[-76.86404160000001,37.35000000000002],[-76.8644127,37.35000000000002],[-76.8744729,37.35000000000002],[-76.87463960000002,37.35000000000002],[-76.875,37.35000000000002],[-76.875,37.35008140000002],[-76.875,37.3505088],[-76.875,37.350687300000004],[-76.875,37.35101229999998],[-76.875,37.35118670000003],[-76.875,37.35169639999998],[-76.875,37.35183999999998],[-76.875,37.3524094],[-76.875,37.35272900000001],[-76.875,37.353055100000006],[-76.875,37.35366549999998],[-76.875,37.356759899999986],[-76.875,37.35796620000002],[-76.875,37.36076430000003],[-76.875,37.36220250000002],[-76.875,37.36278979999997],[-76.875,37.36435829999999],[-76.875,37.3650361],[-76.875,37.36734039999999],[-76.875,37.3676231],[-76.875,37.36901649999999],[-76.875,37.3703878],[-76.875,37.371866899999986],[-76.875,37.38724760000002],[-76.875,37.38831399999998],[-76.875,37.38895170000001],[-76.875,37.42500000000001],[-76.80000000000001,37.42500000000001],[-76.80000000000001,37.35000000000002],[-76.83673579999999,37.35000000000002],[-76.8377878,37.35000000000002],[-76.83830990000001,37.35000000000002],[-76.839565,37.35000000000002],[-76.84138239999999,37.35000000000002],[-76.84153400000002,37.35000000000002],[-76.84174639999998,37.35000000000002],[-76.84201919999998,37.35000000000002]]]}},{"type":"Feature","properties":{},"geometry":{"type":"Polygon","coordinates":[[[-77.42256989999998,37.5],[-77.42237030000001,37.5],[-77.4223111,37.5],[-77.42210829999999,37.5],[-77.42170279999999,37.5],[-77.42149999999998,37.5],[-77.42142050000001,37.5],[-77.42122940000002,37.5],[-77.4209942,37.5],[-77.4209227,37.5],[-77.4041608,37.5],[-77.39999999999998,37.5],[-77.39999999999998,37.42736050000002],[-77.39999999999998,37.42500000000001],[-77.40126040000001,37.42500000000001],[-77.40174669999999,37.42500000000001],[-77.40196379999998,37.42500000000001],[-77.40215189999998,37.42500000000001],[-77.40433819999998,37.42500000000001],[-77.40716889999999,37.42500000000001],[-77.4072653,37.42500000000001],[-77.40764990000002,37.42500000000001],[-77.40802050000002,37.42500000000001],[-77.40913610000001,37.42500000000001],[-77.4096778,37.42500000000001],[-77.40997290000001,37.42500000000001],[-77.41026570000002,37.42500000000001],[-77.41095769999998,37.42500000000001],[-77.42231770000001,37.42500000000001],[-77.42338489999997,37.42500000000001],[-77.42374760000001,37.42500000000001],[-77.42408260000002,37.42500000000001],[-77.424262,37.42500000000001],[-77.42454750000002,37.42500000000001],[-77.42509039999999,37.42500000000001],[-77.4254118,37.42500000000001],[-77.42551889999999,37.42500000000001],[-77.42562349999997,37.42500000000001],[-77.42578479999997,37.42500000000001],[-77.4294514,37.42500000000001],[-77.44317560000002,37.42500000000001],[-77.47500000000002,37.42500000000001],[-77.47500000000002,37.5],[-77.44307320000001,37.5],[-77.42268039999999,37.5],[-77.42256989999998,37.5]]]}},{"type":"Feature","properties":{},"geometry":{"type":"Polygon","coordinates":[[[-77.47500000000002,37.52640029999998],[-77.47500000000002,37.52969830000001],[-77.47500000000002,37.57499999999999],[-77.39999999999998,37.57499999999999],[-77.39999999999998,37.5],[-77.4041608,37.5],[-77.4209227,37.5],[-77.4209942,37.5],[-77.42122940000002,37.5],[-77.42142050000001,37.5],[-77.42149999999998,37.5],[-77.42170279999999,37.5],[-77.42210829999999,37.5],[-77.4223111,37.5],[-77.42237030000001,37.5],[-77.42256989999998,37.5],[-77.42268039999999,37.5],[-77.44307320000001,37.5],[-77.47500000000002,37.5],[-77.47500000000002,37.52640029999998]]]}},{"type":"Feature","properties":{},"geometry":{"type":"Polygon","coordinates":[[[-76.61306919999998,38.09158609999997],[-76.61374130000002,38.09158609999997],[-76.63553359999997,38.09158609999997],[-76.63912640000001,38.09158609999997],[-76.64382540000003,38.09158609999997],[-76.64446099999998,38.09158609999997],[-76.64497569999997,38.09158609999997],[-76.64589510000002,38.09158609999997],[-76.64842520000002,38.09158609999997],[-76.64903579999998,38.09158609999997],[-76.65844249999998,38.09158609999997],[-76.65923550000002,38.09158609999997],[-76.73073219999998,38.09158609999997],[-76.73202850000001,38.09158609999997],[-76.73239960000001,38.09158609999997],[-76.7335003,38.09158609999997],[-76.73503260000001,38.09158609999997],[-76.73520930000001,38.09158609999997],[-76.73538969999998,38.09158609999997],[-76.73793130000001,38.09158609999997],[-76.7735634,38.09158609999997],[-76.9418875,38.09158609999997],[-76.942273,38.091980999999976],[-76.94417879999997,38.093933900000025],[-76.9477784,38.097622100000024],[-76.99211539999999,38.14305159999998],[-77.0353556,38.187357299999974],[-77.0353556,38.205000000000005],[-76.595,38.205000000000005],[-76.595,38.09158609999997],[-76.61306919999998,38.09158609999997]]]}},{"type":"Feature","properties":{},"geometry":{"type":"Polygon","coordinates":[[[-76.71612909999999,37.27499999999998],[-76.72500000000002,37.27499999999998],[-76.72500000000002,37.35000000000002],[-76.65866199999999,37.35000000000002],[-76.6577967,37.35000000000002],[-76.6555214,37.35000000000002],[-76.64999999999998,37.35000000000002],[-76.64999999999998,37.343559500000026],[-76.64999999999998,37.30381030000001],[-76.64999999999998,37.299072000000024],[-76.64999999999998,37.2975333],[-76.64999999999998,37.297254899999984],[-76.64999999999998,37.29666789999999],[-76.64999999999998,37.295794899999976],[-76.64999999999998,37.294360400000016],[-76.64999999999998,37.27499999999998],[-76.69789359999999,37.27499999999998],[-76.70918269999999,37.27499999999998],[-76.71413949999999,37.27499999999998],[-76.71612909999999,37.27499999999998]]]}},{"type":"Feature","properties":{},"geometry":{"type":"Polygon","coordinates":[[[-76.59534719999999,37.27499999999998],[-76.59842200000003,37.27499999999998],[-76.59920019999998,37.27499999999998],[-76.6034234,37.27499999999998],[-76.60424669999998,37.27499999999998],[-76.6048184,37.27499999999998],[-76.64999999999998,37.27499999999998],[-76.64999999999998,37.294360400000016],[-76.64999999999998,37.295794899999976],[-76.64999999999998,37.29666789999999],[-76.64999999999998,37.297254899999984],[-76.64999999999998,37.2975333],[-76.64999999999998,37.299072000000024],[-76.64999999999998,37.30381030000001],[-76.64999999999998,37.343559500000026],[-76.64999999999998,37.35000000000002],[-76.6391724,37.35000000000002],[-76.63793500000003,37.35000000000002],[-76.63427180000002,37.35000000000002],[-76.62839989999998,37.35000000000002],[-76.62528420000001,37.35000000000002],[-76.6215646,37.35000000000002],[-76.62109049999998,37.35000000000002],[-76.61975159999997,37.35000000000002],[-76.61606849999998,37.35000000000002],[-76.6159839,37.35000000000002],[-76.61562049999998,37.35000000000002],[-76.6152401,37.35000000000002],[-76.60957389999999,37.35000000000002],[-76.6085779,37.35000000000002],[-76.595,37.35000000000002],[-76.595,37.27499999999998],[-76.59534719999999,37.27499999999998]]]}},{"type":"Feature","properties":{},"geometry":{"type":"Polygon","coordinates":[[[-76.65866199999999,37.35000000000002],[-76.72500000000002,37.35000000000002],[-76.72500000000002,37.368531899999994],[-76.72500000000002,37.37002030000002],[-76.72500000000002,37.40073080000002],[-76.72500000000002,37.40163319999999],[-76.72500000000002,37.404555500000015],[-76.72500000000002,37.40970370000002],[-76.72500000000002,37.410184800000025],[-76.72500000000002,37.412688600000024],[-76.72500000000002,37.41334869999997],[-76.72500000000002,37.41523699999999],[-76.72500000000002,37.42500000000001],[-76.7241555,37.42500000000001],[-76.72333220000002,37.42500000000001],[-76.7093643,37.42500000000001],[-76.70854450000002,37.42500000000001],[-76.7065298,37.42500000000001],[-76.7010454,37.42500000000001],[-76.69889519999998,37.42500000000001],[-76.69753100000003,37.42500000000001],[-76.69601599999999,37.42500000000001],[-76.69574239999997,37.42500000000001],[-76.69552340000001,37.42500000000001],[-76.69499969999998,37.42500000000001],[-76.69020490000003,37.42500000000001],[-76.68880910000001,37.42500000000001],[-76.68850570000001,37.42500000000001],[-76.68774689999998,37.42500000000001],[-76.68291799999997,37.42500000000001],[-76.68243230000002,37.42500000000001],[-76.68184500000001,37.42500000000001],[-76.6818265,37.42500000000001],[-76.67968530000002,37.42500000000001],[-76.6788181,37.42500000000001],[-76.67831899999999,37.42500000000001],[-76.67601300000001,37.42500000000001],[-76.67173980000001,37.42500000000001],[-76.6715365,37.42500000000001],[-76.66571349999998,37.42500000000001],[-76.66478949999998,37.42500000000001],[-76.64999999999998,37.42500000000001],[-76.64999999999998,37.41582770000002],[-76.64999999999998,37.41548590000002],[-76.64999999999998,37.4081276],[-76.64999999999998,37.40700750000002],[-76.64999999999998,37.406406000000004],[-76.64999999999998,37.40624309999998],[-76.64999999999998,37.40606200000002],[-76.64999999999998,37.4056013],[-76.64999999999998,37.40527470000001],[-76.64999999999998,37.40482429999997],[-76.64999999999998,37.399988699999994],[-76.64999999999998,37.39428240000001],[-76.64999999999998,37.39110640000001],[-76.64999999999998,37.390758500000004],[-76.64999999999998,37.38485700000001],[-76.64999999999998,37.38425239999998],[-76.64999999999998,37.3833396],[-76.64999999999998,37.383314900000016],[-76.64999999999998,37.382268599999975],[-76.64999999999998,37.377838],[-76.64999999999998,37.37771509999999],[-76.64999999999998,37.37666230000002],[-76.64999999999998,37.37607109999999],[-76.64999999999998,37.37397320000002],[-76.64999999999998,37.364221199999974],[-76.64999999999998,37.36081530000001],[-76.64999999999998,37.35000000000002],[-76.6555214,37.35000000000002],[-76.6577967,37.35000000000002],[-76.65866199999999,37.35000000000002]]]}},{"type":"Feature","properties":{},"geometry":{"type":"Polygon","coordinates":[[[-76.6085779,37.35000000000002],[-76.60957389999999,37.35000000000002],[-76.6152401,37.35000000000002],[-76.61562049999998,37.35000000000002],[-76.6159839,37.35000000000002],[-76.61606849999998,37.35000000000002],[-76.61975159999997,37.35000000000002],[-76.62109049999998,37.35000000000002],[-76.6215646,37.35000000000002],[-76.62528420000001,37.35000000000002],[-76.62839989999998,37.35000000000002],[-76.63427180000002,37.35000000000002],[-76.63793500000003,37.35000000000002],[-76.6391724,37.35000000000002],[-76.64999999999998,37.35000000000002],[-76.64999999999998,37.36081530000001],[-76.64999999999998,37.364221199999974],[-76.64999999999998,37.37397320000002],[-76.64999999999998,37.37607109999999],[-76.64999999999998,37.37666230000002],[-76.64999999999998,37.37771509999999],[-76.64999999999998,37.377838],[-76.64999999999998,37.382268599999975],[-76.64999999999998,37.383314900000016],[-76.64999999999998,37.3833396],[-76.64999999999998,37.38425239999998],[-76.64999999999998,37.38485700000001],[-76.64999999999998,37.390758500000004],[-76.64999999999998,37.39110640000001],[-76.64999999999998,37.39428240000001],[-76.64999999999998,37.399988699999994],[-76.64999999999998,37.40482429999997],[-76.64999999999998,37.40527470000001],[-76.64999999999998,37.4056013],[-76.64999999999998,37.40606200000002],[-76.64999999999998,37.40624309999998],[-76.64999999999998,37.406406000000004],[-76.64999999999998,37.40700750000002],[-76.64999999999998,37.4081276],[-76.64999999999998,37.41548590000002],[-76.64999999999998,37.41582770000002],[-76.64999999999998,37.42500000000001],[-76.595,37.42500000000001],[-76.595,37.35000000000002],[-76.6085779,37.35000000000002]]]}},{"type":"Feature","properties":{},"geometry":{"type":"Polygon","coordinates":[[[-76.875,37.42500000000001],[-76.875,37.5],[-76.82888059999999,37.5],[-76.81099949999998,37.5],[-76.8099876,37.5],[-76.80752000000001,37.5],[-76.80575829999998,37.5],[-76.80000000000001,37.5],[-76.80000000000001,37.4942628],[-76.80000000000001,37.49406750000003],[-76.80000000000001,37.42500000000001],[-76.875,37.42500000000001]]]}},{"type":"Feature","properties":{},"geometry":{"type":"Polygon","coordinates":[[[-76.78269340000003,37.42500000000001],[-76.80000000000001,37.42500000000001],[-76.80000000000001,37.49406750000003],[-76.80000000000001,37.4942628],[-76.80000000000001,37.5],[-76.78771499999999,37.5],[-76.78673400000002,37.5],[-76.78613439999998,37.5],[-76.78551950000002,37.5],[-76.784288,37.5],[-76.78352960000001,37.5],[-76.7800727,37.5],[-76.77615989999998,37.5],[-76.77285490000003,37.5],[-76.76402100000001,37.5],[-76.76367499999998,37.5],[-76.75831199999999,37.5],[-76.75256230000002,37.5],[-76.75143759999997,37.5],[-76.748535,37.5],[-76.74775499999998,37.5],[-76.74747029999997,37.5],[-76.7451256,37.5],[-76.74455069999999,37.5],[-76.72500000000002,37.5],[-76.72500000000002,37.47134749999998],[-76.72500000000002,37.47046710000001],[-76.72500000000002,37.46972529999999],[-76.72500000000002,37.46958840000002],[-76.72500000000002,37.46760410000002],[-76.72500000000002,37.46735589999997],[-76.72500000000002,37.46514380000002],[-76.72500000000002,37.46451960000002],[-76.72500000000002,37.46440689999997],[-76.72500000000002,37.45119620000003],[-76.72500000000002,37.45015799999999],[-76.72500000000002,37.44950399999999],[-76.72500000000002,37.4474065],[-76.72500000000002,37.444633099999976],[-76.72500000000002,37.44140620000002],[-76.72500000000002,37.44043140000002],[-76.72500000000002,37.43946140000003],[-76.72500000000002,37.42743789999997],[-76.72500000000002,37.4271736],[-76.72500000000002,37.42712640000002],[-76.72500000000002,37.42662680000001],[-76.72500000000002,37.4260549],[-76.72500000000002,37.42500000000001],[-76.766413,37.42500000000001],[-76.77450729999998,37.42500000000001],[-76.77530810000002,37.42500000000001],[-76.78133980000001,37.42500000000001],[-76.78256340000002,37.42500000000001],[-76.78269340000003,37.42500000000001]]]}},{"type":"Feature","properties":{},"geometry":{"type":"Polygon","coordinates":[[[-76.7241555,37.42500000000001],[-76.72500000000002,37.42500000000001],[-76.72500000000002,37.4260549],[-76.72500000000002,37.42662680000001],[-76.72500000000002,37.42712640000002],[-76.72500000000002,37.4271736],[-76.72500000000002,37.42743789999997],[-76.72500000000002,37.43946140000003],[-76.72500000000002,37.44043140000002],[-76.72500000000002,37.44140620000002],[-76.72500000000002,37.444633099999976],[-76.72500000000002,37.4474065],[-76.72500000000002,37.44950399999999],[-76.72500000000002,37.45015799999999],[-76.72500000000002,37.45119620000003],[-76.72500000000002,37.46440689999997],[-76.72500000000002,37.46451960000002],[-76.72500000000002,37.46514380000002],[-76.72500000000002,37.46735589999997],[-76.72500000000002,37.46760410000002],[-76.72500000000002,37.46958840000002],[-76.72500000000002,37.46972529999999],[-76.72500000000002,37.47046710000001],[-76.72500000000002,37.47134749999998],[-76.72500000000002,37.5],[-76.64999999999998,37.5],[-76.64999999999998,37.49711100000002],[-76.64999999999998,37.496540700000025],[-76.64999999999998,37.49127720000001],[-76.64999999999998,37.49045189999998],[-76.64999999999998,37.48189150000002],[-76.64999999999998,37.48150559999999],[-76.64999999999998,37.48114720000001],[-76.64999999999998,37.479888200000005],[-76.64999999999998,37.47818860000001],[-76.64999999999998,37.47753719999997],[-76.64999999999998,37.47676139999999],[-76.64999999999998,37.476302499999974],[-76.64999999999998,37.475743299999976],[-76.64999999999998,37.47252850000001],[-76.64999999999998,37.47187409999998],[-76.64999999999998,37.45801399999999],[-76.64999999999998,37.457419500000015],[-76.64999999999998,37.45677749999999],[-76.64999999999998,37.45574260000001],[-76.64999999999998,37.42500000000001],[-76.66478949999998,37.42500000000001],[-76.66571349999998,37.42500000000001],[-76.6715365,37.42500000000001],[-76.67173980000001,37.42500000000001],[-76.67601300000001,37.42500000000001],[-76.67831899999999,37.42500000000001],[-76.6788181,37.42500000000001],[-76.67968530000002,37.42500000000001],[-76.6818265,37.42500000000001],[-76.68184500000001,37.42500000000001],[-76.68243230000002,37.42500000000001],[-76.68291799999997,37.42500000000001],[-76.68774689999998,37.42500000000001],[-76.68850570000001,37.42500000000001],[-76.68880910000001,37.42500000000001],[-76.69020490000003,37.42500000000001],[-76.69499969999998,37.42500000000001],[-76.69552340000001,37.42500000000001],[-76.69574239999997,37.42500000000001],[-76.69601599999999,37.42500000000001],[-76.69753100000003,37.42500000000001],[-76.69889519999998,37.42500000000001],[-76.7010454,37.42500000000001],[-76.7065298,37.42500000000001],[-76.70854450000002,37.42500000000001],[-76.7093643,37.42500000000001],[-76.72333220000002,37.42500000000001],[-76.7241555,37.42500000000001]]]}},{"type":"Feature","properties":{},"geometry":{"type":"Polygon","coordinates":[[[-76.64999999999998,37.42500000000001],[-76.64999999999998,37.45574260000001],[-76.64999999999998,37.45677749999999],[-76.64999999999998,37.457419500000015],[-76.64999999999998,37.45801399999999],[-76.64999999999998,37.47187409999998],[-76.64999999999998,37.47252850000001],[-76.64999999999998,37.475743299999976],[-76.64999999999998,37.476302499999974],[-76.64999999999998,37.47676139999999],[-76.64999999999998,37.47753719999997],[-76.64999999999998,37.47818860000001],[-76.64999999999998,37.479888200000005],[-76.64999999999998,37.48114720000001],[-76.64999999999998,37.48150559999999],[-76.64999999999998,37.48189150000002],[-76.64999999999998,37.49045189999998],[-76.64999999999998,37.49127720000001],[-76.64999999999998,37.496540700000025],[-76.64999999999998,37.49711100000002],[-76.64999999999998,37.5],[-76.595,37.5],[-76.595,37.42500000000001],[-76.64999999999998,37.42500000000001]]]}},{"type":"Feature","properties":{},"geometry":{"type":"Polygon","coordinates":[[[-77.2037019,38.17500000000001],[-77.20341150000002,38.17500000000001],[-77.19202109999998,38.17500000000001],[-77.19180749999998,38.17500000000001],[-77.19118409999999,38.17500000000001],[-77.18891280000003,38.17500000000001],[-77.18850789999999,38.17500000000001],[-77.18804949999998,38.17500000000001],[-77.18771609999999,38.17500000000001],[-77.18566299999998,38.17500000000001],[-77.18523099999999,38.17500000000001],[-77.18426340000002,38.17500000000001],[-77.1839822,38.17500000000001],[-77.17500000000001,38.17500000000001],[-77.17500000000001,38.17135139999999],[-77.17500000000001,38.16763550000002],[-77.17500000000001,38.166495499999996],[-77.17500000000001,38.164775299999974],[-77.17500000000001,38.164612499999976],[-77.17500000000001,38.16396850000001],[-77.17500000000001,38.16350299999999],[-77.17500000000001,38.16320480000002],[-77.17500000000001,38.16200140000001],[-77.17500000000001,38.16105060000001],[-77.17500000000001,38.160718799999984],[-77.17500000000001,38.1602408],[-77.17500000000001,38.15969999999999],[-77.17500000000001,38.15933669999998],[-77.17500000000001,38.158221500000025],[-77.17500000000001,38.1580634],[-77.17500000000001,38.15738750000003],[-77.17500000000001,38.1564573],[-77.17500000000001,38.155493999999976],[-77.17500000000001,38.155220299999996],[-77.17500000000001,38.15509780000002],[-77.17500000000001,38.15499340000002],[-77.17500000000001,38.15466459999999],[-77.17500000000001,38.15257509999998],[-77.17500000000001,38.15016509999998],[-77.17500000000001,38.147493499999996],[-77.17500000000001,38.14651220000002],[-77.17500000000001,38.10000000000002],[-77.25,38.10000000000002],[-77.25,38.17500000000001],[-77.20450160000001,38.17500000000001],[-77.2037019,38.17500000000001]]]}},{"type":"Feature","properties":{},"geometry":{"type":"Polygon","coordinates":[[[-77.17500000000001,38.14651220000002],[-77.17500000000001,38.147493499999996],[-77.17500000000001,38.15016509999998],[-77.17500000000001,38.15257509999998],[-77.17500000000001,38.15466459999999],[-77.17500000000001,38.15499340000002],[-77.17500000000001,38.15509780000002],[-77.17500000000001,38.155220299999996],[-77.17500000000001,38.155493999999976],[-77.17500000000001,38.1564573],[-77.17500000000001,38.15738750000003],[-77.17500000000001,38.1580634],[-77.17500000000001,38.158221500000025],[-77.17500000000001,38.15933669999998],[-77.17500000000001,38.15969999999999],[-77.17500000000001,38.1602408],[-77.17500000000001,38.160718799999984],[-77.17500000000001,38.16105060000001],[-77.17500000000001,38.16200140000001],[-77.17500000000001,38.16320480000002],[-77.17500000000001,38.16350299999999],[-77.17500000000001,38.16396850000001],[-77.17500000000001,38.164612499999976],[-77.17500000000001,38.164775299999974],[-77.17500000000001,38.166495499999996],[-77.17500000000001,38.16763550000002],[-77.17500000000001,38.17135139999999],[-77.17500000000001,38.17500000000001],[-77.15781900000002,38.17500000000001],[-77.15734070000002,38.17500000000001],[-77.15332439999997,38.17500000000001],[-77.15304809999998,38.17500000000001],[-77.15252179999999,38.17500000000001],[-77.1519523,38.17500000000001],[-77.1516211,38.17500000000001],[-77.15135579999998,38.17500000000001],[-77.1112488,38.17500000000001],[-77.11041069999999,38.17500000000001],[-77.10282799999999,38.17500000000001],[-77.10219269999999,38.17500000000001],[-77.10000000000002,38.17500000000001],[-77.10000000000002,38.16331120000001],[-77.10000000000002,38.16303529999999],[-77.10000000000002,38.16238329999999],[-77.10000000000002,38.16182409999999],[-77.10000000000002,38.159283000000016],[-77.10000000000002,38.15923750000002],[-77.10000000000002,38.159182499999986],[-77.10000000000002,38.157452999999975],[-77.10000000000002,38.1549847],[-77.10000000000002,38.148597800000005],[-77.10000000000002,38.1435826],[-77.10000000000002,38.14278719999999],[-77.10000000000002,38.10000000000002],[-77.17500000000001,38.10000000000002],[-77.17500000000001,38.14651220000002]]]}},{"type":"Feature","properties":{},"geometry":{"type":"Polygon","coordinates":[[[-77.0624651,38.10000000000002],[-77.10000000000002,38.10000000000002],[-77.10000000000002,38.14278719999999],[-77.10000000000002,38.1435826],[-77.10000000000002,38.148597800000005],[-77.10000000000002,38.1549847],[-77.10000000000002,38.157452999999975],[-77.10000000000002,38.159182499999986],[-77.10000000000002,38.15923750000002],[-77.10000000000002,38.159283000000016],[-77.10000000000002,38.16182409999999],[-77.10000000000002,38.16238329999999],[-77.10000000000002,38.16303529999999],[-77.10000000000002,38.16331120000001],[-77.10000000000002,38.17500000000001],[-77.07951880000002,38.17500000000001],[-77.02499999999998,38.17500000000001],[-77.02499999999998,38.10776329999999],[-77.02499999999998,38.10739319999999],[-77.02499999999998,38.10727229999998],[-77.02499999999998,38.107108100000005],[-77.02499999999998,38.106854999999996],[-77.02499999999998,38.10325710000001],[-77.02499999999998,38.10285490000001],[-77.02499999999998,38.102610500000026],[-77.02499999999998,38.1010713],[-77.02499999999998,38.10024929999997],[-77.02499999999998,38.10000000000002],[-77.02655750000002,38.10000000000002],[-77.0268486,38.10000000000002],[-77.0270587,38.10000000000002],[-77.02732379999998,38.10000000000002],[-77.03670670000002,38.10000000000002],[-77.03698370000001,38.10000000000002],[-77.03728769999998,38.10000000000002],[-77.0390509,38.10000000000002],[-77.03926719999998,38.10000000000002],[-77.03951339999998,38.10000000000002],[-77.04193600000002,38.10000000000002],[-77.04206190000002,38.10000000000002],[-77.05184980000001,38.10000000000002],[-77.05877529999998,38.10000000000002],[-77.05925159999998,38.10000000000002],[-77.05969700000003,38.10000000000002],[-77.05992659999998,38.10000000000002],[-77.06004039999999,38.10000000000002],[-77.06005720000002,38.10000000000002],[-77.06019529999998,38.10000000000002],[-77.06053029999998,38.10000000000002],[-77.0624651,38.10000000000002]]]}},{"type":"Feature","properties":{},"geometry":{"type":"Polygon","coordinates":[[[-77.39999999999998,38.17500000000001],[-77.47500000000002,38.17500000000001],[-77.47500000000002,38.205000000000005],[-77.39999999999998,38.205000000000005],[-77.39999999999998,38.17500000000001]]]}},{"type":"Feature","properties":{},"geometry":{"type":"Polygon","coordinates":[[[-77.32499999999999,38.17500000000001],[-77.39999999999998,38.17500000000001],[-77.39999999999998,38.205000000000005],[-77.32499999999999,38.205000000000005],[-77.32499999999999,38.17500000000001]]]}},{"type":"Feature","properties":{},"geometry":{"type":"Polygon","coordinates":[[[-77.25,38.203661599999975],[-77.25,38.2034319],[-77.25,38.20294460000002],[-77.25,38.20276580000001],[-77.25,38.20098150000001],[-77.25,38.19989270000002],[-77.25,38.19874179999999],[-77.25,38.19821080000003],[-77.25,38.195427300000006],[-77.25,38.18905799999999],[-77.25,38.188831300000004],[-77.25,38.18872320000003],[-77.25,38.1885886],[-77.25,38.187838699999986],[-77.25,38.18743869999997],[-77.25,38.17500000000001],[-77.32499999999999,38.17500000000001],[-77.32499999999999,38.205000000000005],[-77.25,38.205000000000005],[-77.25,38.203661599999975]]]}},{"type":"Feature","properties":{},"geometry":{"type":"Polygon","coordinates":[[[-77.17500000000001,38.17500000000001],[-77.1839822,38.17500000000001],[-77.18426340000002,38.17500000000001],[-77.18523099999999,38.17500000000001],[-77.18566299999998,38.17500000000001],[-77.18771609999999,38.17500000000001],[-77.18804949999998,38.17500000000001],[-77.18850789999999,38.17500000000001],[-77.18891280000003,38.17500000000001],[-77.19118409999999,38.17500000000001],[-77.19180749999998,38.17500000000001],[-77.19202109999998,38.17500000000001],[-77.20341150000002,38.17500000000001],[-77.2037019,38.17500000000001],[-77.20450160000001,38.17500000000001],[-77.25,38.17500000000001],[-77.25,38.18743869999997],[-77.25,38.187838699999986],[-77.25,38.1885886],[-77.25,38.18872320000003],[-77.25,38.188831300000004],[-77.25,38.18905799999999],[-77.25,38.195427300000006],[-77.25,38.19821080000003],[-77.25,38.19874179999999],[-77.25,38.19989270000002],[-77.25,38.20098150000001],[-77.25,38.20276580000001],[-77.25,38.20294460000002],[-77.25,38.2034319],[-77.25,38.203661599999975],[-77.25,38.205000000000005],[-77.17500000000001,38.205000000000005],[-77.17500000000001,38.17500000000001]]]}},{"type":"Feature","properties":{},"geometry":{"type":"Polygon","coordinates":[[[-77.10000000000002,38.177657599999975],[-77.10000000000002,38.17575950000003],[-77.10000000000002,38.17500000000001],[-77.10219269999999,38.17500000000001],[-77.10282799999999,38.17500000000001],[-77.11041069999999,38.17500000000001],[-77.1112488,38.17500000000001],[-77.15135579999998,38.17500000000001],[-77.1516211,38.17500000000001],[-77.1519523,38.17500000000001],[-77.15252179999999,38.17500000000001],[-77.15304809999998,38.17500000000001],[-77.15332439999997,38.17500000000001],[-77.15734070000002,38.17500000000001],[-77.15781900000002,38.17500000000001],[-77.17500000000001,38.17500000000001],[-77.17500000000001,38.205000000000005],[-77.10000000000002,38.205000000000005],[-77.10000000000002,38.177657599999975]]]}},{"type":"Feature","properties":{},"geometry":{"type":"Polygon","coordinates":[[[-76.61719720000002,37.80000000000001],[-76.61790389999999,37.80000000000001],[-76.62656329999999,37.80000000000001],[-76.64849299999997,37.80000000000001],[-76.65397680000001,37.80000000000001],[-76.65937450000001,37.80000000000001],[-76.67965520000001,37.80000000000001],[-76.68403080000002,37.80000000000001],[-76.69405389999997,37.80000000000001],[-76.69909139999999,37.80000000000001],[-76.72596759999999,37.80000000000001],[-76.7348058,37.80000000000001],[-76.73517700000002,37.80000000000001],[-76.787552,37.80000000000001],[-76.8206391,37.8297718],[-76.83018600000003,37.838362200000006],[-76.86368220000003,37.86850199999998],[-76.86449779999998,37.86923589999998],[-76.86972550000002,37.87393980000002],[-76.8703931,37.87454059999999],[-76.8712797,37.87533830000001],[-76.87175830000001,37.875768900000025],[-76.87708099999998,37.88055830000002],[-76.87759340000002,37.881019400000014],[-76.87776559999998,37.8811743],[-76.8784139,37.88175769999998],[-76.87860260000002,37.88192750000002],[-76.87887130000001,37.88216920000002],[-76.87942149999998,37.88266429999999],[-76.97809719999998,37.97145280000001],[-76.9475478,37.99277360000002],[-77.00288999999998,38.0496675],[-77.00809290000001,38.05501620000001],[-77.05184980000001,38.10000000000002],[-77.04206190000002,38.10000000000002],[-77.04193600000002,38.10000000000002],[-77.03951339999998,38.10000000000002],[-77.03926719999998,38.10000000000002],[-77.0390509,38.10000000000002],[-77.03728769999998,38.10000000000002],[-77.03698370000001,38.10000000000002],[-77.03670670000002,38.10000000000002],[-77.02732379999998,38.10000000000002],[-77.0270587,38.10000000000002],[-77.0268486,38.10000000000002],[-77.02655750000002,38.10000000000002],[-77.02499999999998,38.10000000000002],[-77.02499999999998,38.10024929999997],[-77.02499999999998,38.1010713],[-77.02499999999998,38.102610500000026],[-77.02499999999998,38.10285490000001],[-77.02499999999998,38.10325710000001],[-77.02499999999998,38.106854999999996],[-77.02499999999998,38.107108100000005],[-77.02499999999998,38.10727229999998],[-77.02499999999998,38.10739319999999],[-77.02499999999998,38.10776329999999],[-77.02499999999998,38.17500000000001],[-77.07951880000002,38.17500000000001],[-77.04430550000001,38.19652780000001],[-77.0353556,38.187357299999974],[-76.9477784,38.097622100000024],[-76.94417879999997,38.093933900000025],[-76.942273,38.091980999999976],[-76.9418875,38.09158609999997],[-76.93877900000001,38.088400999999976],[-76.93674549999997,38.08631730000002],[-76.93500360000002,38.08453250000002],[-76.92443420000001,38.07370270000001],[-76.92426460000001,38.073528899999985],[-76.9232154,38.07245390000003],[-76.9224577,38.07167750000002],[-76.91988900000001,38.069045500000016],[-76.91960410000002,38.06875359999998],[-76.8868172,38.03515870000001],[-76.85309439999997,38.0586945],[-76.82701559999998,38.03525639999998],[-76.8222184,38.0309451],[-76.8217017,38.030480599999976],[-76.82096239999998,38.029816100000005],[-76.82085660000001,38.02972110000002],[-76.82051059999998,38.02941010000001],[-76.82039850000001,38.02930939999999],[-76.82020599999998,38.02913640000003],[-76.82014179999999,38.029078700000014],[-76.81829290000002,38.027417000000014],[-76.8034657,38.014091199999996],[-76.80304519999999,38.013713300000006],[-76.79193520000001,38.00372829999998],[-76.79138,38.00322940000001],[-76.7232042,37.941957100000025],[-76.72296490000002,37.94174199999998],[-76.72284339999999,37.941632700000014],[-76.72231090000002,37.94115420000003],[-76.7095554,37.92969040000003],[-76.7086076,37.928838600000006],[-76.70577029999998,37.926288699999986],[-76.63757040000002,37.86499479999998],[-76.63686150000001,37.86435770000003],[-76.62545210000002,37.85410359999997],[-76.62499709999997,37.853694700000005],[-76.595,37.826735162830445],[-76.595,37.80000000000001],[-76.61719720000002,37.80000000000001]]]}}]}