{"type":"FeatureCollection","features":[{"type":"Feature","properties":{},"geometry":{"type":"Polygon","coordinates":[[[-75.1962911,38.54178030000003],[-75.19645129999998,38.54178030000003],[-75.1965831,38.54178030000003],[-75.19774949999999,38.54178030000003],[-75.25,38.54178030000003],[-75.29511739999998,38.54178030000003],[-75.332965,38.54178030000003],[-75.332965,38.69999999999999],[-75.30000000000001,38.69999999999999],[-75.22500000000002,38.69999999999999],[-75.19500000000001,38.69999999999999],[-75.19500000000001,38.54178030000003],[-75.1962911,38.54178030000003]]]}},{"type":"Feature","properties":{},"geometry":{"type":"Polygon","coordinates":[[[-75.30000000000001,38.69999999999999],[-75.30000000000001,38.77499999999998],[-75.28972570000002,38.77499999999998],[-75.289087,38.77499999999998],[-75.2515057,38.77499999999998],[-75.25122299999998,38.77499999999998],[-75.2509336,38.77499999999998],[-75.22500000000002,38.77499999999998],[-75.22500000000002,38.69999999999999],[-75.30000000000001,38.69999999999999]]]}},{"type":"Feature","properties":{},"geometry":{"type":"Polygon","coordinates":[[[-75.22500000000002,38.69999999999999],[-75.22500000000002,38.77499999999998],[-75.19574970000002,38.77499999999998],[-75.19523270000002,38.77499999999998],[-75.19500000000001,38.77499999999998],[-75.19500000000001,38.69999999999999],[-75.22500000000002,38.69999999999999]]]}},{"type":"Feature","properties":{},"geometry":{"type":"Polygon","coordinates":[[[-75.28972570000002,38.77499999999998],[-75.30000000000001,38.77499999999998],[-75.30000000000001,38.7755406],[-75.30000000000001,38.77648370000003],[-75.30000000000001,38.77686749999998],[-75.30000000000001,38.77815650000002],[-75.30000000000001,38.85000000000002],[-75.2651505,38.85000000000002],[-75.26251710000003,38.85000000000002],[-75.26216620000002,38.85000000000002],[-75.25796860000003,38.85000000000002],[-75.25779720000003,38.85000000000002],[-75.25231739999998,38.85000000000002],[-75.25231289999999,38.85000000000002],[-75.2518986,38.85000000000002],[-75.2513581,38.85000000000002],[-75.2512496,38.85000000000002],[-75.25066329999999,38.85000000000002],[-75.25033530000002,38.85000000000002],[-75.2494878,38.85000000000002],[-75.2494112,38.85000000000002],[-75.2459457,38.85000000000002],[-75.24580220000001,38.85000000000002],[-75.2456793,38.85000000000002],[-75.2441053,38.85000000000002],[-75.24076450000001,38.85000000000002],[-75.24065990000003,38.85000000000002],[-75.2405655,38.85000000000002],[-75.23771979999998,38.85000000000002],[-75.23691209999998,38.85000000000002],[-75.22680309999998,38.85000000000002],[-75.22500000000002,38.85000000000002],[-75.22500000000002,38.84871420000002],[-75.22500000000002,38.839862600000004],[-75.22500000000002,38.83953700000001],[-75.22500000000002,38.8361774],[-75.22500000000002,38.83600910000001],[-75.22500000000002,38.83523439999999],[-75.22500000000002,38.835000200000025],[-75.22500000000002,38.8336736],[-75.22500000000002,38.83354400000002],[-75.22500000000002,38.83317699999998],[-75.22500000000002,38.83286650000002],[-75.22500000000002,38.83253669999999],[-75.22500000000002,38.83148590000002],[-75.22500000000002,38.8310156],[-75.22500000000002,38.83014539999999],[-75.22500000000002,38.82360540000002],[-75.22500000000002,38.81974789999998],[-75.22500000000002,38.81957649999998],[-75.22500000000002,38.81896499999999],[-75.22500000000002,38.81882519999999],[-75.22500000000002,38.809963400000015],[-75.22500000000002,38.80928879999999],[-75.22500000000002,38.8057857],[-75.22500000000002,38.80546859999998],[-75.22500000000002,38.800119300000006],[-75.22500000000002,38.77499999999998],[-75.2509336,38.77499999999998],[-75.25122299999998,38.77499999999998],[-75.2515057,38.77499999999998],[-75.289087,38.77499999999998],[-75.28972570000002,38.77499999999998]]]}},{"type":"Feature","properties":{},"geometry":{"type":"Polygon","coordinates":[[[-75.19523270000002,38.77499999999998],[-75.19574970000002,38.77499999999998],[-75.22500000000002,38.77499999999998],[-75.22500000000002,38.800119300000006],[-75.22500000000002,38.80546859999998],[-75.22500000000002,38.8057857],[-75.22500000000002,38.80928879999999],[-75.22500000000002,38.809963400000015],[-75.22500000000002,38.81882519999999],[-75.22500000000002,38.81896499999999],[-75.22500000000002,38.81957649999998],[-75.22500000000002,38.81974789999998],[-75.22500000000002,38.82360540000002],[-75.22500000000002,38.83014539999999],[-75.22500000000002,38.8310156],[-75.22500000000002,38.83148590000002],[-75.22500000000002,38.83253669999999],[-75.22500000000002,38.83286650000002],[-75.22500000000002,38.83317699999998],[-75.22500000000002,38.83354400000002],[-75.22500000000002,38.8336736],[-75.22500000000002,38.835000200000025],[-75.22500000000002,38.83523439999999],[-75.22500000000002,38.83600910000001],[-75.22500000000002,38.8361774],[-75.22500000000002,38.83953700000001],[-75.22500000000002,38.839862600000004],[-75.22500000000002,38.84871420000002],[-75.22500000000002,38.85000000000002],[-75.200064,38.85000000000002],[-75.19820040000002,38.85000000000002],[-75.19500000000001,38.85000000000002],[-75.19500000000001,38.77499999999998],[-75.19523270000002,38.77499999999998]]]}},{"type":"Feature","properties":{},"geometry":{"type":"Polygon","coordinates":[[[-76.29720300000002,38.904961000000014],[-76.29720300000002,38.90286680000003],[-76.29720300000002,38.902649],[-76.29720300000002,38.901972],[-76.29720300000002,38.90143519999998],[-76.29720300000002,38.90114449999999],[-76.29720300000002,38.898713999999984],[-76.29720300000002,38.89568600000001],[-76.29720300000002,38.88771300000002],[-76.29720300000002,38.88421099999999],[-76.29720400000002,38.881463],[-76.29720400000002,38.87220000000002],[-76.29720400000002,38.870003999999994],[-76.29720400000002,38.86443300000002],[-76.29720400000002,38.85996699999998],[-76.29720400000002,38.85091190000003],[-76.29720400000002,38.850679000000014],[-76.29720400000002,38.848614],[-76.29720400000002,38.83955099999997],[-76.29720400000002,38.83798100000001],[-76.29720400000002,38.835334999999986],[-76.29720400000002,38.82840599999997],[-76.29720400000002,38.828033000000005],[-76.29764599999999,38.82624499999997],[-76.3082152,38.783454000000006],[-76.32069619999999,38.783454000000006],[-76.32101219999998,38.783454000000006],[-76.32108099999999,38.783454000000006],[-76.321283,38.783454000000006],[-76.32990339999998,38.783454000000006],[-76.33002979999998,38.783454000000006],[-76.3301002,38.783454000000006],[-76.34579939999998,38.783454000000006],[-76.34901719999999,38.783454000000006],[-76.3491439,38.783454000000006],[-76.349245,38.783454000000006],[-76.35499999999999,38.783454000000006],[-76.35499999999999,38.905],[-76.29721100584304,38.905],[-76.29720300000002,38.904961000000014]]]}},{"type":"Feature","properties":{},"geometry":{"type":"Polygon","coordinates":[[[-76.19999999999999,38.90361899999999],[-76.19999999999999,38.90336930000001],[-76.19999999999999,38.90209549999997],[-76.19999999999999,38.901110800000026],[-76.19999999999999,38.9004147],[-76.19999999999999,38.8996616],[-76.19999999999999,38.8996027],[-76.19999999999999,38.896340699999996],[-76.19999999999999,38.8949485],[-76.19999999999999,38.89196609999999],[-76.19999999999999,38.88348050000002],[-76.19999999999999,38.88071600000001],[-76.19999999999999,38.858321699999976],[-76.19999999999999,38.85739589999997],[-76.19999999999999,38.85647590000002],[-76.19999999999999,38.85607160000001],[-76.19999999999999,38.855556999999976],[-76.19999999999999,38.8551741],[-76.19999999999999,38.8546073],[-76.19999999999999,38.853915700000016],[-76.19999999999999,38.853086099999985],[-76.19999999999999,38.85236259999999],[-76.19999999999999,38.849740199999985],[-76.19999999999999,38.84882049999999],[-76.19999999999999,38.84822320000001],[-76.19999999999999,38.847835499999974],[-76.19999999999999,38.846315600000025],[-76.19999999999999,38.844885999999974],[-76.19999999999999,38.840668600000015],[-76.19999999999999,38.83945410000001],[-76.19999999999999,38.839025400000025],[-76.19999999999999,38.83785990000001],[-76.19999999999999,38.83429050000001],[-76.19999999999999,38.83345370000001],[-76.19999999999999,38.832117100000005],[-76.19999999999999,38.8318759],[-76.19999999999999,38.830402900000024],[-76.19999999999999,38.82962140000001],[-76.19999999999999,38.82721379999998],[-76.19999999999999,38.82357739999998],[-76.19999999999999,38.79393270000003],[-76.19999999999999,38.793611699999985],[-76.19999999999999,38.79204549999997],[-76.19999999999999,38.7840094],[-76.19999999999999,38.783642999999984],[-76.19999999999999,38.782103800000016],[-76.19999999999999,38.779173800000024],[-76.19999999999999,38.77876520000001],[-76.19999999999999,38.774752999999976],[-76.19999999999999,38.77409060000002],[-76.19999999999999,38.773776199999986],[-76.19999999999999,38.77319870000002],[-76.19999999999999,38.767413999999974],[-76.19999999999999,38.76688489999998],[-76.19999999999999,38.764186800000004],[-76.217355,38.78116399999999],[-76.219696,38.783454000000006],[-76.23206090000002,38.783454000000006],[-76.24802499999998,38.783454000000006],[-76.24816479999998,38.783454000000006],[-76.24953240000002,38.783454000000006],[-76.2496471,38.783454000000006],[-76.24986380000001,38.783454000000006],[-76.24990070000001,38.783454000000006],[-76.25231839999998,38.783454000000006],[-76.25256300000001,38.783454000000006],[-76.2525736,38.783454000000006],[-76.25739299999998,38.783454000000006],[-76.25739750000002,38.783454000000006],[-76.25780270000001,38.783454000000006],[-76.25783419999999,38.783454000000006],[-76.25820800000002,38.783454000000006],[-76.25822840000001,38.783454000000006],[-76.2601674,38.783454000000006],[-76.26052600000003,38.783454000000006],[-76.26061429999999,38.783454000000006],[-76.26068559999999,38.783454000000006],[-76.26071000000002,38.783454000000006],[-76.26724899999999,38.783454000000006],[-76.26728939999998,38.783454000000006],[-76.26741329999999,38.783454000000006],[-76.27018500000003,38.783454000000006],[-76.27247699999998,38.783454000000006],[-76.2739641,38.783454000000006],[-76.27493399999997,38.783454000000006],[-76.27549110000001,38.783454000000006],[-76.27558749999997,38.783454000000006],[-76.28135900000001,38.783454000000006],[-76.28137429999998,38.783454000000006],[-76.2817508,38.783454000000006],[-76.28179180000001,38.783454000000006],[-76.28181810000001,38.783454000000006],[-76.28227659999999,38.783454000000006],[-76.2822835,38.783454000000006],[-76.28241120000001,38.783454000000006],[-76.28453680000001,38.783454000000006],[-76.28475830000002,38.783454000000006],[-76.28486079999999,38.783454000000006],[-76.2856916,38.783454000000006],[-76.28582319999998,38.783454000000006],[-76.285935,38.783454000000006],[-76.28610750000001,38.783454000000006],[-76.28653020000002,38.783454000000006],[-76.28665819999998,38.783454000000006],[-76.28666679999998,38.783454000000006],[-76.28671609999998,38.783454000000006],[-76.28823349999999,38.783454000000006],[-76.28892560000003,38.783454000000006],[-76.29379929999999,38.783454000000006],[-76.29387860000003,38.783454000000006],[-76.29445120000003,38.783454000000006],[-76.2982758,38.783454000000006],[-76.29832099999999,38.783454000000006],[-76.2983921,38.783454000000006],[-76.29859399999998,38.783454000000006],[-76.3082152,38.783454000000006],[-76.29764599999999,38.82624499999997],[-76.29720400000002,38.828033000000005],[-76.29720400000002,38.82840599999997],[-76.29720400000002,38.82842260000001],[-76.29720400000002,38.835334999999986],[-76.29720400000002,38.83798100000001],[-76.29720400000002,38.83955099999997],[-76.29720400000002,38.848614],[-76.29720400000002,38.850679000000014],[-76.29720400000002,38.85091190000003],[-76.29720400000002,38.85996699999998],[-76.29720400000002,38.86443300000002],[-76.29720400000002,38.870003999999994],[-76.29720400000002,38.87220000000002],[-76.29720400000002,38.881463],[-76.29720300000002,38.88421099999999],[-76.29720300000002,38.88771300000002],[-76.29720300000002,38.89568600000001],[-76.29720300000002,38.898713999999984],[-76.29720300000002,38.90114449999999],[-76.29720300000002,38.90143519999998],[-76.29720300000002,38.901972],[-76.29720300000002,38.902219100000025],[-76.29720300000002,38.902649],[-76.29720300000002,38.90286680000003],[-76.29720300000002,38.904961000000014],[-76.29721100584304,38.905],[-76.19999999999999,38.905],[-76.19999999999999,38.90361899999999]]]}},{"type":"Feature","properties":{},"geometry":{"type":"Polygon","coordinates":[[[-75.8849444,38.699502800000005],[-75.79966109999998,38.699502800000005],[-75.79966109999998,38.550113899999985],[-76.05000000000001,38.550113899999985],[-76.05000000000001,38.55849690000002],[-76.05000000000001,38.56004949999999],[-76.05000000000001,38.5627283],[-76.05000000000001,38.563236200000006],[-76.05000000000001,38.564772600000026],[-76.05000000000001,38.57028980000001],[-76.05000000000001,38.572821799999986],[-76.05000000000001,38.57302370000002],[-76.05000000000001,38.573218499999996],[-76.05000000000001,38.5752516],[-76.05000000000001,38.57614080000002],[-76.05000000000001,38.581068000000016],[-76.05000000000001,38.583468400000015],[-76.05000000000001,38.587513899999976],[-76.05000000000001,38.5883475],[-76.05000000000001,38.5887376],[-76.05000000000001,38.5896735],[-76.05000000000001,38.59031090000002],[-76.05000000000001,38.592973700000016],[-76.05000000000001,38.5965506],[-76.05000000000001,38.6013701],[-76.05000000000001,38.602295200000015],[-76.05000000000001,38.60230419999999],[-76.05000000000001,38.625],[-76.05627700000002,38.625],[-76.05627700000002,38.69999999999999],[-75.9987807,38.69999999999999],[-75.9982986,38.69999999999999],[-75.99708140000001,38.69999999999999],[-75.99354449999998,38.69999999999999],[-75.99288100000001,38.69999999999999],[-75.98822100000001,38.69999999999999],[-75.98674779999999,38.69999999999999],[-75.98387009999999,38.69999999999999],[-75.97895460000001,38.69999999999999],[-75.97584280000001,38.69999999999999],[-75.946754,38.69999999999999],[-75.94569480000001,38.69999999999999],[-75.89999999999998,38.69999999999999],[-75.8849444,38.69999999999999],[-75.8849444,38.699502800000005]]]}},{"type":"Feature","properties":{},"geometry":{"type":"Polygon","coordinates":[[[-76.19999999999999,38.48845299999999],[-76.19999999999999,38.5236807],[-76.19999999999999,38.524102400000004],[-76.19999999999999,38.52500040000001],[-76.19999999999999,38.52744000000001],[-76.19999999999999,38.52922480000001],[-76.19999999999999,38.53562310000001],[-76.19999999999999,38.550771699999984],[-76.19999999999999,38.55160110000003],[-76.19999999999999,38.552426000000025],[-76.19999999999999,38.552635099999975],[-76.19999999999999,38.55294170000002],[-76.19999999999999,38.554188599999975],[-76.19999999999999,38.55651690000002],[-76.19999999999999,38.56098689999999],[-76.19999999999999,38.56217989999999],[-76.19999999999999,38.5623506],[-76.19999999999999,38.5755934],[-76.19999999999999,38.5759276],[-76.19999999999999,38.576830099999995],[-76.19999999999999,38.57778969999998],[-76.19999999999999,38.57827409999999],[-76.19999999999999,38.58338550000002],[-76.19999999999999,38.59178960000003],[-76.19999999999999,38.61267729999997],[-76.19999999999999,38.612930199999994],[-76.19999999999999,38.61394009999998],[-76.19999999999999,38.61952609999997],[-76.19999999999999,38.6221362],[-76.19999999999999,38.6275789],[-76.19999999999999,38.63680249999999],[-76.19999999999999,38.64591059999998],[-76.19999999999999,38.66290780000003],[-76.19999999999999,38.663093300000014],[-76.19999999999999,38.665936699999975],[-76.19999999999999,38.66610989999998],[-76.19999999999999,38.66715169999998],[-76.19999999999999,38.67119330000003],[-76.19999999999999,38.673616200000026],[-76.19999999999999,38.674065799999994],[-76.19999999999999,38.674508],[-76.19999999999999,38.674809400000015],[-76.19999999999999,38.67621539999999],[-76.19999999999999,38.67691780000001],[-76.19999999999999,38.678994699999976],[-76.19999999999999,38.679794500000014],[-76.19999999999999,38.68295119999999],[-76.19999999999999,38.685416599999996],[-76.19999999999999,38.68822019999999],[-76.19999999999999,38.69999999999999],[-76.19951780000002,38.69999999999999],[-76.19915550000002,38.69999999999999],[-76.18362660000003,38.69999999999999],[-76.18004200000001,38.69999999999999],[-76.17951060000001,38.69999999999999],[-76.1788029,38.69999999999999],[-76.1732308,38.69999999999999],[-76.17304539999998,38.69999999999999],[-76.1719903,38.69999999999999],[-76.16594950000001,38.69999999999999],[-76.16458419999998,38.69999999999999],[-76.16134349999999,38.69999999999999],[-76.15954099999999,38.69999999999999],[-76.15629430000001,38.69999999999999],[-76.15587920000002,38.69999999999999],[-76.15201730000001,38.69999999999999],[-76.14899880000002,38.69999999999999],[-76.14831800000002,38.69999999999999],[-76.14731929999999,38.69999999999999],[-76.14572349999997,38.69999999999999],[-76.1444639,38.69999999999999],[-76.14241879999997,38.69999999999999],[-76.14240940000002,38.69999999999999],[-76.05627700000002,38.69999999999999],[-76.05627700000002,38.625],[-76.07413650000001,38.625],[-76.0749343,38.625],[-76.0812368,38.625],[-76.08365400000002,38.625],[-76.08393410000002,38.625],[-76.08410659999998,38.625],[-76.0856966,38.625],[-76.09223789999999,38.625],[-76.0924645,38.625],[-76.09369959999998,38.625],[-76.09923500000002,38.625],[-76.09978319999999,38.625],[-76.10064920000002,38.625],[-76.11545339999998,38.625],[-76.11927700000001,38.625],[-76.12212729999999,38.625],[-76.12388700000002,38.625],[-76.125,38.625],[-76.125,38.621892100000025],[-76.125,38.62097399999999],[-76.125,38.61640130000001],[-76.125,38.61173400000001],[-76.125,38.60958849999997],[-76.125,38.609269600000005],[-76.125,38.60749120000003],[-76.125,38.60310190000001],[-76.125,38.59831839999998],[-76.125,38.593346800000006],[-76.125,38.59262469999999],[-76.125,38.588978399999974],[-76.125,38.58873999999997],[-76.125,38.58719610000003],[-76.125,38.58623299999999],[-76.125,38.564565000000016],[-76.12644699999998,38.564565000000016],[-76.12644699999998,38.52763160000001],[-76.12644699999998,38.52698409999999],[-76.12644699999998,38.48845299999999],[-76.19999999999999,38.48845299999999]]]}},{"type":"Feature","properties":{},"geometry":{"type":"Polygon","coordinates":[[[-76.10636670000002,38.55000000000001],[-76.125,38.55000000000001],[-76.125,38.564565000000016],[-76.125,38.58623299999999],[-76.125,38.58719610000003],[-76.125,38.58873999999997],[-76.125,38.588978399999974],[-76.125,38.59262469999999],[-76.125,38.593346800000006],[-76.125,38.59831839999998],[-76.125,38.60310190000001],[-76.125,38.60749120000003],[-76.125,38.609269600000005],[-76.125,38.60958849999997],[-76.125,38.61173400000001],[-76.125,38.61640130000001],[-76.125,38.62097399999999],[-76.125,38.621892100000025],[-76.125,38.625],[-76.12388700000002,38.625],[-76.12212729999999,38.625],[-76.11927700000001,38.625],[-76.11545339999998,38.625],[-76.10064920000002,38.625],[-76.09978319999999,38.625],[-76.09923500000002,38.625],[-76.09369959999998,38.625],[-76.0924645,38.625],[-76.09223789999999,38.625],[-76.0856966,38.625],[-76.08410659999998,38.625],[-76.08393410000002,38.625],[-76.08365400000002,38.625],[-76.0812368,38.625],[-76.0749343,38.625],[-76.07413650000001,38.625],[-76.05627700000002,38.625],[-76.05000000000001,38.625],[-76.05000000000001,38.60230419999999],[-76.05000000000001,38.602295200000015],[-76.05000000000001,38.6013701],[-76.05000000000001,38.5965506],[-76.05000000000001,38.592973700000016],[-76.05000000000001,38.59031090000002],[-76.05000000000001,38.5896735],[-76.05000000000001,38.5887376],[-76.05000000000001,38.5883475],[-76.05000000000001,38.587513899999976],[-76.05000000000001,38.583468400000015],[-76.05000000000001,38.581068000000016],[-76.05000000000001,38.57614080000002],[-76.05000000000001,38.5752516],[-76.05000000000001,38.573218499999996],[-76.05000000000001,38.57302370000002],[-76.05000000000001,38.572821799999986],[-76.05000000000001,38.57028980000001],[-76.05000000000001,38.564772600000026],[-76.05000000000001,38.563236200000006],[-76.05000000000001,38.5627283],[-76.05000000000001,38.56004949999999],[-76.05000000000001,38.55849690000002],[-76.05000000000001,38.550113899999985],[-76.05000000000001,38.55000000000001],[-76.10636670000002,38.55000000000001]]]}},{"type":"Feature","properties":{},"geometry":{"type":"Polygon","coordinates":[[[-76.33108490000001,38.39999999999998],[-76.3268463,38.39999999999998],[-76.326234,38.39999999999998],[-76.3252966,38.39999999999998],[-76.3094901,38.39999999999998],[-76.30647750000003,38.39999999999998],[-76.30047739999998,38.39999999999998],[-76.28679540000002,38.39999999999998],[-76.27990770000002,38.39999999999998],[-76.27944719999999,38.39999999999998],[-76.27070079999999,38.39999999999998],[-76.2651543,38.39999999999998],[-76.26406129999998,38.39999999999998],[-76.26335649999999,38.39999999999998],[-76.25979569999998,38.39999999999998],[-76.2575625,38.39999999999998],[-76.25694950000002,38.39999999999998],[-76.2503049,38.39999999999998],[-76.2492474,38.39999999999998],[-76.24896749999999,38.39999999999998],[-76.24877279999998,38.39999999999998],[-76.2456191,38.39999999999998],[-76.24454480000003,38.39999999999998],[-76.2416925,38.39999999999998],[-76.240591,38.39999999999998],[-76.23746729999999,38.39999999999998],[-76.2334672,38.39999999999998],[-76.23280829999999,38.39999999999998],[-76.23219569999998,38.39999999999998],[-76.22879460000001,38.39999999999998],[-76.2285263,38.39999999999998],[-76.22604519999999,38.39999999999998],[-76.22488859999999,38.39999999999998],[-76.22305019999999,38.39999999999998],[-76.22247870000001,38.39999999999998],[-76.21769210000002,38.39999999999998],[-76.21429089999998,38.39999999999998],[-76.21105740000002,38.39999999999998],[-76.2103593,38.39999999999998],[-76.20956289999998,38.39999999999998],[-76.20248620000001,38.39999999999998],[-76.19999999999999,38.39999999999998],[-76.19999999999999,38.399182499999995],[-76.19999999999999,38.39645410000003],[-76.19999999999999,38.39584630000002],[-76.19999999999999,38.39539559999997],[-76.19999999999999,38.3952041],[-76.19999999999999,38.39483230000002],[-76.19999999999999,38.393175600000006],[-76.19999999999999,38.393053699999996],[-76.19999999999999,38.391009999999994],[-76.19999999999999,38.389743599999974],[-76.19999999999999,38.38909419999999],[-76.19999999999999,38.38724930000001],[-76.19999999999999,38.385243100000025],[-76.19999999999999,38.38508580000001],[-76.19999999999999,38.38452810000001],[-76.19999999999999,38.38273809999998],[-76.19999999999999,38.380784800000015],[-76.19999999999999,38.380658700000026],[-76.19999999999999,38.380064300000015],[-76.19999999999999,38.37779089999998],[-76.19999999999999,38.37435140000002],[-76.19999999999999,38.373965999999996],[-76.19999999999999,38.373100299999976],[-76.19999999999999,38.369485499999996],[-76.19999999999999,38.36921480000001],[-76.19999999999999,38.34417819999999],[-76.19999999999999,38.341427099999976],[-76.19999999999999,38.33913560000002],[-76.19999999999999,38.33883730000002],[-76.19999999999999,38.33558790000001],[-76.19999999999999,38.334895700000004],[-76.19999999999999,38.33349390000001],[-76.19999999999999,38.331599400000016],[-76.19999999999999,38.328149800000006],[-76.19999999999999,38.32722519999999],[-76.19999999999999,38.315340400000025],[-76.19999999999999,38.30875550000002],[-76.19999999999999,38.30690529999998],[-76.19999999999999,38.3025169],[-76.19999999999999,38.2915663],[-76.19999999999999,38.289541799999995],[-76.19999999999999,38.28783929999997],[-76.19999999999999,38.28729449999997],[-76.19999999999999,38.28693479999998],[-76.19999999999999,38.285171400000024],[-76.19999999999999,38.273182899999995],[-76.19999999999999,38.27258499999999],[-76.20089300000001,38.27258499999999],[-76.201098,38.27258499999999],[-76.201344,38.27258499999999],[-76.2013442,38.27258499999999],[-76.22189889999999,38.27258499999999],[-76.22309389999998,38.27258499999999],[-76.22877010000002,38.27258499999999],[-76.22888469999998,38.27258499999999],[-76.23625550000003,38.27258499999999],[-76.2362559,38.27258499999999],[-76.23643070000003,38.27258499999999],[-76.2368002,38.27258499999999],[-76.24409689999999,38.27258499999999],[-76.24421180000002,38.27258499999999],[-76.24421189999998,38.27258499999999],[-76.24593299999998,38.27258499999999],[-76.24593320000002,38.27258499999999],[-76.24762479999998,38.27258499999999],[-76.24762659999999,38.27258499999999],[-76.25001079999998,38.27258499999999],[-76.25001120000002,38.27258499999999],[-76.2513942,38.27258499999999],[-76.2523574,38.27258499999999],[-76.25235880000002,38.27258499999999],[-76.25280170000002,38.27258499999999],[-76.2661425,38.27258499999999],[-76.2675817,38.27258499999999],[-76.2693946,38.27258499999999],[-76.26981,38.27258499999999],[-76.27029579999999,38.27258499999999],[-76.27041939999998,38.27258499999999],[-76.27142459999999,38.27258499999999],[-76.27372109999999,38.27258499999999],[-76.291379,38.27258499999999],[-76.30694,38.27258499999999],[-76.30888420000002,38.27258499999999],[-76.34497060000001,38.27258499999999],[-76.34631309999997,38.27258499999999],[-76.34639010000001,38.27258499999999],[-76.3464371,38.27258499999999],[-76.34880729999998,38.27258499999999],[-76.3522989,38.27258499999999],[-76.35499999999999,38.27258499999999],[-76.35499999999999,38.39999999999998],[-76.33108490000001,38.39999999999998]]]}},{"type":"Feature","properties":{},"geometry":{"type":"Polygon","coordinates":[[[-76.12753120000002,38.42823040000002],[-76.12400980000001,38.428227400000026],[-76.1149676,38.4282197],[-76.1145869,38.42821939999999],[-76.11139830000002,38.42821670000001],[-76.10411729999998,38.42821049999998],[-76.09586039999999,38.428203499999995],[-76.09493259999999,38.428202699999986],[-76.09364740000001,38.42820160000002],[-76.09066139999999,38.42819909999997],[-76.0826543,38.42819229999998],[-76.07789539999999,38.42818820000002],[-76.07482950000002,38.428185600000006],[-76.07446249999998,38.428185299999996],[-76.0725655,38.42818369999998],[-76.06517539999999,38.42817739999998],[-76.06250799999998,38.4281752],[-76.06208520000001,38.42817480000002],[-76.06140490000001,38.4281742],[-76.06050470000002,38.428173500000014],[-76.03287230000001,38.42815000000002],[-76.03287230000001,38.422902299999976],[-76.03287230000001,38.41798690000002],[-76.03287230000001,38.41664020000002],[-76.03287230000001,38.41591119999998],[-76.03287230000001,38.411542499999996],[-76.03287230000001,38.411170700000014],[-76.03287230000001,38.40981310000001],[-76.03287230000001,38.409445300000016],[-76.03287230000001,38.4060116],[-76.03287230000001,38.4052542],[-76.03287230000001,38.404327799999976],[-76.03279079999999,38.404327799999976],[-76.03044679999999,38.404327799999976],[-76.03013600000003,38.404327799999976],[-76.0298219,38.404327799999976],[-76.0279243,38.404327799999976],[-76.0279137,38.404327799999976],[-76.02745650000003,38.404327799999976],[-76.0271803,38.404327799999976],[-76.02278719999998,38.404327799999976],[-76.02163569999999,38.404327799999976],[-76.01693119999999,38.404327799999976],[-76.01466599999998,38.404327799999976],[-76.0107256,38.404327799999976],[-76.00747410000002,38.404327799999976],[-76.00274130000003,38.404327799999976],[-76.0025397,38.404327799999976],[-76.00190650000002,38.404327799999976],[-76.00186079999997,38.404327799999976],[-76.0018384,38.404327799999976],[-75.9992193,38.404327799999976],[-75.99870170000003,38.404327799999976],[-75.99588369999998,38.404327799999976],[-75.99563840000002,38.404327799999976],[-75.99504580000001,38.404327799999976],[-75.99475109999997,38.404327799999976],[-75.99037720000001,38.404327799999976],[-75.9891146,38.404327799999976],[-75.98843779999999,38.404327799999976],[-75.9882412,38.404327799999976],[-75.98720759999998,38.404327799999976],[-75.9830111,38.404327799999976],[-75.9830111,38.403809799999976],[-75.9830111,38.40153070000002],[-75.9830111,38.39999999999998],[-75.98364450000003,38.39999999999998],[-75.98550610000001,38.39999999999998],[-75.98594100000003,38.39999999999998],[-75.99061180000001,38.39999999999998],[-75.99525870000002,38.39999999999998],[-75.9982445,38.39999999999998],[-76.00025570000003,38.39999999999998],[-76.00116750000001,38.39999999999998],[-76.0287851,38.39999999999998],[-76.03249019999998,38.39999999999998],[-76.03710210000003,38.39999999999998],[-76.04024509999999,38.39999999999998],[-76.04118269999998,38.39999999999998],[-76.0459118,38.39999999999998],[-76.04854219999999,38.39999999999998],[-76.04876510000003,38.39999999999998],[-76.0539387,38.39999999999998],[-76.05450880000001,38.39999999999998],[-76.05524910000003,38.39999999999998],[-76.0557407,38.39999999999998],[-76.05742600000002,38.39999999999998],[-76.05878790000003,38.39999999999998],[-76.05886930000003,38.39999999999998],[-76.0599115,38.39999999999998],[-76.0616359,38.39999999999998],[-76.06331569999998,38.39999999999998],[-76.06650880000001,38.39999999999998],[-76.06660019999998,38.39999999999998],[-76.0667224,38.39999999999998],[-76.0680628,38.39999999999998],[-76.0723658,38.39999999999998],[-76.07296980000001,38.39999999999998],[-76.07573070000001,38.39999999999998],[-76.08461119999998,38.39999999999998],[-76.08533069999999,38.39999999999998],[-76.09876700000001,38.39999999999998],[-76.10093890000002,38.39999999999998],[-76.10590259999998,38.39999999999998],[-76.1303001,38.39999999999998],[-76.13095270000002,38.39999999999998],[-76.1333788,38.39999999999998],[-76.1343928,38.39999999999998],[-76.15730869999999,38.39999999999998],[-76.1592645,38.39999999999998],[-76.193804,38.39999999999998],[-76.193804,38.40338989999998],[-76.17862580000002,38.40339979999999],[-76.15699160000003,38.403413899999975],[-76.15721109999998,38.4282556],[-76.13458700000001,38.4282364],[-76.12753120000002,38.42823040000002]]]}},{"type":"Feature","properties":{},"geometry":{"type":"Polygon","coordinates":[[[-75.8665522,38.39999999999998],[-75.86723260000002,38.39999999999998],[-75.8671268,38.400424999999984],[-75.86705949999998,38.40069519999997],[-75.8670497,38.400734399999976],[-75.86703210000002,38.400805100000014],[-75.86700489999998,38.4009145],[-75.8669774,38.401024800000016],[-75.86691719999999,38.401266599999985],[-75.86579019999999,38.40579170000001],[-75.86545699999999,38.407129499999996],[-75.86540359999998,38.40734409999999],[-75.86498340000003,38.409031200000015],[-75.84562499999998,38.486761100000024],[-75.84072500000002,38.48678840000002],[-75.84072500000002,38.550113899999985],[-75.79966109999998,38.550113899999985],[-75.79966109999998,38.55345519999997],[-75.77924230000002,38.553497900000025],[-75.77784329999997,38.553500799999995],[-75.77427870000002,38.553508299999976],[-75.77385029999999,38.55350920000001],[-75.77309020000001,38.553510800000026],[-75.77276799999999,38.55351150000001],[-75.76661100000001,38.55352429999999],[-75.76317189999997,38.55353150000002],[-75.72398340000001,38.553613299999995],[-75.72398340000001,38.56605000000002],[-75.71836660000002,38.56605000000002],[-75.7029968,38.57809279999998],[-75.68979330000002,38.58843839999997],[-75.66664889999998,38.606573000000026],[-75.64437370000002,38.62402659999998],[-75.64129559999998,38.626438500000006],[-75.63913609999997,38.6281305],[-75.63908049999998,38.6456278],[-75.62694340000002,38.6456278],[-75.60531229999998,38.6456278],[-75.60458879999999,38.6456278],[-75.60529659999997,38.6428229],[-75.60583209999999,38.64070079999999],[-75.60608259999998,38.639707999999985],[-75.60637100000002,38.638565200000016],[-75.60645640000001,38.638228500000025],[-75.62363540000001,38.5704599],[-75.6239597,38.56918080000003],[-75.62225860000001,38.5705117],[-75.6213861,38.571194400000024],[-75.5634167,38.571194400000024],[-75.56718610000001,38.556449999999984],[-75.58770149999998,38.556449999999984],[-75.62684999999999,38.556449999999984],[-75.62684999999999,38.559916699999974],[-75.628713,38.559916699999974],[-75.6289706,38.559916699999974],[-75.63211869999998,38.559916699999974],[-75.63267289999999,38.559916699999974],[-75.68530829999997,38.559916699999974],[-75.68805579999997,38.5576221],[-75.6891,38.55675009999999],[-75.69215000000003,38.554202799999985],[-75.69214950000003,38.55416330000003],[-75.6920111,38.54340830000001],[-75.7078055,38.54340830000001],[-75.7078055,38.53905120000002],[-75.7078055,38.536630600000024],[-75.7397747,38.511572899999976],[-75.75559629999998,38.4991718],[-75.77154030000003,38.486674600000015],[-75.74958609999999,38.486761100000024],[-75.74958609999999,38.46236440000001],[-75.74958609999999,38.461214900000016],[-75.74958609999999,38.4601222],[-75.74958609999999,38.46004210000001],[-75.74958609999999,38.39999999999998],[-75.79113949999999,38.39999999999998],[-75.79288810000003,38.39999999999998],[-75.79383230000002,38.39999999999998],[-75.795004,38.39999999999998],[-75.8189643,38.39999999999998],[-75.82595090000001,38.39999999999998],[-75.82859760000002,38.39999999999998],[-75.82861530000002,38.39999999999998],[-75.8291547,38.39999999999998],[-75.82925169999999,38.39999999999998],[-75.82972669999998,38.39999999999998],[-75.83154710000002,38.39999999999998],[-75.83208939999997,38.39999999999998],[-75.8372043,38.39999999999998],[-75.83784020000002,38.39999999999998],[-75.84308579999998,38.39999999999998],[-75.84345309999998,38.39999999999998],[-75.84755139999999,38.39999999999998],[-75.84868310000002,38.39999999999998],[-75.85062720000002,38.39999999999998],[-75.85106359999997,38.39999999999998],[-75.85131059999998,38.39999999999998],[-75.8541027,38.39999999999998],[-75.85751119999998,38.39999999999998],[-75.85914229999997,38.39999999999998],[-75.8595368,38.39999999999998],[-75.86311649999999,38.39999999999998],[-75.86381790000002,38.39999999999998],[-75.8642494,38.39999999999998],[-75.86487670000002,38.39999999999998],[-75.86598300000003,38.39999999999998],[-75.8665522,38.39999999999998]]]}},{"type":"Feature","properties":{},"geometry":{"type":"Polygon","coordinates":[[[-76.21633300000002,38.11755310000001],[-76.21633300000002,38.12375309999999],[-76.21633300000002,38.12678519999997],[-76.21633300000002,38.13654600000001],[-76.21633300000002,38.137500699999975],[-76.21633300000002,38.16495400000002],[-76.21633300000002,38.17900400000002],[-76.21633300000002,38.189177099999995],[-76.21633300000002,38.19746120000002],[-76.21633300000002,38.2050466],[-76.21633300000002,38.20527809999999],[-76.21633300000002,38.205399],[-76.21633300000002,38.2058763],[-76.21633300000002,38.2103649],[-76.21633300000002,38.21162880000003],[-76.21633300000002,38.21182920000001],[-76.21633300000002,38.2215003],[-76.21633300000002,38.22169059999999],[-76.21633300000002,38.230540899999994],[-76.21633300000002,38.23254400000002],[-76.21633300000002,38.233610999999996],[-76.20786520000001,38.233610999999996],[-76.2019252,38.233610999999996],[-76.19999999999999,38.233610999999996],[-76.19999999999999,38.22996660000001],[-76.19999999999999,38.2283008],[-76.19999999999999,38.22372109999998],[-76.19999999999999,38.213740299999984],[-76.19999999999999,38.20506999999998],[-76.19999999999999,38.19764529999998],[-76.19999999999999,38.19373330000002],[-76.19999999999999,38.190218300000026],[-76.19999999999999,38.18931730000003],[-76.19999999999999,38.13372820000001],[-76.19999999999999,38.127510900000004],[-76.19999999999999,38.12683989999999],[-76.19999999999999,38.12282879999998],[-76.19999999999999,38.11316820000002],[-76.19999999999999,38.10000000000002],[-76.19999999999999,38.095],[-76.21633300000002,38.095],[-76.21633300000002,38.11755310000001]]]}},{"type":"Feature","properties":{},"geometry":{"type":"Polygon","coordinates":[[[-76.34880729999998,38.27258499999999],[-76.3464371,38.27258499999999],[-76.30888850000002,38.27258499999999],[-76.2915231,38.27258499999999],[-76.27376770000001,38.27258499999999],[-76.27148890000001,38.27258499999999],[-76.27029579999999,38.27258499999999],[-76.26990540000003,38.27258499999999],[-76.2692725,38.27258499999999],[-76.26919090000001,38.27258499999999],[-76.25285100000002,38.27258499999999],[-76.2513735,38.27258499999999],[-76.24450630000001,38.27258499999999],[-76.23680389999998,38.27258499999999],[-76.23630279999998,38.27258499999999],[-76.2282386,38.27258499999999],[-76.22188119999998,38.27258499999999],[-76.20166289999997,38.27258499999999],[-76.19999999999999,38.27258499999999],[-76.19999999999999,38.26931350000001],[-76.19999999999999,38.249051099999974],[-76.19999999999999,38.2427945],[-76.19999999999999,38.23707439999998],[-76.19999999999999,38.233610999999996],[-76.2019252,38.233610999999996],[-76.20754749999998,38.233610999999996],[-76.21633300000002,38.233610999999996],[-76.21633300000002,38.2326008],[-76.21633300000002,38.230699800000025],[-76.21633300000002,38.2215003],[-76.21633300000002,38.21182920000001],[-76.21633300000002,38.21162880000003],[-76.21633300000002,38.2103649],[-76.21633300000002,38.2058763],[-76.21633300000002,38.205399],[-76.21633300000002,38.20527809999999],[-76.21633300000002,38.2050466],[-76.21633300000002,38.19746120000002],[-76.21633300000002,38.189177099999995],[-76.21633300000002,38.17900400000002],[-76.21633300000002,38.17848780000003],[-76.21633300000002,38.16508399999998],[-76.21633300000002,38.16495400000002],[-76.21633300000002,38.137500699999975],[-76.21633300000002,38.13654600000001],[-76.21633300000002,38.1365356],[-76.21633300000002,38.12678519999997],[-76.21633300000002,38.12375309999999],[-76.21633300000002,38.11755310000001],[-76.21633300000002,38.095],[-76.35499999999999,38.095],[-76.35499999999999,38.27258499999999],[-76.34880729999998,38.27258499999999]]]}}]}