{"type":"FeatureCollection","features":[{"type":"Feature","properties":{},"geometry":{"type":"Polygon","coordinates":[[[-75.30000000000001,38.69999999999999],[-75.22500000000002,38.69999999999999],[-75.16419910000002,38.69999999999999],[-75.16057799999999,38.69999999999999],[-75.15931849999998,38.69999999999999],[-75.15832469999998,38.69999999999999],[-75.14999999999998,38.69999999999999],[-75.14898290000002,38.69999999999999],[-75.14853419999997,38.69999999999999],[-75.1387815,38.69999999999999],[-75.13808089999998,38.69999999999999],[-75.13790510000001,38.69999999999999],[-75.12864869999999,38.69999999999999],[-75.1234581,38.69999999999999],[-75.12038569999999,38.69999999999999],[-75.11957289999998,38.69999999999999],[-75.1124711,38.69999999999999],[-75.11199049999999,38.69999999999999],[-75.11042939999999,38.69999999999999],[-75.10944219999999,38.69999999999999],[-75.10788889999998,38.69999999999999],[-75.1064614,38.69999999999999],[-75.094246,38.69999999999999],[-75.09378040000001,38.69999999999999],[-75.09326570000002,38.69999999999999],[-75.0907843,38.69999999999999],[-75.08976030000002,38.69999999999999],[-75.07816550000001,38.69999999999999],[-75.07499999999999,38.69999999999999],[-75.0723936,38.69999999999999],[-75.07212659999999,38.69999999999999],[-75.07193230000001,38.69999999999999],[-75.07087489999998,38.69999999999999],[-75.06817009999997,38.69999999999999],[-75.06094969999998,38.69999999999999],[-75.0191944,38.69999999999999],[-75.01856079999999,38.69999999999999],[-75.0161723,38.69999999999999],[-75.00912920000002,38.69999999999999],[-75.0086594,38.69999999999999],[-75.0,38.69999999999999],[-74.9996294,38.69999999999999],[-74.9996294,38.6837041],[-74.9996294,38.681814900000006],[-74.9996294,38.680599099999995],[-74.9996294,38.66665280000001],[-74.9996294,38.629418199999975],[-74.9996294,38.628945699999974],[-74.9996294,38.628626199999985],[-74.9996294,38.62845379999999],[-74.9996294,38.6262567],[-74.9996294,38.62474270000001],[-74.9996294,38.55469670000002],[-74.9996294,38.54178619999999],[-74.9996294,38.54178030000003],[-74.99976270000002,38.54178030000003],[-75.0135793,38.54178030000003],[-75.01834100000002,38.54178030000003],[-75.0408567,38.54178030000003],[-75.04498319999999,38.54178030000003],[-75.0481375,38.54178030000003],[-75.05137930000001,38.54178030000003],[-75.05236450000001,38.54178030000003],[-75.05292809999997,38.54178030000003],[-75.05293719999997,38.54178030000003],[-75.05296800000002,38.54178030000003],[-75.05310859999997,38.54178030000003],[-75.05334199999999,38.54178030000003],[-75.0537175,38.54178030000003],[-75.0538166,38.54178030000003],[-75.05457430000001,38.54178030000003],[-75.05459669999999,38.54178030000003],[-75.0574676,38.54178030000003],[-75.05960479999999,38.54178030000003],[-75.06102370000002,38.54178030000003],[-75.06125420000001,38.54178030000003],[-75.06159680000002,38.54178030000003],[-75.06192420000002,38.54178030000003],[-75.06303439999999,38.54178030000003],[-75.06379700000002,38.54178030000003],[-75.06384960000003,38.54178030000003],[-75.06608690000002,38.54178030000003],[-75.06632459999997,38.54178030000003],[-75.066349,38.54178030000003],[-75.06649479999999,38.54178030000003],[-75.0720748,38.54178030000003],[-75.07231580000001,38.54178030000003],[-75.0798193,38.54178030000003],[-75.08007420000001,38.54178030000003],[-75.08017339999998,38.54178030000003],[-75.08043939999999,38.54178030000003],[-75.08051999999998,38.54178030000003],[-75.1962911,38.54178030000003],[-75.19645129999998,38.54178030000003],[-75.1965831,38.54178030000003],[-75.19774949999999,38.54178030000003],[-75.25,38.54178030000003],[-75.29511739999998,38.54178030000003],[-75.30499999999999,38.54178030000003],[-75.30499999999999,38.69999999999999],[-75.30000000000001,38.69999999999999]]]}},{"type":"Feature","properties":{},"geometry":{"type":"Polygon","coordinates":[[[-75.30000000000001,38.69999999999999],[-75.30000000000001,38.77499999999998],[-75.28972570000002,38.77499999999998],[-75.289087,38.77499999999998],[-75.2515057,38.77499999999998],[-75.25122299999998,38.77499999999998],[-75.2509336,38.77499999999998],[-75.22500000000002,38.77499999999998],[-75.22500000000002,38.69999999999999],[-75.30000000000001,38.69999999999999]]]}},{"type":"Feature","properties":{},"geometry":{"type":"Polygon","coordinates":[[[-75.16419910000002,38.69999999999999],[-75.22500000000002,38.69999999999999],[-75.22500000000002,38.77499999999998],[-75.19574970000002,38.77499999999998],[-75.19523270000002,38.77499999999998],[-75.19358729999999,38.77499999999998],[-75.19342940000001,38.77499999999998],[-75.19317180000002,38.77499999999998],[-75.19286929999998,38.77499999999998],[-75.19227540000003,38.77499999999998],[-75.1920973,38.77499999999998],[-75.1910097,38.77499999999998],[-75.18921990000001,38.77499999999998],[-75.18825520000001,38.77499999999998],[-75.18754810000001,38.77499999999998],[-75.18716280000001,38.77499999999998],[-75.1810893,38.77499999999998],[-75.17431640000001,38.77499999999998],[-75.17152779999998,38.77499999999998],[-75.17123830000003,38.77499999999998],[-75.16896489999999,38.77499999999998],[-75.14999999999998,38.77499999999998],[-75.14999999999998,38.75235980000002],[-75.14999999999998,38.69999999999999],[-75.15832469999998,38.69999999999999],[-75.15931849999998,38.69999999999999],[-75.16057799999999,38.69999999999999],[-75.16419910000002,38.69999999999999]]]}},{"type":"Feature","properties":{},"geometry":{"type":"Polygon","coordinates":[[[-75.14898290000002,38.69999999999999],[-75.14999999999998,38.69999999999999],[-75.14999999999998,38.75235980000002],[-75.14999999999998,38.77499999999998],[-75.13663079999998,38.77499999999998],[-75.13662720000002,38.77499999999998],[-75.13651800000002,38.77499999999998],[-75.136369,38.77499999999998],[-75.1363217,38.77499999999998],[-75.13584200000003,38.77499999999998],[-75.13566479999997,38.77499999999998],[-75.13560810000001,38.77499999999998],[-75.1354988,38.77499999999998],[-75.13549210000002,38.77499999999998],[-75.13229560000002,38.77499999999998],[-75.13206050000002,38.77499999999998],[-75.13101,38.77499999999998],[-75.10005940000002,38.77499999999998],[-75.08389879999999,38.77499999999998],[-75.0835763,38.77499999999998],[-75.08244930000001,38.77499999999998],[-75.08177840000002,38.77499999999998],[-75.08072820000001,38.77499999999998],[-75.07543229999999,38.77499999999998],[-75.07540999999998,38.77499999999998],[-75.07499999999999,38.77499999999998],[-75.07499999999999,38.77361459999997],[-75.07499999999999,38.773463900000024],[-75.07499999999999,38.773039600000004],[-75.07499999999999,38.7717763],[-75.07499999999999,38.76017539999998],[-75.07499999999999,38.75178570000003],[-75.07499999999999,38.72431369999998],[-75.07499999999999,38.72186319999997],[-75.07499999999999,38.7202977],[-75.07499999999999,38.718185800000015],[-75.07499999999999,38.71639379999999],[-75.07499999999999,38.7085505],[-75.07499999999999,38.70299269999998],[-75.07499999999999,38.69999999999999],[-75.07816550000001,38.69999999999999],[-75.08976030000002,38.69999999999999],[-75.0907843,38.69999999999999],[-75.09326570000002,38.69999999999999],[-75.09378040000001,38.69999999999999],[-75.094246,38.69999999999999],[-75.1064614,38.69999999999999],[-75.10788889999998,38.69999999999999],[-75.10944219999999,38.69999999999999],[-75.11042939999999,38.69999999999999],[-75.11199049999999,38.69999999999999],[-75.1124711,38.69999999999999],[-75.11957289999998,38.69999999999999],[-75.12038569999999,38.69999999999999],[-75.1234581,38.69999999999999],[-75.12864869999999,38.69999999999999],[-75.13790510000001,38.69999999999999],[-75.13808089999998,38.69999999999999],[-75.1387815,38.69999999999999],[-75.14853419999997,38.69999999999999],[-75.14898290000002,38.69999999999999]]]}},{"type":"Feature","properties":{},"geometry":{"type":"Polygon","coordinates":[[[-75.0723936,38.69999999999999],[-75.07499999999999,38.69999999999999],[-75.07499999999999,38.70299269999998],[-75.07499999999999,38.7085505],[-75.07499999999999,38.71639379999999],[-75.07499999999999,38.718185800000015],[-75.07499999999999,38.7202977],[-75.07499999999999,38.72186319999997],[-75.07499999999999,38.72431369999998],[-75.07499999999999,38.75178570000003],[-75.07499999999999,38.76017539999998],[-75.07499999999999,38.7717763],[-75.07499999999999,38.773039600000004],[-75.07499999999999,38.773463900000024],[-75.07499999999999,38.77361459999997],[-75.07499999999999,38.77499999999998],[-75.07375619999999,38.77499999999998],[-75.07165930000002,38.77499999999998],[-75.07038590000002,38.77499999999998],[-75.06968289999998,38.77499999999998],[-75.0671016,38.77499999999998],[-75.06377120000002,38.77499999999998],[-75.05712199999999,38.77499999999998],[-75.0564956,38.77499999999998],[-75.05566049999999,38.77499999999998],[-75.03352369999999,38.77499999999998],[-75.01805730000001,38.77499999999998],[-75.0175926,38.77499999999998],[-75.01618710000002,38.77499999999998],[-75.0,38.77499999999998],[-75.0,38.75991749999997],[-75.0,38.72843799999998],[-75.0,38.71920460000001],[-75.0,38.71371859999999],[-75.0,38.69999999999999],[-75.0086594,38.69999999999999],[-75.00912920000002,38.69999999999999],[-75.0161723,38.69999999999999],[-75.01856079999999,38.69999999999999],[-75.0191944,38.69999999999999],[-75.06094969999998,38.69999999999999],[-75.06817009999997,38.69999999999999],[-75.07087489999998,38.69999999999999],[-75.07193230000001,38.69999999999999],[-75.07212659999999,38.69999999999999],[-75.0723936,38.69999999999999]]]}},{"type":"Feature","properties":{},"geometry":{"type":"Polygon","coordinates":[[[-74.9996294,38.69999999999999],[-75.0,38.69999999999999],[-75.0,38.71371859999999],[-75.0,38.713777400000026],[-75.0,38.71908789999998],[-75.0,38.71920460000001],[-75.0,38.72843799999998],[-75.0,38.73202409999999],[-75.0,38.73537390000001],[-75.0,38.75469579999998],[-75.0,38.759471899999994],[-75.0,38.75991749999997],[-75.0,38.77499999999998],[-74.9996294,38.77499999999998],[-74.98790819999999,38.77499999999998],[-74.98200800000001,38.77499999999998],[-74.96766020000001,38.77499999999998],[-74.96063889999999,38.77499999999998],[-74.9477488,38.77499999999998],[-74.94213710000002,38.77499999999998],[-74.9361576,38.77499999999998],[-74.93063710000001,38.77499999999998],[-74.92500000000001,38.77499999999998],[-74.92500000000001,38.772160799999995],[-74.92500000000001,38.75696599999998],[-74.92500000000001,38.75443769999998],[-74.92500000000001,38.75248099999999],[-74.92500000000001,38.75137030000002],[-74.92500000000001,38.738059799999974],[-74.92500000000001,38.737467200000026],[-74.92500000000001,38.73433970000002],[-74.92500000000001,38.70708589999998],[-74.92500000000001,38.69999999999999],[-74.92643529999998,38.69999999999999],[-74.94432929999999,38.69999999999999],[-74.9702742,38.69999999999999],[-74.9879975,38.69999999999999],[-74.9996294,38.69999999999999]]]}},{"type":"Feature","properties":{},"geometry":{"type":"Polygon","coordinates":[[[-74.91821290000001,38.69999999999999],[-74.92500000000001,38.69999999999999],[-74.92500000000001,38.70708589999998],[-74.92500000000001,38.73433970000002],[-74.92500000000001,38.737467200000026],[-74.92500000000001,38.738059799999974],[-74.92500000000001,38.75137030000002],[-74.92500000000001,38.75248099999999],[-74.92500000000001,38.75443769999998],[-74.92500000000001,38.75696599999998],[-74.92500000000001,38.772160799999995],[-74.92500000000001,38.77499999999998],[-74.85000000000002,38.77499999999998],[-74.85000000000002,38.77205509999999],[-74.85000000000002,38.75958650000001],[-74.85000000000002,38.753533600000026],[-74.85000000000002,38.7489736],[-74.85000000000002,38.720348],[-74.85000000000002,38.71718800000002],[-74.85000000000002,38.69999999999999],[-74.86938409999999,38.69999999999999],[-74.88547749999998,38.69999999999999],[-74.88852259999999,38.69999999999999],[-74.88905460000001,38.69999999999999],[-74.90195340000002,38.69999999999999],[-74.91821290000001,38.69999999999999]]]}},{"type":"Feature","properties":{},"geometry":{"type":"Polygon","coordinates":[[[-74.81482160000002,38.69999999999999],[-74.81528739999999,38.69999999999999],[-74.83132410000002,38.69999999999999],[-74.85000000000002,38.69999999999999],[-74.85000000000002,38.71718800000002],[-74.85000000000002,38.720348],[-74.85000000000002,38.7489736],[-74.85000000000002,38.753533600000026],[-74.85000000000002,38.75958650000001],[-74.85000000000002,38.77205509999999],[-74.85000000000002,38.77499999999998],[-74.83107580000001,38.77499999999998],[-74.7754976,38.77499999999998],[-74.77499999999998,38.77499999999998],[-74.77499999999998,38.771949500000005],[-74.77499999999998,38.76283999999998],[-74.77499999999998,38.750101099999995],[-74.77499999999998,38.74858879999999],[-74.77499999999998,38.74820540000002],[-74.77499999999998,38.74765930000001],[-74.77499999999998,38.742197499999975],[-74.77499999999998,38.73889809999997],[-74.77499999999998,38.72890269999999],[-74.77499999999998,38.72376459999998],[-74.77499999999998,38.69999999999999],[-74.79956729999998,38.69999999999999],[-74.80729050000002,38.69999999999999],[-74.81478859999999,38.69999999999999],[-74.81482160000002,38.69999999999999]]]}},{"type":"Feature","properties":{},"geometry":{"type":"Polygon","coordinates":[[[-74.77499999999998,38.72376459999998],[-74.77499999999998,38.72890269999999],[-74.77499999999998,38.73889809999997],[-74.77499999999998,38.742197499999975],[-74.77499999999998,38.74765930000001],[-74.77499999999998,38.74820540000002],[-74.77499999999998,38.74858879999999],[-74.77499999999998,38.750101099999995],[-74.77499999999998,38.76283999999998],[-74.77499999999998,38.771949500000005],[-74.77499999999998,38.77499999999998],[-74.77083299999998,38.77499999999998],[-74.7572472,38.77499999999998],[-74.7406641,38.77499999999998],[-74.73933629999999,38.77499999999998],[-74.71137499999998,38.77499999999998],[-74.71058770000002,38.77499999999998],[-74.69999999999999,38.77499999999998],[-74.69999999999999,38.77184390000002],[-74.69999999999999,38.75706550000001],[-74.69999999999999,38.753771400000005],[-74.69999999999999,38.74682840000003],[-74.69999999999999,38.74666860000002],[-74.69999999999999,38.69999999999999],[-74.70670790000003,38.69999999999999],[-74.77499999999998,38.69999999999999],[-74.77499999999998,38.72376459999998]]]}},{"type":"Feature","properties":{},"geometry":{"type":"Polygon","coordinates":[[[-75.28972570000002,38.77499999999998],[-75.30000000000001,38.77499999999998],[-75.30000000000001,38.7755406],[-75.30000000000001,38.77648370000003],[-75.30000000000001,38.77686749999998],[-75.30000000000001,38.77815650000002],[-75.30000000000001,38.85000000000002],[-75.2651505,38.85000000000002],[-75.26251710000003,38.85000000000002],[-75.26216620000002,38.85000000000002],[-75.25796860000003,38.85000000000002],[-75.25779720000003,38.85000000000002],[-75.25231739999998,38.85000000000002],[-75.25231289999999,38.85000000000002],[-75.2518986,38.85000000000002],[-75.2513581,38.85000000000002],[-75.2512496,38.85000000000002],[-75.25066329999999,38.85000000000002],[-75.25033530000002,38.85000000000002],[-75.2494878,38.85000000000002],[-75.2494112,38.85000000000002],[-75.2459457,38.85000000000002],[-75.24580220000001,38.85000000000002],[-75.2456793,38.85000000000002],[-75.2441053,38.85000000000002],[-75.24076450000001,38.85000000000002],[-75.24065990000003,38.85000000000002],[-75.2405655,38.85000000000002],[-75.23771979999998,38.85000000000002],[-75.23691209999998,38.85000000000002],[-75.22680309999998,38.85000000000002],[-75.22500000000002,38.85000000000002],[-75.22500000000002,38.84871420000002],[-75.22500000000002,38.839862600000004],[-75.22500000000002,38.83953700000001],[-75.22500000000002,38.8361774],[-75.22500000000002,38.83600910000001],[-75.22500000000002,38.83523439999999],[-75.22500000000002,38.835000200000025],[-75.22500000000002,38.8336736],[-75.22500000000002,38.83354400000002],[-75.22500000000002,38.83317699999998],[-75.22500000000002,38.83286650000002],[-75.22500000000002,38.83253669999999],[-75.22500000000002,38.83148590000002],[-75.22500000000002,38.8310156],[-75.22500000000002,38.83014539999999],[-75.22500000000002,38.82360540000002],[-75.22500000000002,38.81974789999998],[-75.22500000000002,38.81957649999998],[-75.22500000000002,38.81896499999999],[-75.22500000000002,38.81882519999999],[-75.22500000000002,38.809963400000015],[-75.22500000000002,38.80928879999999],[-75.22500000000002,38.8057857],[-75.22500000000002,38.80546859999998],[-75.22500000000002,38.800119300000006],[-75.22500000000002,38.77499999999998],[-75.2509336,38.77499999999998],[-75.25122299999998,38.77499999999998],[-75.2515057,38.77499999999998],[-75.289087,38.77499999999998],[-75.28972570000002,38.77499999999998]]]}},{"type":"Feature","properties":{},"geometry":{"type":"Polygon","coordinates":[[[-75.19574970000002,38.77499999999998],[-75.22500000000002,38.77499999999998],[-75.22500000000002,38.800119300000006],[-75.22500000000002,38.80546859999998],[-75.22500000000002,38.8057857],[-75.22500000000002,38.80928879999999],[-75.22500000000002,38.809963400000015],[-75.22500000000002,38.81882519999999],[-75.22500000000002,38.81896499999999],[-75.22500000000002,38.81957649999998],[-75.22500000000002,38.81974789999998],[-75.22500000000002,38.82360540000002],[-75.22500000000002,38.83014539999999],[-75.22500000000002,38.8310156],[-75.22500000000002,38.83148590000002],[-75.22500000000002,38.83253669999999],[-75.22500000000002,38.83286650000002],[-75.22500000000002,38.83317699999998],[-75.22500000000002,38.83354400000002],[-75.22500000000002,38.8336736],[-75.22500000000002,38.835000200000025],[-75.22500000000002,38.83523439999999],[-75.22500000000002,38.83600910000001],[-75.22500000000002,38.8361774],[-75.22500000000002,38.83953700000001],[-75.22500000000002,38.839862600000004],[-75.22500000000002,38.84871420000002],[-75.22500000000002,38.85000000000002],[-75.200064,38.85000000000002],[-75.19820040000002,38.85000000000002],[-75.18092419999999,38.85000000000002],[-75.17415799999998,38.85000000000002],[-75.16774950000001,38.85000000000002],[-75.1666356,38.85000000000002],[-75.1584365,38.85000000000002],[-75.15130729999998,38.85000000000002],[-75.14999999999998,38.85000000000002],[-75.14999999999998,38.84830290000002],[-75.14999999999998,38.8434924],[-75.14999999999998,38.8422463],[-75.14999999999998,38.84058240000002],[-75.14999999999998,38.839624000000015],[-75.14999999999998,38.825906499999974],[-75.14999999999998,38.821318700000006],[-75.14999999999998,38.7961942],[-75.14999999999998,38.78922269999998],[-75.14999999999998,38.789218000000005],[-75.14999999999998,38.78894389999999],[-75.14999999999998,38.786978799999986],[-75.14999999999998,38.78660000000002],[-75.14999999999998,38.78656489999997],[-75.14999999999998,38.78638339999998],[-75.14999999999998,38.784200999999996],[-75.14999999999998,38.7837624],[-75.14999999999998,38.78373049999999],[-75.14999999999998,38.7833023],[-75.14999999999998,38.783260299999995],[-75.14999999999998,38.781827899999996],[-75.14999999999998,38.78177119999998],[-75.14999999999998,38.78176580000002],[-75.14999999999998,38.781227100000024],[-75.14999999999998,38.78111050000001],[-75.14999999999998,38.7810642],[-75.14999999999998,38.78094570000002],[-75.14999999999998,38.78092800000002],[-75.14999999999998,38.7805692],[-75.14999999999998,38.78048239999998],[-75.14999999999998,38.78034509999998],[-75.14999999999998,38.78031179999999],[-75.14999999999998,38.78008940000001],[-75.14999999999998,38.77499999999998],[-75.16896489999999,38.77499999999998],[-75.17123830000003,38.77499999999998],[-75.17152779999998,38.77499999999998],[-75.17431640000001,38.77499999999998],[-75.1810893,38.77499999999998],[-75.18716280000001,38.77499999999998],[-75.18754810000001,38.77499999999998],[-75.18825520000001,38.77499999999998],[-75.18921990000001,38.77499999999998],[-75.1910097,38.77499999999998],[-75.1920973,38.77499999999998],[-75.19227540000003,38.77499999999998],[-75.19286929999998,38.77499999999998],[-75.19317180000002,38.77499999999998],[-75.19342940000001,38.77499999999998],[-75.19358729999999,38.77499999999998],[-75.19523270000002,38.77499999999998],[-75.19574970000002,38.77499999999998]]]}},{"type":"Feature","properties":{},"geometry":{"type":"Polygon","coordinates":[[[-75.13663079999998,38.77499999999998],[-75.14999999999998,38.77499999999998],[-75.14999999999998,38.78008940000001],[-75.14999999999998,38.78031179999999],[-75.14999999999998,38.78034509999998],[-75.14999999999998,38.7805692],[-75.14999999999998,38.78092800000002],[-75.14999999999998,38.78111050000001],[-75.14999999999998,38.781227100000024],[-75.14999999999998,38.78176580000002],[-75.14999999999998,38.78177119999998],[-75.14999999999998,38.781827899999996],[-75.14999999999998,38.783260299999995],[-75.14999999999998,38.7833023],[-75.14999999999998,38.78373049999999],[-75.14999999999998,38.7837624],[-75.14999999999998,38.784200999999996],[-75.14999999999998,38.78638339999998],[-75.14999999999998,38.78656489999997],[-75.14999999999998,38.786978799999986],[-75.14999999999998,38.78922269999998],[-75.14999999999998,38.7961942],[-75.14999999999998,38.821318700000006],[-75.14999999999998,38.825906499999974],[-75.14999999999998,38.839624000000015],[-75.14999999999998,38.84058240000002],[-75.14999999999998,38.8422463],[-75.14999999999998,38.8434924],[-75.14999999999998,38.84830290000002],[-75.14999999999998,38.85000000000002],[-75.14605799999998,38.85000000000002],[-75.11911529999998,38.85000000000002],[-75.11766369999998,38.85000000000002],[-75.11516160000002,38.85000000000002],[-75.1084042,38.85000000000002],[-75.10326579999997,38.85000000000002],[-75.09271940000002,38.85000000000002],[-75.07499999999999,38.85000000000002],[-75.07499999999999,38.835052899999994],[-75.07499999999999,38.83017410000002],[-75.07499999999999,38.83006690000002],[-75.07499999999999,38.83006449999999],[-75.07499999999999,38.82992630000001],[-75.07499999999999,38.824749999999995],[-75.07499999999999,38.821846300000004],[-75.07499999999999,38.81905979999999],[-75.07499999999999,38.816554999999994],[-75.07499999999999,38.816040199999975],[-75.07499999999999,38.815854100000024],[-75.07499999999999,38.80299630000002],[-75.07499999999999,38.796033799999975],[-75.07499999999999,38.791542100000015],[-75.07499999999999,38.78772550000002],[-75.07499999999999,38.78583200000003],[-75.07499999999999,38.78203109999998],[-75.07499999999999,38.77583290000001],[-75.07499999999999,38.77499999999998],[-75.07540999999998,38.77499999999998],[-75.07543229999999,38.77499999999998],[-75.08072820000001,38.77499999999998],[-75.08177840000002,38.77499999999998],[-75.08244930000001,38.77499999999998],[-75.0835763,38.77499999999998],[-75.08389879999999,38.77499999999998],[-75.10005940000002,38.77499999999998],[-75.13100889999998,38.77499999999998],[-75.13206050000002,38.77499999999998],[-75.13229560000002,38.77499999999998],[-75.1322973,38.77499999999998],[-75.13258159999998,38.77499999999998],[-75.1326985,38.77499999999998],[-75.13549210000002,38.77499999999998],[-75.1354988,38.77499999999998],[-75.13560810000001,38.77499999999998],[-75.13566479999997,38.77499999999998],[-75.1363217,38.77499999999998],[-75.136369,38.77499999999998],[-75.13663079999998,38.77499999999998]]]}},{"type":"Feature","properties":{},"geometry":{"type":"Polygon","coordinates":[[[-75.07375619999999,38.77499999999998],[-75.07499999999999,38.77499999999998],[-75.07499999999999,38.77583290000001],[-75.07499999999999,38.78203109999998],[-75.07499999999999,38.78583200000003],[-75.07499999999999,38.78772550000002],[-75.07499999999999,38.791542100000015],[-75.07499999999999,38.796033799999975],[-75.07499999999999,38.80299630000002],[-75.07499999999999,38.815854100000024],[-75.07499999999999,38.816040199999975],[-75.07499999999999,38.816554999999994],[-75.07499999999999,38.81905979999999],[-75.07499999999999,38.821846300000004],[-75.07499999999999,38.824749999999995],[-75.07499999999999,38.82992630000001],[-75.07499999999999,38.83006449999999],[-75.07499999999999,38.83006690000002],[-75.07499999999999,38.83017410000002],[-75.07499999999999,38.835052899999994],[-75.07499999999999,38.85000000000002],[-75.05291160000002,38.85000000000002],[-75.05278929999997,38.85000000000002],[-75.05259510000002,38.85000000000002],[-75.05209939999997,38.85000000000002],[-75.04471969999997,38.85000000000002],[-75.04445429999998,38.85000000000002],[-75.03867050000002,38.85000000000002],[-75.03645719999997,38.85000000000002],[-75.0343158,38.85000000000002],[-75.03310970000001,38.85000000000002],[-75.03246469999999,38.85000000000002],[-75.02899589999998,38.85000000000002],[-75.02821319999998,38.85000000000002],[-75.02778940000002,38.85000000000002],[-75.01831069999997,38.85000000000002],[-75.01618480000002,38.85000000000002],[-75.00972910000002,38.85000000000002],[-75.00669779999998,38.85000000000002],[-75.00033880000001,38.85000000000002],[-75.0,38.85000000000002],[-75.0,38.84933380000001],[-75.0,38.8351988],[-75.0,38.834346400000015],[-75.0,38.82912049999999],[-75.0,38.82799],[-75.0,38.82571089999999],[-75.0,38.82016429999999],[-75.0,38.817073300000004],[-75.0,38.809322699999996],[-75.0,38.80907079999997],[-75.0,38.80495380000002],[-75.0,38.80444840000001],[-75.0,38.80020339999999],[-75.0,38.80011630000001],[-75.0,38.79547960000002],[-75.0,38.77973830000002],[-75.0,38.77499999999998],[-75.01618710000002,38.77499999999998],[-75.0175926,38.77499999999998],[-75.01805730000001,38.77499999999998],[-75.03352369999999,38.77499999999998],[-75.05566049999999,38.77499999999998],[-75.0564956,38.77499999999998],[-75.05712199999999,38.77499999999998],[-75.06377120000002,38.77499999999998],[-75.0671016,38.77499999999998],[-75.06968289999998,38.77499999999998],[-75.07038590000002,38.77499999999998],[-75.07165930000002,38.77499999999998],[-75.07375619999999,38.77499999999998]]]}},{"type":"Feature","properties":{},"geometry":{"type":"Polygon","coordinates":[[[-74.9996294,38.77499999999998],[-75.0,38.77499999999998],[-75.0,38.77973830000002],[-75.0,38.787086199999976],[-75.0,38.79547960000002],[-75.0,38.79753529999999],[-75.0,38.80011630000001],[-75.0,38.80020339999999],[-75.0,38.80444840000001],[-75.0,38.80495380000002],[-75.0,38.805676300000016],[-75.0,38.80888169999997],[-75.0,38.80907079999997],[-75.0,38.809322699999996],[-75.0,38.80977710000002],[-75.0,38.817073300000004],[-75.0,38.8172644],[-75.0,38.81807379999998],[-75.0,38.82016429999999],[-75.0,38.820272699999975],[-75.0,38.82171319999998],[-75.0,38.82571089999999],[-75.0,38.82799],[-75.0,38.82912049999999],[-75.0,38.83038929999998],[-75.0,38.834346400000015],[-75.0,38.8351988],[-75.0,38.84933380000001],[-75.0,38.85000000000002],[-74.9996294,38.85000000000002],[-74.99844109999998,38.85000000000002],[-74.99736569999999,38.85000000000002],[-74.9950624,38.85000000000002],[-74.9844094,38.85000000000002],[-74.982752,38.85000000000002],[-74.97988229999999,38.85000000000002],[-74.97727370000001,38.85000000000002],[-74.97609670000003,38.85000000000002],[-74.94737049999998,38.85000000000002],[-74.94708639999999,38.85000000000002],[-74.94460279999998,38.85000000000002],[-74.94354579999998,38.85000000000002],[-74.94290969999997,38.85000000000002],[-74.93739599999998,38.85000000000002],[-74.92856920000003,38.85000000000002],[-74.92500000000001,38.85000000000002],[-74.92500000000001,38.849686399999996],[-74.92500000000001,38.848800600000004],[-74.92500000000001,38.8377802],[-74.92500000000001,38.81285150000002],[-74.92500000000001,38.811978099999976],[-74.92500000000001,38.80643950000001],[-74.92500000000001,38.8050121],[-74.92500000000001,38.800267099999985],[-74.92500000000001,38.797272899999996],[-74.92500000000001,38.79487519999998],[-74.92500000000001,38.79352080000001],[-74.92500000000001,38.79084130000001],[-74.92500000000001,38.77499999999998],[-74.93063710000001,38.77499999999998],[-74.9361576,38.77499999999998],[-74.94213710000002,38.77499999999998],[-74.9477488,38.77499999999998],[-74.96063889999999,38.77499999999998],[-74.96766020000001,38.77499999999998],[-74.98200800000001,38.77499999999998],[-74.98790819999999,38.77499999999998],[-74.9996294,38.77499999999998]]]}},{"type":"Feature","properties":{},"geometry":{"type":"Polygon","coordinates":[[[-74.92500000000001,38.77499999999998],[-74.92500000000001,38.79084130000001],[-74.92500000000001,38.79352080000001],[-74.92500000000001,38.79487519999998],[-74.92500000000001,38.797272899999996],[-74.92500000000001,38.800267099999985],[-74.92500000000001,38.8050121],[-74.92500000000001,38.80643950000001],[-74.92500000000001,38.811978099999976],[-74.92500000000001,38.81285150000002],[-74.92500000000001,38.8377802],[-74.92500000000001,38.848800600000004],[-74.92500000000001,38.849686399999996],[-74.92500000000001,38.85000000000002],[-74.92339900000002,38.85000000000002],[-74.9183061,38.85000000000002],[-74.90864479999999,38.85000000000002],[-74.90784539999999,38.85000000000002],[-74.9059054,38.85000000000002],[-74.88386960000003,38.85000000000002],[-74.877837,38.85000000000002],[-74.87129199999998,38.85000000000002],[-74.85000000000002,38.85000000000002],[-74.85000000000002,38.843923700000005],[-74.85000000000002,38.83743329999999],[-74.85000000000002,38.8296186],[-74.85000000000002,38.81129420000002],[-74.85000000000002,38.810457299999996],[-74.85000000000002,38.80828439999999],[-74.85000000000002,38.800143100000014],[-74.85000000000002,38.79994049999999],[-74.85000000000002,38.79620829999999],[-74.85000000000002,38.79048239999997],[-74.85000000000002,38.77806340000001],[-74.85000000000002,38.77499999999998],[-74.92500000000001,38.77499999999998]]]}},{"type":"Feature","properties":{},"geometry":{"type":"Polygon","coordinates":[[[-74.83107580000001,38.77499999999998],[-74.85000000000002,38.77499999999998],[-74.85000000000002,38.77806340000001],[-74.85000000000002,38.79048239999997],[-74.85000000000002,38.79620829999999],[-74.85000000000002,38.79994049999999],[-74.85000000000002,38.800143100000014],[-74.85000000000002,38.80828439999999],[-74.85000000000002,38.810457299999996],[-74.85000000000002,38.81129420000002],[-74.85000000000002,38.8296186],[-74.85000000000002,38.83743329999999],[-74.85000000000002,38.843923700000005],[-74.85000000000002,38.85000000000002],[-74.83417120000001,38.85000000000002],[-74.82986690000001,38.85000000000002],[-74.81590820000002,38.85000000000002],[-74.77499999999998,38.85000000000002],[-74.77499999999998,38.8158196],[-74.77499999999998,38.81203670000002],[-74.77499999999998,38.811069499999974],[-74.77499999999998,38.80937510000001],[-74.77499999999998,38.80244240000002],[-74.77499999999998,38.790123600000015],[-74.77499999999998,38.787137400000006],[-74.77499999999998,38.77593009999998],[-74.77499999999998,38.77522290000002],[-74.77499999999998,38.77499999999998],[-74.7754976,38.77499999999998],[-74.83107580000001,38.77499999999998]]]}},{"type":"Feature","properties":{},"geometry":{"type":"Polygon","coordinates":[[[-74.77083299999998,38.77499999999998],[-74.77499999999998,38.77499999999998],[-74.77499999999998,38.77522290000002],[-74.77499999999998,38.77593009999998],[-74.77499999999998,38.787137400000006],[-74.77499999999998,38.790123600000015],[-74.77499999999998,38.80244240000002],[-74.77499999999998,38.80937510000001],[-74.77499999999998,38.811069499999974],[-74.77499999999998,38.81203670000002],[-74.77499999999998,38.8158196],[-74.77499999999998,38.85000000000002],[-74.72139650000003,38.85000000000002],[-74.71579969999999,38.85000000000002],[-74.69999999999999,38.85000000000002],[-74.69999999999999,38.845421499999986],[-74.69999999999999,38.83881220000001],[-74.69999999999999,38.8338134],[-74.69999999999999,38.833405700000014],[-74.69999999999999,38.82118200000002],[-74.69999999999999,38.80986309999997],[-74.69999999999999,38.80601300000001],[-74.69999999999999,38.7979186],[-74.69999999999999,38.797597499999995],[-74.69999999999999,38.79241330000002],[-74.69999999999999,38.78976469999998],[-74.69999999999999,38.781824099999994],[-74.69999999999999,38.78135630000003],[-74.69999999999999,38.77499999999998],[-74.71058770000002,38.77499999999998],[-74.71137499999998,38.77499999999998],[-74.73933629999999,38.77499999999998],[-74.7406641,38.77499999999998],[-74.7572472,38.77499999999998],[-74.77083299999998,38.77499999999998]]]}},{"type":"Feature","properties":{},"geometry":{"type":"Polygon","coordinates":[[[-75.07499999999999,38.88171540000002],[-75.07499999999999,38.85011400000002],[-75.07499999999999,38.85000000000002],[-75.09271940000002,38.85000000000002],[-75.10048740000002,38.85000000000002],[-75.10158769999998,38.85000000000002],[-75.10326579999997,38.85000000000002],[-75.1084042,38.85000000000002],[-75.11516160000002,38.85000000000002],[-75.11745000000002,38.85000000000002],[-75.11766369999998,38.85000000000002],[-75.11911529999998,38.85000000000002],[-75.14605799999998,38.85000000000002],[-75.14999999999998,38.85000000000002],[-75.14999999999998,38.85011400000002],[-75.14999999999998,38.85223780000001],[-75.14999999999998,38.86274159999999],[-75.14999999999998,38.86962369999998],[-75.14999999999998,38.87058189999999],[-75.14999999999998,38.873813600000005],[-75.14999999999998,38.87434409999997],[-75.14999999999998,38.885584800000004],[-75.14999999999998,38.89201459999998],[-75.14999999999998,38.89289659999997],[-75.14999999999998,38.89901600000002],[-75.14999999999998,38.905],[-75.07499999999999,38.905],[-75.07499999999999,38.88171540000002]]]}},{"type":"Feature","properties":{},"geometry":{"type":"Polygon","coordinates":[[[-75.0,38.90423959999998],[-75.0,38.9022473],[-75.0,38.9021295],[-75.0,38.901602000000025],[-75.0,38.90052639999999],[-75.0,38.89931610000002],[-75.0,38.897888799999976],[-75.0,38.89749169999999],[-75.0,38.89738190000003],[-75.0,38.89502620000002],[-75.0,38.89447849999999],[-75.0,38.89369420000003],[-75.0,38.89233139999999],[-75.0,38.89189160000001],[-75.0,38.89150480000001],[-75.0,38.889321499999994],[-75.0,38.888200900000015],[-75.0,38.88381720000001],[-75.0,38.882886799999994],[-75.0,38.87873780000001],[-75.0,38.87643459999998],[-75.0,38.87591950000001],[-75.0,38.87480119999998],[-75.0,38.869527800000014],[-75.0,38.869166500000006],[-75.0,38.86707150000001],[-75.0,38.85501390000002],[-75.0,38.85011400000002],[-75.0,38.85000000000002],[-75.00033880000001,38.85000000000002],[-75.00669779999998,38.85000000000002],[-75.00972910000002,38.85000000000002],[-75.01618480000002,38.85000000000002],[-75.01831069999997,38.85000000000002],[-75.02778940000002,38.85000000000002],[-75.02821319999998,38.85000000000002],[-75.02899589999998,38.85000000000002],[-75.03246469999999,38.85000000000002],[-75.03310970000001,38.85000000000002],[-75.0343158,38.85000000000002],[-75.03645719999997,38.85000000000002],[-75.03867050000002,38.85000000000002],[-75.04445429999998,38.85000000000002],[-75.04471969999997,38.85000000000002],[-75.05209939999997,38.85000000000002],[-75.05259510000002,38.85000000000002],[-75.05278929999997,38.85000000000002],[-75.05291160000002,38.85000000000002],[-75.05718430000002,38.85000000000002],[-75.07499999999999,38.85000000000002],[-75.07499999999999,38.85011400000002],[-75.07499999999999,38.88171540000002],[-75.07499999999999,38.905],[-75.0,38.905],[-75.0,38.90423959999998]]]}},{"type":"Feature","properties":{},"geometry":{"type":"Polygon","coordinates":[[[-75.11630659999997,38.31031109999998],[-75.11946940000001,38.31031109999998],[-75.11946940000001,38.35364440000001],[-75.1176658,38.35364440000001],[-75.11749400000002,38.35364440000001],[-75.11649490000002,38.35364440000001],[-75.1159695,38.35364440000001],[-75.1134611,38.35364440000001],[-75.11332529999999,38.35364440000001],[-75.11314099999998,38.35364440000001],[-75.11188859999999,38.35364440000001],[-75.11132370000001,38.35364440000001],[-75.11108680000001,38.35364440000001],[-75.11104369999998,38.35364440000001],[-75.1109391,38.35364440000001],[-75.11085750000001,38.35364440000001],[-75.1105301,38.35364440000001],[-75.11037420000002,38.35364440000001],[-75.11029350000001,38.35364440000001],[-75.11017340000001,38.35364440000001],[-75.10998769999998,38.35364440000001],[-75.10956010000001,38.35364440000001],[-75.1094698,38.35364440000001],[-75.1094534,38.35364440000001],[-75.10865940000002,38.35364440000001],[-75.1086254,38.35364440000001],[-75.10835980000002,38.35364440000001],[-75.10510060000001,38.35364440000001],[-75.10507080000002,38.35364440000001],[-75.10409429999999,38.35364440000001],[-75.10409179999999,38.35364440000001],[-75.10253599999999,38.35364440000001],[-75.10250589999998,38.35364440000001],[-75.1024291,38.35364440000001],[-75.10189029999998,38.35364440000001],[-75.10136030000001,38.35364440000001],[-75.09837700000003,38.35364440000001],[-75.09817529999998,38.35364440000001],[-75.09796319999998,38.35364440000001],[-75.09790779999997,38.35364440000001],[-75.09784710000002,38.35364440000001],[-75.09664179999999,38.35364440000001],[-75.09005669999999,38.35364440000001],[-75.08976819999998,38.35364440000001],[-75.08925729999999,38.35364440000001],[-75.08881150000002,38.35364440000001],[-75.08829630000002,38.35364440000001],[-75.08782550000001,38.35364440000001],[-75.08675520000003,38.35364440000001],[-75.0859044,38.35364440000001],[-75.08525630000003,38.35364440000001],[-75.08468520000002,38.35364440000001],[-75.0846426,38.35364440000001],[-75.08438469999999,38.35364440000001],[-75.08420519999999,38.35364440000001],[-75.08340820000001,38.35364440000001],[-75.08158150000003,38.35364440000001],[-75.07966620000002,38.35364440000001],[-75.07962559999999,38.35364440000001],[-75.07768820000001,38.35364440000001],[-75.07727740000001,38.35364440000001],[-75.07404980000001,38.35364440000001],[-75.07370450000002,38.35364440000001],[-75.07349729999999,38.35364440000001],[-75.07298960000003,38.35364440000001],[-75.07277879999998,38.35364440000001],[-75.07266929999997,38.35364440000001],[-75.07215500000001,38.35364440000001],[-75.07164569999998,38.35364440000001],[-75.0714044,38.35364440000001],[-75.07123469999999,38.35364440000001],[-75.0708396,38.35364440000001],[-75.07035839999998,38.35364440000001],[-75.07035839999998,38.35300330000001],[-75.07035839999998,38.352641500000004],[-75.07035839999998,38.34275630000002],[-75.07035839999998,38.3427562],[-75.07035839999998,38.34170180000001],[-75.07035839999998,38.33713590000002],[-75.07035839999998,38.33138789999998],[-75.07035839999998,38.33128799999997],[-75.07035839999998,38.327306899999996],[-75.07035839999998,38.32496170000002],[-75.07035839999998,38.32439249999999],[-75.07035839999998,38.32333920000002],[-75.07035839999998,38.32279010000002],[-75.07035839999998,38.32014240000001],[-75.07035839999998,38.31950549999999],[-75.07035839999998,38.31674270000002],[-75.07035839999998,38.316411200000005],[-75.07035839999998,38.31031109999998],[-75.07562860000002,38.31031109999998],[-75.0843094,38.31031109999998],[-75.08487109999999,38.31031109999998],[-75.08543809999998,38.31031109999998],[-75.08959549999997,38.31031109999998],[-75.09831259999999,38.31031109999998],[-75.10093089999998,38.31031109999998],[-75.10093210000002,38.31031109999998],[-75.10106839999997,38.31031109999998],[-75.1020322,38.31031109999998],[-75.102709,38.31031109999998],[-75.10286070000001,38.31031109999998],[-75.1030824,38.31031109999998],[-75.10321779999998,38.31031109999998],[-75.1064624,38.31031109999998],[-75.10679929999998,38.31031109999998],[-75.10864170000002,38.31031109999998],[-75.10874589999997,38.31031109999998],[-75.109171,38.31031109999998],[-75.10932609999998,38.31031109999998],[-75.10987840000001,38.31031109999998],[-75.11028520000002,38.31031109999998],[-75.11140260000002,38.31031109999998],[-75.11194319999998,38.31031109999998],[-75.1133944,38.31031109999998],[-75.11358519999999,38.31031109999998],[-75.11624119999999,38.31031109999998],[-75.11630659999997,38.31031109999998]]]}},{"type":"Feature","properties":{},"geometry":{"type":"Polygon","coordinates":[[[-74.92500000000001,38.882052699999974],[-74.92500000000001,38.87268719999997],[-74.92500000000001,38.87039629999998],[-74.92500000000001,38.86609920000001],[-74.92500000000001,38.864798199999996],[-74.92500000000001,38.86428999999998],[-74.92500000000001,38.86388419999997],[-74.92500000000001,38.855526499999996],[-74.92500000000001,38.85000000000002],[-74.92856920000003,38.85000000000002],[-74.93739599999998,38.85000000000002],[-74.94290969999997,38.85000000000002],[-74.94354579999998,38.85000000000002],[-74.94460279999998,38.85000000000002],[-74.94708639999999,38.85000000000002],[-74.94737040000001,38.85000000000002],[-74.97609670000003,38.85000000000002],[-74.97727370000001,38.85000000000002],[-74.97988229999999,38.85000000000002],[-74.982752,38.85000000000002],[-74.9844094,38.85000000000002],[-74.9950624,38.85000000000002],[-74.99736569999999,38.85000000000002],[-74.99844109999998,38.85000000000002],[-74.9996294,38.85000000000002],[-75.0,38.85000000000002],[-75.0,38.85011400000002],[-75.0,38.85501390000002],[-75.0,38.86707150000001],[-75.0,38.869166500000006],[-75.0,38.869527800000014],[-75.0,38.87480119999998],[-75.0,38.87591950000001],[-75.0,38.87643459999998],[-75.0,38.87873780000001],[-75.0,38.882886799999994],[-75.0,38.88381720000001],[-75.0,38.888200900000015],[-75.0,38.889321499999994],[-75.0,38.89150480000001],[-75.0,38.89189160000001],[-75.0,38.89233139999999],[-75.0,38.89369420000003],[-75.0,38.89447849999999],[-75.0,38.89502620000002],[-75.0,38.89738190000003],[-75.0,38.89749169999999],[-75.0,38.897888799999976],[-75.0,38.89931610000002],[-75.0,38.90052639999999],[-75.0,38.901602000000025],[-75.0,38.9021295],[-75.0,38.9022473],[-75.0,38.90423959999998],[-75.0,38.905],[-74.92500000000001,38.905],[-74.92500000000001,38.882052699999974]]]}},{"type":"Feature","properties":{},"geometry":{"type":"Polygon","coordinates":[[[-74.85000000000002,38.89654230000002],[-74.85000000000002,38.89152300000001],[-74.85000000000002,38.8896302],[-74.85000000000002,38.888467100000014],[-74.85000000000002,38.8877301],[-74.85000000000002,38.88736260000002],[-74.85000000000002,38.881509900000026],[-74.85000000000002,38.88116230000003],[-74.85000000000002,38.88014240000001],[-74.85000000000002,38.86938650000002],[-74.85000000000002,38.85827089999998],[-74.85000000000002,38.85000000000002],[-74.87129199999998,38.85000000000002],[-74.877837,38.85000000000002],[-74.88386960000003,38.85000000000002],[-74.9059054,38.85000000000002],[-74.90784539999999,38.85000000000002],[-74.90864479999999,38.85000000000002],[-74.9183061,38.85000000000002],[-74.92339900000002,38.85000000000002],[-74.92500000000001,38.85000000000002],[-74.92500000000001,38.855526499999996],[-74.92500000000001,38.86388419999997],[-74.92500000000001,38.86428999999998],[-74.92500000000001,38.864798199999996],[-74.92500000000001,38.86609920000001],[-74.92500000000001,38.87039629999998],[-74.92500000000001,38.87268719999997],[-74.92500000000001,38.882052699999974],[-74.92500000000001,38.905],[-74.85000000000002,38.905],[-74.85000000000002,38.89654230000002]]]}},{"type":"Feature","properties":{},"geometry":{"type":"Polygon","coordinates":[[[-74.77499999999998,38.8922],[-74.77499999999998,38.86380250000002],[-74.77499999999998,38.85000000000002],[-74.81590820000002,38.85000000000002],[-74.82986690000001,38.85000000000002],[-74.83417120000001,38.85000000000002],[-74.85000000000002,38.85000000000002],[-74.85000000000002,38.85827089999998],[-74.85000000000002,38.86938650000002],[-74.85000000000002,38.88014240000001],[-74.85000000000002,38.88116230000003],[-74.85000000000002,38.881509900000026],[-74.85000000000002,38.88736260000002],[-74.85000000000002,38.8877301],[-74.85000000000002,38.888467100000014],[-74.85000000000002,38.8896302],[-74.85000000000002,38.89152300000001],[-74.85000000000002,38.89654230000002],[-74.85000000000002,38.905],[-74.77499999999998,38.905],[-74.77499999999998,38.8922]]]}},{"type":"Feature","properties":{},"geometry":{"type":"Polygon","coordinates":[[[-74.69999999999999,38.876188300000024],[-74.69999999999999,38.8692767],[-74.69999999999999,38.86142289999998],[-74.69999999999999,38.85000000000002],[-74.71579969999999,38.85000000000002],[-74.72139650000003,38.85000000000002],[-74.77499999999998,38.85000000000002],[-74.77499999999998,38.86380250000002],[-74.77499999999998,38.8922],[-74.77499999999998,38.905],[-74.69999999999999,38.905],[-74.69999999999999,38.876188300000024]]]}}]}