{"type":"FeatureCollection","features":[{"type":"Feature","properties":{},"geometry":{"type":"Polygon","coordinates":[[[-76.50498909999999,38.783454000000006],[-76.5043215,38.783454000000006],[-76.4978916,38.783454000000006],[-76.4960198,38.783454000000006],[-76.48622990000001,38.783454000000006],[-76.4860918,38.783454000000006],[-76.47256199999998,38.783454000000006],[-76.46285949999998,38.783454000000006],[-76.45658830000002,38.783454000000006],[-76.45619099999999,38.783454000000006],[-76.43411149999997,38.783454000000006],[-76.43404579999998,38.783454000000006],[-76.4338553,38.783454000000006],[-76.41557599999999,38.783454000000006],[-76.41549149999997,38.783454000000006],[-76.4138671,38.783454000000006],[-76.41374869999999,38.783454000000006],[-76.41362600000002,38.783454000000006],[-76.41346240000001,38.783454000000006],[-76.4133258,38.783454000000006],[-76.41317040000001,38.783454000000006],[-76.413118,38.783454000000006],[-76.39574399999998,38.783454000000006],[-76.39533210000002,38.783454000000006],[-76.39504199999999,38.783454000000006],[-76.38508730000001,38.783454000000006],[-76.38019759999997,38.783454000000006],[-76.38011999999998,38.783454000000006],[-76.37464139999997,38.783454000000006],[-76.37182239999999,38.783454000000006],[-76.37049180000002,38.783454000000006],[-76.36953720000002,38.783454000000006],[-76.36442879999998,38.783454000000006],[-76.35987119999999,38.783454000000006],[-76.35958540000001,38.783454000000006],[-76.35836999999998,38.783454000000006],[-76.35834499999999,38.783454000000006],[-76.35833330000003,38.783454000000006],[-76.35833330000003,38.778788399999996],[-76.35833330000003,38.77782669999999],[-76.35833330000003,38.766383099999985],[-76.35833330000003,38.764238999999975],[-76.35833330000003,38.7634736],[-76.35833330000003,38.7531654],[-76.35833330000003,38.7408322],[-76.35833330000003,38.731734700000004],[-76.35833330000003,38.72990420000002],[-76.35833330000003,38.715092200000015],[-76.35833330000003,38.71186260000002],[-76.35833330000003,38.707882100000006],[-76.35833330000003,38.70066489999999],[-76.35833330000003,38.66103279999999],[-76.35833330000003,38.6561906],[-76.35833330000003,38.6499905],[-76.35833330000003,38.648525500000005],[-76.35833330000003,38.647514],[-76.35833330000003,38.646017400000005],[-76.35833330000003,38.642445399999986],[-76.35833330000003,38.63625510000003],[-76.35833330000003,38.62041900000003],[-76.35833330000003,38.60769299999998],[-76.35833330000003,38.60733670000002],[-76.35833330000003,38.60635989999997],[-76.35833330000003,38.60522350000002],[-76.35833330000003,38.60510119999998],[-76.35833330000003,38.60317509999999],[-76.35833330000003,38.5963658],[-76.35833330000003,38.58961069999998],[-76.35833330000003,38.57957219999997],[-76.35833330000003,38.57361159999999],[-76.35833330000003,38.57066529999997],[-76.35833330000003,38.570121400000005],[-76.35833330000003,38.56861120000002],[-76.35833330000003,38.565952100000004],[-76.35833330000003,38.563213399999995],[-76.35833330000003,38.562439100000006],[-76.35833330000003,38.555296],[-76.35833330000003,38.5132759],[-76.35833330000003,38.50350750000001],[-76.35833330000003,38.49128059999998],[-76.35833330000003,38.48845299999999],[-76.359215,38.48845299999999],[-76.35921639999998,38.48845299999999],[-76.35930139999999,38.48845299999999],[-76.3604115,38.48845299999999],[-76.36079260000002,38.48845299999999],[-76.36115000000001,38.48845299999999],[-76.36194660000001,38.48845299999999],[-76.36210770000002,38.48845299999999],[-76.36210799999998,38.48845299999999],[-76.36258120000002,38.48845299999999],[-76.36402500000003,38.48845299999999],[-76.36402509999999,38.48845299999999],[-76.36458520000002,38.48845299999999],[-76.37137910000001,38.48845299999999],[-76.3715019,38.48845299999999],[-76.37150200000002,38.48845299999999],[-76.37151010000002,38.48845299999999],[-76.37189669999998,38.48845299999999],[-76.37189699999999,38.48845299999999],[-76.37198919999997,38.48845299999999],[-76.37205599999999,38.48845299999999],[-76.37233099999997,38.48845299999999],[-76.37300399999998,38.48845299999999],[-76.3735719,38.48845299999999],[-76.37357200000002,38.48845299999999],[-76.37408440000002,38.48845299999999],[-76.37423849999999,38.48845299999999],[-76.3837105,38.48845299999999],[-76.40969059999998,38.48845299999999],[-76.40985699999999,38.48845299999999],[-76.41332929999999,38.48845299999999],[-76.41333100000003,38.48845299999999],[-76.41352389999997,38.48845299999999],[-76.42817179999997,38.48845299999999],[-76.43070719999997,38.48845299999999],[-76.4517492,38.48845299999999],[-76.45852980000001,38.48845299999999],[-76.45861639999998,38.48845299999999],[-76.45871,38.48845299999999],[-76.45871019999998,38.48845299999999],[-76.45902389999998,38.48845299999999],[-76.46292499999998,38.48845299999999],[-76.4629251,38.48845299999999],[-76.4629736,38.48845299999999],[-76.46361940000003,38.48845299999999],[-76.46643369999998,38.48845299999999],[-76.46794640000002,38.48845299999999],[-76.46805699999999,38.48845299999999],[-76.46805710000001,38.48845299999999],[-76.46836539999998,38.48845299999999],[-76.46915360000003,38.48845299999999],[-76.47651139999999,38.48845299999999],[-76.48758800000002,38.48845299999999],[-76.48758830000003,38.48845299999999],[-76.48792209999999,38.48845299999999],[-76.48805040000002,38.48845299999999],[-76.48829410000002,38.48845299999999],[-76.488295,38.48845299999999],[-76.48854690000002,38.48845299999999],[-76.48890940000001,38.48845299999999],[-76.489509,38.48845299999999],[-76.48951,38.48845299999999],[-76.4897072,38.48845299999999],[-76.48972099999997,38.48845299999999],[-76.49022730000002,38.48845299999999],[-76.49029000000002,38.48845299999999],[-76.49386850000002,38.48845299999999],[-76.49572819999997,38.48845299999999],[-76.49572899999998,38.48845299999999],[-76.49586599999998,38.48845299999999],[-76.4960706,38.48845299999999],[-76.496081,38.48845299999999],[-76.505,38.48845299999999],[-76.505,38.783454000000006],[-76.50498909999999,38.783454000000006]]]}},{"type":"Feature","properties":{},"geometry":{"type":"Polygon","coordinates":[[[-76.5,38.85000000000002],[-76.4998564,38.85000000000002],[-76.4943326,38.85000000000002],[-76.48428689999997,38.85000000000002],[-76.48279550000001,38.85000000000002],[-76.46841239999998,38.85000000000002],[-76.46673220000002,38.85000000000002],[-76.4626586,38.85000000000002],[-76.46156910000002,38.85000000000002],[-76.45573109999998,38.85000000000002],[-76.45129400000002,38.85000000000002],[-76.42837459999998,38.85000000000002],[-76.42500000000001,38.85000000000002],[-76.42500000000001,38.86514570000003],[-76.42500000000001,38.91133400000001],[-76.42500000000001,38.92500000000001],[-76.42285149999998,38.92500000000001],[-76.3972402,38.92500000000001],[-76.38460880000002,38.92500000000001],[-76.38292790000003,38.92500000000001],[-76.3829179,38.92500000000001],[-76.38285480000002,38.92500000000001],[-76.3826891,38.92500000000001],[-76.38248220000003,38.92500000000001],[-76.3822558,38.92500000000001],[-76.37888190000001,38.92500000000001],[-76.37673799999999,38.92500000000001],[-76.37372779999998,38.92500000000001],[-76.36245880000001,38.92500000000001],[-76.35000000000002,38.92500000000001],[-76.34744030000002,38.92500000000001],[-76.34702850000002,38.92500000000001],[-76.34474210000002,38.92500000000001],[-76.34310770000002,38.92500000000001],[-76.3395534,38.92500000000001],[-76.33796319999999,38.92500000000001],[-76.33105369999998,38.92500000000001],[-76.32984900000002,38.92500000000001],[-76.32900690000002,38.92500000000001],[-76.32046659999997,38.92500000000001],[-76.31853050000001,38.92500000000001],[-76.31377529999997,38.92500000000001],[-76.31157510000003,38.92500000000001],[-76.30936120000001,38.92500000000001],[-76.3093594,38.92500000000001],[-76.30453039999998,38.92500000000001],[-76.30168229999998,38.92500000000001],[-76.30131649999998,38.92500000000001],[-76.3007925,38.92244720000002],[-76.30060379999998,38.92152779999998],[-76.29720300000002,38.904961000000014],[-76.29720300000002,38.90286680000003],[-76.29720300000002,38.902649],[-76.29720300000002,38.901972],[-76.29720300000002,38.90143519999998],[-76.29720300000002,38.90114449999999],[-76.29720300000002,38.898713999999984],[-76.29720300000002,38.89568600000001],[-76.29720300000002,38.88771300000002],[-76.29720300000002,38.88421099999999],[-76.29720400000002,38.881463],[-76.29720400000002,38.87220000000002],[-76.29720400000002,38.870003999999994],[-76.29720400000002,38.86443300000002],[-76.29720400000002,38.85996699999998],[-76.29720400000002,38.85091190000003],[-76.29720400000002,38.850679000000014],[-76.29720400000002,38.848614],[-76.29720400000002,38.83955099999997],[-76.29720400000002,38.83798100000001],[-76.29720400000002,38.835334999999986],[-76.29720400000002,38.82840599999997],[-76.29720400000002,38.828033000000005],[-76.29764599999999,38.82624499999997],[-76.3082152,38.783454000000006],[-76.32069619999999,38.783454000000006],[-76.32101219999998,38.783454000000006],[-76.32108099999999,38.783454000000006],[-76.321283,38.783454000000006],[-76.32990339999998,38.783454000000006],[-76.33002979999998,38.783454000000006],[-76.3301002,38.783454000000006],[-76.34579939999998,38.783454000000006],[-76.34901719999999,38.783454000000006],[-76.3491439,38.783454000000006],[-76.349245,38.783454000000006],[-76.35781329999998,38.783454000000006],[-76.35782089999998,38.783454000000006],[-76.35804059999998,38.783454000000006],[-76.35833330000003,38.783454000000006],[-76.35834499999999,38.783454000000006],[-76.35958540000001,38.783454000000006],[-76.35987119999999,38.783454000000006],[-76.36442879999998,38.783454000000006],[-76.36953720000002,38.783454000000006],[-76.37049180000002,38.783454000000006],[-76.37182239999999,38.783454000000006],[-76.37464139999997,38.783454000000006],[-76.38011999999998,38.783454000000006],[-76.38019759999997,38.783454000000006],[-76.38508730000001,38.783454000000006],[-76.39504199999999,38.783454000000006],[-76.39574399999998,38.783454000000006],[-76.413118,38.783454000000006],[-76.41317040000001,38.783454000000006],[-76.4133258,38.783454000000006],[-76.41362600000002,38.783454000000006],[-76.41374869999999,38.783454000000006],[-76.4138671,38.783454000000006],[-76.41549149999997,38.783454000000006],[-76.41557599999999,38.783454000000006],[-76.4338553,38.783454000000006],[-76.43404579999998,38.783454000000006],[-76.43411149999997,38.783454000000006],[-76.45619099999999,38.783454000000006],[-76.45658830000002,38.783454000000006],[-76.46285949999998,38.783454000000006],[-76.47256199999998,38.783454000000006],[-76.4860918,38.783454000000006],[-76.48622990000001,38.783454000000006],[-76.4960198,38.783454000000006],[-76.4978916,38.783454000000006],[-76.5043215,38.783454000000006],[-76.50498909999999,38.783454000000006],[-76.505,38.783454000000006],[-76.505,38.85000000000002],[-76.5,38.85000000000002]]]}},{"type":"Feature","properties":{},"geometry":{"type":"Polygon","coordinates":[[[-76.217355,38.78116399999999],[-76.219696,38.783454000000006],[-76.23206090000002,38.783454000000006],[-76.24802499999998,38.783454000000006],[-76.24816479999998,38.783454000000006],[-76.24953240000002,38.783454000000006],[-76.2496471,38.783454000000006],[-76.24986380000001,38.783454000000006],[-76.24990070000001,38.783454000000006],[-76.25231839999998,38.783454000000006],[-76.25256300000001,38.783454000000006],[-76.2525736,38.783454000000006],[-76.25739299999998,38.783454000000006],[-76.25739750000002,38.783454000000006],[-76.25780270000001,38.783454000000006],[-76.25783419999999,38.783454000000006],[-76.25820800000002,38.783454000000006],[-76.25822840000001,38.783454000000006],[-76.2601674,38.783454000000006],[-76.26052600000003,38.783454000000006],[-76.26061429999999,38.783454000000006],[-76.26068559999999,38.783454000000006],[-76.26071000000002,38.783454000000006],[-76.26724899999999,38.783454000000006],[-76.26728939999998,38.783454000000006],[-76.26741329999999,38.783454000000006],[-76.27018500000003,38.783454000000006],[-76.27247699999998,38.783454000000006],[-76.2739641,38.783454000000006],[-76.27493399999997,38.783454000000006],[-76.27549110000001,38.783454000000006],[-76.27558749999997,38.783454000000006],[-76.28135900000001,38.783454000000006],[-76.28137429999998,38.783454000000006],[-76.2817508,38.783454000000006],[-76.28179180000001,38.783454000000006],[-76.28181810000001,38.783454000000006],[-76.28227659999999,38.783454000000006],[-76.2822835,38.783454000000006],[-76.28241120000001,38.783454000000006],[-76.28453680000001,38.783454000000006],[-76.28475830000002,38.783454000000006],[-76.28486079999999,38.783454000000006],[-76.2856916,38.783454000000006],[-76.28582319999998,38.783454000000006],[-76.285935,38.783454000000006],[-76.28610750000001,38.783454000000006],[-76.28653020000002,38.783454000000006],[-76.28665819999998,38.783454000000006],[-76.28666679999998,38.783454000000006],[-76.28671609999998,38.783454000000006],[-76.28823349999999,38.783454000000006],[-76.28892560000003,38.783454000000006],[-76.29379929999999,38.783454000000006],[-76.29387860000003,38.783454000000006],[-76.29445120000003,38.783454000000006],[-76.2982758,38.783454000000006],[-76.29832099999999,38.783454000000006],[-76.2983921,38.783454000000006],[-76.29859399999998,38.783454000000006],[-76.3082152,38.783454000000006],[-76.29764599999999,38.82624499999997],[-76.29720400000002,38.828033000000005],[-76.29720400000002,38.82840599999997],[-76.29720400000002,38.82842260000001],[-76.29720400000002,38.835334999999986],[-76.29720400000002,38.83798100000001],[-76.29720400000002,38.83955099999997],[-76.29720400000002,38.848614],[-76.29720400000002,38.850679000000014],[-76.29720400000002,38.85091190000003],[-76.29720400000002,38.85996699999998],[-76.29720400000002,38.86443300000002],[-76.29720400000002,38.870003999999994],[-76.29720400000002,38.87220000000002],[-76.29720400000002,38.881463],[-76.29720300000002,38.88421099999999],[-76.29720300000002,38.88771300000002],[-76.29720300000002,38.89568600000001],[-76.29720300000002,38.898713999999984],[-76.29720300000002,38.90114449999999],[-76.29720300000002,38.90143519999998],[-76.29720300000002,38.901972],[-76.29720300000002,38.902219100000025],[-76.29720300000002,38.902649],[-76.29720300000002,38.90286680000003],[-76.29720300000002,38.904961000000014],[-76.30060379999998,38.92152779999998],[-76.3007925,38.92244720000002],[-76.30131649999998,38.92500000000001],[-76.29665360000001,38.92500000000001],[-76.29627240000002,38.92500000000001],[-76.29409420000002,38.92500000000001],[-76.29319049999998,38.92500000000001],[-76.2918927,38.92500000000001],[-76.2911512,38.92500000000001],[-76.289916,38.92500000000001],[-76.28907800000002,38.92500000000001],[-76.2836393,38.92500000000001],[-76.2784317,38.92500000000001],[-76.27597700000001,38.92500000000001],[-76.27499999999998,38.92500000000001],[-76.27460580000002,38.92500000000001],[-76.27414670000002,38.92500000000001],[-76.26975720000002,38.92500000000001],[-76.26467350000001,38.92500000000001],[-76.25190989999999,38.92500000000001],[-76.24902850000001,38.92500000000001],[-76.24522639999998,38.92500000000001],[-76.24362100000002,38.92500000000001],[-76.24240789999999,38.92500000000001],[-76.24178210000002,38.92500000000001],[-76.24036899999999,38.92500000000001],[-76.2394602,38.92500000000001],[-76.23678719999998,38.92500000000001],[-76.2354894,38.92500000000001],[-76.22979559999999,38.92500000000001],[-76.22846570000002,38.92500000000001],[-76.2269746,38.92500000000001],[-76.22524049999998,38.92500000000001],[-76.22450179999998,38.92500000000001],[-76.22330410000001,38.92500000000001],[-76.21498059999999,38.92500000000001],[-76.21213740000002,38.92500000000001],[-76.20805360000003,38.92500000000001],[-76.20258469999999,38.92500000000001],[-76.20219989999998,38.92500000000001],[-76.19999999999999,38.92500000000001],[-76.19999999999999,38.90361899999999],[-76.19999999999999,38.90336930000001],[-76.19999999999999,38.90209549999997],[-76.19999999999999,38.901110800000026],[-76.19999999999999,38.9004147],[-76.19999999999999,38.8996616],[-76.19999999999999,38.8996027],[-76.19999999999999,38.896340699999996],[-76.19999999999999,38.8949485],[-76.19999999999999,38.89196609999999],[-76.19999999999999,38.88348050000002],[-76.19999999999999,38.88071600000001],[-76.19999999999999,38.858321699999976],[-76.19999999999999,38.85739589999997],[-76.19999999999999,38.85647590000002],[-76.19999999999999,38.85607160000001],[-76.19999999999999,38.855556999999976],[-76.19999999999999,38.8551741],[-76.19999999999999,38.8546073],[-76.19999999999999,38.853915700000016],[-76.19999999999999,38.853086099999985],[-76.19999999999999,38.85236259999999],[-76.19999999999999,38.849740199999985],[-76.19999999999999,38.84882049999999],[-76.19999999999999,38.84822320000001],[-76.19999999999999,38.847835499999974],[-76.19999999999999,38.846315600000025],[-76.19999999999999,38.844885999999974],[-76.19999999999999,38.840668600000015],[-76.19999999999999,38.83945410000001],[-76.19999999999999,38.839025400000025],[-76.19999999999999,38.83785990000001],[-76.19999999999999,38.83429050000001],[-76.19999999999999,38.83345370000001],[-76.19999999999999,38.832117100000005],[-76.19999999999999,38.8318759],[-76.19999999999999,38.830402900000024],[-76.19999999999999,38.82962140000001],[-76.19999999999999,38.82721379999998],[-76.19999999999999,38.82357739999998],[-76.19999999999999,38.79393270000003],[-76.19999999999999,38.793611699999985],[-76.19999999999999,38.79204549999997],[-76.19999999999999,38.7840094],[-76.19999999999999,38.783642999999984],[-76.19999999999999,38.782103800000016],[-76.19999999999999,38.779173800000024],[-76.19999999999999,38.77876520000001],[-76.19999999999999,38.774752999999976],[-76.19999999999999,38.77409060000002],[-76.19999999999999,38.773776199999986],[-76.19999999999999,38.77319870000002],[-76.19999999999999,38.767413999999974],[-76.19999999999999,38.76688489999998],[-76.19999999999999,38.764186800000004],[-76.217355,38.78116399999999]]]}},{"type":"Feature","properties":{},"geometry":{"type":"Polygon","coordinates":[[[-76.05000000000001,38.550113899999985],[-76.05000000000001,38.55849690000002],[-76.05000000000001,38.56004949999999],[-76.05000000000001,38.5627283],[-76.05000000000001,38.563236200000006],[-76.05000000000001,38.564772600000026],[-76.05000000000001,38.57028980000001],[-76.05000000000001,38.572821799999986],[-76.05000000000001,38.57302370000002],[-76.05000000000001,38.573218499999996],[-76.05000000000001,38.5752516],[-76.05000000000001,38.57614080000002],[-76.05000000000001,38.581068000000016],[-76.05000000000001,38.583468400000015],[-76.05000000000001,38.587513899999976],[-76.05000000000001,38.5883475],[-76.05000000000001,38.5887376],[-76.05000000000001,38.5896735],[-76.05000000000001,38.59031090000002],[-76.05000000000001,38.592973700000016],[-76.05000000000001,38.5965506],[-76.05000000000001,38.6013701],[-76.05000000000001,38.602295200000015],[-76.05000000000001,38.60230419999999],[-76.05000000000001,38.625],[-76.05627700000002,38.625],[-76.05627700000002,38.69999999999999],[-75.9987807,38.69999999999999],[-75.9982986,38.69999999999999],[-75.99708140000001,38.69999999999999],[-75.99354449999998,38.69999999999999],[-75.99288100000001,38.69999999999999],[-75.98822100000001,38.69999999999999],[-75.98674779999999,38.69999999999999],[-75.98387009999999,38.69999999999999],[-75.97895460000001,38.69999999999999],[-75.97584280000001,38.69999999999999],[-75.946754,38.69999999999999],[-75.94569480000001,38.69999999999999],[-75.94500000000001,38.69999999999999],[-75.94500000000001,38.550113899999985],[-76.05000000000001,38.550113899999985]]]}},{"type":"Feature","properties":{},"geometry":{"type":"Polygon","coordinates":[[[-76.19999999999999,38.48845299999999],[-76.19999999999999,38.5236807],[-76.19999999999999,38.524102400000004],[-76.19999999999999,38.52500040000001],[-76.19999999999999,38.52744000000001],[-76.19999999999999,38.52922480000001],[-76.19999999999999,38.53562310000001],[-76.19999999999999,38.550771699999984],[-76.19999999999999,38.55160110000003],[-76.19999999999999,38.552426000000025],[-76.19999999999999,38.552635099999975],[-76.19999999999999,38.55294170000002],[-76.19999999999999,38.554188599999975],[-76.19999999999999,38.55651690000002],[-76.19999999999999,38.56098689999999],[-76.19999999999999,38.56217989999999],[-76.19999999999999,38.5623506],[-76.19999999999999,38.5755934],[-76.19999999999999,38.5759276],[-76.19999999999999,38.576830099999995],[-76.19999999999999,38.57778969999998],[-76.19999999999999,38.57827409999999],[-76.19999999999999,38.58338550000002],[-76.19999999999999,38.59178960000003],[-76.19999999999999,38.61267729999997],[-76.19999999999999,38.612930199999994],[-76.19999999999999,38.61394009999998],[-76.19999999999999,38.61952609999997],[-76.19999999999999,38.6221362],[-76.19999999999999,38.6275789],[-76.19999999999999,38.63680249999999],[-76.19999999999999,38.64591059999998],[-76.19999999999999,38.66290780000003],[-76.19999999999999,38.663093300000014],[-76.19999999999999,38.665936699999975],[-76.19999999999999,38.66610989999998],[-76.19999999999999,38.66715169999998],[-76.19999999999999,38.67119330000003],[-76.19999999999999,38.673616200000026],[-76.19999999999999,38.674065799999994],[-76.19999999999999,38.674508],[-76.19999999999999,38.674809400000015],[-76.19999999999999,38.67621539999999],[-76.19999999999999,38.67691780000001],[-76.19999999999999,38.678994699999976],[-76.19999999999999,38.679794500000014],[-76.19999999999999,38.68295119999999],[-76.19999999999999,38.685416599999996],[-76.19999999999999,38.68822019999999],[-76.19999999999999,38.69999999999999],[-76.19951780000002,38.69999999999999],[-76.19915550000002,38.69999999999999],[-76.18362660000003,38.69999999999999],[-76.18004200000001,38.69999999999999],[-76.17951060000001,38.69999999999999],[-76.1788029,38.69999999999999],[-76.1732308,38.69999999999999],[-76.17304539999998,38.69999999999999],[-76.1719903,38.69999999999999],[-76.16594950000001,38.69999999999999],[-76.16458419999998,38.69999999999999],[-76.16134349999999,38.69999999999999],[-76.15954099999999,38.69999999999999],[-76.15629430000001,38.69999999999999],[-76.15587920000002,38.69999999999999],[-76.15201730000001,38.69999999999999],[-76.14899880000002,38.69999999999999],[-76.14831800000002,38.69999999999999],[-76.14731929999999,38.69999999999999],[-76.14572349999997,38.69999999999999],[-76.1444639,38.69999999999999],[-76.14241879999997,38.69999999999999],[-76.14240940000002,38.69999999999999],[-76.05627700000002,38.69999999999999],[-76.05627700000002,38.625],[-76.07413650000001,38.625],[-76.0749343,38.625],[-76.0812368,38.625],[-76.08365400000002,38.625],[-76.08393410000002,38.625],[-76.08410659999998,38.625],[-76.0856966,38.625],[-76.09223789999999,38.625],[-76.0924645,38.625],[-76.09369959999998,38.625],[-76.09923500000002,38.625],[-76.09978319999999,38.625],[-76.10064920000002,38.625],[-76.11545339999998,38.625],[-76.11927700000001,38.625],[-76.12212729999999,38.625],[-76.12388700000002,38.625],[-76.125,38.625],[-76.125,38.621892100000025],[-76.125,38.62097399999999],[-76.125,38.61640130000001],[-76.125,38.61173400000001],[-76.125,38.60958849999997],[-76.125,38.609269600000005],[-76.125,38.60749120000003],[-76.125,38.60310190000001],[-76.125,38.59831839999998],[-76.125,38.593346800000006],[-76.125,38.59262469999999],[-76.125,38.588978399999974],[-76.125,38.58873999999997],[-76.125,38.58719610000003],[-76.125,38.58623299999999],[-76.125,38.564565000000016],[-76.12644699999998,38.564565000000016],[-76.12644699999998,38.52763160000001],[-76.12644699999998,38.52698409999999],[-76.12644699999998,38.48845299999999],[-76.19999999999999,38.48845299999999]]]}},{"type":"Feature","properties":{},"geometry":{"type":"Polygon","coordinates":[[[-76.10636670000002,38.55000000000001],[-76.125,38.55000000000001],[-76.125,38.564565000000016],[-76.125,38.58623299999999],[-76.125,38.58719610000003],[-76.125,38.58873999999997],[-76.125,38.588978399999974],[-76.125,38.59262469999999],[-76.125,38.593346800000006],[-76.125,38.59831839999998],[-76.125,38.60310190000001],[-76.125,38.60749120000003],[-76.125,38.609269600000005],[-76.125,38.60958849999997],[-76.125,38.61173400000001],[-76.125,38.61640130000001],[-76.125,38.62097399999999],[-76.125,38.621892100000025],[-76.125,38.625],[-76.12388700000002,38.625],[-76.12212729999999,38.625],[-76.11927700000001,38.625],[-76.11545339999998,38.625],[-76.10064920000002,38.625],[-76.09978319999999,38.625],[-76.09923500000002,38.625],[-76.09369959999998,38.625],[-76.0924645,38.625],[-76.09223789999999,38.625],[-76.0856966,38.625],[-76.08410659999998,38.625],[-76.08393410000002,38.625],[-76.08365400000002,38.625],[-76.0812368,38.625],[-76.0749343,38.625],[-76.07413650000001,38.625],[-76.05627700000002,38.625],[-76.05000000000001,38.625],[-76.05000000000001,38.60230419999999],[-76.05000000000001,38.602295200000015],[-76.05000000000001,38.6013701],[-76.05000000000001,38.5965506],[-76.05000000000001,38.592973700000016],[-76.05000000000001,38.59031090000002],[-76.05000000000001,38.5896735],[-76.05000000000001,38.5887376],[-76.05000000000001,38.5883475],[-76.05000000000001,38.587513899999976],[-76.05000000000001,38.583468400000015],[-76.05000000000001,38.581068000000016],[-76.05000000000001,38.57614080000002],[-76.05000000000001,38.5752516],[-76.05000000000001,38.573218499999996],[-76.05000000000001,38.57302370000002],[-76.05000000000001,38.572821799999986],[-76.05000000000001,38.57028980000001],[-76.05000000000001,38.564772600000026],[-76.05000000000001,38.563236200000006],[-76.05000000000001,38.5627283],[-76.05000000000001,38.56004949999999],[-76.05000000000001,38.55849690000002],[-76.05000000000001,38.550113899999985],[-76.05000000000001,38.55000000000001],[-76.10636670000002,38.55000000000001]]]}},{"type":"Feature","properties":{},"geometry":{"type":"Polygon","coordinates":[[[-76.4998564,38.85000000000002],[-76.5,38.85000000000002],[-76.5,38.85769570000002],[-76.5,38.86155609999997],[-76.5,38.8676974],[-76.5,38.86920600000002],[-76.5,38.87053479999997],[-76.5,38.87497589999998],[-76.5,38.878155400000026],[-76.5,38.899038099999984],[-76.5,38.8992341],[-76.5,38.89940489999998],[-76.5,38.899886400000014],[-76.5,38.901781099999994],[-76.5,38.9027299],[-76.5,38.90807890000002],[-76.5,38.90926230000002],[-76.5,38.91352119999999],[-76.5,38.914167299999974],[-76.5,38.914457700000014],[-76.5,38.915833299999974],[-76.5,38.9197843],[-76.5,38.92014339999997],[-76.5,38.92405550000001],[-76.5,38.92500000000001],[-76.49940750000002,38.92500000000001],[-76.49854269999997,38.92500000000001],[-76.49807470000002,38.92500000000001],[-76.49086199999999,38.92500000000001],[-76.48762870000002,38.92500000000001],[-76.48589679999998,38.92500000000001],[-76.48158910000001,38.92500000000001],[-76.48056559999998,38.92500000000001],[-76.48023319999999,38.92500000000001],[-76.4790582,38.92500000000001],[-76.47890790000002,38.92500000000001],[-76.47105540000001,38.92500000000001],[-76.4708531,38.92500000000001],[-76.46437689999999,38.92500000000001],[-76.4633273,38.92500000000001],[-76.4590475,38.92500000000001],[-76.45656709999997,38.92500000000001],[-76.4461599,38.92500000000001],[-76.433965,38.92500000000001],[-76.4314013,38.92500000000001],[-76.4286899,38.92500000000001],[-76.42500000000001,38.92500000000001],[-76.42500000000001,38.91133400000001],[-76.42500000000001,38.86514570000003],[-76.42500000000001,38.85000000000002],[-76.42837459999998,38.85000000000002],[-76.45129400000002,38.85000000000002],[-76.45573109999998,38.85000000000002],[-76.46156910000002,38.85000000000002],[-76.4626586,38.85000000000002],[-76.46673220000002,38.85000000000002],[-76.46841239999998,38.85000000000002],[-76.48279550000001,38.85000000000002],[-76.48428689999997,38.85000000000002],[-76.4943326,38.85000000000002],[-76.4998564,38.85000000000002]]]}},{"type":"Feature","properties":{},"geometry":{"type":"Polygon","coordinates":[[[-76.42500000000001,38.9546512],[-76.42500000000001,38.953420300000005],[-76.42500000000001,38.953124100000025],[-76.42500000000001,38.9521982],[-76.42500000000001,38.950845500000014],[-76.42500000000001,38.95039259999999],[-76.42500000000001,38.94705069999998],[-76.42500000000001,38.94574269999998],[-76.42500000000001,38.94303789999998],[-76.42500000000001,38.94193059999998],[-76.42500000000001,38.93091709999999],[-76.42500000000001,38.92500000000001],[-76.4286899,38.92500000000001],[-76.4314013,38.92500000000001],[-76.433965,38.92500000000001],[-76.4461599,38.92500000000001],[-76.45656709999997,38.92500000000001],[-76.4590475,38.92500000000001],[-76.4633273,38.92500000000001],[-76.46437689999999,38.92500000000001],[-76.4708531,38.92500000000001],[-76.47105540000001,38.92500000000001],[-76.47890790000002,38.92500000000001],[-76.4790582,38.92500000000001],[-76.48023319999999,38.92500000000001],[-76.48056559999998,38.92500000000001],[-76.48158910000001,38.92500000000001],[-76.48589679999998,38.92500000000001],[-76.48762870000002,38.92500000000001],[-76.49086199999999,38.92500000000001],[-76.49807470000002,38.92500000000001],[-76.49854269999997,38.92500000000001],[-76.49940750000002,38.92500000000001],[-76.5,38.92500000000001],[-76.5,38.925251600000024],[-76.5,38.92736259999998],[-76.5,38.928043],[-76.5,38.92842209999998],[-76.5,38.93103180000003],[-76.5,38.95391990000002],[-76.5,38.955000000000005],[-76.42500000000001,38.955000000000005],[-76.42500000000001,38.9546512]]]}},{"type":"Feature","properties":{},"geometry":{"type":"Polygon","coordinates":[[[-76.35000000000002,38.92500000000001],[-76.36245880000001,38.92500000000001],[-76.37372779999998,38.92500000000001],[-76.37673799999999,38.92500000000001],[-76.37888190000001,38.92500000000001],[-76.3822558,38.92500000000001],[-76.38248220000003,38.92500000000001],[-76.3826891,38.92500000000001],[-76.38285480000002,38.92500000000001],[-76.3829179,38.92500000000001],[-76.38292790000003,38.92500000000001],[-76.38460880000002,38.92500000000001],[-76.3972402,38.92500000000001],[-76.42285149999998,38.92500000000001],[-76.42500000000001,38.92500000000001],[-76.42500000000001,38.93091709999999],[-76.42500000000001,38.94193059999998],[-76.42500000000001,38.94303789999998],[-76.42500000000001,38.94574269999998],[-76.42500000000001,38.94705069999998],[-76.42500000000001,38.95039259999999],[-76.42500000000001,38.950845500000014],[-76.42500000000001,38.9521982],[-76.42500000000001,38.953124100000025],[-76.42500000000001,38.953420300000005],[-76.42500000000001,38.9546512],[-76.42500000000001,38.955000000000005],[-76.35000000000002,38.955000000000005],[-76.35000000000002,38.92500000000001]]]}},{"type":"Feature","properties":{},"geometry":{"type":"Polygon","coordinates":[[[-76.27499999999998,38.95271969999999],[-76.27499999999998,38.951393199999984],[-76.27499999999998,38.9428216],[-76.27499999999998,38.941560100000004],[-76.27499999999998,38.941327100000024],[-76.27499999999998,38.93991340000002],[-76.27499999999998,38.93861020000003],[-76.27499999999998,38.936819300000025],[-76.27499999999998,38.93554760000001],[-76.27499999999998,38.93524869999999],[-76.27499999999998,38.9307321],[-76.27499999999998,38.9272249],[-76.27499999999998,38.926083199999994],[-76.27499999999998,38.925232900000026],[-76.27499999999998,38.92500000000001],[-76.27597700000001,38.92500000000001],[-76.2784317,38.92500000000001],[-76.2836393,38.92500000000001],[-76.28907800000002,38.92500000000001],[-76.289916,38.92500000000001],[-76.2911512,38.92500000000001],[-76.2918927,38.92500000000001],[-76.29319049999998,38.92500000000001],[-76.29409420000002,38.92500000000001],[-76.29627240000002,38.92500000000001],[-76.29665360000001,38.92500000000001],[-76.30131649999998,38.92500000000001],[-76.30168229999998,38.92500000000001],[-76.30453039999998,38.92500000000001],[-76.3093594,38.92500000000001],[-76.30936120000001,38.92500000000001],[-76.31157510000003,38.92500000000001],[-76.31377529999997,38.92500000000001],[-76.31853050000001,38.92500000000001],[-76.32046659999997,38.92500000000001],[-76.32900690000002,38.92500000000001],[-76.32984900000002,38.92500000000001],[-76.33105369999998,38.92500000000001],[-76.33796319999999,38.92500000000001],[-76.3395534,38.92500000000001],[-76.34310770000002,38.92500000000001],[-76.34474210000002,38.92500000000001],[-76.34702850000002,38.92500000000001],[-76.34744030000002,38.92500000000001],[-76.35000000000002,38.92500000000001],[-76.35000000000002,38.955000000000005],[-76.27499999999998,38.955000000000005],[-76.27499999999998,38.95271969999999]]]}},{"type":"Feature","properties":{},"geometry":{"type":"Polygon","coordinates":[[[-76.19999999999999,38.931949599999996],[-76.19999999999999,38.931443],[-76.19999999999999,38.92867480000001],[-76.19999999999999,38.92500000000001],[-76.20219989999998,38.92500000000001],[-76.20258469999999,38.92500000000001],[-76.20805360000003,38.92500000000001],[-76.21213740000002,38.92500000000001],[-76.21498059999999,38.92500000000001],[-76.22330410000001,38.92500000000001],[-76.22450179999998,38.92500000000001],[-76.22524049999998,38.92500000000001],[-76.2269746,38.92500000000001],[-76.22846570000002,38.92500000000001],[-76.22979559999999,38.92500000000001],[-76.2354894,38.92500000000001],[-76.23678719999998,38.92500000000001],[-76.2394602,38.92500000000001],[-76.24036899999999,38.92500000000001],[-76.24178210000002,38.92500000000001],[-76.24240789999999,38.92500000000001],[-76.24362100000002,38.92500000000001],[-76.24522639999998,38.92500000000001],[-76.24902850000001,38.92500000000001],[-76.25190989999999,38.92500000000001],[-76.26467350000001,38.92500000000001],[-76.26975720000002,38.92500000000001],[-76.27414670000002,38.92500000000001],[-76.27460580000002,38.92500000000001],[-76.27499999999998,38.92500000000001],[-76.27499999999998,38.925232900000026],[-76.27499999999998,38.926083199999994],[-76.27499999999998,38.9272249],[-76.27499999999998,38.9307321],[-76.27499999999998,38.93524869999999],[-76.27499999999998,38.93554760000001],[-76.27499999999998,38.936819300000025],[-76.27499999999998,38.93861020000003],[-76.27499999999998,38.93991340000002],[-76.27499999999998,38.941327100000024],[-76.27499999999998,38.941560100000004],[-76.27499999999998,38.9428216],[-76.27499999999998,38.951393199999984],[-76.27499999999998,38.95271969999999],[-76.27499999999998,38.955000000000005],[-76.19999999999999,38.955000000000005],[-76.19999999999999,38.931949599999996]]]}}]}