{"type":"FeatureCollection","features":[{"type":"Feature","properties":{},"geometry":{"type":"Polygon","coordinates":[[[-81.25239199999999,31.57499999999999],[-81.24656809999999,31.57499999999999],[-81.24608369999999,31.57499999999999],[-81.24474780000003,31.57499999999999],[-81.24428590000002,31.57499999999999],[-81.24417119999998,31.57499999999999],[-81.24328580000002,31.57499999999999],[-81.24192490000001,31.57499999999999],[-81.23981079999999,31.57499999999999],[-81.23770000000002,31.57499999999999],[-81.23510479999999,31.57499999999999],[-81.23386959999999,31.57499999999999],[-81.23106259999997,31.57499999999999],[-81.23025339999998,31.57499999999999],[-81.22954069999997,31.57499999999999],[-81.22865589999998,31.57499999999999],[-81.22729959999998,31.57499999999999],[-81.22630980000002,31.57499999999999],[-81.2255907,31.57499999999999],[-81.22500000000002,31.57499999999999],[-81.22500000000002,31.574605099999985],[-81.22500000000002,31.569991399999992],[-81.22500000000002,31.568594500000017],[-81.22500000000002,31.568340999999975],[-81.22500000000002,31.566985999999986],[-81.22500000000002,31.563775399999997],[-81.22500000000002,31.562897799999973],[-81.22500000000002,31.55892060000002],[-81.22500000000002,31.557464700000025],[-81.22500000000002,31.556378199999983],[-81.22500000000002,31.553923199999986],[-81.22500000000002,31.5480546],[-81.22500000000002,31.546878600000014],[-81.22500000000002,31.546832499999994],[-81.22500000000002,31.54643299999998],[-81.22500000000002,31.54604660000001],[-81.22500000000002,31.543074999999988],[-81.22500000000002,31.5429034],[-81.22500000000002,31.537755199999992],[-81.22500000000002,31.536921300000017],[-81.22500000000002,31.536382100000026],[-81.22500000000002,31.535225200000014],[-81.22500000000002,31.534368599999993],[-81.22500000000002,31.52643999999998],[-81.22500000000002,31.521116500000005],[-81.22500000000002,31.52076629999999],[-81.22500000000002,31.518931099999975],[-81.22500000000002,31.518800399999975],[-81.22500000000002,31.518466999999987],[-81.22500000000002,31.518350800000007],[-81.22500000000002,31.513738199999977],[-81.22500000000002,31.51343429999997],[-81.22500000000002,31.512923399999977],[-81.22500000000002,31.512622899999997],[-81.22500000000002,31.512452399999972],[-81.22500000000002,31.51208509999998],[-81.22500000000002,31.50868559999998],[-81.22500000000002,31.50254080000002],[-81.22500000000002,31.502007100000014],[-81.22500000000002,31.5],[-81.2266745,31.5],[-81.22727250000003,31.5],[-81.22944000000001,31.5],[-81.22984020000001,31.5],[-81.23243000000002,31.5],[-81.255,31.5],[-81.255,31.57499999999999],[-81.25239199999999,31.57499999999999]]]}},{"type":"Feature","properties":{},"geometry":{"type":"Polygon","coordinates":[[[-81.22500000000002,31.502007100000014],[-81.22500000000002,31.50254080000002],[-81.22500000000002,31.50868559999998],[-81.22500000000002,31.51208509999998],[-81.22500000000002,31.512452399999972],[-81.22500000000002,31.512622899999997],[-81.22500000000002,31.512923399999977],[-81.22500000000002,31.51343429999997],[-81.22500000000002,31.513738199999977],[-81.22500000000002,31.518350800000007],[-81.22500000000002,31.518466999999987],[-81.22500000000002,31.518800399999975],[-81.22500000000002,31.518931099999975],[-81.22500000000002,31.52076629999999],[-81.22500000000002,31.521116500000005],[-81.22500000000002,31.52643999999998],[-81.22500000000002,31.534368599999993],[-81.22500000000002,31.535225200000014],[-81.22500000000002,31.536382100000026],[-81.22500000000002,31.536921300000017],[-81.22500000000002,31.537755199999992],[-81.22500000000002,31.5429034],[-81.22500000000002,31.543074999999988],[-81.22500000000002,31.54604660000001],[-81.22500000000002,31.54643299999998],[-81.22500000000002,31.546832499999994],[-81.22500000000002,31.546878600000014],[-81.22500000000002,31.5480546],[-81.22500000000002,31.553923199999986],[-81.22500000000002,31.556378199999983],[-81.22500000000002,31.557464700000025],[-81.22500000000002,31.55892060000002],[-81.22500000000002,31.562897799999973],[-81.22500000000002,31.563775399999997],[-81.22500000000002,31.566985999999986],[-81.22500000000002,31.568340999999975],[-81.22500000000002,31.568594500000017],[-81.22500000000002,31.569991399999992],[-81.22500000000002,31.574605099999985],[-81.22500000000002,31.57499999999999],[-81.22449160000002,31.57499999999999],[-81.2235023,31.57499999999999],[-81.22273519999999,31.57499999999999],[-81.21316139999999,31.57499999999999],[-81.2070134,31.57499999999999],[-81.20539380000002,31.57499999999999],[-81.20446909999998,31.57499999999999],[-81.1991241,31.57499999999999],[-81.19756530000001,31.57499999999999],[-81.19749109999998,31.57499999999999],[-81.196392,31.57499999999999],[-81.1943033,31.57499999999999],[-81.19154420000001,31.57499999999999],[-81.18981300000002,31.57499999999999],[-81.1892775,31.57499999999999],[-81.18903840000002,31.57499999999999],[-81.18870020000003,31.57499999999999],[-81.18817589999998,31.57499999999999],[-81.18804569999998,31.57499999999999],[-81.18780099999998,31.57499999999999],[-81.18349610000001,31.57499999999999],[-81.18312400000002,31.57499999999999],[-81.1772373,31.57499999999999],[-81.17611490000002,31.57499999999999],[-81.16784059999998,31.57499999999999],[-81.16638790000002,31.57499999999999],[-81.1660195,31.57499999999999],[-81.16199940000001,31.57499999999999],[-81.16168449999998,31.57499999999999],[-81.16094450000003,31.57499999999999],[-81.15931669999998,31.57499999999999],[-81.15747920000001,31.57499999999999],[-81.15437229999998,31.57499999999999],[-81.14999999999998,31.57499999999999],[-81.14999999999998,31.563685700000008],[-81.14999999999998,31.553334699999994],[-81.14999999999998,31.546603300000015],[-81.14999999999998,31.546140400000013],[-81.14999999999998,31.539399800000012],[-81.14999999999998,31.53864900000002],[-81.14999999999998,31.53807260000002],[-81.14999999999998,31.537882000000025],[-81.14999999999998,31.537459599999977],[-81.14999999999998,31.536575599999992],[-81.14999999999998,31.534183199999973],[-81.14999999999998,31.533988899999997],[-81.14999999999998,31.533863499999995],[-81.14999999999998,31.533793300000013],[-81.14999999999998,31.53268250000002],[-81.14999999999998,31.532626600000015],[-81.14999999999998,31.532503599999984],[-81.14999999999998,31.53227240000001],[-81.14999999999998,31.528203899999994],[-81.14999999999998,31.525611200000014],[-81.14999999999998,31.5206187],[-81.14999999999998,31.5144176],[-81.14999999999998,31.513787999999977],[-81.14999999999998,31.50726880000002],[-81.14999999999998,31.5],[-81.173383,31.5],[-81.19127789999999,31.5],[-81.1920892,31.5],[-81.20834289999999,31.5],[-81.2118251,31.5],[-81.21206009999997,31.5],[-81.2161994,31.5],[-81.21805849999998,31.5],[-81.22500000000002,31.5],[-81.22500000000002,31.502007100000014]]]}},{"type":"Feature","properties":{},"geometry":{"type":"Polygon","coordinates":[[[-81.14999999999998,31.50726880000002],[-81.14999999999998,31.513787999999977],[-81.14999999999998,31.5144176],[-81.14999999999998,31.5206187],[-81.14999999999998,31.525611200000014],[-81.14999999999998,31.528203899999994],[-81.14999999999998,31.53227240000001],[-81.14999999999998,31.532503599999984],[-81.14999999999998,31.532626600000015],[-81.14999999999998,31.53268250000002],[-81.14999999999998,31.533793300000013],[-81.14999999999998,31.533863499999995],[-81.14999999999998,31.533988899999997],[-81.14999999999998,31.534183199999973],[-81.14999999999998,31.536575599999992],[-81.14999999999998,31.537459599999977],[-81.14999999999998,31.537882000000025],[-81.14999999999998,31.53807260000002],[-81.14999999999998,31.53864900000002],[-81.14999999999998,31.539399800000012],[-81.14999999999998,31.546140400000013],[-81.14999999999998,31.546603300000015],[-81.14999999999998,31.553334699999994],[-81.14999999999998,31.563685700000008],[-81.14999999999998,31.57499999999999],[-81.12805700000001,31.57499999999999],[-81.11214480000001,31.57499999999999],[-81.10551570000001,31.57499999999999],[-81.10377039999997,31.57499999999999],[-81.09287310000002,31.57499999999999],[-81.0920908,31.57499999999999],[-81.07892900000002,31.57499999999999],[-81.07499999999999,31.57499999999999],[-81.07499999999999,31.50607309999998],[-81.07499999999999,31.5],[-81.07634610000002,31.5],[-81.0985005,31.5],[-81.1034684,31.5],[-81.10382959999998,31.5],[-81.10392089999999,31.5],[-81.1130215,31.5],[-81.12269800000001,31.5],[-81.1312527,31.5],[-81.14999999999998,31.5],[-81.14999999999998,31.50726880000002]]]}},{"type":"Feature","properties":{},"geometry":{"type":"Polygon","coordinates":[[[-81.22449160000002,31.57499999999999],[-81.22500000000002,31.57499999999999],[-81.22500000000002,31.575597000000016],[-81.22500000000002,31.576655300000027],[-81.22500000000002,31.577484099999992],[-81.22500000000002,31.577727900000014],[-81.22500000000002,31.57816730000002],[-81.22500000000002,31.578380200000026],[-81.22500000000002,31.578557199999977],[-81.22500000000002,31.585152400000027],[-81.22500000000002,31.58617559999999],[-81.22500000000002,31.586399900000004],[-81.22500000000002,31.5865675],[-81.22500000000002,31.586857500000008],[-81.22500000000002,31.590398600000015],[-81.22500000000002,31.59122930000001],[-81.22500000000002,31.5960111],[-81.22500000000002,31.596135100000026],[-81.22500000000002,31.596418200000016],[-81.22500000000002,31.59679729999999],[-81.22500000000002,31.597273700000017],[-81.22500000000002,31.598419999999976],[-81.22500000000002,31.598684900000023],[-81.22500000000002,31.603882399999975],[-81.22500000000002,31.6046829],[-81.22500000000002,31.604858200000024],[-81.22500000000002,31.610222299999975],[-81.22500000000002,31.613528099999996],[-81.22500000000002,31.61364420000001],[-81.22500000000002,31.6193758],[-81.22500000000002,31.620117499999992],[-81.22500000000002,31.6230099],[-81.22500000000002,31.623238500000014],[-81.22500000000002,31.624326199999985],[-81.22500000000002,31.62862100000001],[-81.22500000000002,31.628907700000013],[-81.22500000000002,31.62922759999998],[-81.22500000000002,31.63010459999998],[-81.22500000000002,31.631643300000007],[-81.22500000000002,31.633538499999986],[-81.22500000000002,31.633846800000015],[-81.22500000000002,31.634089300000028],[-81.22500000000002,31.634279100000015],[-81.22500000000002,31.63444370000002],[-81.22500000000002,31.637527499999976],[-81.22500000000002,31.637835300000006],[-81.22500000000002,31.638130400000023],[-81.22500000000002,31.640640500000018],[-81.22500000000002,31.642618200000015],[-81.22500000000002,31.643852700000025],[-81.22500000000002,31.649999999999977],[-81.22111269999999,31.649999999999977],[-81.22062670000003,31.649999999999977],[-81.2133953,31.649999999999977],[-81.21317399999998,31.649999999999977],[-81.1958247,31.649999999999977],[-81.19458150000003,31.649999999999977],[-81.19443100000001,31.649999999999977],[-81.19320370000003,31.649999999999977],[-81.19289199999997,31.649999999999977],[-81.19263819999998,31.649999999999977],[-81.18993089999998,31.649999999999977],[-81.18910219999998,31.649999999999977],[-81.18895509999999,31.649999999999977],[-81.18883149999999,31.649999999999977],[-81.18855109999998,31.649999999999977],[-81.1883507,31.649999999999977],[-81.18819130000003,31.649999999999977],[-81.18765839999998,31.649999999999977],[-81.18377450000003,31.649999999999977],[-81.18340590000003,31.649999999999977],[-81.17825240000002,31.649999999999977],[-81.17820490000003,31.649999999999977],[-81.17730360000002,31.649999999999977],[-81.17699290000002,31.649999999999977],[-81.1744028,31.649999999999977],[-81.14999999999998,31.649999999999977],[-81.14999999999998,31.644240200000013],[-81.14999999999998,31.644115899999974],[-81.14999999999998,31.643667800000003],[-81.14999999999998,31.633715699999982],[-81.14999999999998,31.633447999999987],[-81.14999999999998,31.628823599999976],[-81.14999999999998,31.628016300000013],[-81.14999999999998,31.62575700000002],[-81.14999999999998,31.624932899999976],[-81.14999999999998,31.62436459999998],[-81.14999999999998,31.623735899999986],[-81.14999999999998,31.62081360000002],[-81.14999999999998,31.620151899999996],[-81.14999999999998,31.617436899999973],[-81.14999999999998,31.616939300000013],[-81.14999999999998,31.6123829],[-81.14999999999998,31.612175700000023],[-81.14999999999998,31.610222299999975],[-81.14999999999998,31.609746799999982],[-81.14999999999998,31.598162100000025],[-81.14999999999998,31.594724100000008],[-81.14999999999998,31.590456000000017],[-81.14999999999998,31.5847531],[-81.14999999999998,31.57499999999999],[-81.15437229999998,31.57499999999999],[-81.15747920000001,31.57499999999999],[-81.15931669999998,31.57499999999999],[-81.16094450000003,31.57499999999999],[-81.16168449999998,31.57499999999999],[-81.16199940000001,31.57499999999999],[-81.1660195,31.57499999999999],[-81.16638790000002,31.57499999999999],[-81.16784059999998,31.57499999999999],[-81.17611490000002,31.57499999999999],[-81.1772373,31.57499999999999],[-81.18312400000002,31.57499999999999],[-81.18349610000001,31.57499999999999],[-81.18780099999998,31.57499999999999],[-81.18804569999998,31.57499999999999],[-81.18817589999998,31.57499999999999],[-81.18870020000003,31.57499999999999],[-81.18903840000002,31.57499999999999],[-81.1892775,31.57499999999999],[-81.18981300000002,31.57499999999999],[-81.19154420000001,31.57499999999999],[-81.1943033,31.57499999999999],[-81.196392,31.57499999999999],[-81.19749109999998,31.57499999999999],[-81.19756530000001,31.57499999999999],[-81.1991241,31.57499999999999],[-81.20446909999998,31.57499999999999],[-81.20539380000002,31.57499999999999],[-81.2070134,31.57499999999999],[-81.21316139999999,31.57499999999999],[-81.22273519999999,31.57499999999999],[-81.2235023,31.57499999999999],[-81.22449160000002,31.57499999999999]]]}},{"type":"Feature","properties":{},"geometry":{"type":"Polygon","coordinates":[[[-81.22500000000002,31.65233330000001],[-81.22500000000002,31.653973899999983],[-81.22500000000002,31.663185199999987],[-81.22500000000002,31.663508499999978],[-81.22500000000002,31.663735700000018],[-81.22500000000002,31.66491400000001],[-81.22500000000002,31.667128900000023],[-81.22500000000002,31.66775560000002],[-81.22500000000002,31.667943400000013],[-81.22500000000002,31.6770717],[-81.22500000000002,31.677207699999997],[-81.22500000000002,31.6777237],[-81.22500000000002,31.680430899999976],[-81.22500000000002,31.681805499999996],[-81.22500000000002,31.682801299999994],[-81.22500000000002,31.68360960000001],[-81.22500000000002,31.684351400000025],[-81.22500000000002,31.685378300000025],[-81.22500000000002,31.686346000000015],[-81.22500000000002,31.686958300000015],[-81.22500000000002,31.690270199999986],[-81.22500000000002,31.690490099999977],[-81.22500000000002,31.69542469999999],[-81.22500000000002,31.695649000000003],[-81.22500000000002,31.698121800000024],[-81.22500000000002,31.698578699999985],[-81.22500000000002,31.704019500000015],[-81.22500000000002,31.705051700000013],[-81.22500000000002,31.706312200000013],[-81.22500000000002,31.711164199999985],[-81.22500000000002,31.71140700000001],[-81.22500000000002,31.711916900000006],[-81.22500000000002,31.718768399999988],[-81.22500000000002,31.722073899999998],[-81.22500000000002,31.722269400000016],[-81.22500000000002,31.723043899999993],[-81.22500000000002,31.723218799999984],[-81.22500000000002,31.725000000000023],[-81.22354689999997,31.725000000000023],[-81.2232563,31.725000000000023],[-81.22316489999997,31.725000000000023],[-81.22298430000001,31.725000000000023],[-81.22260640000002,31.725000000000023],[-81.22226060000003,31.725000000000023],[-81.2220524,31.725000000000023],[-81.2161514,31.725000000000023],[-81.21591210000003,31.725000000000023],[-81.21395940000002,31.725000000000023],[-81.21337169999998,31.725000000000023],[-81.21107,31.725000000000023],[-81.210376,31.725000000000023],[-81.20941950000002,31.725000000000023],[-81.20745269999998,31.725000000000023],[-81.20336839999999,31.725000000000023],[-81.20262539999999,31.725000000000023],[-81.19978270000001,31.725000000000023],[-81.1988409,31.725000000000023],[-81.19539049999997,31.725000000000023],[-81.193985,31.725000000000023],[-81.18362910000002,31.725000000000023],[-81.17971219999998,31.725000000000023],[-81.179371,31.725000000000023],[-81.17744590000001,31.725000000000023],[-81.173088,31.725000000000023],[-81.1730043,31.725000000000023],[-81.16586089999998,31.725000000000023],[-81.16567220000002,31.725000000000023],[-81.16206779999999,31.725000000000023],[-81.16086869999998,31.725000000000023],[-81.15780660000001,31.725000000000023],[-81.15496969999998,31.725000000000023],[-81.1548555,31.725000000000023],[-81.1544068,31.725000000000023],[-81.1526045,31.725000000000023],[-81.1520648,31.725000000000023],[-81.1508331,31.725000000000023],[-81.1500092,31.725000000000023],[-81.14999999999998,31.725000000000023],[-81.14999999999998,31.72499529999999],[-81.14999999999998,31.724709200000007],[-81.14999999999998,31.72184709999999],[-81.14999999999998,31.719576599999982],[-81.14999999999998,31.717255299999977],[-81.14999999999998,31.717100700000003],[-81.14999999999998,31.715776800000015],[-81.14999999999998,31.712162499999977],[-81.14999999999998,31.707135499999993],[-81.14999999999998,31.70654669999999],[-81.14999999999998,31.706334700000014],[-81.14999999999998,31.705609100000004],[-81.14999999999998,31.704948899999977],[-81.14999999999998,31.704667200000017],[-81.14999999999998,31.700838900000008],[-81.14999999999998,31.700361999999984],[-81.14999999999998,31.700148899999988],[-81.14999999999998,31.700020900000027],[-81.14999999999998,31.699632500000007],[-81.14999999999998,31.697899399999983],[-81.14999999999998,31.692280400000016],[-81.14999999999998,31.690372000000025],[-81.14999999999998,31.69010989999998],[-81.14999999999998,31.689776800000004],[-81.14999999999998,31.689466400000015],[-81.14999999999998,31.688934899999992],[-81.14999999999998,31.649999999999977],[-81.1744028,31.649999999999977],[-81.17699290000002,31.649999999999977],[-81.17730360000002,31.649999999999977],[-81.17820490000003,31.649999999999977],[-81.17825240000002,31.649999999999977],[-81.18340590000003,31.649999999999977],[-81.18377450000003,31.649999999999977],[-81.18765839999998,31.649999999999977],[-81.18819130000003,31.649999999999977],[-81.1883507,31.649999999999977],[-81.18855109999998,31.649999999999977],[-81.18883149999999,31.649999999999977],[-81.18895509999999,31.649999999999977],[-81.18910219999998,31.649999999999977],[-81.18993089999998,31.649999999999977],[-81.19263819999998,31.649999999999977],[-81.19289199999997,31.649999999999977],[-81.19320370000003,31.649999999999977],[-81.19443100000001,31.649999999999977],[-81.19458150000003,31.649999999999977],[-81.1958247,31.649999999999977],[-81.21317399999998,31.649999999999977],[-81.2133953,31.649999999999977],[-81.22062670000003,31.649999999999977],[-81.22111269999999,31.649999999999977],[-81.22500000000002,31.649999999999977],[-81.22500000000002,31.65233330000001]]]}},{"type":"Feature","properties":{},"geometry":{"type":"Polygon","coordinates":[[[-81.1462065,31.649999999999977],[-81.14999999999998,31.649999999999977],[-81.14999999999998,31.688934899999992],[-81.14999999999998,31.689466400000015],[-81.14999999999998,31.689776800000004],[-81.14999999999998,31.69010989999998],[-81.14999999999998,31.690372000000025],[-81.14999999999998,31.692280400000016],[-81.14999999999998,31.697899399999983],[-81.14999999999998,31.699632500000007],[-81.14999999999998,31.700020900000027],[-81.14999999999998,31.700148899999988],[-81.14999999999998,31.700361999999984],[-81.14999999999998,31.700838900000008],[-81.14999999999998,31.704667200000017],[-81.14999999999998,31.704948899999977],[-81.14999999999998,31.705609100000004],[-81.14999999999998,31.706334700000014],[-81.14999999999998,31.70654669999999],[-81.14999999999998,31.707135499999993],[-81.14999999999998,31.712162499999977],[-81.14999999999998,31.715776800000015],[-81.14999999999998,31.717100700000003],[-81.14999999999998,31.717255299999977],[-81.14999999999998,31.719576599999982],[-81.14999999999998,31.72184709999999],[-81.14999999999998,31.724709200000007],[-81.14999999999998,31.72499529999999],[-81.14999999999998,31.725000000000023],[-81.14975170000002,31.725000000000023],[-81.14745829999998,31.725000000000023],[-81.14696179999999,31.725000000000023],[-81.14660609999999,31.725000000000023],[-81.14522019999998,31.725000000000023],[-81.14336830000002,31.725000000000023],[-81.1423714,31.725000000000023],[-81.14122379999998,31.725000000000023],[-81.12986599999999,31.725000000000023],[-81.12487759999999,31.725000000000023],[-81.12180380000001,31.725000000000023],[-81.1160008,31.725000000000023],[-81.10172879999999,31.725000000000023],[-81.10094379999998,31.725000000000023],[-81.09685089999999,31.725000000000023],[-81.09638610000002,31.725000000000023],[-81.094383,31.725000000000023],[-81.09338550000001,31.725000000000023],[-81.09246209999998,31.725000000000023],[-81.0870352,31.725000000000023],[-81.07564919999999,31.725000000000023],[-81.07499999999999,31.725000000000023],[-81.07499999999999,31.724721699999975],[-81.07499999999999,31.71888050000001],[-81.07499999999999,31.709186699999975],[-81.07499999999999,31.705576199999996],[-81.07499999999999,31.705028700000014],[-81.07499999999999,31.689786700000013],[-81.07499999999999,31.68714699999998],[-81.07499999999999,31.683143799999982],[-81.07499999999999,31.678842799999984],[-81.07499999999999,31.67308220000001],[-81.07499999999999,31.669251599999996],[-81.07499999999999,31.661772499999984],[-81.07499999999999,31.66107149999999],[-81.07499999999999,31.657619399999987],[-81.07499999999999,31.65518129999998],[-81.07499999999999,31.65386380000001],[-81.07499999999999,31.653477899999984],[-81.07499999999999,31.649999999999977],[-81.0772427,31.649999999999977],[-81.08962630000002,31.649999999999977],[-81.093952,31.649999999999977],[-81.10737189999998,31.649999999999977],[-81.11076559999998,31.649999999999977],[-81.11855700000001,31.649999999999977],[-81.13054110000002,31.649999999999977],[-81.13547369999998,31.649999999999977],[-81.13665350000002,31.649999999999977],[-81.1440169,31.649999999999977],[-81.14453459999999,31.649999999999977],[-81.14561880000002,31.649999999999977],[-81.14616139999998,31.649999999999977],[-81.1462065,31.649999999999977]]]}},{"type":"Feature","properties":{},"geometry":{"type":"Polygon","coordinates":[[[-81.07499999999999,31.653477899999984],[-81.07499999999999,31.65386380000001],[-81.07499999999999,31.65518129999998],[-81.07499999999999,31.657619399999987],[-81.07499999999999,31.66107149999999],[-81.07499999999999,31.661772499999984],[-81.07499999999999,31.669251599999996],[-81.07499999999999,31.67308220000001],[-81.07499999999999,31.678842799999984],[-81.07499999999999,31.683143799999982],[-81.07499999999999,31.68714699999998],[-81.07499999999999,31.689786700000013],[-81.07499999999999,31.705028700000014],[-81.07499999999999,31.705576199999996],[-81.07499999999999,31.709186699999975],[-81.07499999999999,31.71888050000001],[-81.07499999999999,31.724721699999975],[-81.07499999999999,31.725000000000023],[-81.03585579999998,31.725000000000023],[-81.0185538,31.725000000000023],[-81.01781499999998,31.725000000000023],[-81.0,31.725000000000023],[-81.0,31.68726509999999],[-81.0,31.649999999999977],[-81.01864460000002,31.649999999999977],[-81.0218716,31.649999999999977],[-81.02764079999997,31.649999999999977],[-81.05141079999999,31.649999999999977],[-81.06007369999998,31.649999999999977],[-81.0627369,31.649999999999977],[-81.06671010000002,31.649999999999977],[-81.06777640000001,31.649999999999977],[-81.06811299999998,31.649999999999977],[-81.06820090000002,31.649999999999977],[-81.07372179999999,31.649999999999977],[-81.07376629999999,31.649999999999977],[-81.07499999999999,31.649999999999977],[-81.07499999999999,31.653477899999984]]]}},{"type":"Feature","properties":{},"geometry":{"type":"Polygon","coordinates":[[[-81.22500000000002,31.80000000000001],[-81.22500000000002,31.773721799999976],[-81.22500000000002,31.773628799999983],[-81.22500000000002,31.77339310000002],[-81.22500000000002,31.77304240000001],[-81.22500000000002,31.772613200000023],[-81.22500000000002,31.772259299999973],[-81.22500000000002,31.7713028],[-81.22500000000002,31.767128300000024],[-81.22500000000002,31.766969099999983],[-81.22500000000002,31.75393009999999],[-81.22500000000002,31.753789299999994],[-81.22500000000002,31.75326289999998],[-81.22500000000002,31.752994100000024],[-81.22500000000002,31.74972059999999],[-81.22500000000002,31.749172199999975],[-81.22500000000002,31.748660900000004],[-81.22500000000002,31.743764999999996],[-81.22500000000002,31.742185199999994],[-81.22500000000002,31.741661299999976],[-81.22500000000002,31.74116459999999],[-81.22500000000002,31.738646500000016],[-81.22500000000002,31.737966200000017],[-81.22500000000002,31.736818099999994],[-81.22500000000002,31.736074700000017],[-81.22500000000002,31.734593200000006],[-81.22500000000002,31.731346799999983],[-81.22500000000002,31.7310344],[-81.22500000000002,31.729972499999974],[-81.22500000000002,31.72586000000001],[-81.22500000000002,31.725782400000014],[-81.22500000000002,31.725000000000023],[-81.22934629999997,31.725000000000023],[-81.23152320000003,31.725000000000023],[-81.2345168,31.725000000000023],[-81.24312750000001,31.725000000000023],[-81.244327,31.725000000000023],[-81.255,31.725000000000023],[-81.255,31.80000000000001],[-81.22500000000002,31.80000000000001]]]}},{"type":"Feature","properties":{},"geometry":{"type":"Polygon","coordinates":[[[-81.22354689999997,31.725000000000023],[-81.22500000000002,31.725000000000023],[-81.22500000000002,31.725782400000014],[-81.22500000000002,31.72586000000001],[-81.22500000000002,31.729972499999974],[-81.22500000000002,31.7310344],[-81.22500000000002,31.731346799999983],[-81.22500000000002,31.734593200000006],[-81.22500000000002,31.736074700000017],[-81.22500000000002,31.736818099999994],[-81.22500000000002,31.737966200000017],[-81.22500000000002,31.738646500000016],[-81.22500000000002,31.74116459999999],[-81.22500000000002,31.741661299999976],[-81.22500000000002,31.742185199999994],[-81.22500000000002,31.743764999999996],[-81.22500000000002,31.748660900000004],[-81.22500000000002,31.749172199999975],[-81.22500000000002,31.74972059999999],[-81.22500000000002,31.752994100000024],[-81.22500000000002,31.75326289999998],[-81.22500000000002,31.753789299999994],[-81.22500000000002,31.75393009999999],[-81.22500000000002,31.766969099999983],[-81.22500000000002,31.767128300000024],[-81.22500000000002,31.7713028],[-81.22500000000002,31.772259299999973],[-81.22500000000002,31.772613200000023],[-81.22500000000002,31.77304240000001],[-81.22500000000002,31.77339310000002],[-81.22500000000002,31.773628799999983],[-81.22500000000002,31.773721799999976],[-81.22500000000002,31.80000000000001],[-81.1975223,31.80000000000001],[-81.18878330000001,31.80000000000001],[-81.18842969999997,31.80000000000001],[-81.1869691,31.80000000000001],[-81.18637510000002,31.80000000000001],[-81.18304660000001,31.80000000000001],[-81.18286610000001,31.80000000000001],[-81.1813515,31.80000000000001],[-81.18009280000001,31.80000000000001],[-81.17987699999998,31.80000000000001],[-81.17987520000003,31.80000000000001],[-81.17965759999998,31.80000000000001],[-81.17934659999997,31.80000000000001],[-81.17883699999999,31.80000000000001],[-81.17779359999997,31.80000000000001],[-81.17731750000002,31.80000000000001],[-81.172822,31.80000000000001],[-81.1715026,31.80000000000001],[-81.1651903,31.80000000000001],[-81.16483520000003,31.80000000000001],[-81.1606893,31.80000000000001],[-81.16018120000001,31.80000000000001],[-81.15990369999997,31.80000000000001],[-81.15954799999997,31.80000000000001],[-81.14999999999998,31.80000000000001],[-81.14999999999998,31.7988388],[-81.14999999999998,31.798344799999995],[-81.14999999999998,31.797205399999996],[-81.14999999999998,31.7966682],[-81.14999999999998,31.796029499999975],[-81.14999999999998,31.794851600000015],[-81.14999999999998,31.78632909999999],[-81.14999999999998,31.785563000000025],[-81.14999999999998,31.772264600000028],[-81.14999999999998,31.7716537],[-81.14999999999998,31.77120480000002],[-81.14999999999998,31.767873800000018],[-81.14999999999998,31.767329800000027],[-81.14999999999998,31.759662400000025],[-81.14999999999998,31.75872720000001],[-81.14999999999998,31.756934],[-81.14999999999998,31.746773399999995],[-81.14999999999998,31.746195],[-81.14999999999998,31.745855000000006],[-81.14999999999998,31.74212449999999],[-81.14999999999998,31.741173100000026],[-81.14999999999998,31.739891999999998],[-81.14999999999998,31.737650700000017],[-81.14999999999998,31.73453760000001],[-81.14999999999998,31.730678300000022],[-81.14999999999998,31.730631800000026],[-81.14999999999998,31.72632390000001],[-81.14999999999998,31.725000000000023],[-81.1500092,31.725000000000023],[-81.1508331,31.725000000000023],[-81.1520648,31.725000000000023],[-81.1526045,31.725000000000023],[-81.1544068,31.725000000000023],[-81.15496969999998,31.725000000000023],[-81.15780660000001,31.725000000000023],[-81.16086869999998,31.725000000000023],[-81.16206779999999,31.725000000000023],[-81.16567220000002,31.725000000000023],[-81.16586089999998,31.725000000000023],[-81.1730043,31.725000000000023],[-81.173088,31.725000000000023],[-81.17744590000001,31.725000000000023],[-81.179371,31.725000000000023],[-81.17971219999998,31.725000000000023],[-81.18362910000002,31.725000000000023],[-81.193985,31.725000000000023],[-81.19539049999997,31.725000000000023],[-81.1988409,31.725000000000023],[-81.19978270000001,31.725000000000023],[-81.20262539999999,31.725000000000023],[-81.20336839999999,31.725000000000023],[-81.20745269999998,31.725000000000023],[-81.20941950000002,31.725000000000023],[-81.210376,31.725000000000023],[-81.21107,31.725000000000023],[-81.21337169999998,31.725000000000023],[-81.21395940000002,31.725000000000023],[-81.21591210000003,31.725000000000023],[-81.2161514,31.725000000000023],[-81.2220524,31.725000000000023],[-81.22226060000003,31.725000000000023],[-81.22260640000002,31.725000000000023],[-81.22298430000001,31.725000000000023],[-81.22316489999997,31.725000000000023],[-81.2232563,31.725000000000023],[-81.22354689999997,31.725000000000023]]]}},{"type":"Feature","properties":{},"geometry":{"type":"Polygon","coordinates":[[[-81.14975170000002,31.725000000000023],[-81.14999999999998,31.725000000000023],[-81.14999999999998,31.72632390000001],[-81.14999999999998,31.730631800000026],[-81.14999999999998,31.730678300000022],[-81.14999999999998,31.73453760000001],[-81.14999999999998,31.737650700000017],[-81.14999999999998,31.739891999999998],[-81.14999999999998,31.741173100000026],[-81.14999999999998,31.74212449999999],[-81.14999999999998,31.745855000000006],[-81.14999999999998,31.746195],[-81.14999999999998,31.746773399999995],[-81.14999999999998,31.756934],[-81.14999999999998,31.75872720000001],[-81.14999999999998,31.759662400000025],[-81.14999999999998,31.767329800000027],[-81.14999999999998,31.767873800000018],[-81.14999999999998,31.77120480000002],[-81.14999999999998,31.7716537],[-81.14999999999998,31.772264600000028],[-81.14999999999998,31.785563000000025],[-81.14999999999998,31.78632909999999],[-81.14999999999998,31.794851600000015],[-81.14999999999998,31.796029499999975],[-81.14999999999998,31.7966682],[-81.14999999999998,31.797205399999996],[-81.14999999999998,31.798344799999995],[-81.14999999999998,31.7988388],[-81.14999999999998,31.80000000000001],[-81.14871729999999,31.80000000000001],[-81.14821810000001,31.80000000000001],[-81.14573280000002,31.80000000000001],[-81.14544330000001,31.80000000000001],[-81.14193139999998,31.80000000000001],[-81.1416567,31.80000000000001],[-81.13307789999999,31.80000000000001],[-81.13282850000002,31.80000000000001],[-81.1324277,31.80000000000001],[-81.1235049,31.80000000000001],[-81.12314789999999,31.80000000000001],[-81.12235349999997,31.80000000000001],[-81.12035179999998,31.80000000000001],[-81.11974049999998,31.80000000000001],[-81.1194549,31.80000000000001],[-81.11642999999998,31.80000000000001],[-81.1152462,31.80000000000001],[-81.11371000000003,31.80000000000001],[-81.1133633,31.80000000000001],[-81.11313360000003,31.80000000000001],[-81.11289920000002,31.80000000000001],[-81.09986500000002,31.80000000000001],[-81.09502509999999,31.80000000000001],[-81.0948454,31.80000000000001],[-81.08451960000002,31.80000000000001],[-81.0843471,31.80000000000001],[-81.0832226,31.80000000000001],[-81.0826419,31.80000000000001],[-81.0785482,31.80000000000001],[-81.07499999999999,31.80000000000001],[-81.07499999999999,31.797671400000013],[-81.07499999999999,31.797340700000007],[-81.07499999999999,31.797180500000024],[-81.07499999999999,31.79527919999998],[-81.07499999999999,31.79507510000002],[-81.07499999999999,31.792272500000024],[-81.07499999999999,31.791788699999984],[-81.07499999999999,31.790982600000007],[-81.07499999999999,31.78966079999998],[-81.07499999999999,31.78901589999998],[-81.07499999999999,31.788679100000024],[-81.07499999999999,31.788363500000003],[-81.07499999999999,31.787140299999976],[-81.07499999999999,31.784848399999987],[-81.07499999999999,31.784845899999993],[-81.07499999999999,31.784746299999995],[-81.07499999999999,31.78460180000002],[-81.07499999999999,31.78360839999999],[-81.07499999999999,31.783446000000026],[-81.07499999999999,31.783283400000016],[-81.07499999999999,31.783084400000007],[-81.07499999999999,31.782699999999977],[-81.07499999999999,31.78255230000002],[-81.07499999999999,31.781410800000003],[-81.07499999999999,31.77577980000001],[-81.07499999999999,31.774526100000003],[-81.07499999999999,31.771603099999993],[-81.07499999999999,31.768962799999997],[-81.07499999999999,31.767423899999983],[-81.07499999999999,31.761542099999986],[-81.07499999999999,31.745796400000017],[-81.07499999999999,31.73184520000001],[-81.07499999999999,31.725919799999986],[-81.07499999999999,31.725000000000023],[-81.07564919999999,31.725000000000023],[-81.0870352,31.725000000000023],[-81.09246209999998,31.725000000000023],[-81.09338550000001,31.725000000000023],[-81.094383,31.725000000000023],[-81.09638610000002,31.725000000000023],[-81.09685089999999,31.725000000000023],[-81.10094379999998,31.725000000000023],[-81.10172879999999,31.725000000000023],[-81.1160008,31.725000000000023],[-81.12180380000001,31.725000000000023],[-81.12487759999999,31.725000000000023],[-81.12986599999999,31.725000000000023],[-81.14122379999998,31.725000000000023],[-81.1423714,31.725000000000023],[-81.14336830000002,31.725000000000023],[-81.14522019999998,31.725000000000023],[-81.14660609999999,31.725000000000023],[-81.14745829999998,31.725000000000023],[-81.14975170000002,31.725000000000023]]]}},{"type":"Feature","properties":{},"geometry":{"type":"Polygon","coordinates":[[[-81.07499999999999,31.725919799999986],[-81.07499999999999,31.73184520000001],[-81.07499999999999,31.745796400000017],[-81.07499999999999,31.761542099999986],[-81.07499999999999,31.767423899999983],[-81.07499999999999,31.768962799999997],[-81.07499999999999,31.771603099999993],[-81.07499999999999,31.774526100000003],[-81.07499999999999,31.77577980000001],[-81.07499999999999,31.781410800000003],[-81.07499999999999,31.78255230000002],[-81.07499999999999,31.782699999999977],[-81.07499999999999,31.783084400000007],[-81.07499999999999,31.783283400000016],[-81.07499999999999,31.783446000000026],[-81.07499999999999,31.78360839999999],[-81.07499999999999,31.78460180000002],[-81.07499999999999,31.784746299999995],[-81.07499999999999,31.784845899999993],[-81.07499999999999,31.784848399999987],[-81.07499999999999,31.787140299999976],[-81.07499999999999,31.788363500000003],[-81.07499999999999,31.788679100000024],[-81.07499999999999,31.78901589999998],[-81.07499999999999,31.78966079999998],[-81.07499999999999,31.790982600000007],[-81.07499999999999,31.791788699999984],[-81.07499999999999,31.792272500000024],[-81.07499999999999,31.79507510000002],[-81.07499999999999,31.79527919999998],[-81.07499999999999,31.797180500000024],[-81.07499999999999,31.797340700000007],[-81.07499999999999,31.797671400000013],[-81.07499999999999,31.80000000000001],[-81.0721987,31.80000000000001],[-81.07007449999998,31.80000000000001],[-81.06973970000001,31.80000000000001],[-81.06501120000001,31.80000000000001],[-81.06457260000002,31.80000000000001],[-81.06273370000002,31.80000000000001],[-81.06032850000003,31.80000000000001],[-81.05897190000002,31.80000000000001],[-81.0568174,31.80000000000001],[-81.05351189999999,31.80000000000001],[-81.0471523,31.80000000000001],[-81.04583000000002,31.80000000000001],[-81.03322550000001,31.80000000000001],[-81.0285098,31.80000000000001],[-81.0222407,31.80000000000001],[-81.01405199999999,31.80000000000001],[-81.0111655,31.80000000000001],[-81.0111273,31.80000000000001],[-81.00996370000001,31.80000000000001],[-81.0,31.80000000000001],[-81.0,31.791584],[-81.0,31.79064310000001],[-81.0,31.778875200000016],[-81.0,31.772916199999997],[-81.0,31.77144629999998],[-81.0,31.770925799999986],[-81.0,31.77012239999999],[-81.0,31.759787000000017],[-81.0,31.752340800000013],[-81.0,31.745758500000022],[-81.0,31.743512399999986],[-81.0,31.742226700000003],[-81.0,31.741494999999986],[-81.0,31.73300390000003],[-81.0,31.725000000000023],[-81.01781499999998,31.725000000000023],[-81.0185538,31.725000000000023],[-81.03585579999998,31.725000000000023],[-81.07499999999999,31.725000000000023],[-81.07499999999999,31.725919799999986]]]}},{"type":"Feature","properties":{},"geometry":{"type":"Polygon","coordinates":[[[-81.0,31.73300390000003],[-81.0,31.741494999999986],[-81.0,31.742226700000003],[-81.0,31.743512399999986],[-81.0,31.745758500000022],[-81.0,31.752340800000013],[-81.0,31.759787000000017],[-81.0,31.77012239999999],[-81.0,31.770925799999986],[-81.0,31.77144629999998],[-81.0,31.772916199999997],[-81.0,31.778875200000016],[-81.0,31.79064310000001],[-81.0,31.791584],[-81.0,31.80000000000001],[-80.9951863,31.80000000000001],[-80.98960360000001,31.80000000000001],[-80.98884679999998,31.80000000000001],[-80.97729620000001,31.80000000000001],[-80.97382470000002,31.80000000000001],[-80.96894079999998,31.80000000000001],[-80.96851700000002,31.80000000000001],[-80.93610480000001,31.80000000000001],[-80.93154149999998,31.80000000000001],[-80.92500000000001,31.80000000000001],[-80.92500000000001,31.798499300000003],[-80.92500000000001,31.725000000000023],[-80.98488320000001,31.725000000000023],[-81.0,31.725000000000023],[-81.0,31.73300390000003]]]}},{"type":"Feature","properties":{},"geometry":{"type":"Polygon","coordinates":[[[-81.1975223,31.80000000000001],[-81.22500000000002,31.80000000000001],[-81.22500000000002,31.87371969999998],[-81.22500000000002,31.874426599999993],[-81.22500000000002,31.875],[-81.22469460000002,31.875],[-81.22166520000002,31.875],[-81.21602360000003,31.875],[-81.2032504,31.875],[-81.20209210000002,31.875],[-81.20053689999997,31.875],[-81.19995080000001,31.875],[-81.19321159999998,31.875],[-81.19276339999999,31.875],[-81.18792020000001,31.875],[-81.18121730000001,31.875],[-81.18018269999999,31.875],[-81.1739541,31.875],[-81.17334349999999,31.875],[-81.17193630000003,31.875],[-81.1718869,31.875],[-81.16574450000002,31.875],[-81.16544929999998,31.875],[-81.16300849999999,31.875],[-81.16182229999998,31.875],[-81.16075510000002,31.875],[-81.15938749999998,31.875],[-81.15554209999999,31.875],[-81.154875,31.875],[-81.15201769999999,31.875],[-81.15185989999998,31.875],[-81.1508518,31.875],[-81.15064510000002,31.875],[-81.14999999999998,31.875],[-81.14999999999998,31.865686299999993],[-81.14999999999998,31.863225699999987],[-81.14999999999998,31.861146099999985],[-81.14999999999998,31.858619599999997],[-81.14999999999998,31.858351400000004],[-81.14999999999998,31.857864199999995],[-81.14999999999998,31.85771729999999],[-81.14999999999998,31.85080240000002],[-81.14999999999998,31.85046219999998],[-81.14999999999998,31.845061199999975],[-81.14999999999998,31.843689799999993],[-81.14999999999998,31.842950400000007],[-81.14999999999998,31.842931399999998],[-81.14999999999998,31.842499499999974],[-81.14999999999998,31.841181300000017],[-81.14999999999998,31.840944200000024],[-81.14999999999998,31.840682700000002],[-81.14999999999998,31.840187500000013],[-81.14999999999998,31.827923999999996],[-81.14999999999998,31.827377300000023],[-81.14999999999998,31.821520599999985],[-81.14999999999998,31.820971499999985],[-81.14999999999998,31.820873699999993],[-81.14999999999998,31.819243400000005],[-81.14999999999998,31.818866800000023],[-81.14999999999998,31.817959499999972],[-81.14999999999998,31.817748100000017],[-81.14999999999998,31.815530299999978],[-81.14999999999998,31.815230100000008],[-81.14999999999998,31.815099900000007],[-81.14999999999998,31.811044200000026],[-81.14999999999998,31.810651800000016],[-81.14999999999998,31.8101901],[-81.14999999999998,31.81003199999998],[-81.14999999999998,31.809749599999975],[-81.14999999999998,31.809413500000005],[-81.14999999999998,31.8086912],[-81.14999999999998,31.807986200000016],[-81.14999999999998,31.802766700000006],[-81.14999999999998,31.802645799999993],[-81.14999999999998,31.802281800000003],[-81.14999999999998,31.80000000000001],[-81.15954799999997,31.80000000000001],[-81.15990369999997,31.80000000000001],[-81.16018120000001,31.80000000000001],[-81.1606893,31.80000000000001],[-81.16483520000003,31.80000000000001],[-81.1651903,31.80000000000001],[-81.1715026,31.80000000000001],[-81.172822,31.80000000000001],[-81.17731750000002,31.80000000000001],[-81.17779359999997,31.80000000000001],[-81.17883699999999,31.80000000000001],[-81.17934659999997,31.80000000000001],[-81.17965759999998,31.80000000000001],[-81.17987520000003,31.80000000000001],[-81.17987699999998,31.80000000000001],[-81.18009280000001,31.80000000000001],[-81.1813515,31.80000000000001],[-81.18286610000001,31.80000000000001],[-81.18304660000001,31.80000000000001],[-81.18637510000002,31.80000000000001],[-81.1869691,31.80000000000001],[-81.18842969999997,31.80000000000001],[-81.18878330000001,31.80000000000001],[-81.1975223,31.80000000000001]]]}},{"type":"Feature","properties":{},"geometry":{"type":"Polygon","coordinates":[[[-81.14871729999999,31.80000000000001],[-81.14999999999998,31.80000000000001],[-81.14999999999998,31.802281800000003],[-81.14999999999998,31.802645799999993],[-81.14999999999998,31.802766700000006],[-81.14999999999998,31.807986200000016],[-81.14999999999998,31.8086912],[-81.14999999999998,31.809413500000005],[-81.14999999999998,31.809749599999975],[-81.14999999999998,31.81003199999998],[-81.14999999999998,31.8101901],[-81.14999999999998,31.810651800000016],[-81.14999999999998,31.811044200000026],[-81.14999999999998,31.815099900000007],[-81.14999999999998,31.815230100000008],[-81.14999999999998,31.815530299999978],[-81.14999999999998,31.817748100000017],[-81.14999999999998,31.817959499999972],[-81.14999999999998,31.818866800000023],[-81.14999999999998,31.819243400000005],[-81.14999999999998,31.820873699999993],[-81.14999999999998,31.820971499999985],[-81.14999999999998,31.821520599999985],[-81.14999999999998,31.827377300000023],[-81.14999999999998,31.827923999999996],[-81.14999999999998,31.840187500000013],[-81.14999999999998,31.840682700000002],[-81.14999999999998,31.840944200000024],[-81.14999999999998,31.841181300000017],[-81.14999999999998,31.842499499999974],[-81.14999999999998,31.842931399999998],[-81.14999999999998,31.842950400000007],[-81.14999999999998,31.843689799999993],[-81.14999999999998,31.845061199999975],[-81.14999999999998,31.85046219999998],[-81.14999999999998,31.85080240000002],[-81.14999999999998,31.85771729999999],[-81.14999999999998,31.857864199999995],[-81.14999999999998,31.858351400000004],[-81.14999999999998,31.858619599999997],[-81.14999999999998,31.861146099999985],[-81.14999999999998,31.863225699999987],[-81.14999999999998,31.865686299999993],[-81.14999999999998,31.875],[-81.14990699999998,31.875],[-81.14982850000001,31.875],[-81.14958940000002,31.875],[-81.14856040000001,31.875],[-81.14615429999998,31.875],[-81.13989350000003,31.875],[-81.139589,31.875],[-81.13175330000001,31.875],[-81.1315361,31.875],[-81.12228470000002,31.875],[-81.12193150000002,31.875],[-81.11676039999998,31.875],[-81.11631340000002,31.875],[-81.11591809999999,31.875],[-81.11505570000003,31.875],[-81.11334360000001,31.875],[-81.1118247,31.875],[-81.1071025,31.875],[-81.1058873,31.875],[-81.09982380000002,31.875],[-81.09950149999997,31.875],[-81.09508749999998,31.875],[-81.0945992,31.875],[-81.09000900000001,31.875],[-81.08946079999998,31.875],[-81.08915380000002,31.875],[-81.08583920000001,31.875],[-81.08487539999999,31.875],[-81.08446420000001,31.875],[-81.08433559999997,31.875],[-81.08411339999998,31.875],[-81.08172569999999,31.875],[-81.0809959,31.875],[-81.08060460000002,31.875],[-81.08020570000002,31.875],[-81.07686080000002,31.875],[-81.07632530000001,31.875],[-81.07547720000002,31.875],[-81.07499999999999,31.875],[-81.07499999999999,31.873935099999983],[-81.07499999999999,31.87329649999998],[-81.07499999999999,31.870949399999972],[-81.07499999999999,31.865712900000005],[-81.07499999999999,31.86334640000001],[-81.07499999999999,31.862459],[-81.07499999999999,31.861479299999985],[-81.07499999999999,31.860373100000004],[-81.07499999999999,31.860371199999975],[-81.07499999999999,31.85845139999998],[-81.07499999999999,31.858099700000025],[-81.07499999999999,31.85289640000002],[-81.07499999999999,31.851871500000016],[-81.07499999999999,31.85134720000002],[-81.07499999999999,31.850934300000006],[-81.07499999999999,31.849176999999997],[-81.07499999999999,31.844308300000023],[-81.07499999999999,31.84147710000002],[-81.07499999999999,31.84128529999998],[-81.07499999999999,31.84126900000001],[-81.07499999999999,31.84048519999999],[-81.07499999999999,31.839606300000014],[-81.07499999999999,31.838182000000018],[-81.07499999999999,31.835188099999982],[-81.07499999999999,31.834404000000006],[-81.07499999999999,31.833040600000004],[-81.07499999999999,31.830048799999986],[-81.07499999999999,31.828908800000022],[-81.07499999999999,31.828575100000023],[-81.07499999999999,31.828409000000022],[-81.07499999999999,31.8276204],[-81.07499999999999,31.827163499999983],[-81.07499999999999,31.820925999999986],[-81.07499999999999,31.820617000000027],[-81.07499999999999,31.819161199999996],[-81.07499999999999,31.818887000000018],[-81.07499999999999,31.81150150000002],[-81.07499999999999,31.8100278],[-81.07499999999999,31.809957199999985],[-81.07499999999999,31.80964560000001],[-81.07499999999999,31.804367800000023],[-81.07499999999999,31.80000000000001],[-81.0785482,31.80000000000001],[-81.0826419,31.80000000000001],[-81.0832226,31.80000000000001],[-81.0843471,31.80000000000001],[-81.08451960000002,31.80000000000001],[-81.0948454,31.80000000000001],[-81.09502509999999,31.80000000000001],[-81.09986500000002,31.80000000000001],[-81.11289920000002,31.80000000000001],[-81.11313360000003,31.80000000000001],[-81.1133633,31.80000000000001],[-81.11371000000003,31.80000000000001],[-81.1152462,31.80000000000001],[-81.11642999999998,31.80000000000001],[-81.1194549,31.80000000000001],[-81.11974049999998,31.80000000000001],[-81.12035179999998,31.80000000000001],[-81.12235349999997,31.80000000000001],[-81.12314789999999,31.80000000000001],[-81.1235049,31.80000000000001],[-81.1324277,31.80000000000001],[-81.13282850000002,31.80000000000001],[-81.13307789999999,31.80000000000001],[-81.1416567,31.80000000000001],[-81.14193139999998,31.80000000000001],[-81.14544330000001,31.80000000000001],[-81.14573280000002,31.80000000000001],[-81.14821810000001,31.80000000000001],[-81.14871729999999,31.80000000000001]]]}},{"type":"Feature","properties":{},"geometry":{"type":"Polygon","coordinates":[[[-81.0721987,31.80000000000001],[-81.07499999999999,31.80000000000001],[-81.07499999999999,31.804367800000023],[-81.07499999999999,31.80964560000001],[-81.07499999999999,31.809957199999985],[-81.07499999999999,31.8100278],[-81.07499999999999,31.81150150000002],[-81.07499999999999,31.818887000000018],[-81.07499999999999,31.819161199999996],[-81.07499999999999,31.820617000000027],[-81.07499999999999,31.820925999999986],[-81.07499999999999,31.827163499999983],[-81.07499999999999,31.8276204],[-81.07499999999999,31.828409000000022],[-81.07499999999999,31.828575100000023],[-81.07499999999999,31.828908800000022],[-81.07499999999999,31.830048799999986],[-81.07499999999999,31.833040600000004],[-81.07499999999999,31.834404000000006],[-81.07499999999999,31.835188099999982],[-81.07499999999999,31.838182000000018],[-81.07499999999999,31.839606300000014],[-81.07499999999999,31.84048519999999],[-81.07499999999999,31.84126900000001],[-81.07499999999999,31.84128529999998],[-81.07499999999999,31.84147710000002],[-81.07499999999999,31.844308300000023],[-81.07499999999999,31.849176999999997],[-81.07499999999999,31.850934300000006],[-81.07499999999999,31.85134720000002],[-81.07499999999999,31.851871500000016],[-81.07499999999999,31.85289640000002],[-81.07499999999999,31.858099700000025],[-81.07499999999999,31.85845139999998],[-81.07499999999999,31.860371199999975],[-81.07499999999999,31.860373100000004],[-81.07499999999999,31.861479299999985],[-81.07499999999999,31.862459],[-81.07499999999999,31.86334640000001],[-81.07499999999999,31.865712900000005],[-81.07499999999999,31.870949399999972],[-81.07499999999999,31.87329649999998],[-81.07499999999999,31.873935099999983],[-81.07499999999999,31.875],[-81.07286099999999,31.875],[-81.07237400000002,31.875],[-81.0720091,31.875],[-81.07108060000002,31.875],[-81.07071409999998,31.875],[-81.07046070000001,31.875],[-81.06907330000001,31.875],[-81.0685987,31.875],[-81.06571100000002,31.875],[-81.06503880000002,31.875],[-81.06341550000002,31.875],[-81.06312680000002,31.875],[-81.0626264,31.875],[-81.05836470000003,31.875],[-81.0561174,31.875],[-81.0555043,31.875],[-81.0547482,31.875],[-81.05233959999998,31.875],[-81.0512541,31.875],[-81.03816599999999,31.875],[-81.0371783,31.875],[-81.03634369999997,31.875],[-81.0356779,31.875],[-81.0245698,31.875],[-81.0239479,31.875],[-81.0164297,31.875],[-81.01603770000003,31.875],[-81.01224839999998,31.875],[-81.01200069999999,31.875],[-81.00997669999998,31.875],[-81.00956960000002,31.875],[-81.00877500000001,31.875],[-81.00832150000002,31.875],[-81.00107550000001,31.875],[-81.00074169999999,31.875],[-81.00005370000002,31.875],[-81.0,31.875],[-81.0,31.87493919999997],[-81.0,31.872867600000006],[-81.0,31.871182299999987],[-81.0,31.871100300000023],[-81.0,31.871032800000023],[-81.0,31.870886999999982],[-81.0,31.870610199999987],[-81.0,31.87052540000002],[-81.0,31.869940100000008],[-81.0,31.869890899999973],[-81.0,31.866940899999975],[-81.0,31.866352000000006],[-81.0,31.865882499999998],[-81.0,31.86563289999998],[-81.0,31.86476449999998],[-81.0,31.862459],[-81.0,31.857451000000026],[-81.0,31.856505900000002],[-81.0,31.856287899999984],[-81.0,31.854837999999972],[-81.0,31.84990160000001],[-81.0,31.849790199999973],[-81.0,31.849552300000028],[-81.0,31.848179800000025],[-81.0,31.846850000000018],[-81.0,31.843653099999983],[-81.0,31.841108200000008],[-81.0,31.84110559999999],[-81.0,31.838265799999988],[-81.0,31.815240899999992],[-81.0,31.814010900000028],[-81.0,31.80928849999998],[-81.0,31.808943399999976],[-81.0,31.80000000000001],[-81.00996370000001,31.80000000000001],[-81.0111273,31.80000000000001],[-81.0111655,31.80000000000001],[-81.01405199999999,31.80000000000001],[-81.0222407,31.80000000000001],[-81.0285098,31.80000000000001],[-81.03322550000001,31.80000000000001],[-81.04583000000002,31.80000000000001],[-81.0471523,31.80000000000001],[-81.05351189999999,31.80000000000001],[-81.0568174,31.80000000000001],[-81.05897190000002,31.80000000000001],[-81.06032850000003,31.80000000000001],[-81.06273370000002,31.80000000000001],[-81.06457260000002,31.80000000000001],[-81.06501120000001,31.80000000000001],[-81.06973970000001,31.80000000000001],[-81.07007449999998,31.80000000000001],[-81.0721987,31.80000000000001]]]}},{"type":"Feature","properties":{},"geometry":{"type":"Polygon","coordinates":[[[-81.0,31.808943399999976],[-81.0,31.80928849999998],[-81.0,31.814010900000028],[-81.0,31.815240899999992],[-81.0,31.838265799999988],[-81.0,31.84110559999999],[-81.0,31.841108200000008],[-81.0,31.843653099999983],[-81.0,31.846850000000018],[-81.0,31.848179800000025],[-81.0,31.849552300000028],[-81.0,31.849790199999973],[-81.0,31.84990160000001],[-81.0,31.854837999999972],[-81.0,31.856287899999984],[-81.0,31.856505900000002],[-81.0,31.857451000000026],[-81.0,31.862459],[-81.0,31.86476449999998],[-81.0,31.86563289999998],[-81.0,31.865882499999998],[-81.0,31.866352000000006],[-81.0,31.866940899999975],[-81.0,31.869890899999973],[-81.0,31.869940100000008],[-81.0,31.87052540000002],[-81.0,31.870610199999987],[-81.0,31.870886999999982],[-81.0,31.871032800000023],[-81.0,31.871100300000023],[-81.0,31.871182299999987],[-81.0,31.872867600000006],[-81.0,31.87493919999997],[-81.0,31.875],[-80.9994193,31.875],[-80.9984483,31.875],[-80.99826339999998,31.875],[-80.99767639999999,31.875],[-80.9975076,31.875],[-80.99582830000003,31.875],[-80.99436709999998,31.875],[-80.99326589999998,31.875],[-80.99243619999999,31.875],[-80.99003110000001,31.875],[-80.98959480000002,31.875],[-80.98885710000002,31.875],[-80.97471810000002,31.875],[-80.9730386,31.875],[-80.9700072,31.875],[-80.94612590000003,31.875],[-80.94391380000002,31.875],[-80.94083389999997,31.875],[-80.9391948,31.875],[-80.92500000000001,31.875],[-80.92500000000001,31.871308399999975],[-80.92500000000001,31.862459],[-80.92500000000001,31.861141599999996],[-80.92500000000001,31.85099059999999],[-80.92500000000001,31.84591469999998],[-80.92500000000001,31.845413599999972],[-80.92500000000001,31.825291800000002],[-80.92500000000001,31.808531399999993],[-80.92500000000001,31.80000000000001],[-80.93154149999998,31.80000000000001],[-80.93610480000001,31.80000000000001],[-80.96851700000002,31.80000000000001],[-80.96894079999998,31.80000000000001],[-80.97382470000002,31.80000000000001],[-80.97729620000001,31.80000000000001],[-80.98884679999998,31.80000000000001],[-80.98960360000001,31.80000000000001],[-80.9951863,31.80000000000001],[-81.0,31.80000000000001],[-81.0,31.808943399999976]]]}},{"type":"Feature","properties":{},"geometry":{"type":"Polygon","coordinates":[[[-81.07499999999999,31.904790300000002],[-81.07499999999999,31.90007220000001],[-81.07499999999999,31.899930799999993],[-81.07499999999999,31.899640799999986],[-81.07499999999999,31.89937709999998],[-81.07499999999999,31.898557600000004],[-81.07499999999999,31.898071300000026],[-81.07499999999999,31.892945699999984],[-81.07499999999999,31.891843400000027],[-81.07499999999999,31.89102539999999],[-81.07499999999999,31.89021630000002],[-81.07499999999999,31.889236700000026],[-81.07499999999999,31.887865599999998],[-81.07499999999999,31.88782309999999],[-81.07499999999999,31.887010799999985],[-81.07499999999999,31.884195299999988],[-81.07499999999999,31.883361700000023],[-81.07499999999999,31.881967599999996],[-81.07499999999999,31.880697199999986],[-81.07499999999999,31.87903540000002],[-81.07499999999999,31.875],[-81.07547720000002,31.875],[-81.07632530000001,31.875],[-81.07686080000002,31.875],[-81.08020570000002,31.875],[-81.08060460000002,31.875],[-81.0809959,31.875],[-81.08172569999999,31.875],[-81.08411339999998,31.875],[-81.08433559999997,31.875],[-81.08446420000001,31.875],[-81.08487539999999,31.875],[-81.08583920000001,31.875],[-81.08915380000002,31.875],[-81.08946079999998,31.875],[-81.09000900000001,31.875],[-81.0945992,31.875],[-81.09508749999998,31.875],[-81.09950149999997,31.875],[-81.09982380000002,31.875],[-81.1058873,31.875],[-81.1071025,31.875],[-81.1118247,31.875],[-81.11334360000001,31.875],[-81.11505570000003,31.875],[-81.11591809999999,31.875],[-81.11631340000002,31.875],[-81.11676039999998,31.875],[-81.12193150000002,31.875],[-81.12228470000002,31.875],[-81.1315361,31.875],[-81.13175330000001,31.875],[-81.139589,31.875],[-81.13989350000003,31.875],[-81.14615429999998,31.875],[-81.14856040000001,31.875],[-81.14958940000002,31.875],[-81.14982850000001,31.875],[-81.14990699999998,31.875],[-81.14999999999998,31.875],[-81.14999999999998,31.87506400000001],[-81.14999999999998,31.8753107],[-81.14999999999998,31.878102800000022],[-81.14999999999998,31.887285299999974],[-81.14999999999998,31.887549700000022],[-81.14999999999998,31.889051400000028],[-81.14999999999998,31.889242000000024],[-81.14999999999998,31.889773100000014],[-81.14999999999998,31.890542600000003],[-81.14999999999998,31.893816700000002],[-81.14999999999998,31.89832339999998],[-81.14999999999998,31.89988249999999],[-81.14999999999998,31.900334600000008],[-81.14999999999998,31.905],[-81.07499999999999,31.905],[-81.07499999999999,31.904790300000002]]]}},{"type":"Feature","properties":{},"geometry":{"type":"Polygon","coordinates":[[[-81.0,31.88560000000001],[-81.0,31.884460199999978],[-81.0,31.880199300000015],[-81.0,31.87946599999998],[-81.0,31.87900159999998],[-81.0,31.878948200000025],[-81.0,31.8770313],[-81.0,31.875],[-81.00005370000002,31.875],[-81.00074169999999,31.875],[-81.00107550000001,31.875],[-81.00832150000002,31.875],[-81.00877500000001,31.875],[-81.00956960000002,31.875],[-81.00997669999998,31.875],[-81.01200069999999,31.875],[-81.01224839999998,31.875],[-81.01603770000003,31.875],[-81.0164297,31.875],[-81.0239479,31.875],[-81.0245698,31.875],[-81.0356779,31.875],[-81.03634369999997,31.875],[-81.0371783,31.875],[-81.03816599999999,31.875],[-81.0512541,31.875],[-81.05233959999998,31.875],[-81.0547482,31.875],[-81.0555043,31.875],[-81.0561174,31.875],[-81.05836470000003,31.875],[-81.0626264,31.875],[-81.06312680000002,31.875],[-81.06341550000002,31.875],[-81.06503880000002,31.875],[-81.06571100000002,31.875],[-81.0685987,31.875],[-81.06907330000001,31.875],[-81.07046070000001,31.875],[-81.07071409999998,31.875],[-81.07108060000002,31.875],[-81.0720091,31.875],[-81.07237400000002,31.875],[-81.07286099999999,31.875],[-81.07499999999999,31.875],[-81.07499999999999,31.87903540000002],[-81.07499999999999,31.880697199999986],[-81.07499999999999,31.881967599999996],[-81.07499999999999,31.883361700000023],[-81.07499999999999,31.884195299999988],[-81.07499999999999,31.887010799999985],[-81.07499999999999,31.88782309999999],[-81.07499999999999,31.887865599999998],[-81.07499999999999,31.889236700000026],[-81.07499999999999,31.89021630000002],[-81.07499999999999,31.89102539999999],[-81.07499999999999,31.891843400000027],[-81.07499999999999,31.892945699999984],[-81.07499999999999,31.898071300000026],[-81.07499999999999,31.898557600000004],[-81.07499999999999,31.89937709999998],[-81.07499999999999,31.899640799999986],[-81.07499999999999,31.899930799999993],[-81.07499999999999,31.90007220000001],[-81.07499999999999,31.904790300000002],[-81.07499999999999,31.905],[-81.0,31.905],[-81.0,31.88560000000001]]]}},{"type":"Feature","properties":{},"geometry":{"type":"Polygon","coordinates":[[[-80.92500000000001,31.904987000000006],[-80.92500000000001,31.897841299999982],[-80.92500000000001,31.8935017],[-80.92500000000001,31.879977999999994],[-80.92500000000001,31.875529200000017],[-80.92500000000001,31.875],[-80.9391948,31.875],[-80.94083389999997,31.875],[-80.94391380000002,31.875],[-80.94612590000003,31.875],[-80.9700072,31.875],[-80.9730386,31.875],[-80.97471810000002,31.875],[-80.98885710000002,31.875],[-80.98959480000002,31.875],[-80.99003110000001,31.875],[-80.99243619999999,31.875],[-80.99326589999998,31.875],[-80.99436709999998,31.875],[-80.99582830000003,31.875],[-80.9975076,31.875],[-80.99767639999999,31.875],[-80.99826339999998,31.875],[-80.9984483,31.875],[-80.9994193,31.875],[-81.0,31.875],[-81.0,31.8770313],[-81.0,31.878948200000025],[-81.0,31.87900159999998],[-81.0,31.87946599999998],[-81.0,31.880199300000015],[-81.0,31.884460199999978],[-81.0,31.88560000000001],[-81.0,31.905],[-80.92500000000001,31.905],[-80.92500000000001,31.904987000000006]]]}},{"type":"Feature","properties":{},"geometry":{"type":"Polygon","coordinates":[[[-80.85000000000002,31.88743199999999],[-80.85000000000002,31.885430799999995],[-80.85000000000002,31.875],[-80.86110910000002,31.875],[-80.8660984,31.875],[-80.86843850000002,31.875],[-80.87275849999997,31.875],[-80.873471,31.875],[-80.87396369999999,31.875],[-80.87556999999998,31.875],[-80.8768695,31.875],[-80.87986319999999,31.875],[-80.88755550000002,31.875],[-80.8914863,31.875],[-80.8918597,31.875],[-80.90000099999997,31.875],[-80.90497859999999,31.875],[-80.90626379999998,31.875],[-80.92433670000003,31.875],[-80.92500000000001,31.875],[-80.92500000000001,31.875529200000017],[-80.92500000000001,31.879977999999994],[-80.92500000000001,31.8935017],[-80.92500000000001,31.897841299999982],[-80.92500000000001,31.904987000000006],[-80.92500000000001,31.905],[-80.85000000000002,31.905],[-80.85000000000002,31.88743199999999]]]}}]}