{"type":"FeatureCollection","features":[{"type":"Feature","properties":{},"geometry":{"type":"Polygon","coordinates":[[[-81.14999999999998,32.2702893],[-81.14999999999998,32.25732679999999],[-81.14999999999998,32.25702519999999],[-81.14999999999998,32.2569972],[-81.14999999999998,32.256101899999976],[-81.14999999999998,32.25432569999998],[-81.14999999999998,32.25],[-81.15395380000001,32.25],[-81.15399639999998,32.25],[-81.15650319999997,32.25],[-81.16224940000001,32.25],[-81.22500000000002,32.25],[-81.22500000000002,32.32499999999999],[-81.14999999999998,32.32499999999999],[-81.14999999999998,32.2705416],[-81.14999999999998,32.2702893]]]}},{"type":"Feature","properties":{},"geometry":{"type":"Polygon","coordinates":[[[-81.14888280000002,32.25],[-81.14999999999998,32.25],[-81.14999999999998,32.25432569999998],[-81.14999999999998,32.256101899999976],[-81.14999999999998,32.25702519999999],[-81.14999999999998,32.25732679999999],[-81.14999999999998,32.2702893],[-81.14999999999998,32.2705416],[-81.14999999999998,32.32499999999999],[-81.13702419999998,32.32499999999999],[-81.13556449999999,32.32499999999999],[-81.13240239999999,32.32499999999999],[-81.1304619,32.32499999999999],[-81.13021120000002,32.32499999999999],[-81.11649720000003,32.32499999999999],[-81.07499999999999,32.32499999999999],[-81.07499999999999,32.25],[-81.11649720000003,32.25],[-81.120543,32.25],[-81.14531979999998,32.25],[-81.14609789999997,32.25],[-81.14725779999998,32.25],[-81.14803219999999,32.25],[-81.14888280000002,32.25]]]}},{"type":"Feature","properties":{},"geometry":{"type":"Polygon","coordinates":[[[-81.184618,32.39999999999998],[-81.14999999999998,32.39999999999998],[-81.14999999999998,32.3456865],[-81.14999999999998,32.345488699999976],[-81.14999999999998,32.34512810000001],[-81.14999999999998,32.343725800000016],[-81.14999999999998,32.34356220000001],[-81.14999999999998,32.343401700000015],[-81.14999999999998,32.34314519999998],[-81.14999999999998,32.34300459999997],[-81.14999999999998,32.34300250000001],[-81.14999999999998,32.34268070000002],[-81.14999999999998,32.340082499999994],[-81.14999999999998,32.33991550000002],[-81.14999999999998,32.3338114],[-81.14999999999998,32.33356250000003],[-81.14999999999998,32.32499999999999],[-81.22500000000002,32.32499999999999],[-81.22500000000002,32.39999999999998],[-81.18599999999998,32.39999999999998],[-81.184618,32.39999999999998]]]}},{"type":"Feature","properties":{},"geometry":{"type":"Polygon","coordinates":[[[-81.14999999999998,32.33356250000003],[-81.14999999999998,32.3338114],[-81.14999999999998,32.33991550000002],[-81.14999999999998,32.340082499999994],[-81.14999999999998,32.34268070000002],[-81.14999999999998,32.34300250000001],[-81.14999999999998,32.34300459999997],[-81.14999999999998,32.34314519999998],[-81.14999999999998,32.343401700000015],[-81.14999999999998,32.34356220000001],[-81.14999999999998,32.343725800000016],[-81.14999999999998,32.34512810000001],[-81.14999999999998,32.345488699999976],[-81.14999999999998,32.3456865],[-81.14999999999998,32.39999999999998],[-81.11649720000003,32.39999999999998],[-81.07499999999999,32.39999999999998],[-81.07499999999999,32.32499999999999],[-81.11649720000003,32.32499999999999],[-81.13021120000002,32.32499999999999],[-81.1304619,32.32499999999999],[-81.13240239999999,32.32499999999999],[-81.13556449999999,32.32499999999999],[-81.13702419999998,32.32499999999999],[-81.14999999999998,32.32499999999999],[-81.14999999999998,32.33356250000003]]]}},{"type":"Feature","properties":{},"geometry":{"type":"Polygon","coordinates":[[[-81.2079263,32.47500000000002],[-81.2078194,32.47500000000002],[-81.20626659999999,32.47500000000002],[-81.20608700000003,32.47500000000002],[-81.20590520000002,32.47500000000002],[-81.14999999999998,32.47500000000002],[-81.14999999999998,32.39999999999998],[-81.184618,32.39999999999998],[-81.18599999999998,32.39999999999998],[-81.22500000000002,32.39999999999998],[-81.22500000000002,32.47059410000003],[-81.22500000000002,32.47500000000002],[-81.20836580000002,32.47500000000002],[-81.2079263,32.47500000000002]]]}},{"type":"Feature","properties":{},"geometry":{"type":"Polygon","coordinates":[[[-81.2806036,32.55000000000001],[-81.28025869999999,32.55000000000001],[-81.22500000000002,32.55000000000001],[-81.22500000000002,32.49379529999999],[-81.22500000000002,32.49294099999997],[-81.22500000000002,32.4927907],[-81.22500000000002,32.4926969],[-81.22500000000002,32.49133999999998],[-81.22500000000002,32.49084529999999],[-81.22500000000002,32.47500000000002],[-81.23051320000002,32.47500000000002],[-81.30000000000001,32.47500000000002],[-81.30000000000001,32.530530999999996],[-81.30000000000001,32.55000000000001],[-81.28163590000003,32.55000000000001],[-81.2806036,32.55000000000001]]]}},{"type":"Feature","properties":{},"geometry":{"type":"Polygon","coordinates":[[[-81.20836580000002,32.47500000000002],[-81.22500000000002,32.47500000000002],[-81.22500000000002,32.49084529999999],[-81.22500000000002,32.49133999999998],[-81.22500000000002,32.4926969],[-81.22500000000002,32.4927907],[-81.22500000000002,32.49294099999997],[-81.22500000000002,32.49379529999999],[-81.22500000000002,32.55000000000001],[-81.14999999999998,32.55000000000001],[-81.14999999999998,32.47500000000002],[-81.20590520000002,32.47500000000002],[-81.20608700000003,32.47500000000002],[-81.20626659999999,32.47500000000002],[-81.2078194,32.47500000000002],[-81.2079263,32.47500000000002],[-81.20836580000002,32.47500000000002]]]}},{"type":"Feature","properties":{},"geometry":{"type":"Polygon","coordinates":[[[-81.41484739999999,32.625],[-81.41476929999999,32.625],[-81.41450759999998,32.625],[-81.41434729999997,32.625],[-81.412736,32.625],[-81.41262560000001,32.625],[-81.4118479,32.625],[-81.375,32.625],[-81.375,32.59188390000003],[-81.375,32.591753100000005],[-81.375,32.590768200000014],[-81.375,32.58966800000002],[-81.375,32.589028600000006],[-81.375,32.55000000000001],[-81.44999999999999,32.55000000000001],[-81.44999999999999,32.625],[-81.41709450000002,32.625],[-81.41484739999999,32.625]]]}},{"type":"Feature","properties":{},"geometry":{"type":"Polygon","coordinates":[[[-81.375,32.589028600000006],[-81.375,32.58966800000002],[-81.375,32.590768200000014],[-81.375,32.591753100000005],[-81.375,32.59188390000003],[-81.375,32.625],[-81.30000000000001,32.625],[-81.30000000000001,32.56373550000001],[-81.30000000000001,32.56277669999997],[-81.30000000000001,32.56252119999999],[-81.30000000000001,32.56238589999998],[-81.30000000000001,32.559119399999986],[-81.30000000000001,32.55881219999998],[-81.30000000000001,32.55880259999998],[-81.30000000000001,32.55824150000001],[-81.30000000000001,32.55000000000001],[-81.32436189999999,32.55000000000001],[-81.33504119999998,32.55000000000001],[-81.34846420000002,32.55000000000001],[-81.375,32.55000000000001],[-81.375,32.589028600000006]]]}},{"type":"Feature","properties":{},"geometry":{"type":"Polygon","coordinates":[[[-81.30000000000001,32.55824150000001],[-81.30000000000001,32.55880259999998],[-81.30000000000001,32.55881219999998],[-81.30000000000001,32.559119399999986],[-81.30000000000001,32.56238589999998],[-81.30000000000001,32.56252119999999],[-81.30000000000001,32.56277669999997],[-81.30000000000001,32.56373550000001],[-81.30000000000001,32.625],[-81.22500000000002,32.625],[-81.22500000000002,32.55000000000001],[-81.28025869999999,32.55000000000001],[-81.2806036,32.55000000000001],[-81.28163590000003,32.55000000000001],[-81.30000000000001,32.55000000000001],[-81.30000000000001,32.55824150000001]]]}},{"type":"Feature","properties":{},"geometry":{"type":"Polygon","coordinates":[[[-81.41476929999999,32.625],[-81.41484739999999,32.625],[-81.41709450000002,32.625],[-81.44999999999999,32.625],[-81.44999999999999,32.69999999999999],[-81.42694940000001,32.69999999999999],[-81.42558960000002,32.69999999999999],[-81.42234730000001,32.69999999999999],[-81.42222550000002,32.69999999999999],[-81.42188879999998,32.69999999999999],[-81.42047769999999,32.69999999999999],[-81.42016030000002,32.69999999999999],[-81.41960920000002,32.69999999999999],[-81.4194387,32.69999999999999],[-81.375,32.69999999999999],[-81.375,32.625],[-81.4118479,32.625],[-81.41262560000001,32.625],[-81.412736,32.625],[-81.41434729999997,32.625],[-81.41450759999998,32.625],[-81.41476929999999,32.625]]]}},{"type":"Feature","properties":{},"geometry":{"type":"Polygon","coordinates":[[[-81.42694940000001,32.69999999999999],[-81.43099030000002,32.69999999999999],[-81.44999999999999,32.69999999999999],[-81.44999999999999,32.77499999999998],[-81.41744399999999,32.77499999999998],[-81.4170527,32.77499999999998],[-81.41631539999997,32.77499999999998],[-81.4162579,32.77499999999998],[-81.41609729999999,32.77499999999998],[-81.41585120000002,32.77499999999998],[-81.375,32.77499999999998],[-81.375,32.71666670000002],[-81.375,32.69999999999999],[-81.39275709999998,32.69999999999999],[-81.4194387,32.69999999999999],[-81.41960920000002,32.69999999999999],[-81.42016030000002,32.69999999999999],[-81.42047769999999,32.69999999999999],[-81.42188879999998,32.69999999999999],[-81.42222550000002,32.69999999999999],[-81.42234730000001,32.69999999999999],[-81.42558960000002,32.69999999999999],[-81.42694940000001,32.69999999999999]]]}},{"type":"Feature","properties":{},"geometry":{"type":"Polygon","coordinates":[[[-81.52499999999998,32.77499999999998],[-81.52499999999998,32.85000000000002],[-81.46794979999999,32.85000000000002],[-81.45814469999999,32.85000000000002],[-81.4578952,32.85000000000002],[-81.45688669999998,32.85000000000002],[-81.45663560000003,32.85000000000002],[-81.44999999999999,32.85000000000002],[-81.44999999999999,32.84986140000001],[-81.44999999999999,32.8495236],[-81.44999999999999,32.8494766],[-81.44999999999999,32.84893010000002],[-81.44999999999999,32.84872330000002],[-81.44999999999999,32.80977150000001],[-81.44999999999999,32.77499999999998],[-81.52499999999998,32.77499999999998]]]}},{"type":"Feature","properties":{},"geometry":{"type":"Polygon","coordinates":[[[-81.43666680000001,32.77499999999998],[-81.44999999999999,32.77499999999998],[-81.44999999999999,32.80977150000001],[-81.44999999999999,32.84872330000002],[-81.44999999999999,32.84893010000002],[-81.44999999999999,32.8494766],[-81.44999999999999,32.8495236],[-81.44999999999999,32.84986140000001],[-81.44999999999999,32.85000000000002],[-81.449657,32.85000000000002],[-81.44818299999997,32.85000000000002],[-81.44645159999999,32.85000000000002],[-81.44580189999999,32.85000000000002],[-81.44271090000001,32.85000000000002],[-81.44200160000003,32.85000000000002],[-81.4416794,32.85000000000002],[-81.42659630000003,32.85000000000002],[-81.375,32.85000000000002],[-81.375,32.77499999999998],[-81.3984448,32.77499999999998],[-81.41585120000002,32.77499999999998],[-81.41609729999999,32.77499999999998],[-81.4162579,32.77499999999998],[-81.41631539999997,32.77499999999998],[-81.4170527,32.77499999999998],[-81.41744399999999,32.77499999999998],[-81.43666680000001,32.77499999999998]]]}},{"type":"Feature","properties":{},"geometry":{"type":"Polygon","coordinates":[[[-81.46794979999999,32.85000000000002],[-81.52499999999998,32.85000000000002],[-81.52499999999998,32.92500000000001],[-81.50141459999998,32.92500000000001],[-81.48747429999997,32.92500000000001],[-81.48737720000003,32.92500000000001],[-81.48568820000003,32.92500000000001],[-81.46007680000002,32.92500000000001],[-81.44999999999999,32.92500000000001],[-81.44999999999999,32.9024268],[-81.44999999999999,32.87268260000002],[-81.44999999999999,32.87257440000002],[-81.44999999999999,32.85000000000002],[-81.45663560000003,32.85000000000002],[-81.45688669999998,32.85000000000002],[-81.4578952,32.85000000000002],[-81.45814469999999,32.85000000000002],[-81.46794979999999,32.85000000000002]]]}},{"type":"Feature","properties":{},"geometry":{"type":"Polygon","coordinates":[[[-81.449657,32.85000000000002],[-81.44999999999999,32.85000000000002],[-81.44999999999999,32.87257440000002],[-81.44999999999999,32.87268260000002],[-81.44999999999999,32.9024268],[-81.44999999999999,32.92500000000001],[-81.375,32.92500000000001],[-81.375,32.85000000000002],[-81.42659630000003,32.85000000000002],[-81.4416794,32.85000000000002],[-81.44200160000003,32.85000000000002],[-81.44271090000001,32.85000000000002],[-81.44580189999999,32.85000000000002],[-81.44645159999999,32.85000000000002],[-81.44818299999997,32.85000000000002],[-81.449657,32.85000000000002]]]}},{"type":"Feature","properties":{},"geometry":{"type":"Polygon","coordinates":[[[-81.4997947,33.0],[-81.49770919999997,33.0],[-81.49739140000003,33.0],[-81.49486230000002,33.0],[-81.49243430000001,33.0],[-81.4921933,33.0],[-81.48472220000002,33.0],[-81.44999999999999,33.0],[-81.44999999999999,32.92500000000001],[-81.46007680000002,32.92500000000001],[-81.48568820000003,32.92500000000001],[-81.48737720000003,32.92500000000001],[-81.48747429999997,32.92500000000001],[-81.50141459999998,32.92500000000001],[-81.52499999999998,32.92500000000001],[-81.52499999999998,32.9778589],[-81.52499999999998,32.99447070000002],[-81.52499999999998,33.0],[-81.509773,33.0],[-81.49979710000002,33.0],[-81.4997947,33.0]]]}},{"type":"Feature","properties":{},"geometry":{"type":"Polygon","coordinates":[[[-81.60000000000002,33.0],[-81.60000000000002,33.05285739999999],[-81.60000000000002,33.072065099999975],[-81.60000000000002,33.072295199999985],[-81.60000000000002,33.07293609999999],[-81.60000000000002,33.073025900000005],[-81.60000000000002,33.07499999999999],[-81.5688212,33.07499999999999],[-81.52499999999998,33.07499999999999],[-81.52499999999998,33.0531067],[-81.52499999999998,33.035008000000005],[-81.52499999999998,33.033353499999976],[-81.52499999999998,33.033193400000016],[-81.52499999999998,33.03183899999999],[-81.52499999999998,33.01537309999998],[-81.52499999999998,33.0],[-81.60000000000002,33.0]]]}},{"type":"Feature","properties":{},"geometry":{"type":"Polygon","coordinates":[[[-81.509773,33.0],[-81.52499999999998,33.0],[-81.52499999999998,33.01537309999998],[-81.52499999999998,33.03183899999999],[-81.52499999999998,33.033193400000016],[-81.52499999999998,33.033353499999976],[-81.52499999999998,33.035008000000005],[-81.52499999999998,33.0531067],[-81.52499999999998,33.07499999999999],[-81.44999999999999,33.07499999999999],[-81.44999999999999,33.0],[-81.48472220000002,33.0],[-81.4921933,33.0],[-81.49243430000001,33.0],[-81.49486230000002,33.0],[-81.49739140000003,33.0],[-81.49770919999997,33.0],[-81.4997947,33.0],[-81.49979710000002,33.0],[-81.509773,33.0]]]}},{"type":"Feature","properties":{},"geometry":{"type":"Polygon","coordinates":[[[-81.5688212,33.07499999999999],[-81.60000000000002,33.07499999999999],[-81.60000000000002,33.07564669999999],[-81.60000000000002,33.076579700000025],[-81.60000000000002,33.07665609999998],[-81.60000000000002,33.08453739999999],[-81.60000000000002,33.085056399999985],[-81.60000000000002,33.08700019999998],[-81.60000000000002,33.087282800000025],[-81.60000000000002,33.09057710000002],[-81.60000000000002,33.14999999999998],[-81.52499999999998,33.14999999999998],[-81.52499999999998,33.07499999999999],[-81.5688212,33.07499999999999]]]}},{"type":"Feature","properties":{},"geometry":{"type":"Polygon","coordinates":[[[-81.22500000000002,32.17500000000001],[-81.16713320000002,32.17500000000001],[-81.1604155,32.17500000000001],[-81.1591282,32.17500000000001],[-81.15900210000001,32.17500000000001],[-81.15881460000003,32.17500000000001],[-81.15780619999998,32.17500000000001],[-81.15643920000002,32.17500000000001],[-81.15628670000001,32.17500000000001],[-81.1559724,32.17500000000001],[-81.15442789999997,32.17500000000001],[-81.1534383,32.17500000000001],[-81.15302910000003,32.17500000000001],[-81.15283360000001,32.17500000000001],[-81.15234779999997,32.17500000000001],[-81.15210589999998,32.17500000000001],[-81.14999999999998,32.17500000000001],[-81.14999999999998,32.174737100000016],[-81.14999999999998,32.17448159999998],[-81.14999999999998,32.16564260000001],[-81.14999999999998,32.16546840000001],[-81.14999999999998,32.161857399999974],[-81.14999999999998,32.161742600000025],[-81.14999999999998,32.15392509999998],[-81.14999999999998,32.15359330000001],[-81.14999999999998,32.15326859999999],[-81.14999999999998,32.153005500000006],[-81.14999999999998,32.152964],[-81.14999999999998,32.15283840000001],[-81.14999999999998,32.15264079999997],[-81.14999999999998,32.15245900000002],[-81.14999999999998,32.15227809999999],[-81.14999999999998,32.152101800000025],[-81.14999999999998,32.15181209999997],[-81.14999999999998,32.1517518],[-81.14999999999998,32.15168560000001],[-81.14999999999998,32.15161899999998],[-81.14999999999998,32.15152840000002],[-81.14999999999998,32.14878540000001],[-81.14999999999998,32.14844799999997],[-81.14999999999998,32.14838320000001],[-81.14999999999998,32.14833340000001],[-81.14999999999998,32.148030000000006],[-81.14999999999998,32.14758499999999],[-81.14999999999998,32.14726109999998],[-81.14999999999998,32.14500670000001],[-81.14999999999998,32.144999999999996],[-81.22500000000002,32.144999999999996],[-81.22500000000002,32.17500000000001]]]}},{"type":"Feature","properties":{},"geometry":{"type":"Polygon","coordinates":[[[-81.14999999999998,32.14726109999998],[-81.14999999999998,32.14758499999999],[-81.14999999999998,32.148030000000006],[-81.14999999999998,32.14838320000001],[-81.14999999999998,32.14844799999997],[-81.14999999999998,32.14878540000001],[-81.14999999999998,32.15152840000002],[-81.14999999999998,32.15161899999998],[-81.14999999999998,32.15168560000001],[-81.14999999999998,32.1517518],[-81.14999999999998,32.15181209999997],[-81.14999999999998,32.152101800000025],[-81.14999999999998,32.15227809999999],[-81.14999999999998,32.15245900000002],[-81.14999999999998,32.15264079999997],[-81.14999999999998,32.15283840000001],[-81.14999999999998,32.152964],[-81.14999999999998,32.153005500000006],[-81.14999999999998,32.15326859999999],[-81.14999999999998,32.15359330000001],[-81.14999999999998,32.15392509999998],[-81.14999999999998,32.161742600000025],[-81.14999999999998,32.161857399999974],[-81.14999999999998,32.16546840000001],[-81.14999999999998,32.16564260000001],[-81.14999999999998,32.17448159999998],[-81.14999999999998,32.174737100000016],[-81.14999999999998,32.17500000000001],[-81.14842970000001,32.17500000000001],[-81.14803119999999,32.17500000000001],[-81.14793880000002,32.17500000000001],[-81.14692489999999,32.17500000000001],[-81.1453702,32.17500000000001],[-81.14523430000003,32.17500000000001],[-81.1428333,32.17500000000001],[-81.14063850000002,32.17500000000001],[-81.13575459999998,32.17500000000001],[-81.13562100000001,32.17500000000001],[-81.13470690000003,32.17500000000001],[-81.1279341,32.17500000000001],[-81.12784440000001,32.17500000000001],[-81.12455670000003,32.17500000000001],[-81.12441239999998,32.17500000000001],[-81.12214490000002,32.17500000000001],[-81.12166359999998,32.17500000000001],[-81.12084099999998,32.17500000000001],[-81.1202753,32.17500000000001],[-81.12000410000002,32.17500000000001],[-81.11972630000002,32.17500000000001],[-81.1190421,32.17500000000001],[-81.11832379999998,32.17500000000001],[-81.1107912,32.17500000000001],[-81.1106423,32.17500000000001],[-81.11017980000003,32.17500000000001],[-81.10946050000001,32.17500000000001],[-81.08448609999999,32.17500000000001],[-81.0820708,32.17500000000001],[-81.08189060000001,32.17500000000001],[-81.07499999999999,32.17500000000001],[-81.07499999999999,32.161621500000024],[-81.07499999999999,32.157532],[-81.07499999999999,32.144999999999996],[-81.14999999999998,32.144999999999996],[-81.14999999999998,32.14726109999998]]]}},{"type":"Feature","properties":{},"geometry":{"type":"Polygon","coordinates":[[[-81.07499999999999,32.157532],[-81.07499999999999,32.161621500000024],[-81.07499999999999,32.17500000000001],[-81.0,32.17500000000001],[-81.0,32.15752939999999],[-81.0,32.144999999999996],[-81.07499999999999,32.144999999999996],[-81.07499999999999,32.157532]]]}},{"type":"Feature","properties":{},"geometry":{"type":"Polygon","coordinates":[[[-81.0,32.15752939999999],[-81.0,32.17500000000001],[-80.97280719999998,32.17500000000001],[-80.96888410000003,32.17500000000001],[-80.96286959999998,32.17500000000001],[-80.96080490000003,32.17500000000001],[-80.95984629999998,32.17500000000001],[-80.95777750000002,32.17500000000001],[-80.95552759999998,32.17500000000001],[-80.95466809999999,32.17500000000001],[-80.9529627,32.17500000000001],[-80.94320679999998,32.17500000000001],[-80.92500000000001,32.17500000000001],[-80.92500000000001,32.15752939999999],[-80.92500000000001,32.15172510000002],[-80.92500000000001,32.15117299999997],[-80.92500000000001,32.15092120000003],[-80.92500000000001,32.14920940000002],[-80.92500000000001,32.14906789999998],[-80.92500000000001,32.1473221],[-80.92500000000001,32.146746199999995],[-80.92500000000001,32.144999999999996],[-81.0,32.144999999999996],[-81.0,32.15752939999999]]]}},{"type":"Feature","properties":{},"geometry":{"type":"Polygon","coordinates":[[[-81.15399639999998,32.25],[-81.15395380000001,32.25],[-81.14999999999998,32.25],[-81.14999999999998,32.24957699999999],[-81.14999999999998,32.24938759999998],[-81.14999999999998,32.24920589999999],[-81.14999999999998,32.24905890000002],[-81.14999999999998,32.2480142],[-81.14999999999998,32.24787980000002],[-81.14999999999998,32.238273400000026],[-81.14999999999998,32.238154399999985],[-81.14999999999998,32.23648480000003],[-81.14999999999998,32.236336600000016],[-81.14999999999998,32.23586039999998],[-81.14999999999998,32.23516810000001],[-81.14999999999998,32.23444030000002],[-81.14999999999998,32.233891099999994],[-81.14999999999998,32.233437200000026],[-81.14999999999998,32.233309599999984],[-81.14999999999998,32.225224200000014],[-81.14999999999998,32.22503280000001],[-81.14999999999998,32.224782000000005],[-81.14999999999998,32.224606800000004],[-81.14999999999998,32.22454040000002],[-81.14999999999998,32.22422940000001],[-81.14999999999998,32.22416449999997],[-81.14999999999998,32.22395990000001],[-81.14999999999998,32.2236145],[-81.14999999999998,32.222862899999996],[-81.14999999999998,32.22227040000001],[-81.14999999999998,32.222081100000025],[-81.14999999999998,32.22122059999998],[-81.14999999999998,32.221133899999984],[-81.14999999999998,32.220802400000025],[-81.14999999999998,32.21692860000002],[-81.14999999999998,32.21673500000003],[-81.14999999999998,32.21667120000001],[-81.14999999999998,32.216436199999976],[-81.14999999999998,32.21594329999999],[-81.14999999999998,32.21594299999998],[-81.14999999999998,32.21554400000002],[-81.14999999999998,32.215234399999986],[-81.14999999999998,32.2143691],[-81.14999999999998,32.21332860000001],[-81.14999999999998,32.2110783],[-81.14999999999998,32.20985289999999],[-81.14999999999998,32.208688600000016],[-81.14999999999998,32.20788520000002],[-81.14999999999998,32.2065561],[-81.14999999999998,32.20533519999998],[-81.14999999999998,32.203103399999975],[-81.14999999999998,32.202586999999994],[-81.14999999999998,32.20252850000003],[-81.14999999999998,32.202432999999985],[-81.14999999999998,32.201911499999994],[-81.14999999999998,32.20022490000002],[-81.14999999999998,32.19804640000001],[-81.14999999999998,32.19728140000001],[-81.14999999999998,32.19639960000001],[-81.14999999999998,32.196341099999984],[-81.14999999999998,32.1961154],[-81.14999999999998,32.1937514],[-81.14999999999998,32.191000299999985],[-81.14999999999998,32.19085480000001],[-81.14999999999998,32.18810330000002],[-81.14999999999998,32.18805459999999],[-81.14999999999998,32.1815929],[-81.14999999999998,32.18155489999998],[-81.14999999999998,32.181074799999976],[-81.14999999999998,32.18101439999998],[-81.14999999999998,32.18044709999998],[-81.14999999999998,32.180113000000006],[-81.14999999999998,32.17982949999998],[-81.14999999999998,32.17961559999998],[-81.14999999999998,32.17949659999999],[-81.14999999999998,32.17754389999999],[-81.14999999999998,32.17680139999999],[-81.14999999999998,32.1766432],[-81.14999999999998,32.17649210000002],[-81.14999999999998,32.176355899999976],[-81.14999999999998,32.1762665],[-81.14999999999998,32.17500000000001],[-81.15210589999998,32.17500000000001],[-81.15234779999997,32.17500000000001],[-81.15283360000001,32.17500000000001],[-81.15302910000003,32.17500000000001],[-81.1534383,32.17500000000001],[-81.15442789999997,32.17500000000001],[-81.1559724,32.17500000000001],[-81.15628670000001,32.17500000000001],[-81.15643920000002,32.17500000000001],[-81.15780619999998,32.17500000000001],[-81.15881460000003,32.17500000000001],[-81.15900210000001,32.17500000000001],[-81.1591282,32.17500000000001],[-81.1604155,32.17500000000001],[-81.16713320000002,32.17500000000001],[-81.22500000000002,32.17500000000001],[-81.22500000000002,32.25],[-81.16224940000001,32.25],[-81.15650319999997,32.25],[-81.15399639999998,32.25]]]}},{"type":"Feature","properties":{},"geometry":{"type":"Polygon","coordinates":[[[-81.14999999999998,32.1762665],[-81.14999999999998,32.176355899999976],[-81.14999999999998,32.17649210000002],[-81.14999999999998,32.1766432],[-81.14999999999998,32.17680139999999],[-81.14999999999998,32.17754389999999],[-81.14999999999998,32.17949659999999],[-81.14999999999998,32.17961559999998],[-81.14999999999998,32.17982949999998],[-81.14999999999998,32.180113000000006],[-81.14999999999998,32.18044709999998],[-81.14999999999998,32.18101439999998],[-81.14999999999998,32.181074799999976],[-81.14999999999998,32.18155489999998],[-81.14999999999998,32.1815929],[-81.14999999999998,32.18805459999999],[-81.14999999999998,32.18810330000002],[-81.14999999999998,32.19085480000001],[-81.14999999999998,32.191000299999985],[-81.14999999999998,32.1937514],[-81.14999999999998,32.1961154],[-81.14999999999998,32.196341099999984],[-81.14999999999998,32.19639960000001],[-81.14999999999998,32.19728140000001],[-81.14999999999998,32.19804640000001],[-81.14999999999998,32.20022490000002],[-81.14999999999998,32.201911499999994],[-81.14999999999998,32.202432999999985],[-81.14999999999998,32.20252850000003],[-81.14999999999998,32.202586999999994],[-81.14999999999998,32.203103399999975],[-81.14999999999998,32.20533519999998],[-81.14999999999998,32.2065561],[-81.14999999999998,32.20788520000002],[-81.14999999999998,32.208688600000016],[-81.14999999999998,32.20985289999999],[-81.14999999999998,32.2110783],[-81.14999999999998,32.21332860000001],[-81.14999999999998,32.2143691],[-81.14999999999998,32.215234399999986],[-81.14999999999998,32.21554400000002],[-81.14999999999998,32.21594329999999],[-81.14999999999998,32.216436199999976],[-81.14999999999998,32.21667120000001],[-81.14999999999998,32.21673500000003],[-81.14999999999998,32.21692860000002],[-81.14999999999998,32.220802400000025],[-81.14999999999998,32.221133899999984],[-81.14999999999998,32.22122059999998],[-81.14999999999998,32.222081100000025],[-81.14999999999998,32.22227040000001],[-81.14999999999998,32.222862899999996],[-81.14999999999998,32.2236145],[-81.14999999999998,32.22395990000001],[-81.14999999999998,32.22416449999997],[-81.14999999999998,32.22422940000001],[-81.14999999999998,32.22454040000002],[-81.14999999999998,32.224606800000004],[-81.14999999999998,32.224782000000005],[-81.14999999999998,32.22503280000001],[-81.14999999999998,32.225224200000014],[-81.14999999999998,32.233309599999984],[-81.14999999999998,32.233437200000026],[-81.14999999999998,32.233891099999994],[-81.14999999999998,32.23444030000002],[-81.14999999999998,32.23516810000001],[-81.14999999999998,32.23586039999998],[-81.14999999999998,32.236336600000016],[-81.14999999999998,32.23648480000003],[-81.14999999999998,32.238154399999985],[-81.14999999999998,32.238273400000026],[-81.14999999999998,32.24787980000002],[-81.14999999999998,32.2480142],[-81.14999999999998,32.24905890000002],[-81.14999999999998,32.24920589999999],[-81.14999999999998,32.24938759999998],[-81.14999999999998,32.24957699999999],[-81.14999999999998,32.25],[-81.14888280000002,32.25],[-81.14803219999999,32.25],[-81.14725779999998,32.25],[-81.14609789999997,32.25],[-81.14531979999998,32.25],[-81.120543,32.25],[-81.11649720000003,32.25],[-81.07499999999999,32.25],[-81.07499999999999,32.17500000000001],[-81.08189060000001,32.17500000000001],[-81.0820708,32.17500000000001],[-81.10946050000001,32.17500000000001],[-81.11017980000003,32.17500000000001],[-81.1106423,32.17500000000001],[-81.1107912,32.17500000000001],[-81.11832379999998,32.17500000000001],[-81.1190421,32.17500000000001],[-81.11972630000002,32.17500000000001],[-81.12000410000002,32.17500000000001],[-81.1202753,32.17500000000001],[-81.12084099999998,32.17500000000001],[-81.12166359999998,32.17500000000001],[-81.12214490000002,32.17500000000001],[-81.12441239999998,32.17500000000001],[-81.12455670000003,32.17500000000001],[-81.12784440000001,32.17500000000001],[-81.1279341,32.17500000000001],[-81.13470690000003,32.17500000000001],[-81.13562100000001,32.17500000000001],[-81.13575459999998,32.17500000000001],[-81.14063850000002,32.17500000000001],[-81.1428333,32.17500000000001],[-81.14523430000003,32.17500000000001],[-81.1453702,32.17500000000001],[-81.14692489999999,32.17500000000001],[-81.14793880000002,32.17500000000001],[-81.14803119999999,32.17500000000001],[-81.14842970000001,32.17500000000001],[-81.14999999999998,32.17500000000001],[-81.14999999999998,32.1762665]]]}},{"type":"Feature","properties":{},"geometry":{"type":"Polygon","coordinates":[[[-80.92500000000001,32.146746199999995],[-80.92500000000001,32.1473221],[-80.92500000000001,32.14906789999998],[-80.92500000000001,32.14920940000002],[-80.92500000000001,32.15092120000003],[-80.92500000000001,32.15117299999997],[-80.92500000000001,32.15172510000002],[-80.92500000000001,32.15752939999999],[-80.92500000000001,32.17500000000001],[-80.89291530000003,32.17500000000001],[-80.89235389999999,32.17500000000001],[-80.8891231,32.17500000000001],[-80.88814780000001,32.17500000000001],[-80.88319580000001,32.17500000000001],[-80.88290610000001,32.17500000000001],[-80.87485229999999,32.17500000000001],[-80.87325340000001,32.17500000000001],[-80.87113870000002,32.17500000000001],[-80.8673157,32.17500000000001],[-80.862978,32.17500000000001],[-80.86259890000002,32.17500000000001],[-80.86252359999997,32.17500000000001],[-80.86086569999998,32.17500000000001],[-80.86022730000002,32.17500000000001],[-80.8594746,32.17500000000001],[-80.85000000000002,32.17500000000001],[-80.85000000000002,32.16656039999998],[-80.85000000000002,32.152780699999994],[-80.85000000000002,32.1524498],[-80.85000000000002,32.15241880000002],[-80.85000000000002,32.1523823],[-80.85000000000002,32.15202879999998],[-80.85000000000002,32.15063190000001],[-80.85000000000002,32.149053700000024],[-80.85000000000002,32.14902940000002],[-80.85000000000002,32.14884410000002],[-80.85000000000002,32.14809709999997],[-80.85000000000002,32.14654730000001],[-80.85000000000002,32.14610649999997],[-80.85000000000002,32.14560740000002],[-80.85000000000002,32.14529399999998],[-80.85000000000002,32.144999999999996],[-80.92500000000001,32.144999999999996],[-80.92500000000001,32.146746199999995]]]}},{"type":"Feature","properties":{},"geometry":{"type":"Polygon","coordinates":[[[-80.85000000000002,32.14529399999998],[-80.85000000000002,32.14560740000002],[-80.85000000000002,32.14610649999997],[-80.85000000000002,32.14654730000001],[-80.85000000000002,32.14809709999997],[-80.85000000000002,32.14884410000002],[-80.85000000000002,32.14902940000002],[-80.85000000000002,32.149053700000024],[-80.85000000000002,32.15063190000001],[-80.85000000000002,32.15202879999998],[-80.85000000000002,32.1523823],[-80.85000000000002,32.15241880000002],[-80.85000000000002,32.1524498],[-80.85000000000002,32.152780699999994],[-80.85000000000002,32.16656039999998],[-80.85000000000002,32.17500000000001],[-80.82455249999998,32.17500000000001],[-80.8240768,32.17500000000001],[-80.82346439999998,32.17500000000001],[-80.82329729999998,32.17500000000001],[-80.82308169999999,32.17500000000001],[-80.82297640000002,32.17500000000001],[-80.81673239999998,32.17500000000001],[-80.80835680000001,32.17500000000001],[-80.8076302,32.17500000000001],[-80.80557900000002,32.17500000000001],[-80.8053468,32.17500000000001],[-80.80495880000001,32.17500000000001],[-80.8047406,32.17500000000001],[-80.80030850000003,32.17500000000001],[-80.7984682,32.17500000000001],[-80.79833480000002,32.17500000000001],[-80.79770409999998,32.17500000000001],[-80.79722800000002,32.17500000000001],[-80.795,32.17500000000001],[-80.795,32.144999999999996],[-80.85000000000002,32.144999999999996],[-80.85000000000002,32.14529399999998]]]}},{"type":"Feature","properties":{},"geometry":{"type":"Polygon","coordinates":[[[-80.79722800000002,32.17500000000001],[-80.79770409999998,32.17500000000001],[-80.79833480000002,32.17500000000001],[-80.7984682,32.17500000000001],[-80.80030850000003,32.17500000000001],[-80.8047406,32.17500000000001],[-80.80495880000001,32.17500000000001],[-80.8053468,32.17500000000001],[-80.80557900000002,32.17500000000001],[-80.8076302,32.17500000000001],[-80.80835680000001,32.17500000000001],[-80.81673239999998,32.17500000000001],[-80.82297640000002,32.17500000000001],[-80.82308169999999,32.17500000000001],[-80.82329729999998,32.17500000000001],[-80.82346439999998,32.17500000000001],[-80.8240768,32.17500000000001],[-80.82455249999998,32.17500000000001],[-80.85000000000002,32.17500000000001],[-80.85000000000002,32.18088899999998],[-80.85000000000002,32.181399],[-80.85000000000002,32.18198389999998],[-80.85000000000002,32.18383],[-80.85000000000002,32.18416400000001],[-80.85000000000002,32.18503279999999],[-80.85000000000002,32.18531309999997],[-80.85000000000002,32.185654699999986],[-80.85000000000002,32.1866703],[-80.85000000000002,32.188010099999985],[-80.85000000000002,32.18818440000001],[-80.85000000000002,32.18903],[-80.85000000000002,32.18916810000002],[-80.85000000000002,32.19004810000001],[-80.85000000000002,32.19220560000002],[-80.85000000000002,32.19235550000002],[-80.85000000000002,32.194566699999996],[-80.85000000000002,32.20221650000002],[-80.85000000000002,32.20967030000003],[-80.85000000000002,32.2100681],[-80.85000000000002,32.21020920000001],[-80.85000000000002,32.21166210000001],[-80.85000000000002,32.212392299999976],[-80.85000000000002,32.21322620000001],[-80.85000000000002,32.213429399999995],[-80.85000000000002,32.21378379999999],[-80.85000000000002,32.21399150000002],[-80.85000000000002,32.218816300000015],[-80.85000000000002,32.25],[-80.81481500000001,32.25],[-80.81477769999998,32.25],[-80.80891559999998,32.25],[-80.80841349999997,32.25],[-80.80777060000003,32.25],[-80.80724700000002,32.25],[-80.80645550000003,32.25],[-80.80626130000002,32.25],[-80.80500860000001,32.25],[-80.80488739999998,32.25],[-80.8047573,32.25],[-80.8032895,32.25],[-80.80323370000002,32.25],[-80.80002480000002,32.25],[-80.79899449999999,32.25],[-80.795,32.25],[-80.795,32.17500000000001],[-80.79722800000002,32.17500000000001]]]}},{"type":"Feature","properties":{},"geometry":{"type":"Polygon","coordinates":[[[-81.64171870000001,33.0],[-81.67500000000001,33.0],[-81.67500000000001,33.07499999999999],[-81.65793680000002,33.07499999999999],[-81.64430390000001,33.07499999999999],[-81.6230976,33.07499999999999],[-81.60390530000001,33.07499999999999],[-81.60303540000001,33.07499999999999],[-81.60260720000002,33.07499999999999],[-81.60135600000001,33.07499999999999],[-81.60000000000002,33.07499999999999],[-81.60000000000002,33.073025900000005],[-81.60000000000002,33.07293609999999],[-81.60000000000002,33.072295199999985],[-81.60000000000002,33.072065099999975],[-81.60000000000002,33.05285739999999],[-81.60000000000002,33.0],[-81.64171870000001,33.0]]]}},{"type":"Feature","properties":{},"geometry":{"type":"Polygon","coordinates":[[[-81.82499999999999,33.07499999999999],[-81.82499999999999,33.14999999999998],[-81.77255580000002,33.14999999999998],[-81.7546668,33.14999999999998],[-81.75464060000002,33.14999999999998],[-81.75327069999997,33.14999999999998],[-81.75310719999999,33.14999999999998],[-81.75,33.14999999999998],[-81.75,33.14833659999999],[-81.75,33.14821649999999],[-81.75,33.147526500000026],[-81.75,33.1471123],[-81.75,33.146459900000025],[-81.75,33.13873219999999],[-81.75,33.07499999999999],[-81.82499999999999,33.07499999999999]]]}},{"type":"Feature","properties":{},"geometry":{"type":"Polygon","coordinates":[[[-81.75,33.07499999999999],[-81.75,33.13873219999999],[-81.75,33.146459900000025],[-81.75,33.1471123],[-81.75,33.147526500000026],[-81.75,33.14821649999999],[-81.75,33.14833659999999],[-81.75,33.14999999999998],[-81.71893970000002,33.14999999999998],[-81.67500000000001,33.14999999999998],[-81.67500000000001,33.12804749999998],[-81.67500000000001,33.1100275],[-81.67500000000001,33.108810300000016],[-81.67500000000001,33.09034159999999],[-81.67500000000001,33.07499999999999],[-81.75,33.07499999999999]]]}},{"type":"Feature","properties":{},"geometry":{"type":"Polygon","coordinates":[[[-81.65793680000002,33.07499999999999],[-81.67500000000001,33.07499999999999],[-81.67500000000001,33.09034159999999],[-81.67500000000001,33.108810300000016],[-81.67500000000001,33.1100275],[-81.67500000000001,33.12804749999998],[-81.67500000000001,33.14999999999998],[-81.67412330000002,33.14999999999998],[-81.60000000000002,33.14999999999998],[-81.60000000000002,33.09057710000002],[-81.60000000000002,33.087282800000025],[-81.60000000000002,33.08700019999998],[-81.60000000000002,33.085056399999985],[-81.60000000000002,33.08453739999999],[-81.60000000000002,33.07665609999998],[-81.60000000000002,33.076579700000025],[-81.60000000000002,33.07564669999999],[-81.60000000000002,33.07499999999999],[-81.60135600000001,33.07499999999999],[-81.60260720000002,33.07499999999999],[-81.60303540000001,33.07499999999999],[-81.60390530000001,33.07499999999999],[-81.6230976,33.07499999999999],[-81.64430390000001,33.07499999999999],[-81.65793680000002,33.07499999999999]]]}},{"type":"Feature","properties":{},"geometry":{"type":"Polygon","coordinates":[[[-81.77255580000002,33.14999999999998],[-81.82499999999999,33.14999999999998],[-81.82499999999999,33.218311099999994],[-81.82499999999999,33.22500000000002],[-81.81753980000002,33.22500000000002],[-81.81577349999998,33.22500000000002],[-81.81559629999998,33.22500000000002],[-81.81499129999997,33.22500000000002],[-81.782219,33.22500000000002],[-81.77317690000001,33.22500000000002],[-81.75,33.22500000000002],[-81.75,33.20157710000001],[-81.75,33.16855290000001],[-81.75,33.1655179],[-81.75,33.14999999999998],[-81.75310719999999,33.14999999999998],[-81.75327069999997,33.14999999999998],[-81.75464060000002,33.14999999999998],[-81.7546668,33.14999999999998],[-81.77255580000002,33.14999999999998]]]}},{"type":"Feature","properties":{},"geometry":{"type":"Polygon","coordinates":[[[-81.83162190000002,33.22500000000002],[-81.89999999999998,33.22500000000002],[-81.89999999999998,33.294070499999975],[-81.89999999999998,33.30000000000001],[-81.85995380000003,33.30000000000001],[-81.85978,33.30000000000001],[-81.85598240000002,33.30000000000001],[-81.85479220000002,33.30000000000001],[-81.85428680000001,33.30000000000001],[-81.85049049999998,33.30000000000001],[-81.85000860000002,33.30000000000001],[-81.84911729999999,33.30000000000001],[-81.84890469999999,33.30000000000001],[-81.84280710000002,33.30000000000001],[-81.82499999999999,33.30000000000001],[-81.82499999999999,33.269197399999996],[-81.82499999999999,33.26466319999997],[-81.82499999999999,33.26439019999998],[-81.82499999999999,33.2284775],[-81.82499999999999,33.22837270000002],[-81.82499999999999,33.227671799999996],[-81.82499999999999,33.227535999999986],[-81.82499999999999,33.22500000000002],[-81.83162190000002,33.22500000000002]]]}},{"type":"Feature","properties":{},"geometry":{"type":"Polygon","coordinates":[[[-81.81753980000002,33.22500000000002],[-81.82499999999999,33.22500000000002],[-81.82499999999999,33.227535999999986],[-81.82499999999999,33.227671799999996],[-81.82499999999999,33.22837270000002],[-81.82499999999999,33.2284775],[-81.82499999999999,33.26439019999998],[-81.82499999999999,33.26466319999997],[-81.82499999999999,33.269197399999996],[-81.82499999999999,33.30000000000001],[-81.75,33.30000000000001],[-81.75,33.22500000000002],[-81.77317690000001,33.22500000000002],[-81.782219,33.22500000000002],[-81.81499129999997,33.22500000000002],[-81.81559629999998,33.22500000000002],[-81.81577349999998,33.22500000000002],[-81.81753980000002,33.22500000000002]]]}}]}