{"type":"FeatureCollection","features":[{"type":"Feature","properties":{},"geometry":{"type":"Polygon","coordinates":[[[-82.875,27.649065800000017],[-82.875,27.651327200000026],[-82.875,27.66125950000003],[-82.875,27.673656199999982],[-82.875,27.67500000000001],[-82.86465140000001,27.67500000000001],[-82.8638861,27.67500000000001],[-82.8630377,27.67500000000001],[-82.86158069999999,27.67500000000001],[-82.85964560000002,27.67500000000001],[-82.8580159,27.67500000000001],[-82.85663449999998,27.67500000000001],[-82.85646150000002,27.67500000000001],[-82.8298949,27.67500000000001],[-82.82808779999999,27.67500000000001],[-82.80208970000001,27.67500000000001],[-82.8016829,27.67500000000001],[-82.80000000000001,27.67500000000001],[-82.80000000000001,27.645],[-82.875,27.645],[-82.875,27.649065800000017]]]}},{"type":"Feature","properties":{},"geometry":{"type":"Polygon","coordinates":[[[-82.80000000000001,27.67500000000001],[-82.77484320000002,27.67500000000001],[-82.7735879,27.67500000000001],[-82.77151309999999,27.67500000000001],[-82.76399199999997,27.67500000000001],[-82.76351349999999,27.67500000000001],[-82.7620245,27.67500000000001],[-82.74529539999997,27.67500000000001],[-82.7444289,27.67500000000001],[-82.74356360000002,27.67500000000001],[-82.7433967,27.67500000000001],[-82.74269199999998,27.67500000000001],[-82.7425561,27.67500000000001],[-82.73199299999999,27.67500000000001],[-82.73198910000002,27.67500000000001],[-82.73188329999999,27.67500000000001],[-82.73174790000002,27.67500000000001],[-82.73146059999999,27.67500000000001],[-82.73144830000001,27.67500000000001],[-82.73139350000002,27.67500000000001],[-82.72870460000001,27.67500000000001],[-82.72863000000001,27.67500000000001],[-82.72811009999998,27.67500000000001],[-82.7281044,27.67500000000001],[-82.72801629999998,27.67500000000001],[-82.72500000000002,27.67500000000001],[-82.72500000000002,27.673725400000023],[-82.72500000000002,27.665616100000022],[-82.72500000000002,27.664854600000012],[-82.72500000000002,27.662726700000007],[-82.72500000000002,27.661837699999978],[-82.72500000000002,27.6617622],[-82.72500000000002,27.64894750000002],[-82.72500000000002,27.648149699999976],[-82.72500000000002,27.647931299999982],[-82.72500000000002,27.647640299999978],[-82.72500000000002,27.645424699999978],[-82.72500000000002,27.645265900000027],[-82.72500000000002,27.645],[-82.80000000000001,27.645],[-82.80000000000001,27.67500000000001]]]}},{"type":"Feature","properties":{},"geometry":{"type":"Polygon","coordinates":[[[-82.72500000000002,27.645141200000012],[-82.72500000000002,27.645265900000027],[-82.72500000000002,27.645424699999978],[-82.72500000000002,27.647640299999978],[-82.72500000000002,27.647931299999982],[-82.72500000000002,27.648149699999976],[-82.72500000000002,27.64894750000002],[-82.72500000000002,27.6617622],[-82.72500000000002,27.661837699999978],[-82.72500000000002,27.662726700000007],[-82.72500000000002,27.664854600000012],[-82.72500000000002,27.665616100000022],[-82.72500000000002,27.673725400000023],[-82.72500000000002,27.67500000000001],[-82.7241879,27.67500000000001],[-82.72418590000001,27.67500000000001],[-82.72357449999998,27.67500000000001],[-82.72356189999999,27.67500000000001],[-82.72171859999997,27.67500000000001],[-82.72171809999998,27.67500000000001],[-82.70188259999998,27.67500000000001],[-82.693129,27.67500000000001],[-82.69068529999998,27.67500000000001],[-82.6898448,27.67500000000001],[-82.6896342,27.67500000000001],[-82.68847749999998,27.67500000000001],[-82.68785889999998,27.67500000000001],[-82.683292,27.67500000000001],[-82.68298270000003,27.67500000000001],[-82.68231229999998,27.67500000000001],[-82.67856389999997,27.67500000000001],[-82.67711650000001,27.67500000000001],[-82.67120369999998,27.67500000000001],[-82.67063669999999,27.67500000000001],[-82.66970220000002,27.67500000000001],[-82.66619659999998,27.67500000000001],[-82.65463119999998,27.67500000000001],[-82.65129309999998,27.67500000000001],[-82.64999999999998,27.67500000000001],[-82.64999999999998,27.674674400000015],[-82.64999999999998,27.65680329999998],[-82.64999999999998,27.6517197],[-82.64999999999998,27.64821599999999],[-82.64999999999998,27.645],[-82.72500000000002,27.645],[-82.72500000000002,27.645141200000012]]]}},{"type":"Feature","properties":{},"geometry":{"type":"Polygon","coordinates":[[[-82.64999999999998,27.64821599999999],[-82.64999999999998,27.6517197],[-82.64999999999998,27.65680329999998],[-82.64999999999998,27.674674400000015],[-82.64999999999998,27.67500000000001],[-82.64912229999999,27.67500000000001],[-82.6383841,27.67500000000001],[-82.63304879999998,27.67500000000001],[-82.62321680000002,27.67500000000001],[-82.6209872,27.67500000000001],[-82.61629820000002,27.67500000000001],[-82.6122406,27.67500000000001],[-82.61083389999999,27.67500000000001],[-82.59576399999997,27.67500000000001],[-82.59073260000002,27.67500000000001],[-82.59024540000001,27.67500000000001],[-82.5897521,27.67500000000001],[-82.58975079999999,27.67500000000001],[-82.58926930000001,27.67500000000001],[-82.5887806,27.67500000000001],[-82.5855755,27.67500000000001],[-82.58479139999997,27.67500000000001],[-82.58360429999999,27.67500000000001],[-82.57973770000001,27.67500000000001],[-82.57938949999999,27.67500000000001],[-82.57924129999998,27.67500000000001],[-82.57799260000002,27.67500000000001],[-82.57562159999998,27.67500000000001],[-82.57499999999999,27.67500000000001],[-82.57499999999999,27.66537310000001],[-82.57499999999999,27.664503000000025],[-82.57499999999999,27.66248730000001],[-82.57499999999999,27.66085720000001],[-82.57499999999999,27.65309350000001],[-82.57499999999999,27.65135650000002],[-82.57499999999999,27.650613599999986],[-82.57499999999999,27.650226900000007],[-82.57499999999999,27.64704499999999],[-82.57499999999999,27.646094199999993],[-82.57499999999999,27.645],[-82.64999999999998,27.645],[-82.64999999999998,27.64821599999999]]]}},{"type":"Feature","properties":{},"geometry":{"type":"Polygon","coordinates":[[[-82.57499999999999,27.646094199999993],[-82.57499999999999,27.64704499999999],[-82.57499999999999,27.650226900000007],[-82.57499999999999,27.650613599999986],[-82.57499999999999,27.65135650000002],[-82.57499999999999,27.65309350000001],[-82.57499999999999,27.66085720000001],[-82.57499999999999,27.66248730000001],[-82.57499999999999,27.664503000000025],[-82.57499999999999,27.66537310000001],[-82.57499999999999,27.67500000000001],[-82.57140270000002,27.67500000000001],[-82.57065770000003,27.67500000000001],[-82.55510099999998,27.67500000000001],[-82.54785629999998,27.67500000000001],[-82.54668179999999,27.67500000000001],[-82.53982230000003,27.67500000000001],[-82.53582790000002,27.67500000000001],[-82.53544299999999,27.67500000000001],[-82.5348525,27.67500000000001],[-82.53418979999998,27.67500000000001],[-82.53343790000002,27.67500000000001],[-82.53211040000002,27.67500000000001],[-82.52946759999998,27.67500000000001],[-82.52897180000002,27.67500000000001],[-82.52803820000003,27.67500000000001],[-82.52758699999998,27.67500000000001],[-82.52719969999998,27.67500000000001],[-82.52702240000002,27.67500000000001],[-82.526367,27.67500000000001],[-82.52572199999997,27.67500000000001],[-82.51845750000001,27.67500000000001],[-82.51227799999998,27.67500000000001],[-82.51001500000001,27.67500000000001],[-82.50950210000002,27.67500000000001],[-82.50898860000001,27.67500000000001],[-82.50855760000002,27.67500000000001],[-82.50325479999998,27.67500000000001],[-82.5,27.67500000000001],[-82.5,27.67445140000001],[-82.5,27.645],[-82.57499999999999,27.645],[-82.57499999999999,27.646094199999993]]]}},{"type":"Feature","properties":{},"geometry":{"type":"Polygon","coordinates":[[[-82.77484320000002,27.67500000000001],[-82.80000000000001,27.67500000000001],[-82.80000000000001,27.684283499999992],[-82.80000000000001,27.685675500000002],[-82.80000000000001,27.705770900000005],[-82.80000000000001,27.706365300000016],[-82.80000000000001,27.718530299999998],[-82.80000000000001,27.728744800000015],[-82.80000000000001,27.739542599999993],[-82.80000000000001,27.739627199999973],[-82.80000000000001,27.74473180000001],[-82.80000000000001,27.75],[-82.78826470000001,27.75],[-82.77857210000002,27.75],[-82.77391890000001,27.75],[-82.76941620000002,27.75],[-82.76360690000001,27.75],[-82.7632261,27.75],[-82.7612608,27.75],[-82.76046869999999,27.75],[-82.75968310000002,27.75],[-82.75851060000002,27.75],[-82.75294109999999,27.75],[-82.75254790000002,27.75],[-82.7524411,27.75],[-82.75225999999998,27.75],[-82.75208780000003,27.75],[-82.75145309999999,27.75],[-82.75108080000001,27.75],[-82.74987010000001,27.75],[-82.7461667,27.75],[-82.74488769999999,27.75],[-82.742772,27.75],[-82.73975389999998,27.75],[-82.73965900000002,27.75],[-82.73958570000002,27.75],[-82.73838740000002,27.75],[-82.73542459999999,27.75],[-82.72813939999998,27.75],[-82.72582670000003,27.75],[-82.72501290000002,27.75],[-82.72500000000002,27.75],[-82.72500000000002,27.749990700000012],[-82.72500000000002,27.749697200000014],[-82.72500000000002,27.747781799999984],[-82.72500000000002,27.745164699999975],[-82.72500000000002,27.742932800000005],[-82.72500000000002,27.739451299999985],[-82.72500000000002,27.73581059999998],[-82.72500000000002,27.73390119999999],[-82.72500000000002,27.733465200000012],[-82.72500000000002,27.73135960000002],[-82.72500000000002,27.729651100000012],[-82.72500000000002,27.728947500000004],[-82.72500000000002,27.724442599999975],[-82.72500000000002,27.723628500000018],[-82.72500000000002,27.723283900000013],[-82.72500000000002,27.722939199999985],[-82.72500000000002,27.720643999999993],[-82.72500000000002,27.71934140000002],[-82.72500000000002,27.718556499999977],[-82.72500000000002,27.71789480000001],[-82.72500000000002,27.717233099999987],[-82.72500000000002,27.716882399999974],[-82.72500000000002,27.715403999999978],[-82.72500000000002,27.714733799999976],[-82.72500000000002,27.714510500000017],[-82.72500000000002,27.714196000000015],[-82.72500000000002,27.712968400000022],[-82.72500000000002,27.712706000000026],[-82.72500000000002,27.71205040000001],[-82.72500000000002,27.709751900000015],[-82.72500000000002,27.709657300000003],[-82.72500000000002,27.709599500000024],[-82.72500000000002,27.709380099999976],[-82.72500000000002,27.708985700000028],[-82.72500000000002,27.70821940000002],[-82.72500000000002,27.708048399999996],[-82.72500000000002,27.706661600000018],[-82.72500000000002,27.70294050000001],[-82.72500000000002,27.701705100000027],[-82.72500000000002,27.700469699999985],[-82.72500000000002,27.698999500000014],[-82.72500000000002,27.698675999999978],[-82.72500000000002,27.69835260000002],[-82.72500000000002,27.697430499999996],[-82.72500000000002,27.695506000000023],[-82.72500000000002,27.69531310000002],[-82.72500000000002,27.694543699999997],[-82.72500000000002,27.694541000000015],[-82.72500000000002,27.692842600000006],[-82.72500000000002,27.69276309999998],[-82.72500000000002,27.6907511],[-82.72500000000002,27.690725799999996],[-82.72500000000002,27.69054799999998],[-82.72500000000002,27.690543699999978],[-82.72500000000002,27.69051569999999],[-82.72500000000002,27.689920099999995],[-82.72500000000002,27.6897874],[-82.72500000000002,27.68736899999999],[-82.72500000000002,27.687293099999977],[-82.72500000000002,27.686718900000017],[-82.72500000000002,27.68669319999998],[-82.72500000000002,27.686279800000023],[-82.72500000000002,27.686180499999978],[-82.72500000000002,27.684283400000027],[-82.72500000000002,27.684129499999983],[-82.72500000000002,27.67500000000001],[-82.72801629999998,27.67500000000001],[-82.7281044,27.67500000000001],[-82.72811009999998,27.67500000000001],[-82.72863000000001,27.67500000000001],[-82.72870460000001,27.67500000000001],[-82.73139350000002,27.67500000000001],[-82.73144830000001,27.67500000000001],[-82.73146059999999,27.67500000000001],[-82.73174790000002,27.67500000000001],[-82.73188329999999,27.67500000000001],[-82.73198910000002,27.67500000000001],[-82.73199299999999,27.67500000000001],[-82.7425561,27.67500000000001],[-82.74269199999998,27.67500000000001],[-82.7433967,27.67500000000001],[-82.74356360000002,27.67500000000001],[-82.7444289,27.67500000000001],[-82.74529539999997,27.67500000000001],[-82.7620245,27.67500000000001],[-82.76351349999999,27.67500000000001],[-82.76399199999997,27.67500000000001],[-82.77151309999999,27.67500000000001],[-82.7735879,27.67500000000001],[-82.77484320000002,27.67500000000001]]]}},{"type":"Feature","properties":{},"geometry":{"type":"Polygon","coordinates":[[[-82.7241879,27.67500000000001],[-82.72500000000002,27.67500000000001],[-82.72500000000002,27.684129499999983],[-82.72500000000002,27.684283400000027],[-82.72500000000002,27.686180400000012],[-82.72500000000002,27.686279800000023],[-82.72500000000002,27.68669319999998],[-82.72500000000002,27.686718900000017],[-82.72500000000002,27.687293099999977],[-82.72500000000002,27.68736899999999],[-82.72500000000002,27.689787299999978],[-82.72500000000002,27.689920099999995],[-82.72500000000002,27.69051569999999],[-82.72500000000002,27.690543699999978],[-82.72500000000002,27.69054799999998],[-82.72500000000002,27.690725799999996],[-82.72500000000002,27.6907511],[-82.72500000000002,27.69276309999998],[-82.72500000000002,27.692842600000006],[-82.72500000000002,27.694541000000015],[-82.72500000000002,27.694543699999997],[-82.72500000000002,27.69531310000002],[-82.72500000000002,27.695506000000023],[-82.72500000000002,27.696806600000002],[-82.72500000000002,27.697430499999996],[-82.72500000000002,27.69835260000002],[-82.72500000000002,27.698999500000014],[-82.72500000000002,27.700469699999985],[-82.72500000000002,27.70294050000001],[-82.72500000000002,27.706661600000018],[-82.72500000000002,27.708048399999996],[-82.72500000000002,27.70821940000002],[-82.72500000000002,27.709380099999976],[-82.72500000000002,27.709599500000024],[-82.72500000000002,27.709657300000003],[-82.72500000000002,27.709751900000015],[-82.72500000000002,27.71205040000001],[-82.72500000000002,27.712706000000026],[-82.72500000000002,27.712968400000022],[-82.72500000000002,27.714196000000015],[-82.72500000000002,27.714510500000017],[-82.72500000000002,27.714733799999976],[-82.72500000000002,27.715403999999978],[-82.72500000000002,27.716882399999974],[-82.72500000000002,27.717233099999987],[-82.72500000000002,27.718556499999977],[-82.72500000000002,27.71934140000002],[-82.72500000000002,27.720643999999993],[-82.72500000000002,27.722939199999985],[-82.72500000000002,27.723628500000018],[-82.72500000000002,27.724442599999975],[-82.72500000000002,27.728947500000004],[-82.72500000000002,27.729651100000012],[-82.72500000000002,27.73135960000002],[-82.72500000000002,27.733465200000012],[-82.72500000000002,27.73390119999999],[-82.72500000000002,27.73581059999998],[-82.72500000000002,27.739451299999985],[-82.72500000000002,27.742932800000005],[-82.72500000000002,27.745164699999975],[-82.72500000000002,27.747781799999984],[-82.72500000000002,27.749697200000014],[-82.72500000000002,27.749990700000012],[-82.72500000000002,27.75],[-82.71926489999998,27.75],[-82.64999999999998,27.75],[-82.64999999999998,27.742609200000004],[-82.64999999999998,27.728474300000016],[-82.64999999999998,27.727105999999992],[-82.64999999999998,27.72531140000001],[-82.64999999999998,27.707917399999985],[-82.64999999999998,27.70491800000002],[-82.64999999999998,27.701170999999988],[-82.64999999999998,27.70116009999998],[-82.64999999999998,27.701035400000023],[-82.64999999999998,27.700187900000003],[-82.64999999999998,27.694437400000027],[-82.64999999999998,27.694161899999983],[-82.64999999999998,27.693994999999973],[-82.64999999999998,27.69305429999997],[-82.64999999999998,27.692373299999986],[-82.64999999999998,27.692092300000013],[-82.64999999999998,27.691537600000004],[-82.64999999999998,27.689501199999995],[-82.64999999999998,27.689356299999986],[-82.64999999999998,27.689144999999996],[-82.64999999999998,27.688368500000024],[-82.64999999999998,27.681076399999995],[-82.64999999999998,27.67500000000001],[-82.65129309999998,27.67500000000001],[-82.65463119999998,27.67500000000001],[-82.66619659999998,27.67500000000001],[-82.66970220000002,27.67500000000001],[-82.67063669999999,27.67500000000001],[-82.67120369999998,27.67500000000001],[-82.67711650000001,27.67500000000001],[-82.67856389999997,27.67500000000001],[-82.68231229999998,27.67500000000001],[-82.68298270000003,27.67500000000001],[-82.683292,27.67500000000001],[-82.68785889999998,27.67500000000001],[-82.68847749999998,27.67500000000001],[-82.6896342,27.67500000000001],[-82.6898448,27.67500000000001],[-82.69068529999998,27.67500000000001],[-82.693129,27.67500000000001],[-82.70188259999998,27.67500000000001],[-82.71373870000002,27.67500000000001],[-82.72171809999998,27.67500000000001],[-82.72171859999997,27.67500000000001],[-82.72356189999999,27.67500000000001],[-82.72357449999998,27.67500000000001],[-82.72418590000001,27.67500000000001],[-82.7241879,27.67500000000001]]]}},{"type":"Feature","properties":{},"geometry":{"type":"Polygon","coordinates":[[[-82.64912229999999,27.67500000000001],[-82.64999999999998,27.67500000000001],[-82.64999999999998,27.681076399999995],[-82.64999999999998,27.688368500000024],[-82.64999999999998,27.689144999999996],[-82.64999999999998,27.689356299999986],[-82.64999999999998,27.689501199999995],[-82.64999999999998,27.691537600000004],[-82.64999999999998,27.692092300000013],[-82.64999999999998,27.692373299999986],[-82.64999999999998,27.69305429999997],[-82.64999999999998,27.693994999999973],[-82.64999999999998,27.694161899999983],[-82.64999999999998,27.694437400000027],[-82.64999999999998,27.700187900000003],[-82.64999999999998,27.701035400000023],[-82.64999999999998,27.70116009999998],[-82.64999999999998,27.701170999999988],[-82.64999999999998,27.70491800000002],[-82.64999999999998,27.707917399999985],[-82.64999999999998,27.72531140000001],[-82.64999999999998,27.727105999999992],[-82.64999999999998,27.728474300000016],[-82.64999999999998,27.742609200000004],[-82.64999999999998,27.75],[-82.63994339999999,27.75],[-82.63908070000002,27.75],[-82.6297346,27.75],[-82.62704150000002,27.75],[-82.62573709999998,27.75],[-82.62369380000001,27.75],[-82.62327770000002,27.75],[-82.62025920000002,27.75],[-82.61990100000003,27.75],[-82.6117461,27.75],[-82.61159149999997,27.75],[-82.61128209999998,27.75],[-82.61112650000001,27.75],[-82.60733620000002,27.75],[-82.60434359999999,27.75],[-82.59723689999998,27.75],[-82.59721009999998,27.75],[-82.59296790000002,27.75],[-82.57499999999999,27.75],[-82.57499999999999,27.72341719999997],[-82.57499999999999,27.72324839999999],[-82.57499999999999,27.71948900000001],[-82.57499999999999,27.714180899999974],[-82.57499999999999,27.7129554],[-82.57499999999999,27.704434600000013],[-82.57499999999999,27.701699700000006],[-82.57499999999999,27.697740399999986],[-82.57499999999999,27.69458609999998],[-82.57499999999999,27.693738900000028],[-82.57499999999999,27.693404499999986],[-82.57499999999999,27.691978600000027],[-82.57499999999999,27.690186900000015],[-82.57499999999999,27.68992159999999],[-82.57499999999999,27.68984949999998],[-82.57499999999999,27.685923100000025],[-82.57499999999999,27.685524299999997],[-82.57499999999999,27.685138800000004],[-82.57499999999999,27.68513250000001],[-82.57499999999999,27.684747200000004],[-82.57499999999999,27.684445900000014],[-82.57499999999999,27.684354999999982],[-82.57499999999999,27.681360400000017],[-82.57499999999999,27.681197300000008],[-82.57499999999999,27.68101150000001],[-82.57499999999999,27.680217700000014],[-82.57499999999999,27.679828199999974],[-82.57499999999999,27.677387599999975],[-82.57499999999999,27.67647979999998],[-82.57499999999999,27.67500000000001],[-82.57562159999998,27.67500000000001],[-82.57799260000002,27.67500000000001],[-82.57924129999998,27.67500000000001],[-82.57938949999999,27.67500000000001],[-82.57973770000001,27.67500000000001],[-82.58360429999999,27.67500000000001],[-82.58479139999997,27.67500000000001],[-82.5855755,27.67500000000001],[-82.5887806,27.67500000000001],[-82.58926930000001,27.67500000000001],[-82.58975079999999,27.67500000000001],[-82.5897521,27.67500000000001],[-82.59024540000001,27.67500000000001],[-82.59073260000002,27.67500000000001],[-82.59576399999997,27.67500000000001],[-82.61083389999999,27.67500000000001],[-82.6122406,27.67500000000001],[-82.61629820000002,27.67500000000001],[-82.6209872,27.67500000000001],[-82.62321600000001,27.67500000000001],[-82.63304879999998,27.67500000000001],[-82.6383841,27.67500000000001],[-82.64912229999999,27.67500000000001]]]}},{"type":"Feature","properties":{},"geometry":{"type":"Polygon","coordinates":[[[-82.57140270000002,27.67500000000001],[-82.57499999999999,27.67500000000001],[-82.57499999999999,27.67647979999998],[-82.57499999999999,27.677387599999975],[-82.57499999999999,27.679828199999974],[-82.57499999999999,27.680217700000014],[-82.57499999999999,27.68101150000001],[-82.57499999999999,27.681197300000008],[-82.57499999999999,27.681360400000017],[-82.57499999999999,27.684354999999982],[-82.57499999999999,27.684445900000014],[-82.57499999999999,27.684747200000004],[-82.57499999999999,27.68513250000001],[-82.57499999999999,27.685138800000004],[-82.57499999999999,27.685524299999997],[-82.57499999999999,27.685923100000025],[-82.57499999999999,27.68984949999998],[-82.57499999999999,27.68992159999999],[-82.57499999999999,27.690186900000015],[-82.57499999999999,27.691978600000027],[-82.57499999999999,27.693404499999986],[-82.57499999999999,27.693738900000028],[-82.57499999999999,27.69458609999998],[-82.57499999999999,27.697740399999986],[-82.57499999999999,27.701699700000006],[-82.57499999999999,27.704434600000013],[-82.57499999999999,27.7129554],[-82.57499999999999,27.714180899999974],[-82.57499999999999,27.71948900000001],[-82.57499999999999,27.72324839999999],[-82.57499999999999,27.72341719999997],[-82.57499999999999,27.75],[-82.55042270000001,27.75],[-82.54760929999998,27.75],[-82.5434239,27.75],[-82.54281420000001,27.75],[-82.54221139999999,27.75],[-82.53676389999998,27.75],[-82.536022,27.75],[-82.5306354,27.75],[-82.53002270000002,27.75],[-82.52681419999999,27.75],[-82.52622430000002,27.75],[-82.52581809999998,27.75],[-82.52542290000002,27.75],[-82.52542010000002,27.75],[-82.52501560000002,27.75],[-82.52459909999999,27.75],[-82.52383320000001,27.75],[-82.522761,27.75],[-82.52116919999997,27.75],[-82.51968240000002,27.75],[-82.51813299999998,27.75],[-82.51620200000002,27.75],[-82.51606099999998,27.75],[-82.5087494,27.75],[-82.5036576,27.75],[-82.5,27.75],[-82.5,27.748255599999993],[-82.5,27.72934989999999],[-82.5,27.727842199999998],[-82.5,27.727757899999972],[-82.5,27.725811899999997],[-82.5,27.721464000000026],[-82.5,27.721076299999993],[-82.5,27.718803700000024],[-82.5,27.714791699999978],[-82.5,27.7147296],[-82.5,27.714712299999974],[-82.5,27.714053700000022],[-82.5,27.71317590000001],[-82.5,27.71248509999998],[-82.5,27.708394199999987],[-82.5,27.708265600000004],[-82.5,27.707094100000006],[-82.5,27.706651799999975],[-82.5,27.706615],[-82.5,27.70636780000001],[-82.5,27.705154600000014],[-82.5,27.705136700000025],[-82.5,27.704983400000003],[-82.5,27.700389700000017],[-82.5,27.700269100000014],[-82.5,27.695011000000022],[-82.5,27.68535159999999],[-82.5,27.683397000000014],[-82.5,27.68332700000002],[-82.5,27.680293000000006],[-82.5,27.679632200000015],[-82.5,27.67951579999999],[-82.5,27.6784179],[-82.5,27.67500000000001],[-82.50325479999998,27.67500000000001],[-82.50855760000002,27.67500000000001],[-82.50898860000001,27.67500000000001],[-82.50950210000002,27.67500000000001],[-82.51001500000001,27.67500000000001],[-82.51227799999998,27.67500000000001],[-82.51845750000001,27.67500000000001],[-82.52572199999997,27.67500000000001],[-82.526367,27.67500000000001],[-82.52702240000002,27.67500000000001],[-82.52719969999998,27.67500000000001],[-82.52758699999998,27.67500000000001],[-82.52803820000003,27.67500000000001],[-82.52897180000002,27.67500000000001],[-82.52946759999998,27.67500000000001],[-82.53211040000002,27.67500000000001],[-82.53343790000002,27.67500000000001],[-82.53418979999998,27.67500000000001],[-82.5348525,27.67500000000001],[-82.53544299999999,27.67500000000001],[-82.53582790000002,27.67500000000001],[-82.53982230000003,27.67500000000001],[-82.54668179999999,27.67500000000001],[-82.54785629999998,27.67500000000001],[-82.55510099999998,27.67500000000001],[-82.57065770000003,27.67500000000001],[-82.57140270000002,27.67500000000001]]]}},{"type":"Feature","properties":{},"geometry":{"type":"Polygon","coordinates":[[[-82.86215299999998,27.75],[-82.875,27.75],[-82.875,27.758038],[-82.875,27.77304959999998],[-82.875,27.774849200000006],[-82.875,27.7925664],[-82.875,27.793470800000023],[-82.875,27.7941194],[-82.875,27.794442300000014],[-82.875,27.798349599999995],[-82.875,27.801638200000014],[-82.875,27.807553499999983],[-82.875,27.808363999999983],[-82.875,27.809348100000022],[-82.875,27.81169319999998],[-82.875,27.814896599999997],[-82.875,27.81674270000002],[-82.875,27.82499999999999],[-82.87253670000001,27.82499999999999],[-82.84667459999997,27.82499999999999],[-82.8402494,27.82499999999999],[-82.83156969999999,27.82499999999999],[-82.83109680000001,27.82499999999999],[-82.8307438,27.82499999999999],[-82.82521530000002,27.82499999999999],[-82.82482440000001,27.82499999999999],[-82.82417809999998,27.82499999999999],[-82.82077240000001,27.82499999999999],[-82.81977669999998,27.82499999999999],[-82.81949159999999,27.82499999999999],[-82.81558059999998,27.82499999999999],[-82.81420079999998,27.82499999999999],[-82.81398380000002,27.82499999999999],[-82.8137668,27.82499999999999],[-82.81330480000003,27.82499999999999],[-82.8122204,27.82499999999999],[-82.80835610000003,27.82499999999999],[-82.80736839999997,27.82499999999999],[-82.80648050000002,27.82499999999999],[-82.80581560000002,27.82499999999999],[-82.80370260000001,27.82499999999999],[-82.80000000000001,27.82499999999999],[-82.80000000000001,27.824240599999996],[-82.80000000000001,27.8236316],[-82.80000000000001,27.8214198],[-82.80000000000001,27.821358299999986],[-82.80000000000001,27.820678699999974],[-82.80000000000001,27.819695200000012],[-82.80000000000001,27.819555200000025],[-82.80000000000001,27.81818800000002],[-82.80000000000001,27.818044499999985],[-82.80000000000001,27.817289099999982],[-82.80000000000001,27.817167499999982],[-82.80000000000001,27.816457200000002],[-82.80000000000001,27.815537300000017],[-82.80000000000001,27.8152068],[-82.80000000000001,27.81486000000001],[-82.80000000000001,27.814756999999986],[-82.80000000000001,27.81369239999998],[-82.80000000000001,27.813367200000016],[-82.80000000000001,27.81255679999998],[-82.80000000000001,27.8123607],[-82.80000000000001,27.812164600000017],[-82.80000000000001,27.811353899999972],[-82.80000000000001,27.8093437],[-82.80000000000001,27.808223899999973],[-82.80000000000001,27.808076500000027],[-82.80000000000001,27.80753340000001],[-82.80000000000001,27.807483100000013],[-82.80000000000001,27.807356700000014],[-82.80000000000001,27.80678180000001],[-82.80000000000001,27.803849599999978],[-82.80000000000001,27.802837899999986],[-82.80000000000001,27.80010249999998],[-82.80000000000001,27.798712599999988],[-82.80000000000001,27.798676],[-82.80000000000001,27.79859019999998],[-82.80000000000001,27.798519499999998],[-82.80000000000001,27.79818899999998],[-82.80000000000001,27.797030500000005],[-82.80000000000001,27.794896400000027],[-82.80000000000001,27.79224670000002],[-82.80000000000001,27.784738300000015],[-82.80000000000001,27.7791656],[-82.80000000000001,27.771882100000028],[-82.80000000000001,27.76917500000002],[-82.80000000000001,27.762444300000027],[-82.80000000000001,27.757215099999996],[-82.80000000000001,27.75623189999999],[-82.80000000000001,27.75],[-82.80501550000002,27.75],[-82.82885629999998,27.75],[-82.829343,27.75],[-82.86001060000001,27.75],[-82.86215299999998,27.75]]]}},{"type":"Feature","properties":{},"geometry":{"type":"Polygon","coordinates":[[[-82.78826470000001,27.75],[-82.80000000000001,27.75],[-82.80000000000001,27.75623189999999],[-82.80000000000001,27.757215099999996],[-82.80000000000001,27.762444300000027],[-82.80000000000001,27.76917500000002],[-82.80000000000001,27.771882100000028],[-82.80000000000001,27.7791656],[-82.80000000000001,27.784738300000015],[-82.80000000000001,27.79224670000002],[-82.80000000000001,27.794896400000027],[-82.80000000000001,27.797030500000005],[-82.80000000000001,27.79818899999998],[-82.80000000000001,27.798519499999998],[-82.80000000000001,27.79859019999998],[-82.80000000000001,27.798676],[-82.80000000000001,27.798712599999988],[-82.80000000000001,27.80010249999998],[-82.80000000000001,27.802837899999986],[-82.80000000000001,27.803849599999978],[-82.80000000000001,27.80678180000001],[-82.80000000000001,27.807356700000014],[-82.80000000000001,27.807483100000013],[-82.80000000000001,27.80753340000001],[-82.80000000000001,27.808076500000027],[-82.80000000000001,27.808223899999973],[-82.80000000000001,27.8093437],[-82.80000000000001,27.811353899999972],[-82.80000000000001,27.812164600000017],[-82.80000000000001,27.8123607],[-82.80000000000001,27.81255679999998],[-82.80000000000001,27.813367200000016],[-82.80000000000001,27.81369239999998],[-82.80000000000001,27.814756999999986],[-82.80000000000001,27.81486000000001],[-82.80000000000001,27.8152068],[-82.80000000000001,27.815537300000017],[-82.80000000000001,27.816457200000002],[-82.80000000000001,27.817167499999982],[-82.80000000000001,27.817289099999982],[-82.80000000000001,27.818044499999985],[-82.80000000000001,27.81818800000002],[-82.80000000000001,27.819555200000025],[-82.80000000000001,27.819695200000012],[-82.80000000000001,27.820678699999974],[-82.80000000000001,27.821358299999986],[-82.80000000000001,27.8214198],[-82.80000000000001,27.8236316],[-82.80000000000001,27.824240599999996],[-82.80000000000001,27.82499999999999],[-82.7961603,27.82499999999999],[-82.77774310000001,27.82499999999999],[-82.77150640000002,27.82499999999999],[-82.77121340000002,27.82499999999999],[-82.76795570000002,27.82499999999999],[-82.76712270000002,27.82499999999999],[-82.76626950000002,27.82499999999999],[-82.765735,27.82499999999999],[-82.7651275,27.82499999999999],[-82.7617793,27.82499999999999],[-82.76026960000002,27.82499999999999],[-82.76021370000001,27.82499999999999],[-82.75955490000001,27.82499999999999],[-82.75936089999999,27.82499999999999],[-82.759211,27.82499999999999],[-82.75891030000003,27.82499999999999],[-82.75621999999998,27.82499999999999],[-82.75523609999999,27.82499999999999],[-82.7546863,27.82499999999999],[-82.72500000000002,27.82499999999999],[-82.72500000000002,27.798353099999986],[-82.72500000000002,27.754746300000022],[-82.72500000000002,27.75],[-82.72501290000002,27.75],[-82.72582670000003,27.75],[-82.72813939999998,27.75],[-82.73542459999999,27.75],[-82.73838740000002,27.75],[-82.73958570000002,27.75],[-82.73965900000002,27.75],[-82.73975389999998,27.75],[-82.742772,27.75],[-82.74488769999999,27.75],[-82.7461667,27.75],[-82.74987010000001,27.75],[-82.75108080000001,27.75],[-82.75145309999999,27.75],[-82.75208780000003,27.75],[-82.7524411,27.75],[-82.75254790000002,27.75],[-82.75294109999999,27.75],[-82.75851060000002,27.75],[-82.75968310000002,27.75],[-82.76046869999999,27.75],[-82.7612608,27.75],[-82.7632261,27.75],[-82.76360690000001,27.75],[-82.76941620000002,27.75],[-82.77391890000001,27.75],[-82.77857210000002,27.75],[-82.78826470000001,27.75]]]}},{"type":"Feature","properties":{},"geometry":{"type":"Polygon","coordinates":[[[-82.6198013,27.82499999999999],[-82.61414939999997,27.82499999999999],[-82.61323060000001,27.82499999999999],[-82.6108769,27.82499999999999],[-82.60815159999999,27.82499999999999],[-82.60644669999999,27.82499999999999],[-82.60643979999998,27.82499999999999],[-82.60594429999998,27.82499999999999],[-82.6058375,27.82499999999999],[-82.60553090000002,27.82499999999999],[-82.60537679999999,27.82499999999999],[-82.60504580000003,27.82499999999999],[-82.60455630000001,27.82499999999999],[-82.60048749999999,27.82499999999999],[-82.60038630000003,27.82499999999999],[-82.59996530000001,27.82499999999999],[-82.59863039999999,27.82499999999999],[-82.5981051,27.82499999999999],[-82.59756779999998,27.82499999999999],[-82.5967,27.82499999999999],[-82.5963233,27.82499999999999],[-82.59566180000002,27.82499999999999],[-82.59414090000001,27.82499999999999],[-82.59289009999998,27.82499999999999],[-82.59131980000001,27.82499999999999],[-82.59114670000002,27.82499999999999],[-82.59040570000002,27.82499999999999],[-82.58770129999999,27.82499999999999],[-82.5862808,27.82499999999999],[-82.5850097,27.82499999999999],[-82.58350209999998,27.82499999999999],[-82.5825428,27.82499999999999],[-82.5820804,27.82499999999999],[-82.5816451,27.82499999999999],[-82.58145910000002,27.82499999999999],[-82.5808424,27.82499999999999],[-82.58080560000002,27.82499999999999],[-82.58064130000002,27.82499999999999],[-82.5791165,27.82499999999999],[-82.57825659999997,27.82499999999999],[-82.57777270000003,27.82499999999999],[-82.57687299999998,27.82499999999999],[-82.5765662,27.82499999999999],[-82.57636719999999,27.82499999999999],[-82.5762009,27.82499999999999],[-82.57607359999997,27.82499999999999],[-82.57573339999999,27.82499999999999],[-82.57541750000001,27.82499999999999],[-82.57499999999999,27.82499999999999],[-82.57499999999999,27.824124499999982],[-82.57499999999999,27.822097499999984],[-82.57499999999999,27.820108300000015],[-82.57499999999999,27.8200109],[-82.57499999999999,27.818740400000024],[-82.57499999999999,27.8184253],[-82.57499999999999,27.81799749999999],[-82.57499999999999,27.81510800000001],[-82.57499999999999,27.814815199999998],[-82.57499999999999,27.802312099999995],[-82.57499999999999,27.800920299999973],[-82.57499999999999,27.794517900000017],[-82.57499999999999,27.79217030000001],[-82.57499999999999,27.791254200000026],[-82.57499999999999,27.790480600000024],[-82.57499999999999,27.790230800000018],[-82.57499999999999,27.7895393],[-82.57499999999999,27.78904799999998],[-82.57499999999999,27.782924100000002],[-82.57499999999999,27.782616700000005],[-82.57499999999999,27.778236600000014],[-82.57499999999999,27.764183100000025],[-82.57499999999999,27.76235730000002],[-82.57499999999999,27.75],[-82.59296790000002,27.75],[-82.59721009999998,27.75],[-82.59723689999998,27.75],[-82.60434359999999,27.75],[-82.60733620000002,27.75],[-82.61112650000001,27.75],[-82.61128209999998,27.75],[-82.61159149999997,27.75],[-82.6117461,27.75],[-82.61990100000003,27.75],[-82.62025920000002,27.75],[-82.62327770000002,27.75],[-82.62369380000001,27.75],[-82.62573709999998,27.75],[-82.62704150000002,27.75],[-82.6297346,27.75],[-82.63908070000002,27.75],[-82.63994339999999,27.75],[-82.64999999999998,27.75],[-82.64999999999998,27.82499999999999],[-82.62346889999998,27.82499999999999],[-82.6198013,27.82499999999999]]]}},{"type":"Feature","properties":{},"geometry":{"type":"Polygon","coordinates":[[[-82.55042270000001,27.75],[-82.57499999999999,27.75],[-82.57499999999999,27.76235730000002],[-82.57499999999999,27.764183100000025],[-82.57499999999999,27.778236600000014],[-82.57499999999999,27.782616700000005],[-82.57499999999999,27.782924100000002],[-82.57499999999999,27.78904799999998],[-82.57499999999999,27.7895393],[-82.57499999999999,27.790230800000018],[-82.57499999999999,27.790480600000024],[-82.57499999999999,27.791254200000026],[-82.57499999999999,27.794517900000017],[-82.57499999999999,27.800920299999973],[-82.57499999999999,27.802312099999995],[-82.57499999999999,27.814815199999998],[-82.57499999999999,27.81510800000001],[-82.57499999999999,27.81799749999999],[-82.57499999999999,27.8184253],[-82.57499999999999,27.818740400000024],[-82.57499999999999,27.8200109],[-82.57499999999999,27.824124499999982],[-82.57499999999999,27.82499999999999],[-82.5743731,27.82499999999999],[-82.57395250000002,27.82499999999999],[-82.57182169999999,27.82499999999999],[-82.57167190000001,27.82499999999999],[-82.57154700000001,27.82499999999999],[-82.57107939999997,27.82499999999999],[-82.571053,27.82499999999999],[-82.5707099,27.82499999999999],[-82.57063240000002,27.82499999999999],[-82.57059729999997,27.82499999999999],[-82.57051389999998,27.82499999999999],[-82.57034570000002,27.82499999999999],[-82.57001359999998,27.82499999999999],[-82.56966440000002,27.82499999999999],[-82.5688826,27.82499999999999],[-82.56620889999999,27.82499999999999],[-82.56619289999998,27.82499999999999],[-82.56594310000003,27.82499999999999],[-82.56570090000002,27.82499999999999],[-82.56549280000002,27.82499999999999],[-82.56504999999999,27.82499999999999],[-82.5624975,27.82499999999999],[-82.5612726,27.82499999999999],[-82.56086690000001,27.82499999999999],[-82.55977189999999,27.82499999999999],[-82.55906520000002,27.82499999999999],[-82.55830939999998,27.82499999999999],[-82.55680430000001,27.82499999999999],[-82.5560936,27.82499999999999],[-82.55489310000002,27.82499999999999],[-82.55415920000002,27.82499999999999],[-82.55253210000001,27.82499999999999],[-82.55174099999999,27.82499999999999],[-82.5513846,27.82499999999999],[-82.55111110000001,27.82499999999999],[-82.5478784,27.82499999999999],[-82.54757949999998,27.82499999999999],[-82.54721269999999,27.82499999999999],[-82.54708499999998,27.82499999999999],[-82.54632029999999,27.82499999999999],[-82.54619889999998,27.82499999999999],[-82.5340079,27.82499999999999],[-82.52228359999998,27.82499999999999],[-82.52131659999998,27.82499999999999],[-82.52120339999999,27.82499999999999],[-82.52033499999999,27.82499999999999],[-82.5163071,27.82499999999999],[-82.5,27.82499999999999],[-82.5,27.820468000000005],[-82.5,27.820052599999997],[-82.5,27.819571999999994],[-82.5,27.818294200000025],[-82.5,27.81655410000002],[-82.5,27.816348500000004],[-82.5,27.8160211],[-82.5,27.8158004],[-82.5,27.8147424],[-82.5,27.810663299999987],[-82.5,27.808148899999992],[-82.5,27.801983000000007],[-82.5,27.80151669999998],[-82.5,27.800506100000007],[-82.5,27.79994099999999],[-82.5,27.797517500000026],[-82.5,27.797004500000014],[-82.5,27.795243400000004],[-82.5,27.79392009999998],[-82.5,27.792719599999998],[-82.5,27.79241539999998],[-82.5,27.792046900000003],[-82.5,27.79168900000002],[-82.5,27.7916783],[-82.5,27.791309800000022],[-82.5,27.790941799999985],[-82.5,27.7907146],[-82.5,27.78992820000002],[-82.5,27.789507300000025],[-82.5,27.786138900000026],[-82.5,27.782760300000007],[-82.5,27.774777900000004],[-82.5,27.774351299999978],[-82.5,27.76946989999999],[-82.5,27.767864799999984],[-82.5,27.756277300000022],[-82.5,27.755834800000002],[-82.5,27.75447680000002],[-82.5,27.75],[-82.5036576,27.75],[-82.5087494,27.75],[-82.51606099999998,27.75],[-82.51620200000002,27.75],[-82.51813299999998,27.75],[-82.51968240000002,27.75],[-82.52116919999997,27.75],[-82.522761,27.75],[-82.52383320000001,27.75],[-82.52459909999999,27.75],[-82.52501560000002,27.75],[-82.52542010000002,27.75],[-82.52542290000002,27.75],[-82.52581809999998,27.75],[-82.52622430000002,27.75],[-82.52681419999999,27.75],[-82.53002270000002,27.75],[-82.5306354,27.75],[-82.536022,27.75],[-82.53676389999998,27.75],[-82.54221139999999,27.75],[-82.54281420000001,27.75],[-82.5434239,27.75],[-82.54760929999998,27.75],[-82.55042270000001,27.75]]]}},{"type":"Feature","properties":{},"geometry":{"type":"Polygon","coordinates":[[[-82.87253670000001,27.82499999999999],[-82.875,27.82499999999999],[-82.875,27.827511800000025],[-82.875,27.829212100000007],[-82.875,27.84578540000001],[-82.875,27.84740260000001],[-82.875,27.849078799999972],[-82.875,27.851420899999994],[-82.875,27.859185000000025],[-82.875,27.86421949999999],[-82.875,27.867235100000016],[-82.875,27.899999999999977],[-82.86372999999998,27.899999999999977],[-82.85062479999999,27.899999999999977],[-82.84982530000002,27.899999999999977],[-82.84921530000003,27.899999999999977],[-82.84895879999999,27.899999999999977],[-82.8486886,27.899999999999977],[-82.84838630000002,27.899999999999977],[-82.84661010000002,27.899999999999977],[-82.84470929999998,27.899999999999977],[-82.84349889999999,27.899999999999977],[-82.84344829999998,27.899999999999977],[-82.84334589999997,27.899999999999977],[-82.8424958,27.899999999999977],[-82.84234020000002,27.899999999999977],[-82.84219159999998,27.899999999999977],[-82.84197990000001,27.899999999999977],[-82.83808190000002,27.899999999999977],[-82.83718140000002,27.899999999999977],[-82.8368921,27.899999999999977],[-82.83676969999999,27.899999999999977],[-82.83660889999999,27.899999999999977],[-82.83644809999998,27.899999999999977],[-82.83566230000002,27.899999999999977],[-82.8347344,27.899999999999977],[-82.8334724,27.899999999999977],[-82.83233630000001,27.899999999999977],[-82.8300883,27.899999999999977],[-82.82930190000002,27.899999999999977],[-82.82889060000002,27.899999999999977],[-82.82762919999999,27.899999999999977],[-82.8273744,27.899999999999977],[-82.82634610000002,27.899999999999977],[-82.808357,27.899999999999977],[-82.80000000000001,27.899999999999977],[-82.80000000000001,27.832641299999977],[-82.80000000000001,27.8286885],[-82.80000000000001,27.82499999999999],[-82.80370260000001,27.82499999999999],[-82.80581560000002,27.82499999999999],[-82.80648050000002,27.82499999999999],[-82.80736839999997,27.82499999999999],[-82.80835610000003,27.82499999999999],[-82.8122204,27.82499999999999],[-82.81330480000003,27.82499999999999],[-82.8137668,27.82499999999999],[-82.81398380000002,27.82499999999999],[-82.81420079999998,27.82499999999999],[-82.81558059999998,27.82499999999999],[-82.81949159999999,27.82499999999999],[-82.81977669999998,27.82499999999999],[-82.82077240000001,27.82499999999999],[-82.82417809999998,27.82499999999999],[-82.82482440000001,27.82499999999999],[-82.82521530000002,27.82499999999999],[-82.8307438,27.82499999999999],[-82.83109680000001,27.82499999999999],[-82.83156969999999,27.82499999999999],[-82.8402494,27.82499999999999],[-82.84667459999997,27.82499999999999],[-82.87253670000001,27.82499999999999]]]}},{"type":"Feature","properties":{},"geometry":{"type":"Polygon","coordinates":[[[-82.5743731,27.82499999999999],[-82.57499999999999,27.82499999999999],[-82.57499999999999,27.827647899999988],[-82.57499999999999,27.82944809999998],[-82.57499999999999,27.831459800000005],[-82.57499999999999,27.833368399999983],[-82.57499999999999,27.834039299999972],[-82.57499999999999,27.834634300000005],[-82.57499999999999,27.83679219999999],[-82.57499999999999,27.83902660000001],[-82.57499999999999,27.84161210000002],[-82.57499999999999,27.842797299999972],[-82.57499999999999,27.84531099999998],[-82.57499999999999,27.8525664],[-82.57499999999999,27.854189299999973],[-82.57499999999999,27.855338500000016],[-82.57499999999999,27.856941300000017],[-82.57499999999999,27.858434699999975],[-82.57499999999999,27.859570299999973],[-82.57499999999999,27.87204680000002],[-82.57499999999999,27.874800400000026],[-82.57499999999999,27.875080799999978],[-82.57499999999999,27.87549389999998],[-82.57499999999999,27.87654409999999],[-82.57499999999999,27.8781166],[-82.57499999999999,27.87863920000001],[-82.57499999999999,27.88120379999998],[-82.57499999999999,27.88132330000002],[-82.57499999999999,27.881379299999992],[-82.57499999999999,27.881498299999976],[-82.57499999999999,27.881672900000012],[-82.57499999999999,27.881983600000012],[-82.57499999999999,27.8844565],[-82.57499999999999,27.899999999999977],[-82.56352240000001,27.899999999999977],[-82.56333389999998,27.899999999999977],[-82.55684209999998,27.899999999999977],[-82.55575859999999,27.899999999999977],[-82.55334060000001,27.899999999999977],[-82.54839600000003,27.899999999999977],[-82.54781270000001,27.899999999999977],[-82.54162789999998,27.899999999999977],[-82.54104000000001,27.899999999999977],[-82.53871329999998,27.899999999999977],[-82.5366899,27.899999999999977],[-82.53582999999998,27.899999999999977],[-82.5358195,27.899999999999977],[-82.53563980000001,27.899999999999977],[-82.53562679999999,27.899999999999977],[-82.53561400000001,27.899999999999977],[-82.5352307,27.899999999999977],[-82.53510189999997,27.899999999999977],[-82.53348940000001,27.899999999999977],[-82.53344820000001,27.899999999999977],[-82.53344320000002,27.899999999999977],[-82.53326950000002,27.899999999999977],[-82.53121599999997,27.899999999999977],[-82.52963519999997,27.899999999999977],[-82.52692289999999,27.899999999999977],[-82.51672159999998,27.899999999999977],[-82.50480629999998,27.899999999999977],[-82.5,27.899999999999977],[-82.5,27.869423299999994],[-82.5,27.852017699999976],[-82.5,27.84032880000001],[-82.5,27.830182999999977],[-82.5,27.830174199999988],[-82.5,27.83005129999998],[-82.5,27.83002429999999],[-82.5,27.82934160000002],[-82.5,27.82928959999998],[-82.5,27.829271399999982],[-82.5,27.82926070000002],[-82.5,27.829237799999987],[-82.5,27.829085700000007],[-82.5,27.826208399999985],[-82.5,27.82556249999999],[-82.5,27.825494600000013],[-82.5,27.825414500000022],[-82.5,27.825389700000017],[-82.5,27.82520870000002],[-82.5,27.825184999999976],[-82.5,27.825042900000028],[-82.5,27.825021600000014],[-82.5,27.82499999999999],[-82.5163071,27.82499999999999],[-82.52131659999998,27.82499999999999],[-82.52228359999998,27.82499999999999],[-82.54632029999999,27.82499999999999],[-82.54721269999999,27.82499999999999],[-82.54757949999998,27.82499999999999],[-82.5478784,27.82499999999999],[-82.5513846,27.82499999999999],[-82.55415920000002,27.82499999999999],[-82.55489310000002,27.82499999999999],[-82.5560936,27.82499999999999],[-82.55680430000001,27.82499999999999],[-82.55830939999998,27.82499999999999],[-82.56086690000001,27.82499999999999],[-82.5612726,27.82499999999999],[-82.5624975,27.82499999999999],[-82.56504999999999,27.82499999999999],[-82.56549280000002,27.82499999999999],[-82.56570090000002,27.82499999999999],[-82.56594310000003,27.82499999999999],[-82.56619289999998,27.82499999999999],[-82.56620889999999,27.82499999999999],[-82.5688826,27.82499999999999],[-82.56966440000002,27.82499999999999],[-82.57001359999998,27.82499999999999],[-82.57034570000002,27.82499999999999],[-82.57051389999998,27.82499999999999],[-82.57059729999997,27.82499999999999],[-82.5707099,27.82499999999999],[-82.571053,27.82499999999999],[-82.57107939999997,27.82499999999999],[-82.57154700000001,27.82499999999999],[-82.57182169999999,27.82499999999999],[-82.57395250000002,27.82499999999999],[-82.5743731,27.82499999999999]]]}},{"type":"Feature","properties":{},"geometry":{"type":"Polygon","coordinates":[[[-82.94999999999999,27.65025509999998],[-82.94999999999999,27.650979800000016],[-82.94999999999999,27.65636599999999],[-82.94999999999999,27.66425909999998],[-82.94999999999999,27.669812499999978],[-82.94999999999999,27.67500000000001],[-82.9404963,27.67500000000001],[-82.9281858,27.67500000000001],[-82.9200672,27.67500000000001],[-82.91518789999998,27.67500000000001],[-82.9150841,27.67500000000001],[-82.9146766,27.67500000000001],[-82.90808320000002,27.67500000000001],[-82.87758989999998,27.67500000000001],[-82.875,27.67500000000001],[-82.875,27.673656199999982],[-82.875,27.66125950000003],[-82.875,27.651327200000026],[-82.875,27.649065800000017],[-82.875,27.645],[-82.94999999999999,27.645],[-82.94999999999999,27.65025509999998]]]}},{"type":"Feature","properties":{},"geometry":{"type":"Polygon","coordinates":[[[-82.86372999999998,27.899999999999977],[-82.875,27.899999999999977],[-82.875,27.936250700000016],[-82.875,27.937387600000022],[-82.875,27.938056700000004],[-82.875,27.942232100000012],[-82.875,27.944185600000026],[-82.875,27.951240600000006],[-82.875,27.953717100000006],[-82.875,27.955247900000018],[-82.875,27.96527450000002],[-82.875,27.975000000000023],[-82.8712155,27.975000000000023],[-82.87009599999999,27.975000000000023],[-82.86351000000002,27.975000000000023],[-82.85102389999997,27.975000000000023],[-82.83935969999999,27.975000000000023],[-82.83254870000002,27.975000000000023],[-82.82982329999999,27.975000000000023],[-82.82825680000002,27.975000000000023],[-82.82674120000001,27.975000000000023],[-82.82630390000003,27.975000000000023],[-82.82454660000002,27.975000000000023],[-82.82413159999999,27.975000000000023],[-82.82304540000001,27.975000000000023],[-82.8217828,27.975000000000023],[-82.82165980000002,27.975000000000023],[-82.82141360000003,27.975000000000023],[-82.82129049999998,27.975000000000023],[-82.8205714,27.975000000000023],[-82.81900889999997,27.975000000000023],[-82.81813770000002,27.975000000000023],[-82.81788920000002,27.975000000000023],[-82.8172816,27.975000000000023],[-82.81623789999998,27.975000000000023],[-82.81562000000002,27.975000000000023],[-82.81450719999998,27.975000000000023],[-82.81421849999998,27.975000000000023],[-82.81307290000001,27.975000000000023],[-82.81216110000003,27.975000000000023],[-82.8112792,27.975000000000023],[-82.81026859999997,27.975000000000023],[-82.80969800000003,27.975000000000023],[-82.8090709,27.975000000000023],[-82.80661650000002,27.975000000000023],[-82.8065542,27.975000000000023],[-82.8063295,27.975000000000023],[-82.80587500000001,27.975000000000023],[-82.8056082,27.975000000000023],[-82.803991,27.975000000000023],[-82.80382980000002,27.975000000000023],[-82.8036745,27.975000000000023],[-82.80290550000001,27.975000000000023],[-82.80256020000002,27.975000000000023],[-82.80136520000002,27.975000000000023],[-82.80000000000001,27.975000000000023],[-82.80000000000001,27.970710600000018],[-82.80000000000001,27.947049900000025],[-82.80000000000001,27.94455929999998],[-82.80000000000001,27.913702699999988],[-82.80000000000001,27.909282099999984],[-82.80000000000001,27.902886799999976],[-82.80000000000001,27.899999999999977],[-82.808357,27.899999999999977],[-82.82634610000002,27.899999999999977],[-82.8273744,27.899999999999977],[-82.82762919999999,27.899999999999977],[-82.82889060000002,27.899999999999977],[-82.82930190000002,27.899999999999977],[-82.8300883,27.899999999999977],[-82.83233630000001,27.899999999999977],[-82.8334724,27.899999999999977],[-82.8347344,27.899999999999977],[-82.83566230000002,27.899999999999977],[-82.83644809999998,27.899999999999977],[-82.83660889999999,27.899999999999977],[-82.83676969999999,27.899999999999977],[-82.8368921,27.899999999999977],[-82.83718140000002,27.899999999999977],[-82.83808190000002,27.899999999999977],[-82.84197990000001,27.899999999999977],[-82.84219159999998,27.899999999999977],[-82.84234020000002,27.899999999999977],[-82.8424958,27.899999999999977],[-82.84334589999997,27.899999999999977],[-82.84344829999998,27.899999999999977],[-82.84349889999999,27.899999999999977],[-82.84470929999998,27.899999999999977],[-82.84661010000002,27.899999999999977],[-82.84838630000002,27.899999999999977],[-82.8486886,27.899999999999977],[-82.84895879999999,27.899999999999977],[-82.84921530000003,27.899999999999977],[-82.84982530000002,27.899999999999977],[-82.85062479999999,27.899999999999977],[-82.86372999999998,27.899999999999977]]]}},{"type":"Feature","properties":{},"geometry":{"type":"Polygon","coordinates":[[[-82.8712155,27.975000000000023],[-82.875,27.975000000000023],[-82.875,28.003548799999976],[-82.875,28.00478989999999],[-82.875,28.05000000000001],[-82.86745459999997,28.05000000000001],[-82.8646776,28.05000000000001],[-82.83319369999998,28.05000000000001],[-82.82850200000001,28.05000000000001],[-82.82844870000002,28.05000000000001],[-82.82843009999999,28.05000000000001],[-82.82840490000001,28.05000000000001],[-82.82759850000002,28.05000000000001],[-82.8275683,28.05000000000001],[-82.82524239999998,28.05000000000001],[-82.82498559999999,28.05000000000001],[-82.82495690000002,28.05000000000001],[-82.8249543,28.05000000000001],[-82.82330619999999,28.05000000000001],[-82.82186059999998,28.05000000000001],[-82.82082860000003,28.05000000000001],[-82.82082659999998,28.05000000000001],[-82.82080339999999,28.05000000000001],[-82.82079820000001,28.05000000000001],[-82.82070700000003,28.05000000000001],[-82.8201631,28.05000000000001],[-82.82013619999998,28.05000000000001],[-82.8199856,28.05000000000001],[-82.8182893,28.05000000000001],[-82.81707690000002,28.05000000000001],[-82.81706639999999,28.05000000000001],[-82.81607380000003,28.05000000000001],[-82.8149244,28.05000000000001],[-82.8135605,28.05000000000001],[-82.8135092,28.05000000000001],[-82.81301389999999,28.05000000000001],[-82.8127872,28.05000000000001],[-82.81212970000001,28.05000000000001],[-82.81110089999999,28.05000000000001],[-82.8078304,28.05000000000001],[-82.80685349999999,28.05000000000001],[-82.80630980000001,28.05000000000001],[-82.80059649999998,28.05000000000001],[-82.80000000000001,28.05000000000001],[-82.80000000000001,28.049821699999995],[-82.80000000000001,28.049621600000023],[-82.80000000000001,28.046351200000004],[-82.80000000000001,28.045181000000014],[-82.80000000000001,28.043838400000027],[-82.80000000000001,28.042690100000016],[-82.80000000000001,28.042668100000014],[-82.80000000000001,28.042655799999977],[-82.80000000000001,28.041642500000023],[-82.80000000000001,28.041637999999978],[-82.80000000000001,28.041603099999975],[-82.80000000000001,28.041069600000014],[-82.80000000000001,28.040416100000016],[-82.80000000000001,28.036966500000005],[-82.80000000000001,28.036061800000027],[-82.80000000000001,28.033332700000017],[-82.80000000000001,28.032454299999984],[-82.80000000000001,28.029436799999985],[-82.80000000000001,28.02812399999999],[-82.80000000000001,28.023412699999994],[-82.80000000000001,28.015831400000025],[-82.80000000000001,28.01145200000002],[-82.80000000000001,28.00753309999999],[-82.80000000000001,28.003523400000006],[-82.80000000000001,28.001666999999998],[-82.80000000000001,27.999870699999974],[-82.80000000000001,27.998030900000003],[-82.80000000000001,27.97845000000001],[-82.80000000000001,27.97779079999998],[-82.80000000000001,27.97708560000001],[-82.80000000000001,27.975983699999972],[-82.80000000000001,27.975000000000023],[-82.80136520000002,27.975000000000023],[-82.80256020000002,27.975000000000023],[-82.80290550000001,27.975000000000023],[-82.8036745,27.975000000000023],[-82.80382980000002,27.975000000000023],[-82.803991,27.975000000000023],[-82.8056082,27.975000000000023],[-82.80587500000001,27.975000000000023],[-82.8063295,27.975000000000023],[-82.8065542,27.975000000000023],[-82.80661650000002,27.975000000000023],[-82.8090709,27.975000000000023],[-82.80969800000003,27.975000000000023],[-82.81026859999997,27.975000000000023],[-82.8112792,27.975000000000023],[-82.81216110000003,27.975000000000023],[-82.81307290000001,27.975000000000023],[-82.81421849999998,27.975000000000023],[-82.81450719999998,27.975000000000023],[-82.81562000000002,27.975000000000023],[-82.81623789999998,27.975000000000023],[-82.8172816,27.975000000000023],[-82.81788920000002,27.975000000000023],[-82.81813770000002,27.975000000000023],[-82.81900889999997,27.975000000000023],[-82.8205714,27.975000000000023],[-82.82129049999998,27.975000000000023],[-82.82141360000003,27.975000000000023],[-82.82165980000002,27.975000000000023],[-82.8217828,27.975000000000023],[-82.82304540000001,27.975000000000023],[-82.82413159999999,27.975000000000023],[-82.82454660000002,27.975000000000023],[-82.82630390000003,27.975000000000023],[-82.82674120000001,27.975000000000023],[-82.82982329999999,27.975000000000023],[-82.83254870000002,27.975000000000023],[-82.83935969999999,27.975000000000023],[-82.85102389999997,27.975000000000023],[-82.86351000000002,27.975000000000023],[-82.87009599999999,27.975000000000023],[-82.8712155,27.975000000000023]]]}},{"type":"Feature","properties":{},"geometry":{"type":"Polygon","coordinates":[[[-82.77303189999998,27.975000000000023],[-82.80000000000001,27.975000000000023],[-82.80000000000001,27.975983699999972],[-82.80000000000001,27.97708560000001],[-82.80000000000001,27.97779079999998],[-82.80000000000001,27.97845000000001],[-82.80000000000001,27.998030900000003],[-82.80000000000001,27.999870699999974],[-82.80000000000001,28.001666999999998],[-82.80000000000001,28.003523400000006],[-82.80000000000001,28.00753309999999],[-82.80000000000001,28.01145200000002],[-82.80000000000001,28.015831400000025],[-82.80000000000001,28.023412699999994],[-82.80000000000001,28.02812399999999],[-82.80000000000001,28.029436799999985],[-82.80000000000001,28.033332700000017],[-82.80000000000001,28.035168999999996],[-82.80000000000001,28.035934699999984],[-82.80000000000001,28.036061800000027],[-82.80000000000001,28.040416100000016],[-82.80000000000001,28.041069600000014],[-82.80000000000001,28.041603099999975],[-82.80000000000001,28.041637999999978],[-82.80000000000001,28.041642500000023],[-82.80000000000001,28.042655799999977],[-82.80000000000001,28.042668100000014],[-82.80000000000001,28.042690100000016],[-82.80000000000001,28.043838400000027],[-82.80000000000001,28.045181000000014],[-82.80000000000001,28.046351200000004],[-82.80000000000001,28.049621600000023],[-82.80000000000001,28.049821699999995],[-82.80000000000001,28.05000000000001],[-82.79995059999999,28.05000000000001],[-82.79611849999998,28.05000000000001],[-82.7955589,28.05000000000001],[-82.7954039,28.05000000000001],[-82.79524889999999,28.05000000000001],[-82.7937882,28.05000000000001],[-82.7902206,28.05000000000001],[-82.7896561,28.05000000000001],[-82.78965260000001,28.05000000000001],[-82.78839799999997,28.05000000000001],[-82.78837010000001,28.05000000000001],[-82.78741480000002,28.05000000000001],[-82.78721259999998,28.05000000000001],[-82.78665360000002,28.05000000000001],[-82.78524759999999,28.05000000000001],[-82.7852072,28.05000000000001],[-82.72500000000002,28.05000000000001],[-82.72500000000002,27.975000000000023],[-82.77303189999998,27.975000000000023]]]}},{"type":"Feature","properties":{},"geometry":{"type":"Polygon","coordinates":[[[-82.80000000000001,28.08667889999998],[-82.80000000000001,28.08665639999998],[-82.80000000000001,28.08376850000002],[-82.80000000000001,28.083531400000027],[-82.80000000000001,28.07692259999999],[-82.80000000000001,28.076830099999995],[-82.80000000000001,28.07619410000001],[-82.80000000000001,28.076164000000006],[-82.80000000000001,28.076158299999975],[-82.80000000000001,28.07579019999997],[-82.80000000000001,28.075224100000014],[-82.80000000000001,28.075198699999987],[-82.80000000000001,28.07491379999999],[-82.80000000000001,28.0747389],[-82.80000000000001,28.074012100000004],[-82.80000000000001,28.073830999999984],[-82.80000000000001,28.073299899999995],[-82.80000000000001,28.073281500000007],[-82.80000000000001,28.0726085],[-82.80000000000001,28.072481400000015],[-82.80000000000001,28.071721200000013],[-82.80000000000001,28.070764899999972],[-82.80000000000001,28.070420800000022],[-82.80000000000001,28.070244100000025],[-82.80000000000001,28.07011160000002],[-82.80000000000001,28.069803200000024],[-82.80000000000001,28.064694799999984],[-82.80000000000001,28.064397100000008],[-82.80000000000001,28.064099399999975],[-82.80000000000001,28.062799100000007],[-82.80000000000001,28.0614908],[-82.80000000000001,28.05958149999998],[-82.80000000000001,28.05953040000003],[-82.80000000000001,28.052335700000015],[-82.80000000000001,28.052131900000006],[-82.80000000000001,28.052091200000007],[-82.80000000000001,28.052083200000027],[-82.80000000000001,28.05185289999997],[-82.80000000000001,28.05175459999998],[-82.80000000000001,28.05118470000002],[-82.80000000000001,28.051074099999994],[-82.80000000000001,28.050935600000003],[-82.80000000000001,28.050720099999978],[-82.80000000000001,28.050693000000024],[-82.80000000000001,28.050480100000016],[-82.80000000000001,28.050147100000004],[-82.80000000000001,28.050015099999996],[-82.80000000000001,28.05000000000001],[-82.80059649999998,28.05000000000001],[-82.80630980000001,28.05000000000001],[-82.80685349999999,28.05000000000001],[-82.8078304,28.05000000000001],[-82.81110089999999,28.05000000000001],[-82.81212970000001,28.05000000000001],[-82.8127872,28.05000000000001],[-82.81301389999999,28.05000000000001],[-82.8135092,28.05000000000001],[-82.8135605,28.05000000000001],[-82.8149244,28.05000000000001],[-82.81607380000003,28.05000000000001],[-82.81707690000002,28.05000000000001],[-82.8182893,28.05000000000001],[-82.8199856,28.05000000000001],[-82.82013619999998,28.05000000000001],[-82.8201631,28.05000000000001],[-82.82044480000002,28.05000000000001],[-82.8205974,28.05000000000001],[-82.82070700000003,28.05000000000001],[-82.82079820000001,28.05000000000001],[-82.82080339999999,28.05000000000001],[-82.82082659999998,28.05000000000001],[-82.82082860000003,28.05000000000001],[-82.82186059999998,28.05000000000001],[-82.82330619999999,28.05000000000001],[-82.8249543,28.05000000000001],[-82.82495690000002,28.05000000000001],[-82.82498559999999,28.05000000000001],[-82.82524239999998,28.05000000000001],[-82.8275683,28.05000000000001],[-82.82759850000002,28.05000000000001],[-82.82840490000001,28.05000000000001],[-82.82843009999999,28.05000000000001],[-82.82844870000002,28.05000000000001],[-82.82850200000001,28.05000000000001],[-82.83319369999998,28.05000000000001],[-82.8646776,28.05000000000001],[-82.86745459999997,28.05000000000001],[-82.875,28.05000000000001],[-82.875,28.065893000000017],[-82.875,28.067724399999975],[-82.875,28.07773279999998],[-82.875,28.083611899999994],[-82.875,28.09018150000003],[-82.875,28.09120969999998],[-82.875,28.09844559999999],[-82.875,28.104344400000002],[-82.875,28.105],[-82.80000000000001,28.105],[-82.80000000000001,28.08667889999998]]]}},{"type":"Feature","properties":{},"geometry":{"type":"Polygon","coordinates":[[[-82.72500000000002,28.1003776],[-82.72500000000002,28.099275999999975],[-82.72500000000002,28.099130600000024],[-82.72500000000002,28.09840029999998],[-82.72500000000002,28.098253100000022],[-82.72500000000002,28.098092800000018],[-82.72500000000002,28.09493470000001],[-82.72500000000002,28.087339499999985],[-82.72500000000002,28.071138200000007],[-82.72500000000002,28.05000000000001],[-82.7679966,28.05000000000001],[-82.7852072,28.05000000000001],[-82.78524759999999,28.05000000000001],[-82.78721259999998,28.05000000000001],[-82.78741480000002,28.05000000000001],[-82.78837010000001,28.05000000000001],[-82.78839799999997,28.05000000000001],[-82.7896561,28.05000000000001],[-82.7900851,28.05000000000001],[-82.7902206,28.05000000000001],[-82.79202830000003,28.05000000000001],[-82.7937882,28.05000000000001],[-82.79524889999999,28.05000000000001],[-82.7954039,28.05000000000001],[-82.7955589,28.05000000000001],[-82.79611849999998,28.05000000000001],[-82.79834770000002,28.05000000000001],[-82.79995059999999,28.05000000000001],[-82.80000000000001,28.05000000000001],[-82.80000000000001,28.050015099999996],[-82.80000000000001,28.050147100000004],[-82.80000000000001,28.050480100000016],[-82.80000000000001,28.050693000000024],[-82.80000000000001,28.050720099999978],[-82.80000000000001,28.050935600000003],[-82.80000000000001,28.051074099999994],[-82.80000000000001,28.05118470000002],[-82.80000000000001,28.05175459999998],[-82.80000000000001,28.05185289999997],[-82.80000000000001,28.052083200000027],[-82.80000000000001,28.052091200000007],[-82.80000000000001,28.052131900000006],[-82.80000000000001,28.052335700000015],[-82.80000000000001,28.05953040000003],[-82.80000000000001,28.05958149999998],[-82.80000000000001,28.0614908],[-82.80000000000001,28.062799100000007],[-82.80000000000001,28.064099399999975],[-82.80000000000001,28.064397100000008],[-82.80000000000001,28.064694799999984],[-82.80000000000001,28.069803200000024],[-82.80000000000001,28.07011160000002],[-82.80000000000001,28.070244100000025],[-82.80000000000001,28.070420800000022],[-82.80000000000001,28.070764899999972],[-82.80000000000001,28.0726085],[-82.80000000000001,28.073281500000007],[-82.80000000000001,28.073299899999995],[-82.80000000000001,28.073830999999984],[-82.80000000000001,28.074012100000004],[-82.80000000000001,28.0747389],[-82.80000000000001,28.07491379999999],[-82.80000000000001,28.075198699999987],[-82.80000000000001,28.075224100000014],[-82.80000000000001,28.07579019999997],[-82.80000000000001,28.076158299999975],[-82.80000000000001,28.076164000000006],[-82.80000000000001,28.07619410000001],[-82.80000000000001,28.076830099999995],[-82.80000000000001,28.07692259999999],[-82.80000000000001,28.083531400000027],[-82.80000000000001,28.08376850000002],[-82.80000000000001,28.08665639999998],[-82.80000000000001,28.08667889999998],[-82.80000000000001,28.105],[-82.72500000000002,28.105],[-82.72500000000002,28.1003776]]]}}]}