{"type":"FeatureCollection","features":[{"type":"Feature","geometry":{"type":"LineString","coordinates":[[-97.50367829999999,27.832574899999997],[-97.5,27.83705550000002]]},"properties":{"k":"c","n":null,"c":"power line","v":59.4,"cc":null,"co":null,"s":"h"}},{"type":"Feature","geometry":{"type":"LineString","coordinates":[[-97.5,27.83705550000002],[-97.49879170000003,27.838549899999975],[-97.49084160000001,27.833131400000013],[-97.49000430000001,27.83341710000002],[-97.4876509,27.833429799999976]]},"properties":{"k":"c","n":null,"c":"power line","v":59.4,"cc":null,"co":null,"s":"h"}}]}