{"type":"FeatureCollection","features":[{"type":"Feature","properties":{},"geometry":{"type":"Polygon","coordinates":[[[-80.77499999999998,28.80000000000001],[-80.75651649999998,28.80000000000001],[-80.75566780000003,28.80000000000001],[-80.75469829999997,28.80000000000001],[-80.7528767,28.80000000000001],[-80.75030479999998,28.80000000000001],[-80.7497133,28.80000000000001],[-80.74394619999998,28.80000000000001],[-80.74278880000003,28.80000000000001],[-80.74114989999998,28.80000000000001],[-80.73885150000001,28.80000000000001],[-80.73646680000002,28.80000000000001],[-80.73393279999999,28.80000000000001],[-80.73101179999998,28.80000000000001],[-80.72650440000001,28.80000000000001],[-80.7165043,28.80000000000001],[-80.69999999999999,28.80000000000001],[-80.69999999999999,28.837655499999983],[-80.69999999999999,28.84109890000002],[-80.69999999999999,28.841852399999993],[-80.69999999999999,28.847181200000023],[-80.69999999999999,28.875],[-80.71951899999999,28.875],[-80.72095519999999,28.875],[-80.7214275,28.875],[-80.7354082,28.875],[-80.74308960000002,28.875],[-80.7656518,28.875],[-80.77499999999998,28.875],[-80.77499999999998,28.871313799999996],[-80.77499999999998,28.866076700000008],[-80.77499999999998,28.862980900000025],[-80.77499999999998,28.85893729999998],[-80.77499999999998,28.856709299999977],[-80.77499999999998,28.853598599999998],[-80.77499999999998,28.852812200000017],[-80.77499999999998,28.852095599999984],[-80.77499999999998,28.85056739999999],[-80.77499999999998,28.850174100000004],[-80.77499999999998,28.844831399999975],[-80.77499999999998,28.843725199999994],[-80.77499999999998,28.843059299999993],[-80.77499999999998,28.839802599999985],[-80.77499999999998,28.838074600000027],[-80.77499999999998,28.826153299999987],[-80.77499999999998,28.824069500000007],[-80.77499999999998,28.818532500000003],[-80.77499999999998,28.81751989999998],[-80.77499999999998,28.80000000000001]]]}},{"type":"Feature","properties":{},"geometry":{"type":"Polygon","coordinates":[[[-80.84644229999998,28.80000000000001],[-80.84340780000002,28.80000000000001],[-80.8408432,28.80000000000001],[-80.8375216,28.80000000000001],[-80.81631579999998,28.80000000000001],[-80.8015021,28.80000000000001],[-80.7952497,28.80000000000001],[-80.7943922,28.80000000000001],[-80.79389839999999,28.80000000000001],[-80.79181870000002,28.80000000000001],[-80.79158910000001,28.80000000000001],[-80.7879739,28.80000000000001],[-80.78768430000002,28.80000000000001],[-80.78753119999999,28.80000000000001],[-80.77499999999998,28.80000000000001],[-80.77499999999998,28.81751989999998],[-80.77499999999998,28.818532500000003],[-80.77499999999998,28.824069500000007],[-80.77499999999998,28.826153299999987],[-80.77499999999998,28.838074600000027],[-80.77499999999998,28.839802599999985],[-80.77499999999998,28.843059299999993],[-80.77499999999998,28.843725199999994],[-80.77499999999998,28.844831399999975],[-80.77499999999998,28.850174100000004],[-80.77499999999998,28.85056739999999],[-80.77499999999998,28.852095599999984],[-80.77499999999998,28.852812200000017],[-80.77499999999998,28.853598599999998],[-80.77499999999998,28.856709299999977],[-80.77499999999998,28.85893729999998],[-80.77499999999998,28.862980900000025],[-80.77499999999998,28.866076700000008],[-80.77499999999998,28.871313799999996],[-80.77499999999998,28.875],[-80.77644509999999,28.875],[-80.7807699,28.875],[-80.7821773,28.875],[-80.78440599999999,28.875],[-80.7867837,28.875],[-80.79481249999998,28.875],[-80.79713220000002,28.875],[-80.79814520000002,28.875],[-80.79991849999999,28.875],[-80.80084349999998,28.875],[-80.80924540000001,28.875],[-80.81102520000002,28.875],[-80.81173319999999,28.875],[-80.81266879999998,28.875],[-80.82458600000001,28.875],[-80.8255021,28.875],[-80.83294910000001,28.875],[-80.83373089999998,28.875],[-80.83605130000001,28.875],[-80.836254,28.875],[-80.83635299999997,28.875],[-80.83649739999998,28.875],[-80.84050880000001,28.875],[-80.84078950000003,28.875],[-80.84169580000002,28.875],[-80.85000000000002,28.875],[-80.85000000000002,28.87403089999998],[-80.85000000000002,28.80890499999998],[-80.85000000000002,28.804528100000027],[-80.85000000000002,28.80000000000001],[-80.84672870000003,28.80000000000001],[-80.84644229999998,28.80000000000001]]]}},{"type":"Feature","properties":{},"geometry":{"type":"Polygon","coordinates":[[[-80.87717570000001,28.94999999999999],[-80.89976769999998,28.94999999999999],[-80.92500000000001,28.94999999999999],[-80.92500000000001,28.875],[-80.85063489999999,28.875],[-80.85000000000002,28.875],[-80.85000000000002,28.893601400000023],[-80.85000000000002,28.893606499999976],[-80.85000000000002,28.895188500000017],[-80.85000000000002,28.8958528],[-80.85000000000002,28.896289000000024],[-80.85000000000002,28.89664829999998],[-80.85000000000002,28.898044500000026],[-80.85000000000002,28.901145600000007],[-80.85000000000002,28.907341499999973],[-80.85000000000002,28.91243209999999],[-80.85000000000002,28.915383700000007],[-80.85000000000002,28.916952999999978],[-80.85000000000002,28.918903699999987],[-80.85000000000002,28.919950900000003],[-80.85000000000002,28.920247300000028],[-80.85000000000002,28.921684000000027],[-80.85000000000002,28.922344699999996],[-80.85000000000002,28.92559590000002],[-80.85000000000002,28.925976400000025],[-80.85000000000002,28.926750500000026],[-80.85000000000002,28.927101100000016],[-80.85000000000002,28.929822399999978],[-80.85000000000002,28.93030110000001],[-80.85000000000002,28.931197499999996],[-80.85000000000002,28.93401510000001],[-80.85000000000002,28.935428100000024],[-80.85000000000002,28.936488800000006],[-80.85000000000002,28.939178000000027],[-80.85000000000002,28.945004200000028],[-80.85000000000002,28.945210900000006],[-80.85000000000002,28.9455016],[-80.85000000000002,28.945948499999986],[-80.85000000000002,28.947229100000015],[-80.85000000000002,28.94791029999999],[-80.85000000000002,28.94999999999999],[-80.85040780000003,28.94999999999999],[-80.8518201,28.94999999999999],[-80.8533706,28.94999999999999],[-80.85551800000002,28.94999999999999],[-80.85623040000002,28.94999999999999],[-80.85654360000001,28.94999999999999],[-80.85678619999999,28.94999999999999],[-80.85823900000003,28.94999999999999],[-80.85837830000003,28.94999999999999],[-80.8585478,28.94999999999999],[-80.85977839999998,28.94999999999999],[-80.8607824,28.94999999999999],[-80.8610228,28.94999999999999],[-80.86143040000002,28.94999999999999],[-80.8621288,28.94999999999999],[-80.86367360000003,28.94999999999999],[-80.86542709999998,28.94999999999999],[-80.86608539999997,28.94999999999999],[-80.86663900000002,28.94999999999999],[-80.86699599999997,28.94999999999999],[-80.8671521,28.94999999999999],[-80.86755299999999,28.94999999999999],[-80.86814600000002,28.94999999999999],[-80.86987549999998,28.94999999999999],[-80.87095310000001,28.94999999999999],[-80.8710385,28.94999999999999],[-80.87205499999999,28.94999999999999],[-80.8723756,28.94999999999999],[-80.87349440000003,28.94999999999999],[-80.8737739,28.94999999999999],[-80.87447359999999,28.94999999999999],[-80.87495710000002,28.94999999999999],[-80.87508759999997,28.94999999999999],[-80.87520990000002,28.94999999999999],[-80.87553700000001,28.94999999999999],[-80.87653260000002,28.94999999999999],[-80.87717570000001,28.94999999999999]]]}},{"type":"Feature","properties":{},"geometry":{"type":"Polygon","coordinates":[[[-80.84050880000001,28.875],[-80.83649739999998,28.875],[-80.83635299999997,28.875],[-80.836254,28.875],[-80.83605130000001,28.875],[-80.83373089999998,28.875],[-80.83294910000001,28.875],[-80.8255021,28.875],[-80.82458600000001,28.875],[-80.81266879999998,28.875],[-80.81173319999999,28.875],[-80.81102520000002,28.875],[-80.80924540000001,28.875],[-80.80084349999998,28.875],[-80.79991849999999,28.875],[-80.79814520000002,28.875],[-80.79713220000002,28.875],[-80.79481249999998,28.875],[-80.7867837,28.875],[-80.78440599999999,28.875],[-80.7821773,28.875],[-80.7807699,28.875],[-80.77644509999999,28.875],[-80.77499999999998,28.875],[-80.77499999999998,28.889265500000022],[-80.77499999999998,28.94999999999999],[-80.8147993,28.94999999999999],[-80.83023480000003,28.94999999999999],[-80.83267439999997,28.94999999999999],[-80.83400799999998,28.94999999999999],[-80.8361875,28.94999999999999],[-80.8376662,28.94999999999999],[-80.8382143,28.94999999999999],[-80.84159640000001,28.94999999999999],[-80.84257530000002,28.94999999999999],[-80.84348729999999,28.94999999999999],[-80.84392000000003,28.94999999999999],[-80.84465640000002,28.94999999999999],[-80.84600840000002,28.94999999999999],[-80.84637509999999,28.94999999999999],[-80.85000000000002,28.94999999999999],[-80.85000000000002,28.94791029999999],[-80.85000000000002,28.947229100000015],[-80.85000000000002,28.945948499999986],[-80.85000000000002,28.9455016],[-80.85000000000002,28.945210900000006],[-80.85000000000002,28.945004200000028],[-80.85000000000002,28.939178000000027],[-80.85000000000002,28.936488800000006],[-80.85000000000002,28.935428100000024],[-80.85000000000002,28.93401510000001],[-80.85000000000002,28.931197499999996],[-80.85000000000002,28.93030110000001],[-80.85000000000002,28.929822399999978],[-80.85000000000002,28.927101100000016],[-80.85000000000002,28.926750500000026],[-80.85000000000002,28.925976400000025],[-80.85000000000002,28.92559590000002],[-80.85000000000002,28.922344699999996],[-80.85000000000002,28.921684000000027],[-80.85000000000002,28.920247300000028],[-80.85000000000002,28.919950900000003],[-80.85000000000002,28.918903699999987],[-80.85000000000002,28.916952999999978],[-80.85000000000002,28.915383700000007],[-80.85000000000002,28.91243209999999],[-80.85000000000002,28.907341499999973],[-80.85000000000002,28.901145600000007],[-80.85000000000002,28.898044500000026],[-80.85000000000002,28.89664829999998],[-80.85000000000002,28.896289000000024],[-80.85000000000002,28.8958528],[-80.85000000000002,28.895188500000017],[-80.85000000000002,28.893606499999976],[-80.85000000000002,28.893601400000023],[-80.85000000000002,28.875],[-80.84169580000002,28.875],[-80.84078950000003,28.875],[-80.84050880000001,28.875]]]}},{"type":"Feature","properties":{},"geometry":{"type":"Polygon","coordinates":[[[-80.87717570000001,28.94999999999999],[-80.87653260000002,28.94999999999999],[-80.87553700000001,28.94999999999999],[-80.87520990000002,28.94999999999999],[-80.87510259999999,28.94999999999999],[-80.87495710000002,28.94999999999999],[-80.87450969999998,28.94999999999999],[-80.8737739,28.94999999999999],[-80.87349440000003,28.94999999999999],[-80.8723756,28.94999999999999],[-80.87205499999999,28.94999999999999],[-80.8710385,28.94999999999999],[-80.87095310000001,28.94999999999999],[-80.86987549999998,28.94999999999999],[-80.86814600000002,28.94999999999999],[-80.86755299999999,28.94999999999999],[-80.8671521,28.94999999999999],[-80.86699599999997,28.94999999999999],[-80.86663900000002,28.94999999999999],[-80.86608539999997,28.94999999999999],[-80.86542709999998,28.94999999999999],[-80.86367360000003,28.94999999999999],[-80.8621288,28.94999999999999],[-80.86143040000002,28.94999999999999],[-80.8610228,28.94999999999999],[-80.8607824,28.94999999999999],[-80.85977839999998,28.94999999999999],[-80.8585478,28.94999999999999],[-80.85837830000003,28.94999999999999],[-80.85823900000003,28.94999999999999],[-80.85678619999999,28.94999999999999],[-80.85654360000001,28.94999999999999],[-80.85623040000002,28.94999999999999],[-80.85551800000002,28.94999999999999],[-80.8533706,28.94999999999999],[-80.8518201,28.94999999999999],[-80.85040780000003,28.94999999999999],[-80.85000000000002,28.94999999999999],[-80.85000000000002,28.95266140000001],[-80.85000000000002,28.953117399999996],[-80.85000000000002,28.954863699999976],[-80.85000000000002,28.956030499999997],[-80.85000000000002,28.957058599999982],[-80.85000000000002,28.957532200000003],[-80.85000000000002,28.958552899999972],[-80.85000000000002,28.958621499999992],[-80.85000000000002,28.958836399999996],[-80.85000000000002,28.959050900000022],[-80.85000000000002,28.959739000000013],[-80.85000000000002,28.960168599999975],[-80.85000000000002,28.96302800000001],[-80.85000000000002,28.96341819999998],[-80.85000000000002,28.964635299999998],[-80.85000000000002,28.964877300000012],[-80.85000000000002,28.967118700000015],[-80.85000000000002,28.96781249999998],[-80.85000000000002,28.970559400000013],[-80.85000000000002,28.972970999999973],[-80.85000000000002,28.97540700000002],[-80.85000000000002,28.97863799999999],[-80.85000000000002,29.003716899999972],[-80.85000000000002,29.024999999999977],[-80.86394680000001,29.024999999999977],[-80.87665429999998,29.024999999999977],[-80.88061090000002,29.024999999999977],[-80.8817957,29.024999999999977],[-80.88426579999998,29.024999999999977],[-80.88646499999999,29.024999999999977],[-80.88706660000003,29.024999999999977],[-80.89505200000002,29.024999999999977],[-80.90264230000002,29.024999999999977],[-80.9028563,29.024999999999977],[-80.90615020000001,29.024999999999977],[-80.90708089999998,29.024999999999977],[-80.91371559999999,29.024999999999977],[-80.91416529999998,29.024999999999977],[-80.91510790000001,29.024999999999977],[-80.91547400000002,29.024999999999977],[-80.91588150000001,29.024999999999977],[-80.916269,29.024999999999977],[-80.91632900000002,29.024999999999977],[-80.9166002,29.024999999999977],[-80.91738379999998,29.024999999999977],[-80.9182298,29.024999999999977],[-80.91846329999998,29.024999999999977],[-80.91859729999999,29.024999999999977],[-80.9190145,29.024999999999977],[-80.91925579999997,29.024999999999977],[-80.92500000000001,29.024999999999977],[-80.92500000000001,29.020759800000008],[-80.92500000000001,28.988516500000003],[-80.92500000000001,28.94999999999999],[-80.89976769999998,28.94999999999999],[-80.87717570000001,28.94999999999999]]]}},{"type":"Feature","properties":{},"geometry":{"type":"Polygon","coordinates":[[[-80.98079819999998,29.100000000000023],[-80.9831092,29.100000000000023],[-81,29.100000000000023],[-81,29.08358800000002],[-81,29.024999999999977],[-80.9831092,29.024999999999977],[-80.95809780000002,29.024999999999977],[-80.95650469999998,29.024999999999977],[-80.94061959999999,29.024999999999977],[-80.92691739999998,29.024999999999977],[-80.92500000000001,29.024999999999977],[-80.92500000000001,29.031583300000023],[-80.92500000000001,29.032143399999995],[-80.92500000000001,29.034927600000003],[-80.92500000000001,29.035108400000013],[-80.92500000000001,29.036788300000012],[-80.92500000000001,29.037160299999982],[-80.92500000000001,29.04561460000002],[-80.92500000000001,29.04602829999999],[-80.92500000000001,29.052166999999997],[-80.92500000000001,29.05259799999999],[-80.92500000000001,29.054703800000027],[-80.92500000000001,29.056895199999985],[-80.92500000000001,29.057191199999977],[-80.92500000000001,29.057250399999987],[-80.92500000000001,29.057359200000008],[-80.92500000000001,29.057653800000026],[-80.92500000000001,29.057819999999992],[-80.92500000000001,29.05786519999998],[-80.92500000000001,29.058071600000005],[-80.92500000000001,29.058215399999995],[-80.92500000000001,29.058418599999982],[-80.92500000000001,29.062952499999994],[-80.92500000000001,29.063118999999972],[-80.92500000000001,29.063268600000015],[-80.92500000000001,29.064476000000013],[-80.92500000000001,29.065472899999975],[-80.92500000000001,29.066731000000004],[-80.92500000000001,29.0702766],[-80.92500000000001,29.071120199999996],[-80.92500000000001,29.0715333],[-80.92500000000001,29.072269100000028],[-80.92500000000001,29.072445300000027],[-80.92500000000001,29.072570600000006],[-80.92500000000001,29.074921899999993],[-80.92500000000001,29.075133600000015],[-80.92500000000001,29.075721199999975],[-80.92500000000001,29.075922600000013],[-80.92500000000001,29.076293099999987],[-80.92500000000001,29.0768913],[-80.92500000000001,29.077924199999984],[-80.92500000000001,29.078653599999996],[-80.92500000000001,29.085574199999996],[-80.92500000000001,29.087766799999997],[-80.92500000000001,29.088131799999985],[-80.92500000000001,29.09275120000001],[-80.92500000000001,29.093504199999984],[-80.92500000000001,29.095047000000022],[-80.92500000000001,29.098150299999986],[-80.92500000000001,29.100000000000023],[-80.9268672,29.100000000000023],[-80.928987,29.100000000000023],[-80.93071090000001,29.100000000000023],[-80.93139819999999,29.100000000000023],[-80.93385899999998,29.100000000000023],[-80.93563460000001,29.100000000000023],[-80.93664239999998,29.100000000000023],[-80.9442664,29.100000000000023],[-80.9464079,29.100000000000023],[-80.94755889999999,29.100000000000023],[-80.9482337,29.100000000000023],[-80.94987850000001,29.100000000000023],[-80.95025879999997,29.100000000000023],[-80.9505838,29.100000000000023],[-80.95063640000001,29.100000000000023],[-80.95085870000003,29.100000000000023],[-80.95102320000001,29.100000000000023],[-80.95114469999999,29.100000000000023],[-80.95134130000002,29.100000000000023],[-80.9517624,29.100000000000023],[-80.95204360000002,29.100000000000023],[-80.95345150000003,29.100000000000023],[-80.95409510000002,29.100000000000023],[-80.9541289,29.100000000000023],[-80.95437229999999,29.100000000000023],[-80.95437629999998,29.100000000000023],[-80.95961979999998,29.100000000000023],[-80.96084509999997,29.100000000000023],[-80.96107110000003,29.100000000000023],[-80.96792959999999,29.100000000000023],[-80.97357970000002,29.100000000000023],[-80.97729220000002,29.100000000000023],[-80.98079819999998,29.100000000000023]]]}},{"type":"Feature","properties":{},"geometry":{"type":"Polygon","coordinates":[[[-80.9190145,29.024999999999977],[-80.91859729999999,29.024999999999977],[-80.91846329999998,29.024999999999977],[-80.9182298,29.024999999999977],[-80.91738379999998,29.024999999999977],[-80.9166002,29.024999999999977],[-80.91632900000002,29.024999999999977],[-80.916269,29.024999999999977],[-80.91588150000001,29.024999999999977],[-80.91547400000002,29.024999999999977],[-80.91510790000001,29.024999999999977],[-80.91416529999998,29.024999999999977],[-80.91371559999999,29.024999999999977],[-80.90708089999998,29.024999999999977],[-80.90615020000001,29.024999999999977],[-80.9028563,29.024999999999977],[-80.90264230000002,29.024999999999977],[-80.89505200000002,29.024999999999977],[-80.88706660000003,29.024999999999977],[-80.88646499999999,29.024999999999977],[-80.88426579999998,29.024999999999977],[-80.8817957,29.024999999999977],[-80.88061090000002,29.024999999999977],[-80.87665429999998,29.024999999999977],[-80.86394680000001,29.024999999999977],[-80.85000000000002,29.024999999999977],[-80.85000000000002,29.02987330000002],[-80.85000000000002,29.073468400000024],[-80.85000000000002,29.07434169999999],[-80.85000000000002,29.100000000000023],[-80.85640590000003,29.100000000000023],[-80.8568553,29.100000000000023],[-80.90203000000002,29.100000000000023],[-80.90596399999998,29.100000000000023],[-80.92498970000003,29.100000000000023],[-80.92500000000001,29.100000000000023],[-80.92500000000001,29.098150299999986],[-80.92500000000001,29.095047000000022],[-80.92500000000001,29.093504199999984],[-80.92500000000001,29.09275120000001],[-80.92500000000001,29.088131799999985],[-80.92500000000001,29.087766799999997],[-80.92500000000001,29.085574199999996],[-80.92500000000001,29.078653599999996],[-80.92500000000001,29.077924199999984],[-80.92500000000001,29.0768913],[-80.92500000000001,29.076293099999987],[-80.92500000000001,29.075922600000013],[-80.92500000000001,29.075721199999975],[-80.92500000000001,29.075133600000015],[-80.92500000000001,29.074921899999993],[-80.92500000000001,29.072570600000006],[-80.92500000000001,29.072445300000027],[-80.92500000000001,29.072269100000028],[-80.92500000000001,29.0715333],[-80.92500000000001,29.071120199999996],[-80.92500000000001,29.0702766],[-80.92500000000001,29.066731000000004],[-80.92500000000001,29.065472899999975],[-80.92500000000001,29.064476000000013],[-80.92500000000001,29.063268600000015],[-80.92500000000001,29.063118999999972],[-80.92500000000001,29.062952499999994],[-80.92500000000001,29.058418599999982],[-80.92500000000001,29.058215399999995],[-80.92500000000001,29.058071600000005],[-80.92500000000001,29.05786519999998],[-80.92500000000001,29.057819999999992],[-80.92500000000001,29.057653800000026],[-80.92500000000001,29.057359200000008],[-80.92500000000001,29.057250399999987],[-80.92500000000001,29.057191199999977],[-80.92500000000001,29.056895199999985],[-80.92500000000001,29.054703800000027],[-80.92500000000001,29.05259799999999],[-80.92500000000001,29.052166999999997],[-80.92500000000001,29.04602829999999],[-80.92500000000001,29.04561460000002],[-80.92500000000001,29.037160299999982],[-80.92500000000001,29.036788300000012],[-80.92500000000001,29.035108400000013],[-80.92500000000001,29.034927600000003],[-80.92500000000001,29.032143399999995],[-80.92500000000001,29.031583300000023],[-80.92500000000001,29.024999999999977],[-80.91925579999997,29.024999999999977],[-80.9190145,29.024999999999977]]]}},{"type":"Feature","properties":{},"geometry":{"type":"Polygon","coordinates":[[[-80.98079819999998,29.100000000000023],[-80.97729220000002,29.100000000000023],[-80.97357970000002,29.100000000000023],[-80.96792959999999,29.100000000000023],[-80.96107110000003,29.100000000000023],[-80.96084509999997,29.100000000000023],[-80.95961979999998,29.100000000000023],[-80.95437629999998,29.100000000000023],[-80.95437229999999,29.100000000000023],[-80.9541289,29.100000000000023],[-80.95409510000002,29.100000000000023],[-80.95345150000003,29.100000000000023],[-80.95204360000002,29.100000000000023],[-80.9517624,29.100000000000023],[-80.95134130000002,29.100000000000023],[-80.95114469999999,29.100000000000023],[-80.95102320000001,29.100000000000023],[-80.95085870000003,29.100000000000023],[-80.95063640000001,29.100000000000023],[-80.9505838,29.100000000000023],[-80.95025879999997,29.100000000000023],[-80.94987850000001,29.100000000000023],[-80.9482337,29.100000000000023],[-80.94755889999999,29.100000000000023],[-80.9464079,29.100000000000023],[-80.9442664,29.100000000000023],[-80.93664239999998,29.100000000000023],[-80.93563460000001,29.100000000000023],[-80.93385899999998,29.100000000000023],[-80.93139819999999,29.100000000000023],[-80.93071090000001,29.100000000000023],[-80.928987,29.100000000000023],[-80.9268672,29.100000000000023],[-80.92500000000001,29.100000000000023],[-80.92500000000001,29.100012100000015],[-80.92500000000001,29.139963599999987],[-80.92500000000001,29.149164499999983],[-80.92500000000001,29.157295299999987],[-80.92500000000001,29.17500000000001],[-80.933651,29.17500000000001],[-80.97171509999998,29.17500000000001],[-80.97474820000002,29.17500000000001],[-80.97601200000003,29.17500000000001],[-80.97784109999998,29.17500000000001],[-80.97962710000002,29.17500000000001],[-80.98065430000003,29.17500000000001],[-80.98743409999997,29.17500000000001],[-80.9878627,29.17500000000001],[-80.9909682,29.17500000000001],[-80.99160010000003,29.17500000000001],[-80.99189089999999,29.17500000000001],[-80.99205119999999,29.17500000000001],[-80.99361329999999,29.17500000000001],[-80.999597,29.17500000000001],[-81,29.17500000000001],[-81,29.174841000000015],[-81,29.174343899999997],[-81,29.158448399999997],[-81,29.146440600000005],[-81,29.14040490000002],[-81,29.100000000000023],[-80.9831092,29.100000000000023],[-80.98079819999998,29.100000000000023]]]}},{"type":"Feature","properties":{},"geometry":{"type":"Polygon","coordinates":[[[-81.01396469999997,29.17500000000001],[-81.0016574,29.17500000000001],[-81.00041709999999,29.17500000000001],[-81,29.17500000000001],[-81,29.180045600000028],[-81,29.18377939999999],[-81,29.18973410000001],[-81,29.1922141],[-81,29.192634199999986],[-81,29.193016100000023],[-81,29.193872699999986],[-81,29.194532700000025],[-81,29.19588299999998],[-81,29.197037899999998],[-81,29.197244399999988],[-81,29.197634900000025],[-81,29.21341000000001],[-81,29.215476599999988],[-81,29.219211799999982],[-81,29.223193100000003],[-81,29.22656139999998],[-81,29.2311555],[-81,29.25],[-81.0086604,29.25],[-81.01125409999997,29.25],[-81.01272699999998,29.25],[-81.01538670000002,29.25],[-81.01707720000002,29.25],[-81.01782759999998,29.25],[-81.02840930000002,29.25],[-81.0325464,29.25],[-81.03278440000003,29.25],[-81.03300100000001,29.25],[-81.03503369999999,29.25],[-81.03737269999999,29.25],[-81.05053930000003,29.25],[-81.0558259,29.25],[-81.07499999999999,29.25],[-81.07499999999999,29.17500000000001],[-81.02820969999999,29.17500000000001],[-81.01396469999997,29.17500000000001]]]}},{"type":"Feature","properties":{},"geometry":{"type":"Polygon","coordinates":[[[-80.99361329999999,29.17500000000001],[-80.99205119999999,29.17500000000001],[-80.99189089999999,29.17500000000001],[-80.99160010000003,29.17500000000001],[-80.9909682,29.17500000000001],[-80.9878627,29.17500000000001],[-80.98743409999997,29.17500000000001],[-80.98065430000003,29.17500000000001],[-80.97962710000002,29.17500000000001],[-80.97784109999998,29.17500000000001],[-80.97601200000003,29.17500000000001],[-80.97474820000002,29.17500000000001],[-80.97171509999998,29.17500000000001],[-80.933651,29.17500000000001],[-80.92500000000001,29.17500000000001],[-80.92500000000001,29.190106800000024],[-80.92500000000001,29.190913899999998],[-80.92500000000001,29.24193760000003],[-80.92500000000001,29.25],[-80.9295687,29.25],[-80.95445410000002,29.25],[-80.95490419999999,29.25],[-80.99507840000001,29.25],[-81,29.25],[-81,29.2311555],[-81,29.22656139999998],[-81,29.223193100000003],[-81,29.219211799999982],[-81,29.215476599999988],[-81,29.21341000000001],[-81,29.197634900000025],[-81,29.197244399999988],[-81,29.197037899999998],[-81,29.19588299999998],[-81,29.194532700000025],[-81,29.193872699999986],[-81,29.193016100000023],[-81,29.192634199999986],[-81,29.1922141],[-81,29.18973410000001],[-81,29.18377939999999],[-81,29.180045600000028],[-81,29.17500000000001],[-80.999597,29.17500000000001],[-80.99361329999999,29.17500000000001]]]}},{"type":"Feature","properties":{},"geometry":{"type":"Polygon","coordinates":[[[-81.05053930000003,29.25],[-81.03737269999999,29.25],[-81.03503369999999,29.25],[-81.03300100000001,29.25],[-81.03278440000003,29.25],[-81.0325464,29.25],[-81.02840930000002,29.25],[-81.01782759999998,29.25],[-81.01707720000002,29.25],[-81.01538670000002,29.25],[-81.01272699999998,29.25],[-81.01125409999997,29.25],[-81.0086604,29.25],[-81,29.25],[-81,29.25549239999998],[-81,29.31080350000002],[-81,29.319276600000023],[-81,29.32499999999999],[-81.00397579999998,29.32499999999999],[-81.00695610000002,29.32499999999999],[-81.0468353,29.32499999999999],[-81.04926990000001,29.32499999999999],[-81.05064019999998,29.32499999999999],[-81.05245230000003,29.32499999999999],[-81.05406670000002,29.32499999999999],[-81.05430569999999,29.32499999999999],[-81.06520899999998,29.32499999999999],[-81.06564709999998,29.32499999999999],[-81.06584079999999,29.32499999999999],[-81.06603960000001,29.32499999999999],[-81.07368880000001,29.32499999999999],[-81.07499999999999,29.32499999999999],[-81.07499999999999,29.301661299999978],[-81.07499999999999,29.299781800000005],[-81.07499999999999,29.2992026],[-81.07499999999999,29.297249299999976],[-81.07499999999999,29.296862900000008],[-81.07499999999999,29.296103500000015],[-81.07499999999999,29.25],[-81.0558259,29.25],[-81.05053930000003,29.25]]]}},{"type":"Feature","properties":{},"geometry":{"type":"Polygon","coordinates":[[[-81.08739109999999,29.32499999999999],[-81.08476259999998,29.32499999999999],[-81.08368150000001,29.32499999999999],[-81.08187470000001,29.32499999999999],[-81.0808778,29.32499999999999],[-81.08035619999998,29.32499999999999],[-81.07499999999999,29.32499999999999],[-81.07499999999999,29.327383399999974],[-81.07499999999999,29.327502400000014],[-81.07499999999999,29.32832480000002],[-81.07499999999999,29.330780000000004],[-81.07499999999999,29.332981899999993],[-81.07499999999999,29.336300400000027],[-81.07499999999999,29.34440059999997],[-81.07499999999999,29.345747399999993],[-81.07499999999999,29.349566100000004],[-81.07499999999999,29.349931200000015],[-81.07499999999999,29.35047129999998],[-81.07499999999999,29.351082399999996],[-81.07499999999999,29.36818219999998],[-81.07499999999999,29.370922099999973],[-81.07499999999999,29.37398669999999],[-81.07499999999999,29.3759316],[-81.07499999999999,29.379669499999977],[-81.07499999999999,29.385562300000004],[-81.07499999999999,29.399999999999977],[-81.0812813,29.399999999999977],[-81.0836203,29.399999999999977],[-81.08544,29.399999999999977],[-81.0875671,29.399999999999977],[-81.08855549999998,29.399999999999977],[-81.0896459,29.399999999999977],[-81.09498889999998,29.399999999999977],[-81.09581309999999,29.399999999999977],[-81.09640000000002,29.399999999999977],[-81.09665860000001,29.399999999999977],[-81.09684049999998,29.399999999999977],[-81.09733749999998,29.399999999999977],[-81.09837420000002,29.399999999999977],[-81.09922269999998,29.399999999999977],[-81.09942189999998,29.399999999999977],[-81.1005189,29.399999999999977],[-81.10068209999997,29.399999999999977],[-81.10172540000002,29.399999999999977],[-81.10274040000002,29.399999999999977],[-81.10287249999999,29.399999999999977],[-81.10351910000003,29.399999999999977],[-81.10473680000001,29.399999999999977],[-81.10490170000003,29.399999999999977],[-81.1052709,29.399999999999977],[-81.10542700000002,29.399999999999977],[-81.1056312,29.399999999999977],[-81.10579339999998,29.399999999999977],[-81.10604949999998,29.399999999999977],[-81.10628919999999,29.399999999999977],[-81.1067506,29.399999999999977],[-81.10718910000003,29.399999999999977],[-81.10753310000001,29.399999999999977],[-81.10777080000003,29.399999999999977],[-81.10821420000002,29.399999999999977],[-81.10854560000001,29.399999999999977],[-81.10972470000002,29.399999999999977],[-81.11024909999998,29.399999999999977],[-81.11320510000002,29.399999999999977],[-81.11385189999999,29.399999999999977],[-81.11420729999998,29.399999999999977],[-81.11440820000001,29.399999999999977],[-81.11460369999998,29.399999999999977],[-81.11479559999998,29.399999999999977],[-81.11509439999998,29.399999999999977],[-81.11589989999999,29.399999999999977],[-81.1159879,29.399999999999977],[-81.1162038,29.399999999999977],[-81.11650200000003,29.399999999999977],[-81.11659259999999,29.399999999999977],[-81.11681709999999,29.399999999999977],[-81.1221807,29.399999999999977],[-81.1233651,29.399999999999977],[-81.14999999999998,29.399999999999977],[-81.14999999999998,29.32499999999999],[-81.0926399,29.32499999999999],[-81.08739109999999,29.32499999999999]]]}},{"type":"Feature","properties":{},"geometry":{"type":"Polygon","coordinates":[[[-81.07499999999999,29.32499999999999],[-81.07368880000001,29.32499999999999],[-81.06603960000001,29.32499999999999],[-81.06584079999999,29.32499999999999],[-81.06564709999998,29.32499999999999],[-81.06520899999998,29.32499999999999],[-81.05430569999999,29.32499999999999],[-81.05406670000002,29.32499999999999],[-81.05245230000003,29.32499999999999],[-81.05064019999998,29.32499999999999],[-81.04926990000001,29.32499999999999],[-81.0468353,29.32499999999999],[-81.00695610000002,29.32499999999999],[-81.00397579999998,29.32499999999999],[-81,29.32499999999999],[-81,29.3408589],[-81,29.341754900000012],[-81,29.36554430000001],[-81,29.368725600000005],[-81,29.399999999999977],[-81.02680249999997,29.399999999999977],[-81.0272425,29.399999999999977],[-81.04370510000001,29.399999999999977],[-81.0521865,29.399999999999977],[-81.07499999999999,29.399999999999977],[-81.07499999999999,29.385562300000004],[-81.07499999999999,29.379669499999977],[-81.07499999999999,29.3759316],[-81.07499999999999,29.37398669999999],[-81.07499999999999,29.370922099999973],[-81.07499999999999,29.36818219999998],[-81.07499999999999,29.351082399999996],[-81.07499999999999,29.35047129999998],[-81.07499999999999,29.349931200000015],[-81.07499999999999,29.349566100000004],[-81.07499999999999,29.345747399999993],[-81.07499999999999,29.34440059999997],[-81.07499999999999,29.336300400000027],[-81.07499999999999,29.332981899999993],[-81.07499999999999,29.330780000000004],[-81.07499999999999,29.32832480000002],[-81.07499999999999,29.327502400000014],[-81.07499999999999,29.327383399999974],[-81.07499999999999,29.32499999999999]]]}},{"type":"Feature","properties":{},"geometry":{"type":"Polygon","coordinates":[[[-81.11659259999999,29.399999999999977],[-81.11650200000003,29.399999999999977],[-81.1162038,29.399999999999977],[-81.1159879,29.399999999999977],[-81.11589989999999,29.399999999999977],[-81.11509439999998,29.399999999999977],[-81.11479559999998,29.399999999999977],[-81.11460369999998,29.399999999999977],[-81.11440820000001,29.399999999999977],[-81.11420729999998,29.399999999999977],[-81.11385189999999,29.399999999999977],[-81.11320510000002,29.399999999999977],[-81.11024909999998,29.399999999999977],[-81.10972470000002,29.399999999999977],[-81.10854560000001,29.399999999999977],[-81.10821420000002,29.399999999999977],[-81.10777080000003,29.399999999999977],[-81.10753310000001,29.399999999999977],[-81.10718910000003,29.399999999999977],[-81.1067506,29.399999999999977],[-81.10628919999999,29.399999999999977],[-81.10604949999998,29.399999999999977],[-81.10579339999998,29.399999999999977],[-81.1056312,29.399999999999977],[-81.10542700000002,29.399999999999977],[-81.1052709,29.399999999999977],[-81.10490170000003,29.399999999999977],[-81.10473680000001,29.399999999999977],[-81.10351910000003,29.399999999999977],[-81.10287249999999,29.399999999999977],[-81.10274040000002,29.399999999999977],[-81.10172540000002,29.399999999999977],[-81.10068209999997,29.399999999999977],[-81.1005189,29.399999999999977],[-81.09942189999998,29.399999999999977],[-81.09922269999998,29.399999999999977],[-81.09837420000002,29.399999999999977],[-81.09733749999998,29.399999999999977],[-81.09684049999998,29.399999999999977],[-81.09665860000001,29.399999999999977],[-81.09640000000002,29.399999999999977],[-81.09581309999999,29.399999999999977],[-81.09498889999998,29.399999999999977],[-81.0896459,29.399999999999977],[-81.08855549999998,29.399999999999977],[-81.0875671,29.399999999999977],[-81.08544,29.399999999999977],[-81.0836203,29.399999999999977],[-81.0812813,29.399999999999977],[-81.07499999999999,29.399999999999977],[-81.07499999999999,29.4638688],[-81.07499999999999,29.467510600000026],[-81.07499999999999,29.475000000000023],[-81.07788929999998,29.475000000000023],[-81.10709589999999,29.475000000000023],[-81.1167893,29.475000000000023],[-81.11950130000002,29.475000000000023],[-81.1210259,29.475000000000023],[-81.12170529999997,29.475000000000023],[-81.12325329999999,29.475000000000023],[-81.12409709999997,29.475000000000023],[-81.12821609999997,29.475000000000023],[-81.12833319999999,29.475000000000023],[-81.12880510000002,29.475000000000023],[-81.12916289999998,29.475000000000023],[-81.13317569999998,29.475000000000023],[-81.1339777,29.475000000000023],[-81.13507709999999,29.475000000000023],[-81.13555509999998,29.475000000000023],[-81.13577450000003,29.475000000000023],[-81.13595889999999,29.475000000000023],[-81.13637019999999,29.475000000000023],[-81.13840979999998,29.475000000000023],[-81.1396365,29.475000000000023],[-81.14999999999998,29.475000000000023],[-81.14999999999998,29.45298580000002],[-81.14999999999998,29.399999999999977],[-81.1233651,29.399999999999977],[-81.1221807,29.399999999999977],[-81.11681709999999,29.399999999999977],[-81.11659259999999,29.399999999999977]]]}},{"type":"Feature","properties":{},"geometry":{"type":"Polygon","coordinates":[[[-81.16781689999999,29.55000000000001],[-81.22500000000002,29.55000000000001],[-81.22500000000002,29.475000000000023],[-81.16074989999998,29.475000000000023],[-81.14999999999998,29.475000000000023],[-81.14999999999998,29.496651600000007],[-81.14999999999998,29.49793490000002],[-81.14999999999998,29.513127999999995],[-81.14999999999998,29.513540499999976],[-81.14999999999998,29.514221700000007],[-81.14999999999998,29.514848299999983],[-81.14999999999998,29.51535369999999],[-81.14999999999998,29.516348800000003],[-81.14999999999998,29.516955399999972],[-81.14999999999998,29.5183399],[-81.14999999999998,29.527816200000018],[-81.14999999999998,29.528896400000008],[-81.14999999999998,29.530305199999987],[-81.14999999999998,29.53379480000001],[-81.14999999999998,29.53650049999999],[-81.14999999999998,29.541068300000006],[-81.14999999999998,29.55000000000001],[-81.15417409999998,29.55000000000001],[-81.15649159999998,29.55000000000001],[-81.1577628,29.55000000000001],[-81.15937259999998,29.55000000000001],[-81.16056839999999,29.55000000000001],[-81.16102969999997,29.55000000000001],[-81.16254579999998,29.55000000000001],[-81.16289210000002,29.55000000000001],[-81.1666414,29.55000000000001],[-81.16691880000002,29.55000000000001],[-81.16724629999999,29.55000000000001],[-81.1675487,29.55000000000001],[-81.16781689999999,29.55000000000001]]]}},{"type":"Feature","properties":{},"geometry":{"type":"Polygon","coordinates":[[[-81.13637019999999,29.475000000000023],[-81.13595889999999,29.475000000000023],[-81.13577450000003,29.475000000000023],[-81.13555509999998,29.475000000000023],[-81.13507709999999,29.475000000000023],[-81.1339777,29.475000000000023],[-81.13317569999998,29.475000000000023],[-81.12916289999998,29.475000000000023],[-81.12880510000002,29.475000000000023],[-81.12833319999999,29.475000000000023],[-81.12821609999997,29.475000000000023],[-81.12409709999997,29.475000000000023],[-81.12325329999999,29.475000000000023],[-81.12170529999997,29.475000000000023],[-81.1210259,29.475000000000023],[-81.11950130000002,29.475000000000023],[-81.1167893,29.475000000000023],[-81.10709589999999,29.475000000000023],[-81.07788929999998,29.475000000000023],[-81.07499999999999,29.475000000000023],[-81.07499999999999,29.50295110000002],[-81.07499999999999,29.503878699999973],[-81.07499999999999,29.55000000000001],[-81.07696959999998,29.55000000000001],[-81.09782560000002,29.55000000000001],[-81.09827660000002,29.55000000000001],[-81.12008980000002,29.55000000000001],[-81.14999999999998,29.55000000000001],[-81.14999999999998,29.541068300000006],[-81.14999999999998,29.53650049999999],[-81.14999999999998,29.53379480000001],[-81.14999999999998,29.530305199999987],[-81.14999999999998,29.528896400000008],[-81.14999999999998,29.527816200000018],[-81.14999999999998,29.5183399],[-81.14999999999998,29.516955399999972],[-81.14999999999998,29.516348800000003],[-81.14999999999998,29.51535369999999],[-81.14999999999998,29.514848299999983],[-81.14999999999998,29.514221700000007],[-81.14999999999998,29.513540499999976],[-81.14999999999998,29.513127999999995],[-81.14999999999998,29.49793490000002],[-81.14999999999998,29.496651600000007],[-81.14999999999998,29.475000000000023],[-81.1396365,29.475000000000023],[-81.13840979999998,29.475000000000023],[-81.13637019999999,29.475000000000023]]]}},{"type":"Feature","properties":{},"geometry":{"type":"Polygon","coordinates":[[[-81.22500000000002,29.616662500000018],[-81.22500000000002,29.607702300000028],[-81.22500000000002,29.594595000000027],[-81.22500000000002,29.55000000000001],[-81.16781689999999,29.55000000000001],[-81.1675487,29.55000000000001],[-81.16724629999999,29.55000000000001],[-81.16691880000002,29.55000000000001],[-81.1666414,29.55000000000001],[-81.16289210000002,29.55000000000001],[-81.16254579999998,29.55000000000001],[-81.16102969999997,29.55000000000001],[-81.16056839999999,29.55000000000001],[-81.15937259999998,29.55000000000001],[-81.1577628,29.55000000000001],[-81.15649159999998,29.55000000000001],[-81.15417409999998,29.55000000000001],[-81.14999999999998,29.55000000000001],[-81.14999999999998,29.6168945],[-81.14999999999998,29.625],[-81.15289910000001,29.625],[-81.18650930000001,29.625],[-81.18886579999997,29.625],[-81.19053980000001,29.625],[-81.1921001,29.625],[-81.19344810000001,29.625],[-81.1938576,29.625],[-81.2078229,29.625],[-81.20874759999998,29.625],[-81.2089325,29.625],[-81.2091135,29.625],[-81.2093203,29.625],[-81.20949960000002,29.625],[-81.21536429999998,29.625],[-81.22270070000002,29.625],[-81.2236274,29.625],[-81.22500000000002,29.625],[-81.22500000000002,29.624834700000008],[-81.22500000000002,29.623074400000007],[-81.22500000000002,29.622544199999993],[-81.22500000000002,29.621809199999973],[-81.22500000000002,29.620017299999972],[-81.22500000000002,29.616662500000018]]]}},{"type":"Feature","properties":{},"geometry":{"type":"Polygon","coordinates":[[[-81.24696799999998,29.69999999999999],[-81.30000000000001,29.69999999999999],[-81.30000000000001,29.625],[-81.2282932,29.625],[-81.22515670000001,29.625],[-81.22500000000002,29.625],[-81.22500000000002,29.625786800000014],[-81.22500000000002,29.62819030000003],[-81.22500000000002,29.628664000000015],[-81.22500000000002,29.628698900000018],[-81.22500000000002,29.629586500000016],[-81.22500000000002,29.641123100000016],[-81.22500000000002,29.646614100000022],[-81.22500000000002,29.64728439999999],[-81.22500000000002,29.649500400000022],[-81.22500000000002,29.650999300000024],[-81.22500000000002,29.656061799999975],[-81.22500000000002,29.657730700000002],[-81.22500000000002,29.661200699999995],[-81.22500000000002,29.666379600000027],[-81.22500000000002,29.6672691],[-81.22500000000002,29.66804719999999],[-81.22500000000002,29.66970379999998],[-81.22500000000002,29.671553300000028],[-81.22500000000002,29.671930900000007],[-81.22500000000002,29.672696499999972],[-81.22500000000002,29.673087899999985],[-81.22500000000002,29.673566300000005],[-81.22500000000002,29.67381119999999],[-81.22500000000002,29.674976300000026],[-81.22500000000002,29.676637200000016],[-81.22500000000002,29.67736500000001],[-81.22500000000002,29.679074800000024],[-81.22500000000002,29.679699700000015],[-81.22500000000002,29.683181400000024],[-81.22500000000002,29.683560999999997],[-81.22500000000002,29.684837300000027],[-81.22500000000002,29.685738500000014],[-81.22500000000002,29.68752740000002],[-81.22500000000002,29.68829340000002],[-81.22500000000002,29.689415399999973],[-81.22500000000002,29.68973870000002],[-81.22500000000002,29.690076299999987],[-81.22500000000002,29.69116580000002],[-81.22500000000002,29.696087499999976],[-81.22500000000002,29.696518000000026],[-81.22500000000002,29.69707199999999],[-81.22500000000002,29.697879399999977],[-81.22500000000002,29.69999999999999],[-81.22685539999998,29.69999999999999],[-81.2280533,29.69999999999999],[-81.22903459999998,29.69999999999999],[-81.22904319999998,29.69999999999999],[-81.23091699999998,29.69999999999999],[-81.23165219999998,29.69999999999999],[-81.23203360000002,29.69999999999999],[-81.23227300000002,29.69999999999999],[-81.23247470000001,29.69999999999999],[-81.23459550000001,29.69999999999999],[-81.23498160000003,29.69999999999999],[-81.23539019999998,29.69999999999999],[-81.23566340000002,29.69999999999999],[-81.24180660000002,29.69999999999999],[-81.24696799999998,29.69999999999999]]]}},{"type":"Feature","properties":{},"geometry":{"type":"Polygon","coordinates":[[[-81.21536429999998,29.625],[-81.20949960000002,29.625],[-81.2093203,29.625],[-81.2091135,29.625],[-81.2089325,29.625],[-81.20874759999998,29.625],[-81.2078229,29.625],[-81.1938576,29.625],[-81.19344810000001,29.625],[-81.1921001,29.625],[-81.19053980000001,29.625],[-81.18886579999997,29.625],[-81.18650930000001,29.625],[-81.15289910000001,29.625],[-81.14999999999998,29.625],[-81.14999999999998,29.626316999999972],[-81.14999999999998,29.626317099999994],[-81.14999999999998,29.666707499999973],[-81.14999999999998,29.667800199999988],[-81.14999999999998,29.69999999999999],[-81.16326129999999,29.69999999999999],[-81.16369509999998,29.69999999999999],[-81.1764938,29.69999999999999],[-81.17887789999997,29.69999999999999],[-81.2133311,29.69999999999999],[-81.21680279999998,29.69999999999999],[-81.22021619999998,29.69999999999999],[-81.2209542,29.69999999999999],[-81.22357590000001,29.69999999999999],[-81.2237988,29.69999999999999],[-81.22500000000002,29.69999999999999],[-81.22500000000002,29.697879399999977],[-81.22500000000002,29.69707199999999],[-81.22500000000002,29.696518000000026],[-81.22500000000002,29.696087499999976],[-81.22500000000002,29.69116580000002],[-81.22500000000002,29.690076299999987],[-81.22500000000002,29.68973870000002],[-81.22500000000002,29.689415399999973],[-81.22500000000002,29.68829340000002],[-81.22500000000002,29.68752740000002],[-81.22500000000002,29.685738500000014],[-81.22500000000002,29.684837300000027],[-81.22500000000002,29.683560999999997],[-81.22500000000002,29.683181400000024],[-81.22500000000002,29.679699700000015],[-81.22500000000002,29.679074800000024],[-81.22500000000002,29.67736500000001],[-81.22500000000002,29.676637200000016],[-81.22500000000002,29.674976300000026],[-81.22500000000002,29.67381119999999],[-81.22500000000002,29.673566300000005],[-81.22500000000002,29.673087899999985],[-81.22500000000002,29.672696499999972],[-81.22500000000002,29.671930900000007],[-81.22500000000002,29.671553300000028],[-81.22500000000002,29.66970379999998],[-81.22500000000002,29.66804719999999],[-81.22500000000002,29.6672691],[-81.22500000000002,29.666379600000027],[-81.22500000000002,29.661200699999995],[-81.22500000000002,29.657730700000002],[-81.22500000000002,29.656061799999975],[-81.22500000000002,29.650999300000024],[-81.22500000000002,29.649500400000022],[-81.22500000000002,29.64728439999999],[-81.22500000000002,29.646614100000022],[-81.22500000000002,29.641123100000016],[-81.22500000000002,29.629586500000016],[-81.22500000000002,29.628698900000018],[-81.22500000000002,29.628664000000015],[-81.22500000000002,29.62819030000003],[-81.22500000000002,29.625786800000014],[-81.22500000000002,29.625],[-81.2236274,29.625],[-81.22270070000002,29.625],[-81.21536429999998,29.625]]]}},{"type":"Feature","properties":{},"geometry":{"type":"Polygon","coordinates":[[[-81.24180660000002,29.69999999999999],[-81.23566340000002,29.69999999999999],[-81.23539019999998,29.69999999999999],[-81.23498160000003,29.69999999999999],[-81.23459550000001,29.69999999999999],[-81.23247470000001,29.69999999999999],[-81.23227300000002,29.69999999999999],[-81.23203360000002,29.69999999999999],[-81.23165219999998,29.69999999999999],[-81.23091699999998,29.69999999999999],[-81.22904319999998,29.69999999999999],[-81.22903459999998,29.69999999999999],[-81.2280533,29.69999999999999],[-81.22685539999998,29.69999999999999],[-81.22500000000002,29.69999999999999],[-81.22500000000002,29.70175569999998],[-81.22500000000002,29.70301169999999],[-81.22500000000002,29.703664800000013],[-81.22500000000002,29.70828369999998],[-81.22500000000002,29.70849240000001],[-81.22500000000002,29.71315229999999],[-81.22500000000002,29.71755969999998],[-81.22500000000002,29.719758300000024],[-81.22500000000002,29.72480089999999],[-81.22500000000002,29.75],[-81.22500000000002,29.774999999999977],[-81.24559349999998,29.774999999999977],[-81.24789529999998,29.774999999999977],[-81.24915399999998,29.774999999999977],[-81.2511379,29.774999999999977],[-81.25312500000001,29.774999999999977],[-81.25318900000002,29.774999999999977],[-81.2531894,29.774999999999977],[-81.25577520000002,29.774999999999977],[-81.25902919999999,29.774999999999977],[-81.25979949999999,29.774999999999977],[-81.26004069999999,29.774999999999977],[-81.26124549999997,29.774999999999977],[-81.26190079999998,29.774999999999977],[-81.26270369999997,29.774999999999977],[-81.26270699999998,29.774999999999977],[-81.2634597,29.774999999999977],[-81.26355819999998,29.774999999999977],[-81.26418539999997,29.774999999999977],[-81.26454189999998,29.774999999999977],[-81.26483530000002,29.774999999999977],[-81.26517969999998,29.774999999999977],[-81.2719808,29.774999999999977],[-81.27341790000003,29.774999999999977],[-81.27496860000002,29.774999999999977],[-81.27555180000002,29.774999999999977],[-81.2795504,29.774999999999977],[-81.28698910000003,29.774999999999977],[-81.28909019999998,29.774999999999977],[-81.29239769999998,29.774999999999977],[-81.30000000000001,29.774999999999977],[-81.30000000000001,29.69999999999999],[-81.24696799999998,29.69999999999999],[-81.24180660000002,29.69999999999999]]]}},{"type":"Feature","properties":{},"geometry":{"type":"Polygon","coordinates":[[[-81.30000000000001,29.774999999999977],[-81.30000000000001,29.82425840000002],[-81.30000000000001,29.824646400000006],[-81.30000000000001,29.82561179999999],[-81.30000000000001,29.827051799999992],[-81.30000000000001,29.82780029999998],[-81.30000000000001,29.8288819],[-81.30000000000001,29.82909699999999],[-81.30000000000001,29.829748100000018],[-81.30000000000001,29.8297905],[-81.30000000000001,29.83049390000002],[-81.30000000000001,29.83128770000002],[-81.30000000000001,29.833908199999996],[-81.30000000000001,29.83418230000001],[-81.30000000000001,29.83439149999998],[-81.30000000000001,29.835273599999994],[-81.30000000000001,29.83602639999998],[-81.30000000000001,29.836879099999976],[-81.30000000000001,29.838848299999995],[-81.30000000000001,29.841121299999998],[-81.30000000000001,29.84443060000001],[-81.30000000000001,29.846452199999987],[-81.30000000000001,29.848824999999977],[-81.30000000000001,29.84991550000001],[-81.30000000000001,29.850000000000023],[-81.30007139999998,29.850000000000023],[-81.30060429999997,29.850000000000023],[-81.3011649,29.850000000000023],[-81.30238480000003,29.850000000000023],[-81.30345110000002,29.850000000000023],[-81.30393600000002,29.850000000000023],[-81.3043548,29.850000000000023],[-81.30502630000001,29.850000000000023],[-81.3053342,29.850000000000023],[-81.3055622,29.850000000000023],[-81.30613240000002,29.850000000000023],[-81.30666450000001,29.850000000000023],[-81.3070849,29.850000000000023],[-81.30710670000002,29.850000000000023],[-81.3082493,29.850000000000023],[-81.30841220000002,29.850000000000023],[-81.30964039999998,29.850000000000023],[-81.31043849999998,29.850000000000023],[-81.31094430000002,29.850000000000023],[-81.31174750000002,29.850000000000023],[-81.3121074,29.850000000000023],[-81.375,29.850000000000023],[-81.375,29.774999999999977],[-81.33311939999999,29.774999999999977],[-81.30000000000001,29.774999999999977]]]}},{"type":"Feature","properties":{},"geometry":{"type":"Polygon","coordinates":[[[-81.30000000000001,29.824174400000004],[-81.30000000000001,29.808289899999977],[-81.30000000000001,29.774999999999977],[-81.29239769999998,29.774999999999977],[-81.28909019999998,29.774999999999977],[-81.28698910000003,29.774999999999977],[-81.2795504,29.774999999999977],[-81.2755881,29.774999999999977],[-81.27555180000002,29.774999999999977],[-81.27496860000002,29.774999999999977],[-81.27341790000003,29.774999999999977],[-81.2719808,29.774999999999977],[-81.26517969999998,29.774999999999977],[-81.26483530000002,29.774999999999977],[-81.26454189999998,29.774999999999977],[-81.26418539999997,29.774999999999977],[-81.26355819999998,29.774999999999977],[-81.2634597,29.774999999999977],[-81.26270699999998,29.774999999999977],[-81.26270369999997,29.774999999999977],[-81.26190079999998,29.774999999999977],[-81.26124549999997,29.774999999999977],[-81.26004069999999,29.774999999999977],[-81.25979949999999,29.774999999999977],[-81.25902919999999,29.774999999999977],[-81.25577520000002,29.774999999999977],[-81.2531894,29.774999999999977],[-81.25318900000002,29.774999999999977],[-81.25312500000001,29.774999999999977],[-81.2511379,29.774999999999977],[-81.24915399999998,29.774999999999977],[-81.24789529999998,29.774999999999977],[-81.24559349999998,29.774999999999977],[-81.22500000000002,29.774999999999977],[-81.22500000000002,29.8176823],[-81.22500000000002,29.850000000000023],[-81.23766599999999,29.850000000000023],[-81.23767409999999,29.850000000000023],[-81.24490400000002,29.850000000000023],[-81.24982790000001,29.850000000000023],[-81.25634050000002,29.850000000000023],[-81.26080999999999,29.850000000000023],[-81.2621689,29.850000000000023],[-81.26406029999998,29.850000000000023],[-81.26421069999998,29.850000000000023],[-81.2642616,29.850000000000023],[-81.264633,29.850000000000023],[-81.29545669999999,29.850000000000023],[-81.29642230000002,29.850000000000023],[-81.2970391,29.850000000000023],[-81.29917289999997,29.850000000000023],[-81.30000000000001,29.850000000000023],[-81.30000000000001,29.84991550000001],[-81.30000000000001,29.848824999999977],[-81.30000000000001,29.846452199999987],[-81.30000000000001,29.84443060000001],[-81.30000000000001,29.841121299999998],[-81.30000000000001,29.838848299999995],[-81.30000000000001,29.836879099999976],[-81.30000000000001,29.83602639999998],[-81.30000000000001,29.836018500000023],[-81.30000000000001,29.835448100000008],[-81.30000000000001,29.835273599999994],[-81.30000000000001,29.83439149999998],[-81.30000000000001,29.83418230000001],[-81.30000000000001,29.833908199999996],[-81.30000000000001,29.83128770000002],[-81.30000000000001,29.83049390000002],[-81.30000000000001,29.830463399999985],[-81.30000000000001,29.830142299999977],[-81.30000000000001,29.8297905],[-81.30000000000001,29.829748100000018],[-81.30000000000001,29.82909699999999],[-81.30000000000001,29.8288819],[-81.30000000000001,29.82780029999998],[-81.30000000000001,29.827051799999992],[-81.30000000000001,29.82561179999999],[-81.30000000000001,29.824646400000006],[-81.30000000000001,29.824628099999984],[-81.30000000000001,29.82425840000002],[-81.30000000000001,29.824174400000004]]]}}]}