{"type":"FeatureCollection","features":[{"type":"Feature","properties":{},"geometry":{"type":"Polygon","coordinates":[[[-75.30000000000001,38.69999999999999],[-75.30000000000001,38.77499999999998],[-75.28972570000002,38.77499999999998],[-75.289087,38.77499999999998],[-75.2515057,38.77499999999998],[-75.25122299999998,38.77499999999998],[-75.2509336,38.77499999999998],[-75.22500000000002,38.77499999999998],[-75.22500000000002,38.69999999999999],[-75.30000000000001,38.69999999999999]]]}},{"type":"Feature","properties":{},"geometry":{"type":"Polygon","coordinates":[[[-75.16419910000002,38.69999999999999],[-75.22500000000002,38.69999999999999],[-75.22500000000002,38.77499999999998],[-75.19574970000002,38.77499999999998],[-75.19523270000002,38.77499999999998],[-75.19358729999999,38.77499999999998],[-75.19342940000001,38.77499999999998],[-75.19317180000002,38.77499999999998],[-75.19286929999998,38.77499999999998],[-75.19227540000003,38.77499999999998],[-75.1920973,38.77499999999998],[-75.1910097,38.77499999999998],[-75.18921990000001,38.77499999999998],[-75.18825520000001,38.77499999999998],[-75.18754810000001,38.77499999999998],[-75.18716280000001,38.77499999999998],[-75.1810893,38.77499999999998],[-75.17431640000001,38.77499999999998],[-75.17152779999998,38.77499999999998],[-75.17123830000003,38.77499999999998],[-75.16896489999999,38.77499999999998],[-75.14999999999998,38.77499999999998],[-75.14999999999998,38.75235980000002],[-75.14999999999998,38.69999999999999],[-75.15832469999998,38.69999999999999],[-75.15931849999998,38.69999999999999],[-75.16057799999999,38.69999999999999],[-75.16419910000002,38.69999999999999]]]}},{"type":"Feature","properties":{},"geometry":{"type":"Polygon","coordinates":[[[-75.14898290000002,38.69999999999999],[-75.14999999999998,38.69999999999999],[-75.14999999999998,38.75235980000002],[-75.14999999999998,38.77499999999998],[-75.13663079999998,38.77499999999998],[-75.13662720000002,38.77499999999998],[-75.13651800000002,38.77499999999998],[-75.136369,38.77499999999998],[-75.1363217,38.77499999999998],[-75.13584200000003,38.77499999999998],[-75.13566479999997,38.77499999999998],[-75.13560810000001,38.77499999999998],[-75.1354988,38.77499999999998],[-75.13549210000002,38.77499999999998],[-75.13229560000002,38.77499999999998],[-75.13206050000002,38.77499999999998],[-75.13101,38.77499999999998],[-75.10005940000002,38.77499999999998],[-75.08389879999999,38.77499999999998],[-75.0835763,38.77499999999998],[-75.08244930000001,38.77499999999998],[-75.08177840000002,38.77499999999998],[-75.08072820000001,38.77499999999998],[-75.07543229999999,38.77499999999998],[-75.07540999999998,38.77499999999998],[-75.07499999999999,38.77499999999998],[-75.07499999999999,38.77361459999997],[-75.07499999999999,38.773463900000024],[-75.07499999999999,38.773039600000004],[-75.07499999999999,38.7717763],[-75.07499999999999,38.76017539999998],[-75.07499999999999,38.75178570000003],[-75.07499999999999,38.72431369999998],[-75.07499999999999,38.72186319999997],[-75.07499999999999,38.7202977],[-75.07499999999999,38.718185800000015],[-75.07499999999999,38.71639379999999],[-75.07499999999999,38.7085505],[-75.07499999999999,38.70299269999998],[-75.07499999999999,38.69999999999999],[-75.07816550000001,38.69999999999999],[-75.08976030000002,38.69999999999999],[-75.0907843,38.69999999999999],[-75.09326570000002,38.69999999999999],[-75.09378040000001,38.69999999999999],[-75.094246,38.69999999999999],[-75.1064614,38.69999999999999],[-75.10788889999998,38.69999999999999],[-75.10944219999999,38.69999999999999],[-75.11042939999999,38.69999999999999],[-75.11199049999999,38.69999999999999],[-75.1124711,38.69999999999999],[-75.11957289999998,38.69999999999999],[-75.12038569999999,38.69999999999999],[-75.1234581,38.69999999999999],[-75.12864869999999,38.69999999999999],[-75.13790510000001,38.69999999999999],[-75.13808089999998,38.69999999999999],[-75.1387815,38.69999999999999],[-75.14853419999997,38.69999999999999],[-75.14898290000002,38.69999999999999]]]}},{"type":"Feature","properties":{},"geometry":{"type":"Polygon","coordinates":[[[-75.0723936,38.69999999999999],[-75.07499999999999,38.69999999999999],[-75.07499999999999,38.70299269999998],[-75.07499999999999,38.7085505],[-75.07499999999999,38.71639379999999],[-75.07499999999999,38.718185800000015],[-75.07499999999999,38.7202977],[-75.07499999999999,38.72186319999997],[-75.07499999999999,38.72431369999998],[-75.07499999999999,38.75178570000003],[-75.07499999999999,38.76017539999998],[-75.07499999999999,38.7717763],[-75.07499999999999,38.773039600000004],[-75.07499999999999,38.773463900000024],[-75.07499999999999,38.77361459999997],[-75.07499999999999,38.77499999999998],[-75.07375619999999,38.77499999999998],[-75.07165930000002,38.77499999999998],[-75.07038590000002,38.77499999999998],[-75.06968289999998,38.77499999999998],[-75.0671016,38.77499999999998],[-75.06377120000002,38.77499999999998],[-75.05712199999999,38.77499999999998],[-75.0564956,38.77499999999998],[-75.05566049999999,38.77499999999998],[-75.03352369999999,38.77499999999998],[-75.01805730000001,38.77499999999998],[-75.0175926,38.77499999999998],[-75.01618710000002,38.77499999999998],[-75.0,38.77499999999998],[-75.0,38.75991749999997],[-75.0,38.72843799999998],[-75.0,38.71920460000001],[-75.0,38.71371859999999],[-75.0,38.69999999999999],[-75.0086594,38.69999999999999],[-75.00912920000002,38.69999999999999],[-75.0161723,38.69999999999999],[-75.01856079999999,38.69999999999999],[-75.0191944,38.69999999999999],[-75.06094969999998,38.69999999999999],[-75.06817009999997,38.69999999999999],[-75.07087489999998,38.69999999999999],[-75.07193230000001,38.69999999999999],[-75.07212659999999,38.69999999999999],[-75.0723936,38.69999999999999]]]}},{"type":"Feature","properties":{},"geometry":{"type":"Polygon","coordinates":[[[-75.28972570000002,38.77499999999998],[-75.30000000000001,38.77499999999998],[-75.30000000000001,38.7755406],[-75.30000000000001,38.77648370000003],[-75.30000000000001,38.77686749999998],[-75.30000000000001,38.77815650000002],[-75.30000000000001,38.85000000000002],[-75.2651505,38.85000000000002],[-75.26251710000003,38.85000000000002],[-75.26216620000002,38.85000000000002],[-75.25796860000003,38.85000000000002],[-75.25779720000003,38.85000000000002],[-75.25231739999998,38.85000000000002],[-75.25231289999999,38.85000000000002],[-75.2518986,38.85000000000002],[-75.2513581,38.85000000000002],[-75.2512496,38.85000000000002],[-75.25066329999999,38.85000000000002],[-75.25033530000002,38.85000000000002],[-75.2494878,38.85000000000002],[-75.2494112,38.85000000000002],[-75.2459457,38.85000000000002],[-75.24580220000001,38.85000000000002],[-75.2456793,38.85000000000002],[-75.2441053,38.85000000000002],[-75.24076450000001,38.85000000000002],[-75.24065990000003,38.85000000000002],[-75.2405655,38.85000000000002],[-75.23771979999998,38.85000000000002],[-75.23691209999998,38.85000000000002],[-75.22680309999998,38.85000000000002],[-75.22500000000002,38.85000000000002],[-75.22500000000002,38.84871420000002],[-75.22500000000002,38.839862600000004],[-75.22500000000002,38.83953700000001],[-75.22500000000002,38.8361774],[-75.22500000000002,38.83600910000001],[-75.22500000000002,38.83523439999999],[-75.22500000000002,38.835000200000025],[-75.22500000000002,38.8336736],[-75.22500000000002,38.83354400000002],[-75.22500000000002,38.83317699999998],[-75.22500000000002,38.83286650000002],[-75.22500000000002,38.83253669999999],[-75.22500000000002,38.83148590000002],[-75.22500000000002,38.8310156],[-75.22500000000002,38.83014539999999],[-75.22500000000002,38.82360540000002],[-75.22500000000002,38.81974789999998],[-75.22500000000002,38.81957649999998],[-75.22500000000002,38.81896499999999],[-75.22500000000002,38.81882519999999],[-75.22500000000002,38.809963400000015],[-75.22500000000002,38.80928879999999],[-75.22500000000002,38.8057857],[-75.22500000000002,38.80546859999998],[-75.22500000000002,38.800119300000006],[-75.22500000000002,38.77499999999998],[-75.2509336,38.77499999999998],[-75.25122299999998,38.77499999999998],[-75.2515057,38.77499999999998],[-75.289087,38.77499999999998],[-75.28972570000002,38.77499999999998]]]}},{"type":"Feature","properties":{},"geometry":{"type":"Polygon","coordinates":[[[-75.19574970000002,38.77499999999998],[-75.22500000000002,38.77499999999998],[-75.22500000000002,38.800119300000006],[-75.22500000000002,38.80546859999998],[-75.22500000000002,38.8057857],[-75.22500000000002,38.80928879999999],[-75.22500000000002,38.809963400000015],[-75.22500000000002,38.81882519999999],[-75.22500000000002,38.81896499999999],[-75.22500000000002,38.81957649999998],[-75.22500000000002,38.81974789999998],[-75.22500000000002,38.82360540000002],[-75.22500000000002,38.83014539999999],[-75.22500000000002,38.8310156],[-75.22500000000002,38.83148590000002],[-75.22500000000002,38.83253669999999],[-75.22500000000002,38.83286650000002],[-75.22500000000002,38.83317699999998],[-75.22500000000002,38.83354400000002],[-75.22500000000002,38.8336736],[-75.22500000000002,38.835000200000025],[-75.22500000000002,38.83523439999999],[-75.22500000000002,38.83600910000001],[-75.22500000000002,38.8361774],[-75.22500000000002,38.83953700000001],[-75.22500000000002,38.839862600000004],[-75.22500000000002,38.84871420000002],[-75.22500000000002,38.85000000000002],[-75.200064,38.85000000000002],[-75.19820040000002,38.85000000000002],[-75.18092419999999,38.85000000000002],[-75.17415799999998,38.85000000000002],[-75.16774950000001,38.85000000000002],[-75.1666356,38.85000000000002],[-75.1584365,38.85000000000002],[-75.15130729999998,38.85000000000002],[-75.14999999999998,38.85000000000002],[-75.14999999999998,38.84830290000002],[-75.14999999999998,38.8434924],[-75.14999999999998,38.8422463],[-75.14999999999998,38.84058240000002],[-75.14999999999998,38.839624000000015],[-75.14999999999998,38.825906499999974],[-75.14999999999998,38.821318700000006],[-75.14999999999998,38.7961942],[-75.14999999999998,38.78922269999998],[-75.14999999999998,38.789218000000005],[-75.14999999999998,38.78894389999999],[-75.14999999999998,38.786978799999986],[-75.14999999999998,38.78660000000002],[-75.14999999999998,38.78656489999997],[-75.14999999999998,38.78638339999998],[-75.14999999999998,38.784200999999996],[-75.14999999999998,38.7837624],[-75.14999999999998,38.78373049999999],[-75.14999999999998,38.7833023],[-75.14999999999998,38.783260299999995],[-75.14999999999998,38.781827899999996],[-75.14999999999998,38.78177119999998],[-75.14999999999998,38.78176580000002],[-75.14999999999998,38.781227100000024],[-75.14999999999998,38.78111050000001],[-75.14999999999998,38.7810642],[-75.14999999999998,38.78094570000002],[-75.14999999999998,38.78092800000002],[-75.14999999999998,38.7805692],[-75.14999999999998,38.78048239999998],[-75.14999999999998,38.78034509999998],[-75.14999999999998,38.78031179999999],[-75.14999999999998,38.78008940000001],[-75.14999999999998,38.77499999999998],[-75.16896489999999,38.77499999999998],[-75.17123830000003,38.77499999999998],[-75.17152779999998,38.77499999999998],[-75.17431640000001,38.77499999999998],[-75.1810893,38.77499999999998],[-75.18716280000001,38.77499999999998],[-75.18754810000001,38.77499999999998],[-75.18825520000001,38.77499999999998],[-75.18921990000001,38.77499999999998],[-75.1910097,38.77499999999998],[-75.1920973,38.77499999999998],[-75.19227540000003,38.77499999999998],[-75.19286929999998,38.77499999999998],[-75.19317180000002,38.77499999999998],[-75.19342940000001,38.77499999999998],[-75.19358729999999,38.77499999999998],[-75.19523270000002,38.77499999999998],[-75.19574970000002,38.77499999999998]]]}},{"type":"Feature","properties":{},"geometry":{"type":"Polygon","coordinates":[[[-75.13663079999998,38.77499999999998],[-75.14999999999998,38.77499999999998],[-75.14999999999998,38.78008940000001],[-75.14999999999998,38.78031179999999],[-75.14999999999998,38.78034509999998],[-75.14999999999998,38.7805692],[-75.14999999999998,38.78092800000002],[-75.14999999999998,38.78111050000001],[-75.14999999999998,38.781227100000024],[-75.14999999999998,38.78176580000002],[-75.14999999999998,38.78177119999998],[-75.14999999999998,38.781827899999996],[-75.14999999999998,38.783260299999995],[-75.14999999999998,38.7833023],[-75.14999999999998,38.78373049999999],[-75.14999999999998,38.7837624],[-75.14999999999998,38.784200999999996],[-75.14999999999998,38.78638339999998],[-75.14999999999998,38.78656489999997],[-75.14999999999998,38.786978799999986],[-75.14999999999998,38.78922269999998],[-75.14999999999998,38.7961942],[-75.14999999999998,38.821318700000006],[-75.14999999999998,38.825906499999974],[-75.14999999999998,38.839624000000015],[-75.14999999999998,38.84058240000002],[-75.14999999999998,38.8422463],[-75.14999999999998,38.8434924],[-75.14999999999998,38.84830290000002],[-75.14999999999998,38.85000000000002],[-75.14605799999998,38.85000000000002],[-75.11911529999998,38.85000000000002],[-75.11766369999998,38.85000000000002],[-75.11516160000002,38.85000000000002],[-75.1084042,38.85000000000002],[-75.10326579999997,38.85000000000002],[-75.09271940000002,38.85000000000002],[-75.07499999999999,38.85000000000002],[-75.07499999999999,38.835052899999994],[-75.07499999999999,38.83017410000002],[-75.07499999999999,38.83006690000002],[-75.07499999999999,38.83006449999999],[-75.07499999999999,38.82992630000001],[-75.07499999999999,38.824749999999995],[-75.07499999999999,38.821846300000004],[-75.07499999999999,38.81905979999999],[-75.07499999999999,38.816554999999994],[-75.07499999999999,38.816040199999975],[-75.07499999999999,38.815854100000024],[-75.07499999999999,38.80299630000002],[-75.07499999999999,38.796033799999975],[-75.07499999999999,38.791542100000015],[-75.07499999999999,38.78772550000002],[-75.07499999999999,38.78583200000003],[-75.07499999999999,38.78203109999998],[-75.07499999999999,38.77583290000001],[-75.07499999999999,38.77499999999998],[-75.07540999999998,38.77499999999998],[-75.07543229999999,38.77499999999998],[-75.08072820000001,38.77499999999998],[-75.08177840000002,38.77499999999998],[-75.08244930000001,38.77499999999998],[-75.0835763,38.77499999999998],[-75.08389879999999,38.77499999999998],[-75.10005940000002,38.77499999999998],[-75.13100889999998,38.77499999999998],[-75.13206050000002,38.77499999999998],[-75.13229560000002,38.77499999999998],[-75.1322973,38.77499999999998],[-75.13258159999998,38.77499999999998],[-75.1326985,38.77499999999998],[-75.13549210000002,38.77499999999998],[-75.1354988,38.77499999999998],[-75.13560810000001,38.77499999999998],[-75.13566479999997,38.77499999999998],[-75.1363217,38.77499999999998],[-75.136369,38.77499999999998],[-75.13663079999998,38.77499999999998]]]}},{"type":"Feature","properties":{},"geometry":{"type":"Polygon","coordinates":[[[-75.07375619999999,38.77499999999998],[-75.07499999999999,38.77499999999998],[-75.07499999999999,38.77583290000001],[-75.07499999999999,38.78203109999998],[-75.07499999999999,38.78583200000003],[-75.07499999999999,38.78772550000002],[-75.07499999999999,38.791542100000015],[-75.07499999999999,38.796033799999975],[-75.07499999999999,38.80299630000002],[-75.07499999999999,38.815854100000024],[-75.07499999999999,38.816040199999975],[-75.07499999999999,38.816554999999994],[-75.07499999999999,38.81905979999999],[-75.07499999999999,38.821846300000004],[-75.07499999999999,38.824749999999995],[-75.07499999999999,38.82992630000001],[-75.07499999999999,38.83006449999999],[-75.07499999999999,38.83006690000002],[-75.07499999999999,38.83017410000002],[-75.07499999999999,38.835052899999994],[-75.07499999999999,38.85000000000002],[-75.05291160000002,38.85000000000002],[-75.05278929999997,38.85000000000002],[-75.05259510000002,38.85000000000002],[-75.05209939999997,38.85000000000002],[-75.04471969999997,38.85000000000002],[-75.04445429999998,38.85000000000002],[-75.03867050000002,38.85000000000002],[-75.03645719999997,38.85000000000002],[-75.0343158,38.85000000000002],[-75.03310970000001,38.85000000000002],[-75.03246469999999,38.85000000000002],[-75.02899589999998,38.85000000000002],[-75.02821319999998,38.85000000000002],[-75.02778940000002,38.85000000000002],[-75.01831069999997,38.85000000000002],[-75.01618480000002,38.85000000000002],[-75.00972910000002,38.85000000000002],[-75.00669779999998,38.85000000000002],[-75.00033880000001,38.85000000000002],[-75.0,38.85000000000002],[-75.0,38.84933380000001],[-75.0,38.8351988],[-75.0,38.834346400000015],[-75.0,38.82912049999999],[-75.0,38.82799],[-75.0,38.82571089999999],[-75.0,38.82016429999999],[-75.0,38.817073300000004],[-75.0,38.809322699999996],[-75.0,38.80907079999997],[-75.0,38.80495380000002],[-75.0,38.80444840000001],[-75.0,38.80020339999999],[-75.0,38.80011630000001],[-75.0,38.79547960000002],[-75.0,38.77973830000002],[-75.0,38.77499999999998],[-75.01618710000002,38.77499999999998],[-75.0175926,38.77499999999998],[-75.01805730000001,38.77499999999998],[-75.03352369999999,38.77499999999998],[-75.05566049999999,38.77499999999998],[-75.0564956,38.77499999999998],[-75.05712199999999,38.77499999999998],[-75.06377120000002,38.77499999999998],[-75.0671016,38.77499999999998],[-75.06968289999998,38.77499999999998],[-75.07038590000002,38.77499999999998],[-75.07165930000002,38.77499999999998],[-75.07375619999999,38.77499999999998]]]}},{"type":"Feature","properties":{},"geometry":{"type":"Polygon","coordinates":[[[-75.14605799999998,38.85000000000002],[-75.14999999999998,38.85000000000002],[-75.14999999999998,38.85011400000002],[-75.14999999999998,38.85223780000001],[-75.14999999999998,38.86274159999999],[-75.14999999999998,38.86962369999998],[-75.14999999999998,38.87058189999999],[-75.14999999999998,38.873813600000005],[-75.14999999999998,38.87434409999997],[-75.14999999999998,38.885584800000004],[-75.14999999999998,38.89201459999998],[-75.14999999999998,38.89289659999997],[-75.14999999999998,38.89901600000002],[-75.14999999999998,38.9053457],[-75.14999999999998,38.92201720000003],[-75.14999999999998,38.92427420000001],[-75.14999999999998,38.92500000000001],[-75.14931890000003,38.92500000000001],[-75.1463607,38.92500000000001],[-75.13932269999998,38.92500000000001],[-75.1007773,38.92500000000001],[-75.0998224,38.92500000000001],[-75.09886749999998,38.92500000000001],[-75.09852940000002,38.92500000000001],[-75.09791259999997,38.92500000000001],[-75.09695770000002,38.92500000000001],[-75.07499999999999,38.92500000000001],[-75.07499999999999,38.88171540000002],[-75.07499999999999,38.85011400000002],[-75.07499999999999,38.85000000000002],[-75.09271940000002,38.85000000000002],[-75.10048740000002,38.85000000000002],[-75.10158769999998,38.85000000000002],[-75.10326579999997,38.85000000000002],[-75.1084042,38.85000000000002],[-75.11516160000002,38.85000000000002],[-75.11745000000002,38.85000000000002],[-75.11766369999998,38.85000000000002],[-75.11911529999998,38.85000000000002],[-75.14605799999998,38.85000000000002]]]}},{"type":"Feature","properties":{},"geometry":{"type":"Polygon","coordinates":[[[-75.05718430000002,38.85000000000002],[-75.07499999999999,38.85000000000002],[-75.07499999999999,38.85011400000002],[-75.07499999999999,38.88171540000002],[-75.07499999999999,38.92500000000001],[-75.0679619,38.92500000000001],[-75.02856980000001,38.92500000000001],[-75.02818810000002,38.92500000000001],[-75.01823180000002,38.92500000000001],[-75.01198690000001,38.92500000000001],[-75.00521809999998,38.92500000000001],[-75.00469320000002,38.92500000000001],[-75.00305120000002,38.92500000000001],[-75.00281610000002,38.92500000000001],[-75.0,38.92500000000001],[-75.0,38.92013639999999],[-75.0,38.91626230000003],[-75.0,38.911004100000014],[-75.0,38.9105649],[-75.0,38.90423959999998],[-75.0,38.9022473],[-75.0,38.9021295],[-75.0,38.901602000000025],[-75.0,38.90052639999999],[-75.0,38.89931610000002],[-75.0,38.897888799999976],[-75.0,38.89749169999999],[-75.0,38.89738190000003],[-75.0,38.89502620000002],[-75.0,38.89447849999999],[-75.0,38.89369420000003],[-75.0,38.89233139999999],[-75.0,38.89189160000001],[-75.0,38.89150480000001],[-75.0,38.889321499999994],[-75.0,38.888200900000015],[-75.0,38.88381720000001],[-75.0,38.882886799999994],[-75.0,38.87873780000001],[-75.0,38.87643459999998],[-75.0,38.87591950000001],[-75.0,38.87480119999998],[-75.0,38.869527800000014],[-75.0,38.869166500000006],[-75.0,38.86707150000001],[-75.0,38.85501390000002],[-75.0,38.85011400000002],[-75.0,38.85000000000002],[-75.00033880000001,38.85000000000002],[-75.00669779999998,38.85000000000002],[-75.00972910000002,38.85000000000002],[-75.01618480000002,38.85000000000002],[-75.01831069999997,38.85000000000002],[-75.02778940000002,38.85000000000002],[-75.02821319999998,38.85000000000002],[-75.02899589999998,38.85000000000002],[-75.03246469999999,38.85000000000002],[-75.03310970000001,38.85000000000002],[-75.0343158,38.85000000000002],[-75.03645719999997,38.85000000000002],[-75.03867050000002,38.85000000000002],[-75.04445429999998,38.85000000000002],[-75.04471969999997,38.85000000000002],[-75.05209939999997,38.85000000000002],[-75.05259510000002,38.85000000000002],[-75.05278929999997,38.85000000000002],[-75.05291160000002,38.85000000000002],[-75.05718430000002,38.85000000000002]]]}},{"type":"Feature","properties":{},"geometry":{"type":"Polygon","coordinates":[[[-75.21571060000002,38.92500000000001],[-75.22500000000002,38.92500000000001],[-75.22500000000002,38.93186530000003],[-75.22500000000002,38.934580700000026],[-75.22500000000002,38.937396999999976],[-75.22500000000002,38.94094639999997],[-75.22500000000002,38.94445910000002],[-75.22500000000002,38.956307700000025],[-75.22500000000002,38.978882899999974],[-75.22500000000002,38.981133399999976],[-75.22500000000002,38.98187819999998],[-75.22500000000002,38.98188640000001],[-75.22500000000002,38.98469979999999],[-75.22500000000002,38.985939599999995],[-75.22500000000002,38.9985198],[-75.22500000000002,39.0],[-75.21870360000003,39.0],[-75.21210989999997,39.0],[-75.20937839999999,39.0],[-75.20655219999998,39.0],[-75.2056781,39.0],[-75.20550229999998,39.0],[-75.2047346,39.0],[-75.20429130000002,39.0],[-75.20359939999997,39.0],[-75.2031599,39.0],[-75.20257090000001,39.0],[-75.20206530000002,39.0],[-75.19866180000002,39.0],[-75.19576519999998,39.0],[-75.19341220000001,39.0],[-75.19024739999998,39.0],[-75.14999999999998,39.0],[-75.14999999999998,38.962892899999986],[-75.14999999999998,38.95326180000001],[-75.14999999999998,38.95190489999999],[-75.14999999999998,38.94615090000002],[-75.14999999999998,38.94540599999999],[-75.14999999999998,38.94421319999998],[-75.14999999999998,38.939885000000004],[-75.14999999999998,38.93209280000002],[-75.14999999999998,38.92967859999999],[-75.14999999999998,38.927907800000014],[-75.14999999999998,38.9259194],[-75.14999999999998,38.92500000000001],[-75.15187250000002,38.92500000000001],[-75.15217940000002,38.92500000000001],[-75.15584610000002,38.92500000000001],[-75.1697795,38.92500000000001],[-75.17013229999998,38.92500000000001],[-75.17900700000001,38.92500000000001],[-75.18324469999999,38.92500000000001],[-75.18339939999998,38.92500000000001],[-75.18407000000002,38.92500000000001],[-75.18478750000003,38.92500000000001],[-75.19298839999999,38.92500000000001],[-75.19848050000002,38.92500000000001],[-75.20436380000001,38.92500000000001],[-75.21096879999999,38.92500000000001],[-75.21278080000002,38.92500000000001],[-75.21571060000002,38.92500000000001]]]}},{"type":"Feature","properties":{},"geometry":{"type":"Polygon","coordinates":[[[-75.14931890000003,38.92500000000001],[-75.14999999999998,38.92500000000001],[-75.14999999999998,38.9259194],[-75.14999999999998,38.927907800000014],[-75.14999999999998,38.92967859999999],[-75.14999999999998,38.93209280000002],[-75.14999999999998,38.939885000000004],[-75.14999999999998,38.94421319999998],[-75.14999999999998,38.94540599999999],[-75.14999999999998,38.94615090000002],[-75.14999999999998,38.95190489999999],[-75.14999999999998,38.95326180000001],[-75.14999999999998,38.962892899999986],[-75.14999999999998,39.0],[-75.1476136,39.0],[-75.14159519999998,39.0],[-75.14063950000002,39.0],[-75.13968390000002,39.0],[-75.1387282,39.0],[-75.13777249999998,39.0],[-75.13154170000001,39.0],[-75.1311528,39.0],[-75.13069230000002,39.0],[-75.12987850000002,39.0],[-75.12980720000002,39.0],[-75.12645099999997,39.0],[-75.12404270000002,39.0],[-75.12252380000001,39.0],[-75.1197669,39.0],[-75.0970213,39.0],[-75.08566939999997,39.0],[-75.0819004,39.0],[-75.07961499999999,39.0],[-75.07819719999998,39.0],[-75.07499999999999,39.0],[-75.07499999999999,38.992422799999986],[-75.07499999999999,38.9868568],[-75.07499999999999,38.9758008],[-75.07499999999999,38.9735771],[-75.07499999999999,38.9717172],[-75.07499999999999,38.9695165],[-75.07499999999999,38.9595458],[-75.07499999999999,38.92585120000001],[-75.07499999999999,38.92500000000001],[-75.09695770000002,38.92500000000001],[-75.09791259999997,38.92500000000001],[-75.09852940000002,38.92500000000001],[-75.09886749999998,38.92500000000001],[-75.0998224,38.92500000000001],[-75.1007773,38.92500000000001],[-75.13932269999998,38.92500000000001],[-75.1463607,38.92500000000001],[-75.14931890000003,38.92500000000001]]]}},{"type":"Feature","properties":{},"geometry":{"type":"Polygon","coordinates":[[[-75.0679619,38.92500000000001],[-75.07499999999999,38.92500000000001],[-75.07499999999999,38.92585120000001],[-75.07499999999999,38.9595458],[-75.07499999999999,38.9695165],[-75.07499999999999,38.9717172],[-75.07499999999999,38.9735771],[-75.07499999999999,38.9758008],[-75.07499999999999,38.9868568],[-75.07499999999999,38.992422799999986],[-75.07499999999999,39.0],[-75.07355209999997,39.0],[-75.06878799999998,39.0],[-75.06794980000001,39.0],[-75.04387329999997,39.0],[-75.0343671,39.0],[-75.03014999999999,39.0],[-75.02751569999998,39.0],[-75.02499399999999,39.0],[-75.02346640000002,39.0],[-75.01248090000001,39.0],[-75.0069077,39.0],[-75.0024439,39.0],[-75.0,39.0],[-75.0,38.992616999999996],[-75.0,38.974339999999984],[-75.0,38.96554839999999],[-75.0,38.9651073],[-75.0,38.9630952],[-75.0,38.962602100000026],[-75.0,38.959720000000004],[-75.0,38.959103200000015],[-75.0,38.95044580000001],[-75.0,38.947359000000006],[-75.0,38.94701309999999],[-75.0,38.945391099999995],[-75.0,38.943115999999975],[-75.0,38.931696699999975],[-75.0,38.92972780000002],[-75.0,38.92895229999999],[-75.0,38.9282839],[-75.0,38.92500000000001],[-75.00281610000002,38.92500000000001],[-75.00305120000002,38.92500000000001],[-75.00469320000002,38.92500000000001],[-75.00521809999998,38.92500000000001],[-75.01198690000001,38.92500000000001],[-75.01823180000002,38.92500000000001],[-75.02818810000002,38.92500000000001],[-75.02856980000001,38.92500000000001],[-75.0679619,38.92500000000001]]]}},{"type":"Feature","properties":{},"geometry":{"type":"Polygon","coordinates":[[[-75.21870360000003,39.0],[-75.22500000000002,39.0],[-75.22500000000002,39.00659569999999],[-75.22500000000002,39.021844499999986],[-75.22500000000002,39.02343059999998],[-75.22500000000002,39.02499],[-75.22500000000002,39.0294131],[-75.22500000000002,39.034479499999975],[-75.22500000000002,39.04140050000001],[-75.22500000000002,39.045477500000004],[-75.22500000000002,39.047025399999995],[-75.22500000000002,39.047528899999975],[-75.22500000000002,39.06041920000001],[-75.22500000000002,39.06457130000001],[-75.22500000000002,39.07499999999999],[-75.21740920000002,39.07499999999999],[-75.18658920000001,39.07499999999999],[-75.18241319999998,39.07499999999999],[-75.18145670000001,39.07499999999999],[-75.18050019999998,39.07499999999999],[-75.17954370000001,39.07499999999999],[-75.17858719999998,39.07499999999999],[-75.17489,39.07499999999999],[-75.1642761,39.07499999999999],[-75.15789389999998,39.07499999999999],[-75.15262739999997,39.07499999999999],[-75.14999999999998,39.07499999999999],[-75.14999999999998,39.07317599999999],[-75.14999999999998,39.062214600000004],[-75.14999999999998,39.05029400000001],[-75.14999999999998,39.039077599999985],[-75.14999999999998,39.03429699999998],[-75.14999999999998,39.02499],[-75.14999999999998,39.023899400000005],[-75.14999999999998,39.022469],[-75.14999999999998,39.02071239999998],[-75.14999999999998,39.01895589999998],[-75.14999999999998,39.017199500000004],[-75.14999999999998,39.015443300000015],[-75.14999999999998,39.015224699999976],[-75.14999999999998,39.004982600000005],[-75.14999999999998,39.0],[-75.19024739999998,39.0],[-75.19341220000001,39.0],[-75.19576519999998,39.0],[-75.19866180000002,39.0],[-75.20206530000002,39.0],[-75.20257090000001,39.0],[-75.2031599,39.0],[-75.20359939999997,39.0],[-75.20429130000002,39.0],[-75.2047346,39.0],[-75.20550229999998,39.0],[-75.2056781,39.0],[-75.20655219999998,39.0],[-75.20937839999999,39.0],[-75.21210989999997,39.0],[-75.21870360000003,39.0]]]}},{"type":"Feature","properties":{},"geometry":{"type":"Polygon","coordinates":[[[-75.1476136,39.0],[-75.14999999999998,39.0],[-75.14999999999998,39.004982600000005],[-75.14999999999998,39.015224699999976],[-75.14999999999998,39.015443300000015],[-75.14999999999998,39.017199500000004],[-75.14999999999998,39.01895589999998],[-75.14999999999998,39.02071239999998],[-75.14999999999998,39.022469],[-75.14999999999998,39.023899400000005],[-75.14999999999998,39.02499],[-75.14999999999998,39.03429699999998],[-75.14999999999998,39.039077599999985],[-75.14999999999998,39.05029400000001],[-75.14999999999998,39.062214600000004],[-75.14999999999998,39.07317599999999],[-75.14999999999998,39.07499999999999],[-75.14789769999999,39.07499999999999],[-75.13085310000002,39.07499999999999],[-75.12796259999999,39.07499999999999],[-75.10096659999999,39.07499999999999],[-75.08992660000001,39.07499999999999],[-75.07499999999999,39.07499999999999],[-75.07499999999999,39.055150000000026],[-75.07499999999999,39.03828329999999],[-75.07499999999999,39.03028419999998],[-75.07499999999999,39.02952140000002],[-75.07499999999999,39.02499],[-75.07499999999999,39.01840549999997],[-75.07499999999999,39.013115200000016],[-75.07499999999999,39.00946670000002],[-75.07499999999999,39.007279100000005],[-75.07499999999999,39.005996100000004],[-75.07499999999999,39.00498110000001],[-75.07499999999999,39.00319089999999],[-75.07499999999999,39.0],[-75.07819719999998,39.0],[-75.07961499999999,39.0],[-75.0819004,39.0],[-75.08566939999997,39.0],[-75.0970213,39.0],[-75.1197669,39.0],[-75.12252380000001,39.0],[-75.12404270000002,39.0],[-75.12645099999997,39.0],[-75.12980720000002,39.0],[-75.12987850000002,39.0],[-75.13069230000002,39.0],[-75.1311528,39.0],[-75.13154170000001,39.0],[-75.13777240000002,39.0],[-75.1387282,39.0],[-75.13968390000002,39.0],[-75.14063950000002,39.0],[-75.14159519999998,39.0],[-75.1476136,39.0]]]}},{"type":"Feature","properties":{},"geometry":{"type":"Polygon","coordinates":[[[-75.29119859999997,39.07499999999999],[-75.30000000000001,39.07499999999999],[-75.30000000000001,39.084848799999975],[-75.30000000000001,39.086554999999976],[-75.30000000000001,39.09314280000001],[-75.30000000000001,39.09422599999999],[-75.30000000000001,39.095359299999984],[-75.30000000000001,39.09689470000001],[-75.30000000000001,39.10606849999999],[-75.30000000000001,39.116001600000004],[-75.30000000000001,39.119939199999976],[-75.30000000000001,39.12350600000002],[-75.30000000000001,39.13372720000001],[-75.30000000000001,39.14063340000001],[-75.30000000000001,39.14612570000003],[-75.30000000000001,39.14657820000002],[-75.30000000000001,39.14999999999998],[-75.2963413,39.14999999999998],[-75.2936087,39.14999999999998],[-75.27692009999998,39.14999999999998],[-75.27483699999999,39.14999999999998],[-75.26920860000001,39.14999999999998],[-75.26643849999999,39.14999999999998],[-75.26528439999998,39.14999999999998],[-75.26273379999998,39.14999999999998],[-75.26185759999998,39.14999999999998],[-75.25726789999999,39.14999999999998],[-75.2538859,39.14999999999998],[-75.24801939999998,39.14999999999998],[-75.24780040000002,39.14999999999998],[-75.24643250000003,39.14999999999998],[-75.2453696,39.14999999999998],[-75.24429479999998,39.14999999999998],[-75.24322009999997,39.14999999999998],[-75.2421453,39.14999999999998],[-75.2337703,39.14999999999998],[-75.2332844,39.14999999999998],[-75.2289467,39.14999999999998],[-75.2287187,39.14999999999998],[-75.2272802,39.14999999999998],[-75.22602920000003,39.14999999999998],[-75.22500000000002,39.14999999999998],[-75.22500000000002,39.147602199999994],[-75.22500000000002,39.14669249999997],[-75.22500000000002,39.14619060000001],[-75.22500000000002,39.143253200000004],[-75.22500000000002,39.14149570000001],[-75.22500000000002,39.14025190000001],[-75.22500000000002,39.13085530000001],[-75.22500000000002,39.12965550000001],[-75.22500000000002,39.12845570000002],[-75.22500000000002,39.12725590000002],[-75.22500000000002,39.12606469999997],[-75.22500000000002,39.1239248],[-75.22500000000002,39.12150650000001],[-75.22500000000002,39.10041639999997],[-75.22500000000002,39.0968757],[-75.22500000000002,39.094387100000006],[-75.22500000000002,39.08929280000001],[-75.22500000000002,39.08906830000001],[-75.22500000000002,39.08601820000001],[-75.22500000000002,39.07499999999999],[-75.23545200000001,39.07499999999999],[-75.25208809999998,39.07499999999999],[-75.25644940000001,39.07499999999999],[-75.2564997,39.07499999999999],[-75.25862749999999,39.07499999999999],[-75.26018169999998,39.07499999999999],[-75.26129600000002,39.07499999999999],[-75.26247110000003,39.07499999999999],[-75.2664466,39.07499999999999],[-75.2683624,39.07499999999999],[-75.26858340000001,39.07499999999999],[-75.27812180000001,39.07499999999999],[-75.2818757,39.07499999999999],[-75.2894311,39.07499999999999],[-75.29119859999997,39.07499999999999]]]}},{"type":"Feature","properties":{},"geometry":{"type":"Polygon","coordinates":[[[-75.21740920000002,39.07499999999999],[-75.22500000000002,39.07499999999999],[-75.22500000000002,39.08601820000001],[-75.22500000000002,39.08906830000001],[-75.22500000000002,39.08929280000001],[-75.22500000000002,39.094387100000006],[-75.22500000000002,39.0968757],[-75.22500000000002,39.10041639999997],[-75.22500000000002,39.12150650000001],[-75.22500000000002,39.1239248],[-75.22500000000002,39.12606469999997],[-75.22500000000002,39.12725590000002],[-75.22500000000002,39.12845570000002],[-75.22500000000002,39.12965550000001],[-75.22500000000002,39.13085530000001],[-75.22500000000002,39.14025190000001],[-75.22500000000002,39.14149570000001],[-75.22500000000002,39.143253200000004],[-75.22500000000002,39.14619060000001],[-75.22500000000002,39.14669249999997],[-75.22500000000002,39.147602199999994],[-75.22500000000002,39.14999999999998],[-75.21065370000002,39.14999999999998],[-75.20821489999997,39.14999999999998],[-75.20567269999998,39.14999999999998],[-75.20456990000002,39.14999999999998],[-75.1954399,39.14999999999998],[-75.19404450000002,39.14999999999998],[-75.1864923,39.14999999999998],[-75.17298269999998,39.14999999999998],[-75.1714,39.14999999999998],[-75.16836940000002,39.14999999999998],[-75.16527769999999,39.14999999999998],[-75.16360650000001,39.14999999999998],[-75.16079289999999,39.14999999999998],[-75.15640990000003,39.14999999999998],[-75.15542909999999,39.14999999999998],[-75.14999999999998,39.14999999999998],[-75.14999999999998,39.12864330000002],[-75.14999999999998,39.127756999999974],[-75.14999999999998,39.10138389999997],[-75.14999999999998,39.07499999999999],[-75.15262739999997,39.07499999999999],[-75.15789389999998,39.07499999999999],[-75.1642761,39.07499999999999],[-75.17489,39.07499999999999],[-75.17858719999998,39.07499999999999],[-75.17954370000001,39.07499999999999],[-75.18050019999998,39.07499999999999],[-75.18145670000001,39.07499999999999],[-75.18241319999998,39.07499999999999],[-75.18658920000001,39.07499999999999],[-75.21740920000002,39.07499999999999]]]}},{"type":"Feature","properties":{},"geometry":{"type":"Polygon","coordinates":[[[-75.14789769999999,39.07499999999999],[-75.14999999999998,39.07499999999999],[-75.14999999999998,39.10138389999997],[-75.14999999999998,39.127756999999974],[-75.14999999999998,39.12864330000002],[-75.14999999999998,39.14999999999998],[-75.09957500000002,39.14999999999998],[-75.07499999999999,39.14999999999998],[-75.07499999999999,39.13846460000002],[-75.07499999999999,39.0925618],[-75.07499999999999,39.09220749999997],[-75.07499999999999,39.08906539999998],[-75.07499999999999,39.07499999999999],[-75.08992660000001,39.07499999999999],[-75.10096659999999,39.07499999999999],[-75.12796259999999,39.07499999999999],[-75.13085310000002,39.07499999999999],[-75.14789769999999,39.07499999999999]]]}},{"type":"Feature","properties":{},"geometry":{"type":"Polygon","coordinates":[[[-75.36171039999999,39.14999999999998],[-75.375,39.14999999999998],[-75.375,39.16459070000002],[-75.375,39.212827800000014],[-75.375,39.217069400000014],[-75.375,39.22500000000002],[-75.35256900000002,39.22500000000002],[-75.3488403,39.22500000000002],[-75.34576980000003,39.22500000000002],[-75.3392662,39.22500000000002],[-75.33776360000002,39.22500000000002],[-75.3307858,39.22500000000002],[-75.3222882,39.22500000000002],[-75.31772610000002,39.22500000000002],[-75.31427710000003,39.22500000000002],[-75.30813010000003,39.22500000000002],[-75.30473560000001,39.22500000000002],[-75.30000000000001,39.22500000000002],[-75.30000000000001,39.220234600000026],[-75.30000000000001,39.217119500000024],[-75.30000000000001,39.217058099999974],[-75.30000000000001,39.21287419999999],[-75.30000000000001,39.2102003],[-75.30000000000001,39.206353200000024],[-75.30000000000001,39.204569900000024],[-75.30000000000001,39.20255959999997],[-75.30000000000001,39.197701300000006],[-75.30000000000001,39.194466999999975],[-75.30000000000001,39.19416719999998],[-75.30000000000001,39.19228609999999],[-75.30000000000001,39.18913450000002],[-75.30000000000001,39.1883335],[-75.30000000000001,39.184052699999995],[-75.30000000000001,39.177616],[-75.30000000000001,39.1727563],[-75.30000000000001,39.16014000000001],[-75.30000000000001,39.1590913],[-75.30000000000001,39.15714059999999],[-75.30000000000001,39.1531296],[-75.30000000000001,39.14999999999998],[-75.30315430000002,39.14999999999998],[-75.3161556,39.14999999999998],[-75.31868450000002,39.14999999999998],[-75.32185659999999,39.14999999999998],[-75.3262224,39.14999999999998],[-75.3331733,39.14999999999998],[-75.36171039999999,39.14999999999998]]]}},{"type":"Feature","properties":{},"geometry":{"type":"Polygon","coordinates":[[[-75.2963413,39.14999999999998],[-75.30000000000001,39.14999999999998],[-75.30000000000001,39.1531296],[-75.30000000000001,39.15714059999999],[-75.30000000000001,39.1590913],[-75.30000000000001,39.16014000000001],[-75.30000000000001,39.1727563],[-75.30000000000001,39.177616],[-75.30000000000001,39.184052699999995],[-75.30000000000001,39.1883335],[-75.30000000000001,39.18913450000002],[-75.30000000000001,39.19228609999999],[-75.30000000000001,39.19416719999998],[-75.30000000000001,39.194466999999975],[-75.30000000000001,39.197701300000006],[-75.30000000000001,39.20255959999997],[-75.30000000000001,39.204569900000024],[-75.30000000000001,39.206353200000024],[-75.30000000000001,39.2102003],[-75.30000000000001,39.21287419999999],[-75.30000000000001,39.217058099999974],[-75.30000000000001,39.217119500000024],[-75.30000000000001,39.220234600000026],[-75.30000000000001,39.22500000000002],[-75.29956470000002,39.22500000000002],[-75.29956429999999,39.22500000000002],[-75.29859579999999,39.22500000000002],[-75.29762690000001,39.22500000000002],[-75.29665799999998,39.22500000000002],[-75.29568899999998,39.22500000000002],[-75.2919033,39.22500000000002],[-75.2908349,39.22500000000002],[-75.28447690000002,39.22500000000002],[-75.26602700000001,39.22500000000002],[-75.2487365,39.22500000000002],[-75.2350965,39.22500000000002],[-75.23299129999998,39.22500000000002],[-75.22500000000002,39.22500000000002],[-75.22500000000002,39.220327],[-75.22500000000002,39.21794990000001],[-75.22500000000002,39.21361780000001],[-75.22500000000002,39.212115900000015],[-75.22500000000002,39.208184200000005],[-75.22500000000002,39.20513140000003],[-75.22500000000002,39.20013899999998],[-75.22500000000002,39.17690670000002],[-75.22500000000002,39.17330040000002],[-75.22500000000002,39.17267529999998],[-75.22500000000002,39.16421759999997],[-75.22500000000002,39.14999999999998],[-75.22602920000003,39.14999999999998],[-75.2272802,39.14999999999998],[-75.2287187,39.14999999999998],[-75.2289467,39.14999999999998],[-75.2332844,39.14999999999998],[-75.2337703,39.14999999999998],[-75.2421453,39.14999999999998],[-75.24322009999997,39.14999999999998],[-75.24429479999998,39.14999999999998],[-75.2453696,39.14999999999998],[-75.24643250000003,39.14999999999998],[-75.24780040000002,39.14999999999998],[-75.24801939999998,39.14999999999998],[-75.2538859,39.14999999999998],[-75.25726789999999,39.14999999999998],[-75.26185759999998,39.14999999999998],[-75.26273379999998,39.14999999999998],[-75.26528439999998,39.14999999999998],[-75.26643849999999,39.14999999999998],[-75.26920860000001,39.14999999999998],[-75.27483699999999,39.14999999999998],[-75.27692009999998,39.14999999999998],[-75.2936087,39.14999999999998],[-75.2963413,39.14999999999998]]]}},{"type":"Feature","properties":{},"geometry":{"type":"Polygon","coordinates":[[[-75.44999999999999,39.22648190000001],[-75.44999999999999,39.22746769999998],[-75.44999999999999,39.23412000000002],[-75.44999999999999,39.23436299999997],[-75.44999999999999,39.236336600000016],[-75.44999999999999,39.23677930000002],[-75.44999999999999,39.237399900000014],[-75.44999999999999,39.23828090000001],[-75.44999999999999,39.240992199999994],[-75.44999999999999,39.241311800000005],[-75.44999999999999,39.24209589999998],[-75.44999999999999,39.2437195],[-75.44999999999999,39.25792560000002],[-75.44999999999999,39.258602199999984],[-75.44999999999999,39.25891230000002],[-75.44999999999999,39.2610406],[-75.44999999999999,39.261116500000014],[-75.44999999999999,39.261398199999974],[-75.44999999999999,39.262786800000015],[-75.44999999999999,39.26330200000001],[-75.44999999999999,39.27614620000003],[-75.44999999999999,39.27631029999998],[-75.44999999999999,39.27957070000002],[-75.44999999999999,39.280868199999986],[-75.44999999999999,39.28602810000001],[-75.44999999999999,39.28608939999998],[-75.44999999999999,39.28695349999998],[-75.44999999999999,39.28845630000001],[-75.44999999999999,39.289347599999985],[-75.44999999999999,39.29398900000001],[-75.44999999999999,39.29460030000001],[-75.44999999999999,39.294814599999995],[-75.44999999999999,39.2952899],[-75.44999999999999,39.29536200000001],[-75.44999999999999,39.30000000000001],[-75.44383599999998,39.30000000000001],[-75.44068470000002,39.30000000000001],[-75.43795999999998,39.30000000000001],[-75.43776659999997,39.30000000000001],[-75.4374904,39.30000000000001],[-75.437273,39.30000000000001],[-75.43433470000002,39.30000000000001],[-75.42477780000002,39.30000000000001],[-75.410102,39.30000000000001],[-75.4090612,39.30000000000001],[-75.40661390000002,39.30000000000001],[-75.40631450000001,39.30000000000001],[-75.40623490000002,39.30000000000001],[-75.40402410000002,39.30000000000001],[-75.40256590000001,39.30000000000001],[-75.40094749999997,39.30000000000001],[-75.40001480000001,39.30000000000001],[-75.39962589999999,39.30000000000001],[-75.39858379999998,39.30000000000001],[-75.3978457,39.30000000000001],[-75.3972435,39.30000000000001],[-75.39643699999999,39.30000000000001],[-75.39568910000003,39.30000000000001],[-75.3954946,39.30000000000001],[-75.3936281,39.30000000000001],[-75.3919525,39.30000000000001],[-75.39091180000003,39.30000000000001],[-75.39040189999997,39.30000000000001],[-75.38910249999998,39.30000000000001],[-75.38687859999999,39.30000000000001],[-75.38519789999998,39.30000000000001],[-75.38507190000001,39.30000000000001],[-75.3849975,39.30000000000001],[-75.38486130000001,39.30000000000001],[-75.3824444,39.30000000000001],[-75.38125780000001,39.30000000000001],[-75.38007119999997,39.30000000000001],[-75.37888459999999,39.30000000000001],[-75.37769800000001,39.30000000000001],[-75.37601339999998,39.30000000000001],[-75.3754677,39.30000000000001],[-75.375,39.30000000000001],[-75.375,39.299416399999984],[-75.375,39.299120500000015],[-75.375,39.29766269999999],[-75.375,39.29663479999999],[-75.375,39.295606899999996],[-75.375,39.294579],[-75.375,39.2935511],[-75.375,39.290317500000015],[-75.375,39.28944389999998],[-75.375,39.28677590000001],[-75.375,39.28562899999997],[-75.375,39.273655899999994],[-75.375,39.26335719999997],[-75.375,39.26185400000003],[-75.375,39.2605901],[-75.375,39.25939970000002],[-75.375,39.25811190000002],[-75.375,39.25420300000002],[-75.375,39.22500000000002],[-75.38945050000001,39.22500000000002],[-75.3919558,39.22500000000002],[-75.39858729999997,39.22500000000002],[-75.40568029999997,39.22500000000002],[-75.40682809999998,39.22500000000002],[-75.40718199999998,39.22500000000002],[-75.43169490000002,39.22500000000002],[-75.43177709999998,39.22500000000002],[-75.4319683,39.22500000000002],[-75.4330736,39.22500000000002],[-75.43354390000002,39.22500000000002],[-75.4337337,39.22500000000002],[-75.43377129999999,39.22500000000002],[-75.4412259,39.22500000000002],[-75.44894420000003,39.22500000000002],[-75.44967150000002,39.22500000000002],[-75.44999999999999,39.22500000000002],[-75.44999999999999,39.22648190000001]]]}},{"type":"Feature","properties":{},"geometry":{"type":"Polygon","coordinates":[[[-75.35256900000002,39.22500000000002],[-75.375,39.22500000000002],[-75.375,39.25420300000002],[-75.375,39.25811190000002],[-75.375,39.25939970000002],[-75.375,39.2605901],[-75.375,39.26185400000003],[-75.375,39.26335719999997],[-75.375,39.273655899999994],[-75.375,39.28562899999997],[-75.375,39.28677590000001],[-75.375,39.28944389999998],[-75.375,39.290317500000015],[-75.375,39.2935511],[-75.375,39.294579],[-75.375,39.295606899999996],[-75.375,39.29663479999999],[-75.375,39.29766269999999],[-75.375,39.299120500000015],[-75.375,39.299416399999984],[-75.375,39.30000000000001],[-75.36994010000001,39.30000000000001],[-75.36675430000003,39.30000000000001],[-75.36447529999998,39.30000000000001],[-75.36184050000003,39.30000000000001],[-75.35979259999999,39.30000000000001],[-75.35893900000002,39.30000000000001],[-75.35835170000001,39.30000000000001],[-75.35295289999999,39.30000000000001],[-75.34768609999998,39.30000000000001],[-75.33842240000001,39.30000000000001],[-75.33376220000002,39.30000000000001],[-75.32851149999999,39.30000000000001],[-75.323691,39.30000000000001],[-75.32004210000002,39.30000000000001],[-75.31836179999999,39.30000000000001],[-75.30534030000001,39.30000000000001],[-75.3026777,39.30000000000001],[-75.30038100000002,39.30000000000001],[-75.30000000000001,39.30000000000001],[-75.30000000000001,39.29982699999999],[-75.30000000000001,39.29966009999998],[-75.30000000000001,39.29516990000002],[-75.30000000000001,39.289423899999974],[-75.30000000000001,39.28923980000002],[-75.30000000000001,39.286362800000006],[-75.30000000000001,39.28118189999998],[-75.30000000000001,39.28053449999999],[-75.30000000000001,39.275380600000005],[-75.30000000000001,39.26755320000001],[-75.30000000000001,39.25568800000002],[-75.30000000000001,39.25499289999999],[-75.30000000000001,39.246474999999975],[-75.30000000000001,39.237275899999986],[-75.30000000000001,39.234620199999995],[-75.30000000000001,39.23402570000002],[-75.30000000000001,39.232395499999996],[-75.30000000000001,39.23073310000001],[-75.30000000000001,39.22907090000001],[-75.30000000000001,39.22740879999998],[-75.30000000000001,39.22574739999999],[-75.30000000000001,39.2257467],[-75.30000000000001,39.22500000000002],[-75.30473560000001,39.22500000000002],[-75.30813010000003,39.22500000000002],[-75.31427710000003,39.22500000000002],[-75.31772610000002,39.22500000000002],[-75.3222882,39.22500000000002],[-75.3307858,39.22500000000002],[-75.33776360000002,39.22500000000002],[-75.3392662,39.22500000000002],[-75.34576980000003,39.22500000000002],[-75.3488403,39.22500000000002],[-75.35256900000002,39.22500000000002]]]}},{"type":"Feature","properties":{},"geometry":{"type":"Polygon","coordinates":[[[-75.29956470000002,39.22500000000002],[-75.30000000000001,39.22500000000002],[-75.30000000000001,39.2257467],[-75.30000000000001,39.22574739999999],[-75.30000000000001,39.22740879999998],[-75.30000000000001,39.22907090000001],[-75.30000000000001,39.23073310000001],[-75.30000000000001,39.232395499999996],[-75.30000000000001,39.23402570000002],[-75.30000000000001,39.234620199999995],[-75.30000000000001,39.237275899999986],[-75.30000000000001,39.246474999999975],[-75.30000000000001,39.25499289999999],[-75.30000000000001,39.25568800000002],[-75.30000000000001,39.26755320000001],[-75.30000000000001,39.275380600000005],[-75.30000000000001,39.28053449999999],[-75.30000000000001,39.28118189999998],[-75.30000000000001,39.286362800000006],[-75.30000000000001,39.28923980000002],[-75.30000000000001,39.289423899999974],[-75.30000000000001,39.29516990000002],[-75.30000000000001,39.29966009999998],[-75.30000000000001,39.29982699999999],[-75.30000000000001,39.30000000000001],[-75.29894059999998,39.30000000000001],[-75.2988593,39.30000000000001],[-75.28611840000002,39.30000000000001],[-75.28586100000001,39.30000000000001],[-75.27738390000002,39.30000000000001],[-75.27366890000002,39.30000000000001],[-75.25489499999998,39.30000000000001],[-75.2524965,39.30000000000001],[-75.250677,39.30000000000001],[-75.24776609999998,39.30000000000001],[-75.24510750000002,39.30000000000001],[-75.23877499999998,39.30000000000001],[-75.23312229999999,39.30000000000001],[-75.23002129999998,39.30000000000001],[-75.22953990000002,39.30000000000001],[-75.22815530000003,39.30000000000001],[-75.22800810000001,39.30000000000001],[-75.22500000000002,39.30000000000001],[-75.22500000000002,39.2957907],[-75.22500000000002,39.2936287],[-75.22500000000002,39.28747609999999],[-75.22500000000002,39.286665700000015],[-75.22500000000002,39.286638400000015],[-75.22500000000002,39.2859704],[-75.22500000000002,39.285114299999975],[-75.22500000000002,39.283962299999985],[-75.22500000000002,39.28295129999998],[-75.22500000000002,39.281671500000016],[-75.22500000000002,39.2796821],[-75.22500000000002,39.27945649999998],[-75.22500000000002,39.2791459],[-75.22500000000002,39.27874559999998],[-75.22500000000002,39.27796480000001],[-75.22500000000002,39.276657399999976],[-75.22500000000002,39.276556700000015],[-75.22500000000002,39.27581570000001],[-75.22500000000002,39.27481949999998],[-75.22500000000002,39.272554300000024],[-75.22500000000002,39.27237680000002],[-75.22500000000002,39.26830860000001],[-75.22500000000002,39.2682332],[-75.22500000000002,39.26722569999998],[-75.22500000000002,39.264709700000026],[-75.22500000000002,39.26392440000001],[-75.22500000000002,39.25521309999999],[-75.22500000000002,39.250153599999976],[-75.22500000000002,39.2441685],[-75.22500000000002,39.23984280000002],[-75.22500000000002,39.229850399999975],[-75.22500000000002,39.22554109999999],[-75.22500000000002,39.22500000000002],[-75.23299129999998,39.22500000000002],[-75.2350965,39.22500000000002],[-75.2487365,39.22500000000002],[-75.26602700000001,39.22500000000002],[-75.28447690000002,39.22500000000002],[-75.2908349,39.22500000000002],[-75.2919033,39.22500000000002],[-75.29568899999998,39.22500000000002],[-75.29665799999998,39.22500000000002],[-75.29762690000001,39.22500000000002],[-75.29859579999999,39.22500000000002],[-75.29956429999999,39.22500000000002],[-75.29956470000002,39.22500000000002]]]}},{"type":"Feature","properties":{},"geometry":{"type":"Polygon","coordinates":[[[-75.49924820000001,39.375],[-75.4972788,39.375],[-75.49098959999998,39.375],[-75.48997709999998,39.375],[-75.48066080000001,39.375],[-75.46873670000002,39.375],[-75.46778469999998,39.375],[-75.4668327,39.375],[-75.46638339999998,39.375],[-75.4658753,39.375],[-75.46492339999998,39.375],[-75.46354930000001,39.375],[-75.45540360000001,39.375],[-75.4506887,39.375],[-75.44999999999999,39.375],[-75.44999999999999,39.3743475],[-75.44999999999999,39.37245039999999],[-75.44999999999999,39.363318400000026],[-75.44999999999999,39.3621321],[-75.44999999999999,39.36131139999998],[-75.44999999999999,39.3609429],[-75.44999999999999,39.360488799999985],[-75.44999999999999,39.35966819999999],[-75.44999999999999,39.35884759999999],[-75.44999999999999,39.35094889999999],[-75.44999999999999,39.35011100000003],[-75.44999999999999,39.339680999999985],[-75.44999999999999,39.3353113],[-75.44999999999999,39.33398039999997],[-75.44999999999999,39.32907369999998],[-75.44999999999999,39.3289307],[-75.44999999999999,39.31772189999998],[-75.44999999999999,39.31684289999998],[-75.44999999999999,39.31679810000003],[-75.44999999999999,39.316659200000004],[-75.44999999999999,39.3095022],[-75.44999999999999,39.30811130000001],[-75.44999999999999,39.30474809999998],[-75.44999999999999,39.30470919999999],[-75.44999999999999,39.30000000000001],[-75.45238260000002,39.30000000000001],[-75.4594793,39.30000000000001],[-75.461255,39.30000000000001],[-75.461343,39.30000000000001],[-75.46286620000001,39.30000000000001],[-75.4629104,39.30000000000001],[-75.46368589999997,39.30000000000001],[-75.46922999999998,39.30000000000001],[-75.46971719999999,39.30000000000001],[-75.46974890000001,39.30000000000001],[-75.4829191,39.30000000000001],[-75.48318740000002,39.30000000000001],[-75.48612939999998,39.30000000000001],[-75.48634579999998,39.30000000000001],[-75.4882341,39.30000000000001],[-75.48938720000001,39.30000000000001],[-75.50135160000002,39.30000000000001],[-75.505,39.30000000000001],[-75.505,39.375],[-75.49924820000001,39.375]]]}},{"type":"Feature","properties":{},"geometry":{"type":"Polygon","coordinates":[[[-75.44383599999998,39.30000000000001],[-75.44999999999999,39.30000000000001],[-75.44999999999999,39.30436550000002],[-75.44999999999999,39.30470919999999],[-75.44999999999999,39.30474809999998],[-75.44999999999999,39.30508659999998],[-75.44999999999999,39.30612309999998],[-75.44999999999999,39.30811130000001],[-75.44999999999999,39.30950230000002],[-75.44999999999999,39.316659200000004],[-75.44999999999999,39.31679810000003],[-75.44999999999999,39.31684289999998],[-75.44999999999999,39.31772189999998],[-75.44999999999999,39.3289307],[-75.44999999999999,39.32907369999998],[-75.44999999999999,39.33398039999997],[-75.44999999999999,39.3353113],[-75.44999999999999,39.339680999999985],[-75.44999999999999,39.35011100000003],[-75.44999999999999,39.35094889999999],[-75.44999999999999,39.35884759999999],[-75.44999999999999,39.35966819999999],[-75.44999999999999,39.360488799999985],[-75.44999999999999,39.3609429],[-75.44999999999999,39.36131139999998],[-75.44999999999999,39.3621321],[-75.44999999999999,39.363318400000026],[-75.44999999999999,39.37245039999999],[-75.44999999999999,39.3743475],[-75.44999999999999,39.375],[-75.4428891,39.375],[-75.4403954,39.375],[-75.4390075,39.375],[-75.43009590000003,39.375],[-75.41777880000001,39.375],[-75.4038448,39.375],[-75.401365,39.375],[-75.3975476,39.375],[-75.39647200000002,39.375],[-75.39400169999999,39.375],[-75.38697079999997,39.375],[-75.38184260000003,39.375],[-75.37947589999999,39.375],[-75.37908099999999,39.375],[-75.3769777,39.375],[-75.375,39.375],[-75.375,39.374174100000005],[-75.375,39.37350900000001],[-75.375,39.36849539999997],[-75.375,39.365738599999986],[-75.375,39.3655521],[-75.375,39.36471499999999],[-75.375,39.363727299999994],[-75.375,39.362668600000006],[-75.375,39.3626362],[-75.375,39.358946300000014],[-75.375,39.35872979999999],[-75.375,39.35442640000002],[-75.375,39.3538997],[-75.375,39.353752199999974],[-75.375,39.3537235],[-75.375,39.35347300000001],[-75.375,39.35011100000003],[-75.375,39.34525389999999],[-75.375,39.337646500000005],[-75.375,39.33296259999997],[-75.375,39.3218746],[-75.375,39.314752999999996],[-75.375,39.30600479999998],[-75.375,39.30288430000002],[-75.375,39.302110500000026],[-75.375,39.30000000000001],[-75.3754677,39.30000000000001],[-75.37601339999998,39.30000000000001],[-75.37769800000001,39.30000000000001],[-75.37888459999999,39.30000000000001],[-75.38007119999997,39.30000000000001],[-75.38125780000001,39.30000000000001],[-75.3824444,39.30000000000001],[-75.38486130000001,39.30000000000001],[-75.3849975,39.30000000000001],[-75.38507190000001,39.30000000000001],[-75.38519789999998,39.30000000000001],[-75.38687859999999,39.30000000000001],[-75.38910249999998,39.30000000000001],[-75.39040189999997,39.30000000000001],[-75.39091180000003,39.30000000000001],[-75.3919525,39.30000000000001],[-75.3936281,39.30000000000001],[-75.3954946,39.30000000000001],[-75.39568910000003,39.30000000000001],[-75.39643699999999,39.30000000000001],[-75.3972435,39.30000000000001],[-75.3978457,39.30000000000001],[-75.39858379999998,39.30000000000001],[-75.39962589999999,39.30000000000001],[-75.40001480000001,39.30000000000001],[-75.40094749999997,39.30000000000001],[-75.40256590000001,39.30000000000001],[-75.40402410000002,39.30000000000001],[-75.40623490000002,39.30000000000001],[-75.40631450000001,39.30000000000001],[-75.40661390000002,39.30000000000001],[-75.4090612,39.30000000000001],[-75.410102,39.30000000000001],[-75.42477780000002,39.30000000000001],[-75.43433470000002,39.30000000000001],[-75.437273,39.30000000000001],[-75.4374904,39.30000000000001],[-75.43776659999997,39.30000000000001],[-75.43795999999998,39.30000000000001],[-75.44068470000002,39.30000000000001],[-75.44383599999998,39.30000000000001]]]}},{"type":"Feature","properties":{},"geometry":{"type":"Polygon","coordinates":[[[-75.375,39.302110500000026],[-75.375,39.30288430000002],[-75.375,39.30600479999998],[-75.375,39.314752999999996],[-75.375,39.3218746],[-75.375,39.33296259999997],[-75.375,39.337646500000005],[-75.375,39.34525389999999],[-75.375,39.35011100000003],[-75.375,39.35347300000001],[-75.375,39.3537235],[-75.375,39.353752199999974],[-75.375,39.3538997],[-75.375,39.35442640000002],[-75.375,39.35872979999999],[-75.375,39.358946300000014],[-75.375,39.3626362],[-75.375,39.362668600000006],[-75.375,39.363727299999994],[-75.375,39.36471499999999],[-75.375,39.3655521],[-75.375,39.365738599999986],[-75.375,39.36849539999997],[-75.375,39.37350900000001],[-75.375,39.374174100000005],[-75.375,39.375],[-75.36896389999998,39.375],[-75.36770560000002,39.375],[-75.36519379999999,39.375],[-75.35285490000001,39.375],[-75.35209579999997,39.375],[-75.3514983,39.375],[-75.35036059999999,39.375],[-75.3470428,39.375],[-75.3468995,39.375],[-75.33298200000002,39.375],[-75.33165409999998,39.375],[-75.33017000000001,39.375],[-75.32794100000001,39.375],[-75.31105309999998,39.375],[-75.310292,39.375],[-75.30000000000001,39.375],[-75.30000000000001,39.35261379999997],[-75.30000000000001,39.33464939999999],[-75.30000000000001,39.33366819999998],[-75.30000000000001,39.32758239999998],[-75.30000000000001,39.32711139999998],[-75.30000000000001,39.32653069999998],[-75.30000000000001,39.3263422],[-75.30000000000001,39.326031899999975],[-75.30000000000001,39.324987899999996],[-75.30000000000001,39.32045629999999],[-75.30000000000001,39.320258799999976],[-75.30000000000001,39.31785239999999],[-75.30000000000001,39.31764079999999],[-75.30000000000001,39.31728340000001],[-75.30000000000001,39.3171562],[-75.30000000000001,39.30450939999997],[-75.30000000000001,39.30414189999999],[-75.30000000000001,39.3025255],[-75.30000000000001,39.3019764],[-75.30000000000001,39.30118110000001],[-75.30000000000001,39.30098079999999],[-75.30000000000001,39.30000000000001],[-75.30038100000002,39.30000000000001],[-75.3026777,39.30000000000001],[-75.30534030000001,39.30000000000001],[-75.31836179999999,39.30000000000001],[-75.32004210000002,39.30000000000001],[-75.323691,39.30000000000001],[-75.32851149999999,39.30000000000001],[-75.33376220000002,39.30000000000001],[-75.33842240000001,39.30000000000001],[-75.34768609999998,39.30000000000001],[-75.35295289999999,39.30000000000001],[-75.35835170000001,39.30000000000001],[-75.35893900000002,39.30000000000001],[-75.35979259999999,39.30000000000001],[-75.36184050000003,39.30000000000001],[-75.36447529999998,39.30000000000001],[-75.36675430000003,39.30000000000001],[-75.36994010000001,39.30000000000001],[-75.375,39.30000000000001],[-75.375,39.302110500000026]]]}},{"type":"Feature","properties":{},"geometry":{"type":"Polygon","coordinates":[[[-75.44999999999999,39.3973211],[-75.44999999999999,39.39597309999999],[-75.44999999999999,39.39428149999998],[-75.44999999999999,39.38823719999999],[-75.44999999999999,39.386718599999995],[-75.44999999999999,39.375],[-75.4506887,39.375],[-75.45540360000001,39.375],[-75.46354930000001,39.375],[-75.46492339999998,39.375],[-75.4658753,39.375],[-75.46638339999998,39.375],[-75.4668327,39.375],[-75.46778469999998,39.375],[-75.46873670000002,39.375],[-75.48066080000001,39.375],[-75.48997709999998,39.375],[-75.49098959999998,39.375],[-75.4972788,39.375],[-75.49924820000001,39.375],[-75.505,39.375],[-75.505,39.405],[-75.44999999999999,39.405],[-75.44999999999999,39.3973211]]]}},{"type":"Feature","properties":{},"geometry":{"type":"Polygon","coordinates":[[[-75.375,39.37991269999998],[-75.375,39.3755774],[-75.375,39.375],[-75.3769777,39.375],[-75.37908099999999,39.375],[-75.37947589999999,39.375],[-75.38184260000003,39.375],[-75.38697079999997,39.375],[-75.39400169999999,39.375],[-75.39647200000002,39.375],[-75.39651939999999,39.375],[-75.3975476,39.375],[-75.401365,39.375],[-75.4038448,39.375],[-75.41777880000001,39.375],[-75.43009590000003,39.375],[-75.4390075,39.375],[-75.4403954,39.375],[-75.4428891,39.375],[-75.44999999999999,39.375],[-75.44999999999999,39.386718599999995],[-75.44999999999999,39.38823719999999],[-75.44999999999999,39.39428149999998],[-75.44999999999999,39.39597309999999],[-75.44999999999999,39.3973211],[-75.44999999999999,39.405],[-75.375,39.405],[-75.375,39.37991269999998]]]}}]}