{"type":"FeatureCollection","features":[{"type":"Feature","properties":{},"geometry":{"type":"Polygon","coordinates":[[[-80.55000000000001,27.958282600000018],[-80.55000000000001,27.964973499999985],[-80.55000000000001,27.965494999999976],[-80.55000000000001,27.975000000000023],[-80.5470464,27.975000000000023],[-80.54337170000002,27.975000000000023],[-80.54094300000003,27.975000000000023],[-80.53656590000003,27.975000000000023],[-80.53636699999998,27.975000000000023],[-80.53615439999999,27.975000000000023],[-80.532646,27.975000000000023],[-80.53254220000002,27.975000000000023],[-80.51951789999998,27.975000000000023],[-80.51782200000002,27.975000000000023],[-80.51116400000001,27.975000000000023],[-80.51060080000002,27.975000000000023],[-80.50679389999999,27.975000000000023],[-80.50442900000002,27.975000000000023],[-80.4784917,27.975000000000023],[-80.47500000000002,27.975000000000023],[-80.47500000000002,27.96791159999998],[-80.47500000000002,27.945],[-80.55000000000001,27.945],[-80.55000000000001,27.958282600000018]]]}},{"type":"Feature","properties":{},"geometry":{"type":"Polygon","coordinates":[[[-80.55000000000001,27.980344000000002],[-80.55000000000001,27.981611999999984],[-80.55000000000001,27.98246260000002],[-80.55000000000001,27.991592400000002],[-80.55000000000001,28.00104779999998],[-80.55000000000001,28.0014142],[-80.55000000000001,28.002146900000014],[-80.55000000000001,28.004761400000007],[-80.55000000000001,28.007781799999975],[-80.55000000000001,28.00830480000002],[-80.55000000000001,28.008562900000015],[-80.55000000000001,28.02645339999998],[-80.55000000000001,28.036762099999976],[-80.55000000000001,28.05000000000001],[-80.54819029999999,28.05000000000001],[-80.54778729999998,28.05000000000001],[-80.54466739999998,28.05000000000001],[-80.54395010000002,28.05000000000001],[-80.54021719999997,28.05000000000001],[-80.5154794,28.05000000000001],[-80.50151519999997,28.05000000000001],[-80.4867183,28.05000000000001],[-80.48628000000002,28.05000000000001],[-80.47500000000002,28.05000000000001],[-80.47500000000002,28.02730650000001],[-80.47500000000002,28.02645799999999],[-80.47500000000002,27.975000000000023],[-80.4784917,27.975000000000023],[-80.50442900000002,27.975000000000023],[-80.50679389999999,27.975000000000023],[-80.51060080000002,27.975000000000023],[-80.51116400000001,27.975000000000023],[-80.51782200000002,27.975000000000023],[-80.51951789999998,27.975000000000023],[-80.53254220000002,27.975000000000023],[-80.532646,27.975000000000023],[-80.53615439999999,27.975000000000023],[-80.53636699999998,27.975000000000023],[-80.53656590000003,27.975000000000023],[-80.54094300000003,27.975000000000023],[-80.54337170000002,27.975000000000023],[-80.5470464,27.975000000000023],[-80.55000000000001,27.975000000000023],[-80.55000000000001,27.980344000000002]]]}},{"type":"Feature","properties":{},"geometry":{"type":"Polygon","coordinates":[[[-80.54890060000002,28.274999999999977],[-80.55000000000001,28.274999999999977],[-80.55000000000001,28.289818700000012],[-80.55000000000001,28.29499900000002],[-80.55000000000001,28.302538000000027],[-80.55000000000001,28.304177100000004],[-80.55000000000001,28.32067669999998],[-80.55000000000001,28.32514629999997],[-80.55000000000001,28.325964399999975],[-80.55000000000001,28.331788300000028],[-80.55000000000001,28.350000000000023],[-80.54996119999998,28.350000000000023],[-80.54785620000001,28.350000000000023],[-80.5474643,28.350000000000023],[-80.54412029999997,28.350000000000023],[-80.52652239999998,28.350000000000023],[-80.52280139999999,28.350000000000023],[-80.51666669999997,28.350000000000023],[-80.5000253,28.350000000000023],[-80.48951369999997,28.350000000000023],[-80.47500000000002,28.350000000000023],[-80.47500000000002,28.311160400000006],[-80.47500000000002,28.309068000000025],[-80.47500000000002,28.29664120000001],[-80.47500000000002,28.29499900000002],[-80.47500000000002,28.285361599999987],[-80.47500000000002,28.274999999999977],[-80.51475640000001,28.274999999999977],[-80.51666669999997,28.274999999999977],[-80.5199786,28.274999999999977],[-80.5466376,28.274999999999977],[-80.5484907,28.274999999999977],[-80.54890060000002,28.274999999999977]]]}},{"type":"Feature","properties":{},"geometry":{"type":"Polygon","coordinates":[[[-80.4335203,28.274999999999977],[-80.44411109999999,28.274999999999977],[-80.47500000000002,28.274999999999977],[-80.47500000000002,28.285361599999987],[-80.47500000000002,28.29499900000002],[-80.47500000000002,28.29664120000001],[-80.47500000000002,28.309071500000016],[-80.47500000000002,28.311160400000006],[-80.47500000000002,28.350000000000023],[-80.45623510000001,28.350000000000023],[-80.43345090000003,28.350000000000023],[-80.39999999999998,28.350000000000023],[-80.39999999999998,28.339744999999994],[-80.39999999999998,28.336698599999977],[-80.39999999999998,28.334605699999997],[-80.39999999999998,28.322891500000026],[-80.39999999999998,28.315071999999986],[-80.39999999999998,28.31445150000002],[-80.39999999999998,28.310912799999983],[-80.39999999999998,28.298966199999995],[-80.39999999999998,28.29499900000002],[-80.39999999999998,28.28667999999999],[-80.39999999999998,28.286517800000013],[-80.39999999999998,28.283341899999982],[-80.39999999999998,28.282958899999983],[-80.39999999999998,28.274999999999977],[-80.4070213,28.274999999999977],[-80.4075896,28.274999999999977],[-80.4103341,28.274999999999977],[-80.41215549999998,28.274999999999977],[-80.41292179999999,28.274999999999977],[-80.43249350000002,28.274999999999977],[-80.4335203,28.274999999999977]]]}},{"type":"Feature","properties":{},"geometry":{"type":"Polygon","coordinates":[[[-80.38420489999999,28.274999999999977],[-80.39999999999998,28.274999999999977],[-80.39999999999998,28.282958899999983],[-80.39999999999998,28.283341899999982],[-80.39999999999998,28.286517800000013],[-80.39999999999998,28.28667999999999],[-80.39999999999998,28.29499900000002],[-80.39999999999998,28.298966199999995],[-80.39999999999998,28.299205099999995],[-80.39999999999998,28.310912799999983],[-80.39999999999998,28.31445150000002],[-80.39999999999998,28.315071999999986],[-80.39999999999998,28.322891500000026],[-80.39999999999998,28.334605699999997],[-80.39999999999998,28.336698599999977],[-80.39999999999998,28.339744999999994],[-80.39999999999998,28.350000000000023],[-80.38815060000002,28.350000000000023],[-80.38582459999998,28.350000000000023],[-80.384999,28.350000000000023],[-80.38494659999998,28.350000000000023],[-80.38465889999998,28.350000000000023],[-80.37284640000001,28.350000000000023],[-80.36937160000002,28.350000000000023],[-80.36616329999998,28.350000000000023],[-80.36616070000002,28.350000000000023],[-80.36606289999997,28.350000000000023],[-80.36072589999998,28.350000000000023],[-80.36006809999998,28.350000000000023],[-80.33109159999998,28.350000000000023],[-80.33061800000002,28.350000000000023],[-80.32499999999999,28.350000000000023],[-80.32499999999999,28.274999999999977],[-80.34096069999998,28.274999999999977],[-80.34455559999998,28.274999999999977],[-80.3599304,28.274999999999977],[-80.37478529999998,28.274999999999977],[-80.37561629999999,28.274999999999977],[-80.37578580000002,28.274999999999977],[-80.37696030000001,28.274999999999977],[-80.3769729,28.274999999999977],[-80.37738510000003,28.274999999999977],[-80.38372170000002,28.274999999999977],[-80.38420489999999,28.274999999999977]]]}},{"type":"Feature","properties":{},"geometry":{"type":"Polygon","coordinates":[[[-80.54996119999998,28.350000000000023],[-80.55000000000001,28.350000000000023],[-80.55000000000001,28.350097199999993],[-80.55000000000001,28.354252299999985],[-80.55000000000001,28.37794919999999],[-80.55000000000001,28.380836999999985],[-80.55000000000001,28.38416189999998],[-80.55000000000001,28.384543899999983],[-80.55000000000001,28.385680200000024],[-80.55000000000001,28.386543500000016],[-80.55000000000001,28.3892745],[-80.55000000000001,28.389654199999995],[-80.55000000000001,28.39065549999998],[-80.55000000000001,28.391013999999984],[-80.55000000000001,28.39137249999999],[-80.55000000000001,28.391384099999982],[-80.55000000000001,28.391730999999993],[-80.55000000000001,28.392089],[-80.55000000000001,28.399417900000003],[-80.55000000000001,28.400411899999995],[-80.55000000000001,28.403191400000026],[-80.55000000000001,28.404385900000023],[-80.55000000000001,28.414750000000026],[-80.55000000000001,28.417733800000008],[-80.55000000000001,28.423891700000013],[-80.55000000000001,28.42500000000001],[-80.54977300000002,28.42500000000001],[-80.5463795,28.42500000000001],[-80.54578980000002,28.42500000000001],[-80.53640810000002,28.42500000000001],[-80.53518489999999,28.42500000000001],[-80.53433239999998,28.42500000000001],[-80.52747970000001,28.42500000000001],[-80.51998559999998,28.42500000000001],[-80.4974848,28.42500000000001],[-80.48616270000002,28.42500000000001],[-80.4821604,28.42500000000001],[-80.4786613,28.42500000000001],[-80.47842980000001,28.42500000000001],[-80.478161,28.42500000000001],[-80.477666,28.42500000000001],[-80.47500000000002,28.42500000000001],[-80.47500000000002,28.422372699999983],[-80.47500000000002,28.416457100000002],[-80.47500000000002,28.402567599999998],[-80.47500000000002,28.398098800000014],[-80.47500000000002,28.39710309999998],[-80.47500000000002,28.39618619999999],[-80.47500000000002,28.395373500000005],[-80.47500000000002,28.39363850000001],[-80.47500000000002,28.392824099999984],[-80.47500000000002,28.392684700000018],[-80.47500000000002,28.383688199999995],[-80.47500000000002,28.381250000000023],[-80.47500000000002,28.38108699999998],[-80.47500000000002,28.37506350000001],[-80.47500000000002,28.372189300000002],[-80.47500000000002,28.363042899999982],[-80.47500000000002,28.350000000000023],[-80.48951369999997,28.350000000000023],[-80.5000253,28.350000000000023],[-80.51666669999997,28.350000000000023],[-80.52280139999999,28.350000000000023],[-80.52651959999997,28.350000000000023],[-80.54412029999997,28.350000000000023],[-80.5474643,28.350000000000023],[-80.54785620000001,28.350000000000023],[-80.54996119999998,28.350000000000023]]]}},{"type":"Feature","properties":{},"geometry":{"type":"Polygon","coordinates":[[[-80.4340631,28.350000000000023],[-80.45623510000001,28.350000000000023],[-80.47500000000002,28.350000000000023],[-80.47500000000002,28.3502785],[-80.47500000000002,28.363042899999982],[-80.47500000000002,28.372189300000002],[-80.47500000000002,28.37506350000001],[-80.47500000000002,28.375135100000023],[-80.47500000000002,28.375551099999996],[-80.47500000000002,28.38108699999998],[-80.47500000000002,28.381250000000023],[-80.47500000000002,28.383688199999995],[-80.47500000000002,28.385880900000018],[-80.47500000000002,28.388071200000013],[-80.47500000000002,28.392684700000018],[-80.47500000000002,28.392824099999984],[-80.47500000000002,28.39363850000001],[-80.47500000000002,28.395373500000005],[-80.47500000000002,28.39618619999999],[-80.47500000000002,28.39710309999998],[-80.47500000000002,28.398098800000014],[-80.47500000000002,28.402567599999998],[-80.47500000000002,28.416457100000002],[-80.47500000000002,28.422372699999983],[-80.47500000000002,28.42500000000001],[-80.47399960000001,28.42500000000001],[-80.4708536,28.42500000000001],[-80.47026010000002,28.42500000000001],[-80.4690895,28.42500000000001],[-80.4651389,28.42500000000001],[-80.4643092,28.42500000000001],[-80.4632143,28.42500000000001],[-80.46078019999999,28.42500000000001],[-80.45844090000003,28.42500000000001],[-80.45508999999998,28.42500000000001],[-80.4523825,28.42500000000001],[-80.45165789999999,28.42500000000001],[-80.45023880000002,28.42500000000001],[-80.44912549999998,28.42500000000001],[-80.44852639999999,28.42500000000001],[-80.44691599999999,28.42500000000001],[-80.44560489999998,28.42500000000001],[-80.44375000000002,28.42500000000001],[-80.42548169999998,28.42500000000001],[-80.42520560000003,28.42500000000001],[-80.42513960000002,28.42500000000001],[-80.4169867,28.42500000000001],[-80.41682880000002,28.42500000000001],[-80.40310069999998,28.42500000000001],[-80.39999999999998,28.42500000000001],[-80.39999999999998,28.416775599999994],[-80.39999999999998,28.403973500000006],[-80.39999999999998,28.395226400000013],[-80.39999999999998,28.394002],[-80.39999999999998,28.3502785],[-80.39999999999998,28.350000000000023],[-80.4290264,28.350000000000023],[-80.42948539999998,28.350000000000023],[-80.42991710000001,28.350000000000023],[-80.43345090000003,28.350000000000023],[-80.4340631,28.350000000000023]]]}},{"type":"Feature","properties":{},"geometry":{"type":"Polygon","coordinates":[[[-80.38815060000002,28.350000000000023],[-80.39999999999998,28.350000000000023],[-80.39999999999998,28.3502785],[-80.39999999999998,28.394002],[-80.39999999999998,28.39414959999999],[-80.39999999999998,28.395226400000013],[-80.39999999999998,28.404202899999973],[-80.39999999999998,28.416775599999994],[-80.39999999999998,28.42500000000001],[-80.39844640000001,28.42500000000001],[-80.39435459999999,28.42500000000001],[-80.3884926,28.42500000000001],[-80.384999,28.42500000000001],[-80.38047740000002,28.42500000000001],[-80.3705756,28.42500000000001],[-80.32499999999999,28.42500000000001],[-80.32499999999999,28.359551699999997],[-80.32499999999999,28.358771100000013],[-80.32499999999999,28.358768499999996],[-80.32499999999999,28.3502785],[-80.32499999999999,28.350000000000023],[-80.33061800000002,28.350000000000023],[-80.33109159999998,28.350000000000023],[-80.3340349,28.350000000000023],[-80.36006809999998,28.350000000000023],[-80.36072589999998,28.350000000000023],[-80.36616070000002,28.350000000000023],[-80.36937160000002,28.350000000000023],[-80.37284640000001,28.350000000000023],[-80.38465889999998,28.350000000000023],[-80.38494659999998,28.350000000000023],[-80.384999,28.350000000000023],[-80.38582459999998,28.350000000000023],[-80.38815060000002,28.350000000000023]]]}},{"type":"Feature","properties":{},"geometry":{"type":"Polygon","coordinates":[[[-80.53640810000002,28.42500000000001],[-80.54578980000002,28.42500000000001],[-80.5463795,28.42500000000001],[-80.54977300000002,28.42500000000001],[-80.55000000000001,28.42500000000001],[-80.55000000000001,28.42805900000002],[-80.55000000000001,28.428789400000028],[-80.55000000000001,28.4321822],[-80.55000000000001,28.434719599999994],[-80.55000000000001,28.435965899999985],[-80.55000000000001,28.4398956],[-80.55000000000001,28.44249880000001],[-80.55000000000001,28.442595200000028],[-80.55000000000001,28.442702300000008],[-80.55000000000001,28.443193399999984],[-80.55000000000001,28.44656199999997],[-80.55000000000001,28.463062700000023],[-80.55000000000001,28.465832999999975],[-80.55000000000001,28.49499129999998],[-80.55000000000001,28.5],[-80.5470166,28.5],[-80.54526240000001,28.5],[-80.54024290000001,28.5],[-80.5282537,28.5],[-80.52103899999997,28.5],[-80.51579450000003,28.5],[-80.50848889999997,28.5],[-80.48987340000002,28.5],[-80.48557699999998,28.5],[-80.4854181,28.5],[-80.48497020000002,28.5],[-80.47500000000002,28.5],[-80.47500000000002,28.484674400000017],[-80.47500000000002,28.483901899999978],[-80.47500000000002,28.483701199999985],[-80.47500000000002,28.48254220000001],[-80.47500000000002,28.4669313],[-80.47500000000002,28.465832999999975],[-80.47500000000002,28.46360729999998],[-80.47500000000002,28.462047600000005],[-80.47500000000002,28.46081079999999],[-80.47500000000002,28.4588617],[-80.47500000000002,28.45560039999998],[-80.47500000000002,28.452466700000002],[-80.47500000000002,28.45238519999998],[-80.47500000000002,28.45129689999999],[-80.47500000000002,28.450639599999988],[-80.47500000000002,28.449957400000017],[-80.47500000000002,28.44829729999998],[-80.47500000000002,28.44727610000001],[-80.47500000000002,28.445542999999986],[-80.47500000000002,28.445153300000015],[-80.47500000000002,28.440077299999984],[-80.47500000000002,28.436695499999985],[-80.47500000000002,28.432270099999982],[-80.47500000000002,28.43127420000002],[-80.47500000000002,28.4304712],[-80.47500000000002,28.430108899999993],[-80.47500000000002,28.429690199999982],[-80.47500000000002,28.42630170000001],[-80.47500000000002,28.42500000000001],[-80.477666,28.42500000000001],[-80.478161,28.42500000000001],[-80.47842980000001,28.42500000000001],[-80.4786613,28.42500000000001],[-80.4821604,28.42500000000001],[-80.48616270000002,28.42500000000001],[-80.4974848,28.42500000000001],[-80.51998559999998,28.42500000000001],[-80.52747970000001,28.42500000000001],[-80.53433239999998,28.42500000000001],[-80.53518489999999,28.42500000000001],[-80.53640810000002,28.42500000000001]]]}},{"type":"Feature","properties":{},"geometry":{"type":"Polygon","coordinates":[[[-80.47399960000001,28.42500000000001],[-80.47500000000002,28.42500000000001],[-80.47500000000002,28.42540550000001],[-80.47500000000002,28.42630170000001],[-80.47500000000002,28.429690199999982],[-80.47500000000002,28.430108899999993],[-80.47500000000002,28.4304712],[-80.47500000000002,28.43127420000002],[-80.47500000000002,28.432270099999982],[-80.47500000000002,28.436695499999985],[-80.47500000000002,28.440077299999984],[-80.47500000000002,28.44309629999998],[-80.47500000000002,28.445153300000015],[-80.47500000000002,28.445542999999986],[-80.47500000000002,28.44727610000001],[-80.47500000000002,28.44829729999998],[-80.47500000000002,28.449957400000017],[-80.47500000000002,28.44999999999999],[-80.47500000000002,28.450639599999988],[-80.47500000000002,28.45129689999999],[-80.47500000000002,28.45238519999998],[-80.47500000000002,28.452466700000002],[-80.47500000000002,28.45560039999998],[-80.47500000000002,28.4588617],[-80.47500000000002,28.46081079999999],[-80.47500000000002,28.462047600000005],[-80.47500000000002,28.46360729999998],[-80.47500000000002,28.46499510000001],[-80.47500000000002,28.465832999999975],[-80.47500000000002,28.4669313],[-80.47500000000002,28.478436499999987],[-80.47500000000002,28.48254220000001],[-80.47500000000002,28.483701199999985],[-80.47500000000002,28.483901899999978],[-80.47500000000002,28.484674400000017],[-80.47500000000002,28.5],[-80.47358730000002,28.5],[-80.45300759999998,28.5],[-80.44666669999998,28.5],[-80.43472259999999,28.5],[-80.42732160000003,28.5],[-80.41469819999998,28.5],[-80.40547780000003,28.5],[-80.39999999999998,28.5],[-80.39999999999998,28.475015900000017],[-80.39999999999998,28.47224970000002],[-80.39999999999998,28.470302300000014],[-80.39999999999998,28.465832999999975],[-80.39999999999998,28.4613344],[-80.39999999999998,28.455715399999974],[-80.39999999999998,28.45230049999998],[-80.39999999999998,28.450733000000014],[-80.39999999999998,28.450241300000016],[-80.39999999999998,28.450177999999994],[-80.39999999999998,28.44999999999999],[-80.39999999999998,28.42500000000001],[-80.40310069999998,28.42500000000001],[-80.41682880000002,28.42500000000001],[-80.4169867,28.42500000000001],[-80.42513960000002,28.42500000000001],[-80.42520560000003,28.42500000000001],[-80.42548169999998,28.42500000000001],[-80.44375000000002,28.42500000000001],[-80.44560489999998,28.42500000000001],[-80.44691599999999,28.42500000000001],[-80.44852639999999,28.42500000000001],[-80.44912549999998,28.42500000000001],[-80.45023880000002,28.42500000000001],[-80.45165789999999,28.42500000000001],[-80.4523825,28.42500000000001],[-80.45508999999998,28.42500000000001],[-80.45844090000003,28.42500000000001],[-80.46078019999999,28.42500000000001],[-80.4632143,28.42500000000001],[-80.4643092,28.42500000000001],[-80.4651389,28.42500000000001],[-80.4690895,28.42500000000001],[-80.47026010000002,28.42500000000001],[-80.4708536,28.42500000000001],[-80.47399960000001,28.42500000000001]]]}},{"type":"Feature","properties":{},"geometry":{"type":"Polygon","coordinates":[[[-80.39844640000001,28.42500000000001],[-80.39999999999998,28.42500000000001],[-80.39999999999998,28.44999999999999],[-80.39999999999998,28.450177999999994],[-80.39999999999998,28.450241300000016],[-80.39999999999998,28.450733000000014],[-80.39999999999998,28.45230049999998],[-80.39999999999998,28.455715399999974],[-80.39999999999998,28.4613344],[-80.39999999999998,28.465832999999975],[-80.39999999999998,28.470302300000014],[-80.39999999999998,28.47224970000002],[-80.39999999999998,28.475015900000017],[-80.39999999999998,28.5],[-80.38258480000002,28.5],[-80.37432619999998,28.5],[-80.362886,28.5],[-80.35623679999998,28.5],[-80.35394659999997,28.5],[-80.3502813,28.5],[-80.35000000000002,28.5],[-80.34543609999997,28.5],[-80.32499999999999,28.5],[-80.32499999999999,28.458964200000025],[-80.32499999999999,28.44999999999999],[-80.32499999999999,28.427536799999984],[-80.32499999999999,28.42500000000001],[-80.3705756,28.42500000000001],[-80.38047740000002,28.42500000000001],[-80.384999,28.42500000000001],[-80.3884926,28.42500000000001],[-80.39435459999999,28.42500000000001],[-80.39844640000001,28.42500000000001]]]}}]}