{"type":"FeatureCollection","features":[{"type":"Feature","properties":{},"geometry":{"type":"Polygon","coordinates":[[[-80.08645589999998,26.55000000000001],[-80.10000000000002,26.55000000000001],[-80.10000000000002,26.564045599999986],[-80.10000000000002,26.56435879999998],[-80.10000000000002,26.57136459999998],[-80.10000000000002,26.571745799999974],[-80.10000000000002,26.595523500000013],[-80.10000000000002,26.595923700000014],[-80.10000000000002,26.602951399999995],[-80.10000000000002,26.603231100000016],[-80.10000000000002,26.625],[-80.09175820000002,26.625],[-80.08778330000001,26.625],[-80.0802458,26.625],[-80.07969800000001,26.625],[-80.06883049999999,26.625],[-80.06454910000002,26.625],[-80.04796770000002,26.625],[-80.04636299999999,26.625],[-80.04516860000001,26.625],[-80.04363590000003,26.625],[-80.04343649999998,26.625],[-80.04324989999998,26.625],[-80.04104919999997,26.625],[-80.03908480000001,26.625],[-80.0364667,26.625],[-80.03626500000001,26.625],[-80.03454850000003,26.625],[-80.03377849999998,26.625],[-80.0322478,26.625],[-80.03134490000002,26.625],[-80.02947669999998,26.625],[-80.02499999999998,26.625],[-80.02499999999998,26.55268269999999],[-80.02499999999998,26.55000000000001],[-80.02550070000001,26.55000000000001],[-80.03277780000002,26.55000000000001],[-80.03705930000001,26.55000000000001],[-80.0387766,26.55000000000001],[-80.03967590000002,26.55000000000001],[-80.04017160000001,26.55000000000001],[-80.0414801,26.55000000000001],[-80.04167910000001,26.55000000000001],[-80.04342989999998,26.55000000000001],[-80.04669159999997,26.55000000000001],[-80.04885819999998,26.55000000000001],[-80.0490082,26.55000000000001],[-80.04923179999997,26.55000000000001],[-80.05098600000002,26.55000000000001],[-80.05295749999999,26.55000000000001],[-80.07901479999998,26.55000000000001],[-80.0853955,26.55000000000001],[-80.08645589999998,26.55000000000001]]]}},{"type":"Feature","properties":{},"geometry":{"type":"Polygon","coordinates":[[[-80.09175820000002,26.625],[-80.10000000000002,26.625],[-80.10000000000002,26.63239249999998],[-80.10000000000002,26.63263999999998],[-80.10000000000002,26.682407000000012],[-80.10000000000002,26.683221800000013],[-80.10000000000002,26.68778040000001],[-80.10000000000002,26.689181899999994],[-80.10000000000002,26.69532509999999],[-80.10000000000002,26.69999999999999],[-80.08602610000003,26.69999999999999],[-80.06406629999998,26.69999999999999],[-80.0623104,26.69999999999999],[-80.05471299999999,26.69999999999999],[-80.05033609999998,26.69999999999999],[-80.04870269999998,26.69999999999999],[-80.04680209999998,26.69999999999999],[-80.04661490000001,26.69999999999999],[-80.04644400000001,26.69999999999999],[-80.04527680000001,26.69999999999999],[-80.04190360000001,26.69999999999999],[-80.04176519999999,26.69999999999999],[-80.03393499999999,26.69999999999999],[-80.03288889999999,26.69999999999999],[-80.03280360000002,26.69999999999999],[-80.03176439999999,26.69999999999999],[-80.02959320000002,26.69999999999999],[-80.02898440000001,26.69999999999999],[-80.02854020000001,26.69999999999999],[-80.02833099999998,26.69999999999999],[-80.02666900000003,26.69999999999999],[-80.0260111,26.69999999999999],[-80.02499999999998,26.69999999999999],[-80.02499999999998,26.6901752],[-80.02499999999998,26.689840100000026],[-80.02499999999998,26.68943569999999],[-80.02499999999998,26.686071400000003],[-80.02499999999998,26.680000000000007],[-80.02499999999998,26.675417299999992],[-80.02499999999998,26.666166599999997],[-80.02499999999998,26.66522040000001],[-80.02499999999998,26.65659720000002],[-80.02499999999998,26.625],[-80.02947669999998,26.625],[-80.03134490000002,26.625],[-80.0322478,26.625],[-80.03377849999998,26.625],[-80.03454850000003,26.625],[-80.03626500000001,26.625],[-80.0364667,26.625],[-80.03908480000001,26.625],[-80.04104919999997,26.625],[-80.04324989999998,26.625],[-80.04343649999998,26.625],[-80.04363590000003,26.625],[-80.04516860000001,26.625],[-80.04636299999999,26.625],[-80.04796770000002,26.625],[-80.06454910000002,26.625],[-80.06883049999999,26.625],[-80.07969800000001,26.625],[-80.0802458,26.625],[-80.08778330000001,26.625],[-80.09175820000002,26.625]]]}},{"type":"Feature","properties":{},"geometry":{"type":"Polygon","coordinates":[[[-80.08384160000003,26.850000000000023],[-80.10000000000002,26.850000000000023],[-80.10000000000002,26.91442139999998],[-80.10000000000002,26.91807369999998],[-80.10000000000002,26.918557599999986],[-80.10000000000002,26.92500000000001],[-80.09097809999997,26.92500000000001],[-80.0905798,26.92500000000001],[-80.0904332,26.92500000000001],[-80.08936210000002,26.92500000000001],[-80.08545959999998,26.92500000000001],[-80.08314469999999,26.92500000000001],[-80.08308319999998,26.92500000000001],[-80.08266020000002,26.92500000000001],[-80.08201309999998,26.92500000000001],[-80.08155900000003,26.92500000000001],[-80.0799591,26.92500000000001],[-80.07985869999999,26.92500000000001],[-80.0795506,26.92500000000001],[-80.07940989999997,26.92500000000001],[-80.07935199999997,26.92500000000001],[-80.07915980000001,26.92500000000001],[-80.07834480000002,26.92500000000001],[-80.0669365,26.92500000000001],[-80.06690609999998,26.92500000000001],[-80.06681270000001,26.92500000000001],[-80.06677250000001,26.92500000000001],[-80.06655419999998,26.92500000000001],[-80.0663227,26.92500000000001],[-80.06628819999997,26.92500000000001],[-80.06563729999999,26.92500000000001],[-80.06550449999997,26.92500000000001],[-80.06504690000003,26.92500000000001],[-80.06355769999999,26.92500000000001],[-80.06090260000002,26.92500000000001],[-80.05328850000001,26.92500000000001],[-80.0519319,26.92500000000001],[-80.04680869999999,26.92500000000001],[-80.0379969,26.92500000000001],[-80.02874659999998,26.92500000000001],[-80.02874539999999,26.92500000000001],[-80.02499999999998,26.92500000000001],[-80.02499999999998,26.910087599999997],[-80.02499999999998,26.910084600000005],[-80.02499999999998,26.88499999999999],[-80.02499999999998,26.868333000000007],[-80.02499999999998,26.858591199999978],[-80.02499999999998,26.850000000000023],[-80.03074090000001,26.850000000000023],[-80.03521560000002,26.850000000000023],[-80.0380303,26.850000000000023],[-80.04012890000001,26.850000000000023],[-80.04263150000003,26.850000000000023],[-80.0431132,26.850000000000023],[-80.0431145,26.850000000000023],[-80.043811,26.850000000000023],[-80.0442084,26.850000000000023],[-80.0442329,26.850000000000023],[-80.04427329999999,26.850000000000023],[-80.04450530000003,26.850000000000023],[-80.0445517,26.850000000000023],[-80.0539329,26.850000000000023],[-80.05623020000002,26.850000000000023],[-80.0574906,26.850000000000023],[-80.05960859999999,26.850000000000023],[-80.06626319999998,26.850000000000023],[-80.0664832,26.850000000000023],[-80.0667482,26.850000000000023],[-80.0668832,26.850000000000023],[-80.0672917,26.850000000000023],[-80.067361,26.850000000000023],[-80.06744429999998,26.850000000000023],[-80.06881120000003,26.850000000000023],[-80.0691425,26.850000000000023],[-80.07112169999999,26.850000000000023],[-80.0713083,26.850000000000023],[-80.07355990000002,26.850000000000023],[-80.0735793,26.850000000000023],[-80.07438889999997,26.850000000000023],[-80.07507800000002,26.850000000000023],[-80.08384160000003,26.850000000000023]]]}},{"type":"Feature","properties":{},"geometry":{"type":"Polygon","coordinates":[[[-80.10000000000002,26.954206899999974],[-80.10000000000002,26.952558699999997],[-80.10000000000002,26.951566500000013],[-80.10000000000002,26.950090199999977],[-80.10000000000002,26.949876300000028],[-80.10000000000002,26.945539999999994],[-80.10000000000002,26.945477900000014],[-80.10000000000002,26.94438389999999],[-80.10000000000002,26.941966200000024],[-80.10000000000002,26.92500000000001],[-80.10265340000001,26.92500000000001],[-80.11643700000002,26.92500000000001],[-80.17500000000001,26.92500000000001],[-80.17500000000001,26.933656799999994],[-80.17500000000001,27.0],[-80.10000000000002,27.0],[-80.10000000000002,26.956048899999985],[-80.10000000000002,26.954206899999974]]]}},{"type":"Feature","properties":{},"geometry":{"type":"Polygon","coordinates":[[[-80.09097809999997,26.92500000000001],[-80.10000000000002,26.92500000000001],[-80.10000000000002,26.941966200000024],[-80.10000000000002,26.94438389999999],[-80.10000000000002,26.945477900000014],[-80.10000000000002,26.945539999999994],[-80.10000000000002,26.949876300000028],[-80.10000000000002,26.950090199999977],[-80.10000000000002,26.951566500000013],[-80.10000000000002,26.952558699999997],[-80.10000000000002,26.954206899999974],[-80.10000000000002,26.956048899999985],[-80.10000000000002,27.0],[-80.09385739999999,27.0],[-80.09367580000003,27.0],[-80.09318489999998,27.0],[-80.09313680000002,27.0],[-80.092987,27.0],[-80.09271269999999,27.0],[-80.09235460000002,27.0],[-80.0922023,27.0],[-80.09187600000001,27.0],[-80.09172269999999,27.0],[-80.09162520000001,27.0],[-80.08900219999998,27.0],[-80.08859039999999,27.0],[-80.08856800000001,27.0],[-80.08854819999999,27.0],[-80.0883895,27.0],[-80.08836409999998,27.0],[-80.08691809999999,27.0],[-80.08567390000002,27.0],[-80.083933,27.0],[-80.07835,27.0],[-80.07648890000002,27.0],[-80.04556000000002,27.0],[-80.04555479999999,27.0],[-80.03172869999997,27.0],[-80.03129369999999,27.0],[-80.0268974,27.0],[-80.02499999999998,27.0],[-80.02499999999998,26.986890700000004],[-80.02499999999998,26.985764000000017],[-80.02499999999998,26.982187599999975],[-80.02499999999998,26.980275199999994],[-80.02499999999998,26.979210000000023],[-80.02499999999998,26.97439939999998],[-80.02499999999998,26.966000000000008],[-80.02499999999998,26.953632700000014],[-80.02499999999998,26.950360999999987],[-80.02499999999998,26.92500000000001],[-80.02874539999999,26.92500000000001],[-80.02874659999998,26.92500000000001],[-80.0379969,26.92500000000001],[-80.04680869999999,26.92500000000001],[-80.0519319,26.92500000000001],[-80.05328850000001,26.92500000000001],[-80.06090260000002,26.92500000000001],[-80.06355769999999,26.92500000000001],[-80.06504690000003,26.92500000000001],[-80.06550449999997,26.92500000000001],[-80.06563729999999,26.92500000000001],[-80.06628819999997,26.92500000000001],[-80.0663227,26.92500000000001],[-80.06655419999998,26.92500000000001],[-80.06677250000001,26.92500000000001],[-80.06681270000001,26.92500000000001],[-80.06690609999998,26.92500000000001],[-80.0669365,26.92500000000001],[-80.07834480000002,26.92500000000001],[-80.07915980000001,26.92500000000001],[-80.07935199999997,26.92500000000001],[-80.07940989999997,26.92500000000001],[-80.0795506,26.92500000000001],[-80.07985869999999,26.92500000000001],[-80.0799591,26.92500000000001],[-80.08155900000003,26.92500000000001],[-80.08201309999998,26.92500000000001],[-80.08266020000002,26.92500000000001],[-80.08308319999998,26.92500000000001],[-80.08314469999999,26.92500000000001],[-80.08545959999998,26.92500000000001],[-80.08936210000002,26.92500000000001],[-80.0904332,26.92500000000001],[-80.0905798,26.92500000000001],[-80.09097809999997,26.92500000000001]]]}},{"type":"Feature","properties":{},"geometry":{"type":"Polygon","coordinates":[[[-80.08602610000003,26.69999999999999],[-80.10000000000002,26.69999999999999],[-80.10000000000002,26.70573680000001],[-80.10000000000002,26.774999999999977],[-80.06503370000001,26.774999999999977],[-80.0638889,26.774999999999977],[-80.05677450000002,26.774999999999977],[-80.05361110000001,26.774999999999977],[-80.0520899,26.774999999999977],[-80.0520295,26.774999999999977],[-80.0518644,26.774999999999977],[-80.0514508,26.774999999999977],[-80.04941280000003,26.774999999999977],[-80.049307,26.774999999999977],[-80.04894489999998,26.774999999999977],[-80.04867719999999,26.774999999999977],[-80.0484935,26.774999999999977],[-80.0482556,26.774999999999977],[-80.04823820000001,26.774999999999977],[-80.04771069999998,26.774999999999977],[-80.04755949999998,26.774999999999977],[-80.0472383,26.774999999999977],[-80.04708820000002,26.774999999999977],[-80.04302100000001,26.774999999999977],[-80.04291699999999,26.774999999999977],[-80.0423879,26.774999999999977],[-80.041563,26.774999999999977],[-80.04055399999999,26.774999999999977],[-80.03954859999999,26.774999999999977],[-80.03954720000002,26.774999999999977],[-80.0392981,26.774999999999977],[-80.03144680000003,26.774999999999977],[-80.03137099999998,26.774999999999977],[-80.03058470000002,26.774999999999977],[-80.03005910000002,26.774999999999977],[-80.02894850000001,26.774999999999977],[-80.02872439999999,26.774999999999977],[-80.0285197,26.774999999999977],[-80.02837310000001,26.774999999999977],[-80.02835920000001,26.774999999999977],[-80.02760970000003,26.774999999999977],[-80.0257608,26.774999999999977],[-80.0255252,26.774999999999977],[-80.02499999999998,26.774999999999977],[-80.02499999999998,26.773543500000017],[-80.02499999999998,26.772791199999972],[-80.02499999999998,26.772515999999996],[-80.02499999999998,26.772240899999986],[-80.02499999999998,26.77196570000001],[-80.02499999999998,26.7716906],[-80.02499999999998,26.7710548],[-80.02499999999998,26.768333299999995],[-80.02499999999998,26.765092200000026],[-80.02499999999998,26.751666699999987],[-80.02499999999998,26.729999700000008],[-80.02499999999998,26.725555600000007],[-80.02499999999998,26.721922500000005],[-80.02499999999998,26.713687400000026],[-80.02499999999998,26.71097259999999],[-80.02499999999998,26.709464700000012],[-80.02499999999998,26.70933789999998],[-80.02499999999998,26.70908109999999],[-80.02499999999998,26.708333400000015],[-80.02499999999998,26.70735719999999],[-80.02499999999998,26.69999999999999],[-80.0260111,26.69999999999999],[-80.02666900000003,26.69999999999999],[-80.02833099999998,26.69999999999999],[-80.02854020000001,26.69999999999999],[-80.02898440000001,26.69999999999999],[-80.02959320000002,26.69999999999999],[-80.03176439999999,26.69999999999999],[-80.03280360000002,26.69999999999999],[-80.03288889999999,26.69999999999999],[-80.03393499999999,26.69999999999999],[-80.0419013,26.69999999999999],[-80.04190360000001,26.69999999999999],[-80.04527680000001,26.69999999999999],[-80.04644380000002,26.69999999999999],[-80.04644400000001,26.69999999999999],[-80.04661490000001,26.69999999999999],[-80.04680209999998,26.69999999999999],[-80.04870269999998,26.69999999999999],[-80.05033609999998,26.69999999999999],[-80.05471299999999,26.69999999999999],[-80.0623104,26.69999999999999],[-80.06406629999998,26.69999999999999],[-80.08602610000003,26.69999999999999]]]}},{"type":"Feature","properties":{},"geometry":{"type":"Polygon","coordinates":[[[-80.01687500000003,26.69999999999999],[-80.02499999999998,26.69999999999999],[-80.02499999999998,26.70735719999999],[-80.02499999999998,26.708333400000015],[-80.02499999999998,26.70908109999999],[-80.02499999999998,26.70933789999998],[-80.02499999999998,26.709464700000012],[-80.02499999999998,26.71097259999999],[-80.02499999999998,26.713687400000026],[-80.02499999999998,26.721922500000005],[-80.02499999999998,26.725555600000007],[-80.02499999999998,26.729999700000008],[-80.02499999999998,26.751666699999987],[-80.02499999999998,26.765092200000026],[-80.02499999999998,26.768333299999995],[-80.02499999999998,26.7710548],[-80.02499999999998,26.7716906],[-80.02499999999998,26.77196570000001],[-80.02499999999998,26.772240899999986],[-80.02499999999998,26.772515999999996],[-80.02499999999998,26.772791199999972],[-80.02499999999998,26.773543500000017],[-80.02499999999998,26.774999999999977],[-80.0230972,26.774999999999977],[-80.02109230000002,26.774999999999977],[-80.01777720000001,26.774999999999977],[-80.0150367,26.774999999999977],[-80.01341209999998,26.774999999999977],[-80.01274189999998,26.774999999999977],[-80.01218640000002,26.774999999999977],[-80.01008250000001,26.774999999999977],[-80.00924570000001,26.774999999999977],[-80.0064668,26.774999999999977],[-80.00597859999999,26.774999999999977],[-80.0010163,26.774999999999977],[-80.0007903,26.774999999999977],[-79.99999150000002,26.774999999999977],[-79.99914719999998,26.774999999999977],[-79.99868120000002,26.774999999999977],[-79.99107379999998,26.774999999999977],[-79.97554969999999,26.774999999999977],[-79.97517169999998,26.774999999999977],[-79.9615437,26.774999999999977],[-79.96145719999998,26.774999999999977],[-79.95508919999997,26.774999999999977],[-79.94999999999999,26.774999999999977],[-79.94999999999999,26.770795299999975],[-79.94999999999999,26.75434949999999],[-79.94999999999999,26.725555600000007],[-79.94999999999999,26.715793099999985],[-79.94999999999999,26.71149079999998],[-79.94999999999999,26.69999999999999],[-79.97431119999999,26.69999999999999],[-79.97638569999998,26.69999999999999],[-79.97678769999999,26.69999999999999],[-79.9899327,26.69999999999999],[-80.0041847,26.69999999999999],[-80.01100639999999,26.69999999999999],[-80.01299219999999,26.69999999999999],[-80.01449259999998,26.69999999999999],[-80.01687500000003,26.69999999999999]]]}},{"type":"Feature","properties":{},"geometry":{"type":"Polygon","coordinates":[[[-79.88309900000002,26.69999999999999],[-79.94999999999999,26.69999999999999],[-79.94999999999999,26.71149079999998],[-79.94999999999999,26.715793099999985],[-79.94999999999999,26.725555600000007],[-79.94999999999999,26.75434949999999],[-79.94999999999999,26.770795299999975],[-79.94999999999999,26.774999999999977],[-79.93159329999997,26.774999999999977],[-79.9225361,26.774999999999977],[-79.89166669999997,26.774999999999977],[-79.88309900000002,26.774999999999977],[-79.875,26.774999999999977],[-79.875,26.766726399999982],[-79.875,26.703931899999986],[-79.875,26.69999999999999],[-79.88309900000002,26.69999999999999]]]}},{"type":"Feature","properties":{},"geometry":{"type":"Polygon","coordinates":[[[-80.06503370000001,26.774999999999977],[-80.10000000000002,26.774999999999977],[-80.10000000000002,26.850000000000023],[-80.08384160000003,26.850000000000023],[-80.07507800000002,26.850000000000023],[-80.07438889999997,26.850000000000023],[-80.0735793,26.850000000000023],[-80.07355990000002,26.850000000000023],[-80.0713083,26.850000000000023],[-80.07112169999999,26.850000000000023],[-80.0691425,26.850000000000023],[-80.06881120000003,26.850000000000023],[-80.06744429999998,26.850000000000023],[-80.067361,26.850000000000023],[-80.0672917,26.850000000000023],[-80.0668832,26.850000000000023],[-80.0667482,26.850000000000023],[-80.0664832,26.850000000000023],[-80.06626319999998,26.850000000000023],[-80.05960859999999,26.850000000000023],[-80.0574906,26.850000000000023],[-80.05623020000002,26.850000000000023],[-80.0539329,26.850000000000023],[-80.04450530000003,26.850000000000023],[-80.0442084,26.850000000000023],[-80.0431145,26.850000000000023],[-80.04263150000003,26.850000000000023],[-80.04012890000001,26.850000000000023],[-80.0380303,26.850000000000023],[-80.03521560000002,26.850000000000023],[-80.02789669999999,26.850000000000023],[-80.02499999999998,26.850000000000023],[-80.02499999999998,26.8409125],[-80.02499999999998,26.836388899999974],[-80.02499999999998,26.83074879999998],[-80.02499999999998,26.803909999999973],[-80.02499999999998,26.792035800000008],[-80.02499999999998,26.791666700000007],[-80.02499999999998,26.790649700000017],[-80.02499999999998,26.78627160000002],[-80.02499999999998,26.786138900000026],[-80.02499999999998,26.78194769999999],[-80.02499999999998,26.778866100000016],[-80.02499999999998,26.775438099999974],[-80.02499999999998,26.775008300000025],[-80.02499999999998,26.774999999999977],[-80.0255252,26.774999999999977],[-80.0257608,26.774999999999977],[-80.02760970000003,26.774999999999977],[-80.02835920000001,26.774999999999977],[-80.02837310000001,26.774999999999977],[-80.0285197,26.774999999999977],[-80.02872439999999,26.774999999999977],[-80.02894850000001,26.774999999999977],[-80.03005910000002,26.774999999999977],[-80.03058470000002,26.774999999999977],[-80.03137099999998,26.774999999999977],[-80.03144680000003,26.774999999999977],[-80.0392981,26.774999999999977],[-80.03954720000002,26.774999999999977],[-80.03954859999999,26.774999999999977],[-80.04055399999999,26.774999999999977],[-80.041563,26.774999999999977],[-80.0423879,26.774999999999977],[-80.04291699999999,26.774999999999977],[-80.04302100000001,26.774999999999977],[-80.04708820000002,26.774999999999977],[-80.0472383,26.774999999999977],[-80.04755949999998,26.774999999999977],[-80.04771069999998,26.774999999999977],[-80.04823820000001,26.774999999999977],[-80.0482556,26.774999999999977],[-80.0484935,26.774999999999977],[-80.04867719999999,26.774999999999977],[-80.04894489999998,26.774999999999977],[-80.049307,26.774999999999977],[-80.04941280000003,26.774999999999977],[-80.0514508,26.774999999999977],[-80.0518644,26.774999999999977],[-80.0520295,26.774999999999977],[-80.0520899,26.774999999999977],[-80.05361110000001,26.774999999999977],[-80.05677450000002,26.774999999999977],[-80.0638889,26.774999999999977],[-80.06503370000001,26.774999999999977]]]}},{"type":"Feature","properties":{},"geometry":{"type":"Polygon","coordinates":[[[-80.0230972,26.774999999999977],[-80.02499999999998,26.774999999999977],[-80.02499999999998,26.775008300000025],[-80.02499999999998,26.775438099999974],[-80.02499999999998,26.778866100000016],[-80.02499999999998,26.78194769999999],[-80.02499999999998,26.786138900000026],[-80.02499999999998,26.78627160000002],[-80.02499999999998,26.790649700000017],[-80.02499999999998,26.791666700000007],[-80.02499999999998,26.792035800000008],[-80.02499999999998,26.803909999999973],[-80.02499999999998,26.83074879999998],[-80.02499999999998,26.833333200000027],[-80.02499999999998,26.836388899999974],[-80.02499999999998,26.8409125],[-80.02499999999998,26.850000000000023],[-80.0212067,26.850000000000023],[-80.0099085,26.850000000000023],[-79.9874843,26.850000000000023],[-79.9870697,26.850000000000023],[-79.94999999999999,26.850000000000023],[-79.94999999999999,26.836388899999974],[-79.94999999999999,26.797325899999976],[-79.94999999999999,26.791666700000007],[-79.94999999999999,26.774999999999977],[-79.95249999999999,26.774999999999977],[-79.95508919999997,26.774999999999977],[-79.96145719999998,26.774999999999977],[-79.9615437,26.774999999999977],[-79.97517169999998,26.774999999999977],[-79.97554969999999,26.774999999999977],[-79.99107379999998,26.774999999999977],[-79.99868120000002,26.774999999999977],[-79.99914719999998,26.774999999999977],[-79.99999150000002,26.774999999999977],[-80.0007903,26.774999999999977],[-80.0010163,26.774999999999977],[-80.00597859999999,26.774999999999977],[-80.0064668,26.774999999999977],[-80.00924570000001,26.774999999999977],[-80.01008250000001,26.774999999999977],[-80.01218640000002,26.774999999999977],[-80.01274189999998,26.774999999999977],[-80.01341209999998,26.774999999999977],[-80.0150367,26.774999999999977],[-80.01777720000001,26.774999999999977],[-80.02109230000002,26.774999999999977],[-80.0230972,26.774999999999977]]]}},{"type":"Feature","properties":{},"geometry":{"type":"Polygon","coordinates":[[[-79.9338889,26.774999999999977],[-79.94999999999999,26.774999999999977],[-79.94999999999999,26.791666700000007],[-79.94999999999999,26.797325899999976],[-79.94999999999999,26.836388899999974],[-79.94999999999999,26.850000000000023],[-79.88309900000002,26.850000000000023],[-79.875,26.850000000000023],[-79.875,26.845439],[-79.875,26.774999999999977],[-79.88309900000002,26.774999999999977],[-79.89166669999997,26.774999999999977],[-79.9225361,26.774999999999977],[-79.93159329999997,26.774999999999977],[-79.9338889,26.774999999999977]]]}}]}