{"type":"FeatureCollection","features":[{"type":"Feature","properties":{},"geometry":{"type":"Polygon","coordinates":[[[-82.875,27.951240600000006],[-82.875,27.953717100000006],[-82.875,27.955247900000018],[-82.875,27.96527450000002],[-82.875,27.975000000000023],[-82.8712155,27.975000000000023],[-82.87009599999999,27.975000000000023],[-82.86351000000002,27.975000000000023],[-82.85102389999997,27.975000000000023],[-82.83935969999999,27.975000000000023],[-82.83254870000002,27.975000000000023],[-82.82982329999999,27.975000000000023],[-82.82825680000002,27.975000000000023],[-82.82674120000001,27.975000000000023],[-82.82630390000003,27.975000000000023],[-82.82454660000002,27.975000000000023],[-82.82413159999999,27.975000000000023],[-82.82304540000001,27.975000000000023],[-82.8217828,27.975000000000023],[-82.82165980000002,27.975000000000023],[-82.82141360000003,27.975000000000023],[-82.82129049999998,27.975000000000023],[-82.8205714,27.975000000000023],[-82.81900889999997,27.975000000000023],[-82.81813770000002,27.975000000000023],[-82.81788920000002,27.975000000000023],[-82.8172816,27.975000000000023],[-82.81623789999998,27.975000000000023],[-82.81562000000002,27.975000000000023],[-82.81450719999998,27.975000000000023],[-82.81421849999998,27.975000000000023],[-82.81307290000001,27.975000000000023],[-82.81216110000003,27.975000000000023],[-82.8112792,27.975000000000023],[-82.81026859999997,27.975000000000023],[-82.80969800000003,27.975000000000023],[-82.8090709,27.975000000000023],[-82.80661650000002,27.975000000000023],[-82.8065542,27.975000000000023],[-82.8063295,27.975000000000023],[-82.80587500000001,27.975000000000023],[-82.8056082,27.975000000000023],[-82.803991,27.975000000000023],[-82.80382980000002,27.975000000000023],[-82.8036745,27.975000000000023],[-82.80290550000001,27.975000000000023],[-82.80256020000002,27.975000000000023],[-82.80136520000002,27.975000000000023],[-82.80000000000001,27.975000000000023],[-82.80000000000001,27.970710600000018],[-82.80000000000001,27.947049900000025],[-82.80000000000001,27.945],[-82.875,27.945],[-82.875,27.951240600000006]]]}},{"type":"Feature","properties":{},"geometry":{"type":"Polygon","coordinates":[[[-82.8712155,27.975000000000023],[-82.875,27.975000000000023],[-82.875,28.003548799999976],[-82.875,28.00478989999999],[-82.875,28.05000000000001],[-82.86745459999997,28.05000000000001],[-82.8646776,28.05000000000001],[-82.83319369999998,28.05000000000001],[-82.82850200000001,28.05000000000001],[-82.82844870000002,28.05000000000001],[-82.82843009999999,28.05000000000001],[-82.82840490000001,28.05000000000001],[-82.82759850000002,28.05000000000001],[-82.8275683,28.05000000000001],[-82.82524239999998,28.05000000000001],[-82.82498559999999,28.05000000000001],[-82.82495690000002,28.05000000000001],[-82.8249543,28.05000000000001],[-82.82330619999999,28.05000000000001],[-82.82186059999998,28.05000000000001],[-82.82082860000003,28.05000000000001],[-82.82082659999998,28.05000000000001],[-82.82080339999999,28.05000000000001],[-82.82079820000001,28.05000000000001],[-82.82070700000003,28.05000000000001],[-82.8201631,28.05000000000001],[-82.82013619999998,28.05000000000001],[-82.8199856,28.05000000000001],[-82.8182893,28.05000000000001],[-82.81707690000002,28.05000000000001],[-82.81706639999999,28.05000000000001],[-82.81607380000003,28.05000000000001],[-82.8149244,28.05000000000001],[-82.8135605,28.05000000000001],[-82.8135092,28.05000000000001],[-82.81301389999999,28.05000000000001],[-82.8127872,28.05000000000001],[-82.81212970000001,28.05000000000001],[-82.81110089999999,28.05000000000001],[-82.8078304,28.05000000000001],[-82.80685349999999,28.05000000000001],[-82.80630980000001,28.05000000000001],[-82.80059649999998,28.05000000000001],[-82.80000000000001,28.05000000000001],[-82.80000000000001,28.049821699999995],[-82.80000000000001,28.049621600000023],[-82.80000000000001,28.046351200000004],[-82.80000000000001,28.045181000000014],[-82.80000000000001,28.043838400000027],[-82.80000000000001,28.042690100000016],[-82.80000000000001,28.042668100000014],[-82.80000000000001,28.042655799999977],[-82.80000000000001,28.041642500000023],[-82.80000000000001,28.041637999999978],[-82.80000000000001,28.041603099999975],[-82.80000000000001,28.041069600000014],[-82.80000000000001,28.040416100000016],[-82.80000000000001,28.036966500000005],[-82.80000000000001,28.036061800000027],[-82.80000000000001,28.033332700000017],[-82.80000000000001,28.032454299999984],[-82.80000000000001,28.029436799999985],[-82.80000000000001,28.02812399999999],[-82.80000000000001,28.023412699999994],[-82.80000000000001,28.015831400000025],[-82.80000000000001,28.01145200000002],[-82.80000000000001,28.00753309999999],[-82.80000000000001,28.003523400000006],[-82.80000000000001,28.001666999999998],[-82.80000000000001,27.999870699999974],[-82.80000000000001,27.998030900000003],[-82.80000000000001,27.97845000000001],[-82.80000000000001,27.97779079999998],[-82.80000000000001,27.97708560000001],[-82.80000000000001,27.975983699999972],[-82.80000000000001,27.975000000000023],[-82.80136520000002,27.975000000000023],[-82.80256020000002,27.975000000000023],[-82.80290550000001,27.975000000000023],[-82.8036745,27.975000000000023],[-82.80382980000002,27.975000000000023],[-82.803991,27.975000000000023],[-82.8056082,27.975000000000023],[-82.80587500000001,27.975000000000023],[-82.8063295,27.975000000000023],[-82.8065542,27.975000000000023],[-82.80661650000002,27.975000000000023],[-82.8090709,27.975000000000023],[-82.80969800000003,27.975000000000023],[-82.81026859999997,27.975000000000023],[-82.8112792,27.975000000000023],[-82.81216110000003,27.975000000000023],[-82.81307290000001,27.975000000000023],[-82.81421849999998,27.975000000000023],[-82.81450719999998,27.975000000000023],[-82.81562000000002,27.975000000000023],[-82.81623789999998,27.975000000000023],[-82.8172816,27.975000000000023],[-82.81788920000002,27.975000000000023],[-82.81813770000002,27.975000000000023],[-82.81900889999997,27.975000000000023],[-82.8205714,27.975000000000023],[-82.82129049999998,27.975000000000023],[-82.82141360000003,27.975000000000023],[-82.82165980000002,27.975000000000023],[-82.8217828,27.975000000000023],[-82.82304540000001,27.975000000000023],[-82.82413159999999,27.975000000000023],[-82.82454660000002,27.975000000000023],[-82.82630390000003,27.975000000000023],[-82.82674120000001,27.975000000000023],[-82.82982329999999,27.975000000000023],[-82.83254870000002,27.975000000000023],[-82.83935969999999,27.975000000000023],[-82.85102389999997,27.975000000000023],[-82.86351000000002,27.975000000000023],[-82.87009599999999,27.975000000000023],[-82.8712155,27.975000000000023]]]}},{"type":"Feature","properties":{},"geometry":{"type":"Polygon","coordinates":[[[-82.77303189999998,27.975000000000023],[-82.80000000000001,27.975000000000023],[-82.80000000000001,27.975983699999972],[-82.80000000000001,27.97708560000001],[-82.80000000000001,27.97779079999998],[-82.80000000000001,27.97845000000001],[-82.80000000000001,27.998030900000003],[-82.80000000000001,27.999870699999974],[-82.80000000000001,28.001666999999998],[-82.80000000000001,28.003523400000006],[-82.80000000000001,28.00753309999999],[-82.80000000000001,28.01145200000002],[-82.80000000000001,28.015831400000025],[-82.80000000000001,28.023412699999994],[-82.80000000000001,28.02812399999999],[-82.80000000000001,28.029436799999985],[-82.80000000000001,28.033332700000017],[-82.80000000000001,28.035168999999996],[-82.80000000000001,28.035934699999984],[-82.80000000000001,28.036061800000027],[-82.80000000000001,28.040416100000016],[-82.80000000000001,28.041069600000014],[-82.80000000000001,28.041603099999975],[-82.80000000000001,28.041637999999978],[-82.80000000000001,28.041642500000023],[-82.80000000000001,28.042655799999977],[-82.80000000000001,28.042668100000014],[-82.80000000000001,28.042690100000016],[-82.80000000000001,28.043838400000027],[-82.80000000000001,28.045181000000014],[-82.80000000000001,28.046351200000004],[-82.80000000000001,28.049621600000023],[-82.80000000000001,28.049821699999995],[-82.80000000000001,28.05000000000001],[-82.79995059999999,28.05000000000001],[-82.79611849999998,28.05000000000001],[-82.7955589,28.05000000000001],[-82.7954039,28.05000000000001],[-82.79524889999999,28.05000000000001],[-82.7937882,28.05000000000001],[-82.7902206,28.05000000000001],[-82.7896561,28.05000000000001],[-82.78965260000001,28.05000000000001],[-82.78839799999997,28.05000000000001],[-82.78837010000001,28.05000000000001],[-82.78741480000002,28.05000000000001],[-82.78721259999998,28.05000000000001],[-82.78665360000002,28.05000000000001],[-82.78524759999999,28.05000000000001],[-82.7852072,28.05000000000001],[-82.72500000000002,28.05000000000001],[-82.72500000000002,27.975000000000023],[-82.77303189999998,27.975000000000023]]]}},{"type":"Feature","properties":{},"geometry":{"type":"Polygon","coordinates":[[[-82.86745459999997,28.05000000000001],[-82.875,28.05000000000001],[-82.875,28.065893000000017],[-82.875,28.067724399999975],[-82.875,28.07773279999998],[-82.875,28.083611899999994],[-82.875,28.09018150000003],[-82.875,28.09120969999998],[-82.875,28.09844559999999],[-82.875,28.104344400000002],[-82.875,28.109653999999978],[-82.875,28.11454520000001],[-82.875,28.116609700000026],[-82.875,28.125],[-82.86635480000001,28.125],[-82.8663148,28.125],[-82.85507280000002,28.125],[-82.85295300000001,28.125],[-82.85238049999998,28.125],[-82.85185819999998,28.125],[-82.85141829999998,28.125],[-82.85101909999997,28.125],[-82.85092580000003,28.125],[-82.8498616,28.125],[-82.84909349999998,28.125],[-82.8477795,28.125],[-82.84685400000001,28.125],[-82.84683000000001,28.125],[-82.84411560000001,28.125],[-82.8435311,28.125],[-82.84346240000002,28.125],[-82.84342600000002,28.125],[-82.84148049999999,28.125],[-82.84147250000001,28.125],[-82.83838179999998,28.125],[-82.8381473,28.125],[-82.83812030000001,28.125],[-82.83792499999998,28.125],[-82.83772110000001,28.125],[-82.83711949999997,28.125],[-82.83671290000001,28.125],[-82.83630870000002,28.125],[-82.83588859999998,28.125],[-82.83586020000001,28.125],[-82.83547650000003,28.125],[-82.83499819999997,28.125],[-82.83116840000002,28.125],[-82.83102659999997,28.125],[-82.82950119999998,28.125],[-82.82736039999998,28.125],[-82.82735250000002,28.125],[-82.82540080000001,28.125],[-82.82337059999998,28.125],[-82.82219270000002,28.125],[-82.82203019999997,28.125],[-82.8218678,28.125],[-82.82130360000002,28.125],[-82.8189678,28.125],[-82.81608510000001,28.125],[-82.80598789999999,28.125],[-82.8024072,28.125],[-82.80166439999999,28.125],[-82.80000000000001,28.125],[-82.80000000000001,28.12345449999998],[-82.80000000000001,28.120897300000024],[-82.80000000000001,28.120008299999995],[-82.80000000000001,28.11793210000002],[-82.80000000000001,28.112825199999975],[-82.80000000000001,28.108297900000025],[-82.80000000000001,28.107593199999997],[-82.80000000000001,28.08667889999998],[-82.80000000000001,28.08665639999998],[-82.80000000000001,28.08376850000002],[-82.80000000000001,28.083531400000027],[-82.80000000000001,28.07692259999999],[-82.80000000000001,28.076830099999995],[-82.80000000000001,28.07619410000001],[-82.80000000000001,28.076164000000006],[-82.80000000000001,28.076158299999975],[-82.80000000000001,28.07579019999997],[-82.80000000000001,28.075224100000014],[-82.80000000000001,28.075198699999987],[-82.80000000000001,28.07491379999999],[-82.80000000000001,28.0747389],[-82.80000000000001,28.074012100000004],[-82.80000000000001,28.073830999999984],[-82.80000000000001,28.073299899999995],[-82.80000000000001,28.073281500000007],[-82.80000000000001,28.0726085],[-82.80000000000001,28.072481400000015],[-82.80000000000001,28.071721200000013],[-82.80000000000001,28.070764899999972],[-82.80000000000001,28.070420800000022],[-82.80000000000001,28.070244100000025],[-82.80000000000001,28.07011160000002],[-82.80000000000001,28.069803200000024],[-82.80000000000001,28.064694799999984],[-82.80000000000001,28.064397100000008],[-82.80000000000001,28.064099399999975],[-82.80000000000001,28.062799100000007],[-82.80000000000001,28.0614908],[-82.80000000000001,28.05958149999998],[-82.80000000000001,28.05953040000003],[-82.80000000000001,28.052335700000015],[-82.80000000000001,28.052131900000006],[-82.80000000000001,28.052091200000007],[-82.80000000000001,28.052083200000027],[-82.80000000000001,28.05185289999997],[-82.80000000000001,28.05175459999998],[-82.80000000000001,28.05118470000002],[-82.80000000000001,28.051074099999994],[-82.80000000000001,28.050935600000003],[-82.80000000000001,28.050720099999978],[-82.80000000000001,28.050693000000024],[-82.80000000000001,28.050480100000016],[-82.80000000000001,28.050147100000004],[-82.80000000000001,28.050015099999996],[-82.80000000000001,28.05000000000001],[-82.80059649999998,28.05000000000001],[-82.80630980000001,28.05000000000001],[-82.80685349999999,28.05000000000001],[-82.8078304,28.05000000000001],[-82.81110089999999,28.05000000000001],[-82.81212970000001,28.05000000000001],[-82.8127872,28.05000000000001],[-82.81301389999999,28.05000000000001],[-82.8135092,28.05000000000001],[-82.8135605,28.05000000000001],[-82.8149244,28.05000000000001],[-82.81607380000003,28.05000000000001],[-82.81707690000002,28.05000000000001],[-82.8182893,28.05000000000001],[-82.8199856,28.05000000000001],[-82.82013619999998,28.05000000000001],[-82.8201631,28.05000000000001],[-82.82044480000002,28.05000000000001],[-82.8205974,28.05000000000001],[-82.82070700000003,28.05000000000001],[-82.82079820000001,28.05000000000001],[-82.82080339999999,28.05000000000001],[-82.82082659999998,28.05000000000001],[-82.82082860000003,28.05000000000001],[-82.82186059999998,28.05000000000001],[-82.82330619999999,28.05000000000001],[-82.8249543,28.05000000000001],[-82.82495690000002,28.05000000000001],[-82.82498559999999,28.05000000000001],[-82.82524239999998,28.05000000000001],[-82.8275683,28.05000000000001],[-82.82759850000002,28.05000000000001],[-82.82840490000001,28.05000000000001],[-82.82843009999999,28.05000000000001],[-82.82844870000002,28.05000000000001],[-82.82850200000001,28.05000000000001],[-82.83319369999998,28.05000000000001],[-82.8646776,28.05000000000001],[-82.86745459999997,28.05000000000001]]]}},{"type":"Feature","properties":{},"geometry":{"type":"Polygon","coordinates":[[[-82.79995059999999,28.05000000000001],[-82.80000000000001,28.05000000000001],[-82.80000000000001,28.050015099999996],[-82.80000000000001,28.050147100000004],[-82.80000000000001,28.050480100000016],[-82.80000000000001,28.050693000000024],[-82.80000000000001,28.050720099999978],[-82.80000000000001,28.050935600000003],[-82.80000000000001,28.051074099999994],[-82.80000000000001,28.05118470000002],[-82.80000000000001,28.05175459999998],[-82.80000000000001,28.05185289999997],[-82.80000000000001,28.052083200000027],[-82.80000000000001,28.052091200000007],[-82.80000000000001,28.052131900000006],[-82.80000000000001,28.052335700000015],[-82.80000000000001,28.05953040000003],[-82.80000000000001,28.05958149999998],[-82.80000000000001,28.0614908],[-82.80000000000001,28.062799100000007],[-82.80000000000001,28.064099399999975],[-82.80000000000001,28.064397100000008],[-82.80000000000001,28.064694799999984],[-82.80000000000001,28.069803200000024],[-82.80000000000001,28.07011160000002],[-82.80000000000001,28.070244100000025],[-82.80000000000001,28.070420800000022],[-82.80000000000001,28.070764899999972],[-82.80000000000001,28.0726085],[-82.80000000000001,28.073281500000007],[-82.80000000000001,28.073299899999995],[-82.80000000000001,28.073830999999984],[-82.80000000000001,28.074012100000004],[-82.80000000000001,28.0747389],[-82.80000000000001,28.07491379999999],[-82.80000000000001,28.075198699999987],[-82.80000000000001,28.075224100000014],[-82.80000000000001,28.07579019999997],[-82.80000000000001,28.076158299999975],[-82.80000000000001,28.076164000000006],[-82.80000000000001,28.07619410000001],[-82.80000000000001,28.076830099999995],[-82.80000000000001,28.07692259999999],[-82.80000000000001,28.083531400000027],[-82.80000000000001,28.08376850000002],[-82.80000000000001,28.08665639999998],[-82.80000000000001,28.08667889999998],[-82.80000000000001,28.107593199999997],[-82.80000000000001,28.108297900000025],[-82.80000000000001,28.112825199999975],[-82.80000000000001,28.11793210000002],[-82.80000000000001,28.120008299999995],[-82.80000000000001,28.120897300000024],[-82.80000000000001,28.12345449999998],[-82.80000000000001,28.125],[-82.78612679999998,28.125],[-82.7837298,28.125],[-82.78342709999998,28.125],[-82.78341080000001,28.125],[-82.78325339999998,28.125],[-82.78315129999999,28.125],[-82.78289269999999,28.125],[-82.78272299999998,28.125],[-82.78167509999997,28.125],[-82.78131100000002,28.125],[-82.78114420000003,28.125],[-82.78084039999999,28.125],[-82.7807603,28.125],[-82.77827050000002,28.125],[-82.77643840000002,28.125],[-82.76726689999998,28.125],[-82.76633759999999,28.125],[-82.7365236,28.125],[-82.72500000000002,28.125],[-82.72500000000002,28.1003776],[-82.72500000000002,28.099275999999975],[-82.72500000000002,28.099130600000024],[-82.72500000000002,28.09840029999998],[-82.72500000000002,28.098253100000022],[-82.72500000000002,28.098092800000018],[-82.72500000000002,28.09493470000001],[-82.72500000000002,28.087339499999985],[-82.72500000000002,28.071138200000007],[-82.72500000000002,28.05000000000001],[-82.7679966,28.05000000000001],[-82.7852072,28.05000000000001],[-82.78524759999999,28.05000000000001],[-82.78721259999998,28.05000000000001],[-82.78741480000002,28.05000000000001],[-82.78837010000001,28.05000000000001],[-82.78839799999997,28.05000000000001],[-82.7896561,28.05000000000001],[-82.7900851,28.05000000000001],[-82.7902206,28.05000000000001],[-82.79202830000003,28.05000000000001],[-82.7937882,28.05000000000001],[-82.79524889999999,28.05000000000001],[-82.7954039,28.05000000000001],[-82.7955589,28.05000000000001],[-82.79611849999998,28.05000000000001],[-82.79834770000002,28.05000000000001],[-82.79995059999999,28.05000000000001]]]}},{"type":"Feature","properties":{},"geometry":{"type":"Polygon","coordinates":[[[-82.86635480000001,28.125],[-82.875,28.125],[-82.875,28.188032299999975],[-82.875,28.19368350000002],[-82.875,28.196002799999974],[-82.875,28.19999999999999],[-82.8672947,28.19999999999999],[-82.8581934,28.19999999999999],[-82.85565209999999,28.19999999999999],[-82.8525899,28.19999999999999],[-82.85253490000002,28.19999999999999],[-82.8522764,28.19999999999999],[-82.8519341,28.19999999999999],[-82.851651,28.19999999999999],[-82.8515109,28.19999999999999],[-82.85052960000002,28.19999999999999],[-82.85051240000001,28.19999999999999],[-82.84841210000002,28.19999999999999],[-82.84840459999998,28.19999999999999],[-82.8467374,28.19999999999999],[-82.84543810000002,28.19999999999999],[-82.84013909999999,28.19999999999999],[-82.83523280000003,28.19999999999999],[-82.83512289999999,28.19999999999999],[-82.83084539999999,28.19999999999999],[-82.83030989999997,28.19999999999999],[-82.83007629999997,28.19999999999999],[-82.80000000000001,28.19999999999999],[-82.80000000000001,28.1987704],[-82.80000000000001,28.19850839999998],[-82.80000000000001,28.19828769999998],[-82.80000000000001,28.194120399999974],[-82.80000000000001,28.192841799999997],[-82.80000000000001,28.183267600000022],[-82.80000000000001,28.18315899999999],[-82.80000000000001,28.180158500000005],[-82.80000000000001,28.18010529999998],[-82.80000000000001,28.179736100000014],[-82.80000000000001,28.17961009999999],[-82.80000000000001,28.179495700000018],[-82.80000000000001,28.179359599999998],[-82.80000000000001,28.179302000000007],[-82.80000000000001,28.179294099999993],[-82.80000000000001,28.17921910000001],[-82.80000000000001,28.179090900000006],[-82.80000000000001,28.179068599999994],[-82.80000000000001,28.17881399999999],[-82.80000000000001,28.178742100000022],[-82.80000000000001,28.178598299999976],[-82.80000000000001,28.178526299999987],[-82.80000000000001,28.178350899999998],[-82.80000000000001,28.178317900000025],[-82.80000000000001,28.178046800000004],[-82.80000000000001,28.1780344],[-82.80000000000001,28.17792909999997],[-82.80000000000001,28.177731600000016],[-82.80000000000001,28.177356799999984],[-82.80000000000001,28.17735399999998],[-82.80000000000001,28.17679320000002],[-82.80000000000001,28.17662949999999],[-82.80000000000001,28.176480700000013],[-82.80000000000001,28.17647979999998],[-82.80000000000001,28.176265600000022],[-82.80000000000001,28.176257299999975],[-82.80000000000001,28.175769800000012],[-82.80000000000001,28.175377000000026],[-82.80000000000001,28.175163199999986],[-82.80000000000001,28.175159899999983],[-82.80000000000001,28.1733739],[-82.80000000000001,28.173129800000027],[-82.80000000000001,28.171205299999997],[-82.80000000000001,28.17119100000002],[-82.80000000000001,28.1711636],[-82.80000000000001,28.171098900000004],[-82.80000000000001,28.170886600000017],[-82.80000000000001,28.16978660000001],[-82.80000000000001,28.169731000000013],[-82.80000000000001,28.169583199999977],[-82.80000000000001,28.168197099999986],[-82.80000000000001,28.16788109999999],[-82.80000000000001,28.16651589999998],[-82.80000000000001,28.166091600000016],[-82.80000000000001,28.165553999999986],[-82.80000000000001,28.16525230000002],[-82.80000000000001,28.157112600000005],[-82.80000000000001,28.15399359999998],[-82.80000000000001,28.153220499999975],[-82.80000000000001,28.153212499999995],[-82.80000000000001,28.153206300000022],[-82.80000000000001,28.1531559],[-82.80000000000001,28.153015900000014],[-82.80000000000001,28.152911200000005],[-82.80000000000001,28.152899699999978],[-82.80000000000001,28.152836100000002],[-82.80000000000001,28.152763499999992],[-82.80000000000001,28.15272829999998],[-82.80000000000001,28.150054099999977],[-82.80000000000001,28.125],[-82.80166439999999,28.125],[-82.8024072,28.125],[-82.80598789999999,28.125],[-82.81608510000001,28.125],[-82.8189678,28.125],[-82.82130360000002,28.125],[-82.82170500000001,28.125],[-82.8218678,28.125],[-82.82203019999997,28.125],[-82.82219270000002,28.125],[-82.82337059999998,28.125],[-82.82540080000001,28.125],[-82.8254794,28.125],[-82.82735250000002,28.125],[-82.82736039999998,28.125],[-82.82950119999998,28.125],[-82.83102659999997,28.125],[-82.83116840000002,28.125],[-82.83499819999997,28.125],[-82.83547650000003,28.125],[-82.83586020000001,28.125],[-82.83588859999998,28.125],[-82.83630870000002,28.125],[-82.83671290000001,28.125],[-82.83711949999997,28.125],[-82.83772110000001,28.125],[-82.83792499999998,28.125],[-82.83812030000001,28.125],[-82.8381473,28.125],[-82.83838179999998,28.125],[-82.84147250000001,28.125],[-82.84148049999999,28.125],[-82.84342600000002,28.125],[-82.84346240000002,28.125],[-82.8435311,28.125],[-82.84411560000001,28.125],[-82.84683000000001,28.125],[-82.84685400000001,28.125],[-82.8477795,28.125],[-82.84909349999998,28.125],[-82.8498616,28.125],[-82.85092580000003,28.125],[-82.85101909999997,28.125],[-82.85238049999998,28.125],[-82.85295300000001,28.125],[-82.85311139999999,28.125],[-82.85329159999998,28.125],[-82.85361039999998,28.125],[-82.8536135,28.125],[-82.85442330000001,28.125],[-82.85507280000002,28.125],[-82.8663148,28.125],[-82.86635480000001,28.125]]]}},{"type":"Feature","properties":{},"geometry":{"type":"Polygon","coordinates":[[[-82.78612679999998,28.125],[-82.80000000000001,28.125],[-82.80000000000001,28.150054099999977],[-82.80000000000001,28.15272829999998],[-82.80000000000001,28.152763499999992],[-82.80000000000001,28.152836100000002],[-82.80000000000001,28.152899699999978],[-82.80000000000001,28.152911200000005],[-82.80000000000001,28.153015900000014],[-82.80000000000001,28.1531559],[-82.80000000000001,28.153206300000022],[-82.80000000000001,28.153212499999995],[-82.80000000000001,28.153220499999975],[-82.80000000000001,28.15399359999998],[-82.80000000000001,28.157112600000005],[-82.80000000000001,28.16525230000002],[-82.80000000000001,28.165553999999986],[-82.80000000000001,28.166091600000016],[-82.80000000000001,28.16651589999998],[-82.80000000000001,28.16788109999999],[-82.80000000000001,28.168197099999986],[-82.80000000000001,28.169583199999977],[-82.80000000000001,28.169731000000013],[-82.80000000000001,28.16978660000001],[-82.80000000000001,28.170886600000017],[-82.80000000000001,28.171098900000004],[-82.80000000000001,28.1711636],[-82.80000000000001,28.17119100000002],[-82.80000000000001,28.171205299999997],[-82.80000000000001,28.173129800000027],[-82.80000000000001,28.1733739],[-82.80000000000001,28.175159899999983],[-82.80000000000001,28.175163199999986],[-82.80000000000001,28.175377000000026],[-82.80000000000001,28.175769800000012],[-82.80000000000001,28.176257299999975],[-82.80000000000001,28.176265600000022],[-82.80000000000001,28.17647979999998],[-82.80000000000001,28.176480700000013],[-82.80000000000001,28.17662949999999],[-82.80000000000001,28.17679320000002],[-82.80000000000001,28.17735399999998],[-82.80000000000001,28.177356799999984],[-82.80000000000001,28.177731600000016],[-82.80000000000001,28.17792909999997],[-82.80000000000001,28.1780344],[-82.80000000000001,28.178350899999998],[-82.80000000000001,28.178526299999987],[-82.80000000000001,28.178598299999976],[-82.80000000000001,28.178742100000022],[-82.80000000000001,28.17881399999999],[-82.80000000000001,28.179068599999994],[-82.80000000000001,28.179090900000006],[-82.80000000000001,28.17921910000001],[-82.80000000000001,28.179294099999993],[-82.80000000000001,28.179302000000007],[-82.80000000000001,28.179359599999998],[-82.80000000000001,28.179495700000018],[-82.80000000000001,28.17961009999999],[-82.80000000000001,28.179736100000014],[-82.80000000000001,28.18010529999998],[-82.80000000000001,28.180158500000005],[-82.80000000000001,28.18315899999999],[-82.80000000000001,28.183267600000022],[-82.80000000000001,28.192841799999997],[-82.80000000000001,28.194120399999974],[-82.80000000000001,28.19828769999998],[-82.80000000000001,28.19850839999998],[-82.80000000000001,28.1987704],[-82.80000000000001,28.19999999999999],[-82.7992102,28.19999999999999],[-82.79679060000001,28.19999999999999],[-82.7945722,28.19999999999999],[-82.7934975,28.19999999999999],[-82.7854888,28.19999999999999],[-82.78503649999999,28.19999999999999],[-82.78501240000003,28.19999999999999],[-82.7850082,28.19999999999999],[-82.78483360000001,28.19999999999999],[-82.78482830000002,28.19999999999999],[-82.7846917,28.19999999999999],[-82.78464869999999,28.19999999999999],[-82.78440360000002,28.19999999999999],[-82.78431799999998,28.19999999999999],[-82.78239150000002,28.19999999999999],[-82.78222920000002,28.19999999999999],[-82.78221830000001,28.19999999999999],[-82.7819078,28.19999999999999],[-82.78163080000002,28.19999999999999],[-82.78161920000002,28.19999999999999],[-82.7816173,28.19999999999999],[-82.78159529999999,28.19999999999999],[-82.76997820000003,28.19999999999999],[-82.74656429999999,28.19999999999999],[-82.73428630000001,28.19999999999999],[-82.72500000000002,28.19999999999999],[-82.72500000000002,28.183825000000013],[-82.72500000000002,28.17645220000003],[-82.72500000000002,28.175908300000003],[-82.72500000000002,28.173313500000006],[-82.72500000000002,28.171061699999996],[-82.72500000000002,28.169642399999987],[-82.72500000000002,28.168769800000007],[-82.72500000000002,28.1681868],[-82.72500000000002,28.167922900000008],[-82.72500000000002,28.167594099999974],[-82.72500000000002,28.16727880000002],[-82.72500000000002,28.166045800000006],[-82.72500000000002,28.16404540000002],[-82.72500000000002,28.16100799999998],[-82.72500000000002,28.159034200000008],[-82.72500000000002,28.158791099999974],[-82.72500000000002,28.1503156],[-82.72500000000002,28.125],[-82.7365236,28.125],[-82.76633759999999,28.125],[-82.76726689999998,28.125],[-82.77643840000002,28.125],[-82.77827050000002,28.125],[-82.7807603,28.125],[-82.78084039999999,28.125],[-82.78114420000003,28.125],[-82.78131100000002,28.125],[-82.78167509999997,28.125],[-82.78272299999998,28.125],[-82.78289269999999,28.125],[-82.78325339999998,28.125],[-82.78342709999998,28.125],[-82.7837298,28.125],[-82.78612679999998,28.125]]]}}]}