{"type":"FeatureCollection","features":[{"type":"Feature","properties":{},"geometry":{"type":"Polygon","coordinates":[[[-81.4965004,25.725000000000023],[-81.52499999999998,25.725000000000023],[-81.52499999999998,25.750114399999973],[-81.52499999999998,25.756484399999977],[-81.52499999999998,25.764521899999977],[-81.52499999999998,25.780677500000024],[-81.52499999999998,25.7810384],[-81.52499999999998,25.80000000000001],[-81.51420030000003,25.80000000000001],[-81.4978448,25.80000000000001],[-81.4761317,25.80000000000001],[-81.46990790000001,25.80000000000001],[-81.46790679999998,25.80000000000001],[-81.46667819999999,25.80000000000001],[-81.4651336,25.80000000000001],[-81.4616643,25.80000000000001],[-81.46105139999997,25.80000000000001],[-81.46004069999998,25.80000000000001],[-81.45944459999998,25.80000000000001],[-81.45901459999999,25.80000000000001],[-81.45840349999997,25.80000000000001],[-81.45658900000001,25.80000000000001],[-81.45624320000002,25.80000000000001],[-81.45605180000001,25.80000000000001],[-81.45592670000002,25.80000000000001],[-81.45574349999998,25.80000000000001],[-81.4554862,25.80000000000001],[-81.45368000000002,25.80000000000001],[-81.45348460000002,25.80000000000001],[-81.45164510000001,25.80000000000001],[-81.45163989999998,25.80000000000001],[-81.45141799999999,25.80000000000001],[-81.45118250000002,25.80000000000001],[-81.44999999999999,25.80000000000001],[-81.44999999999999,25.797763499999974],[-81.44999999999999,25.784990499999992],[-81.44999999999999,25.76160170000003],[-81.44999999999999,25.739778699999988],[-81.44999999999999,25.739337999999975],[-81.44999999999999,25.725000000000023],[-81.4965004,25.725000000000023]]]}},{"type":"Feature","properties":{},"geometry":{"type":"Polygon","coordinates":[[[-81.4978448,25.80000000000001],[-81.52499999999998,25.80000000000001],[-81.52499999999998,25.827602300000024],[-81.52499999999998,25.829910600000005],[-81.52499999999998,25.831160699999998],[-81.52499999999998,25.836444200000017],[-81.52499999999998,25.838870299999996],[-81.52499999999998,25.840444699999978],[-81.52499999999998,25.842718600000012],[-81.52499999999998,25.843935999999985],[-81.52499999999998,25.844084699999996],[-81.52499999999998,25.844598599999983],[-81.52499999999998,25.844872199999998],[-81.52499999999998,25.84496439999998],[-81.52499999999998,25.845141000000012],[-81.52499999999998,25.84518969999999],[-81.52499999999998,25.84581609999998],[-81.52499999999998,25.84622200000001],[-81.52499999999998,25.847451200000023],[-81.52499999999998,25.84819090000002],[-81.52499999999998,25.848274600000025],[-81.52499999999998,25.85132249999998],[-81.52499999999998,25.852210000000014],[-81.52499999999998,25.85293580000001],[-81.52499999999998,25.857339000000024],[-81.52499999999998,25.857561900000007],[-81.52499999999998,25.86079940000002],[-81.52499999999998,25.862511900000015],[-81.52499999999998,25.86834570000002],[-81.52499999999998,25.871187299999974],[-81.52499999999998,25.87226290000001],[-81.52499999999998,25.87278359999999],[-81.52499999999998,25.873827500000004],[-81.52499999999998,25.875],[-81.52286889999999,25.875],[-81.52214800000002,25.875],[-81.52149500000002,25.875],[-81.52097600000002,25.875],[-81.52002620000002,25.875],[-81.51936569999998,25.875],[-81.51749940000002,25.875],[-81.51712680000003,25.875],[-81.51588950000001,25.875],[-81.51573300000001,25.875],[-81.51548980000001,25.875],[-81.5147581,25.875],[-81.51258080000002,25.875],[-81.50333280000001,25.875],[-81.5015419,25.875],[-81.50143109999999,25.875],[-81.50098200000002,25.875],[-81.50059279999999,25.875],[-81.5000081,25.875],[-81.49984189999998,25.875],[-81.49942299999998,25.875],[-81.499393,25.875],[-81.49483850000001,25.875],[-81.49092359999997,25.875],[-81.4896033,25.875],[-81.48853869999999,25.875],[-81.48821950000001,25.875],[-81.48153009999999,25.875],[-81.48133530000001,25.875],[-81.4800803,25.875],[-81.47991400000001,25.875],[-81.47629710000001,25.875],[-81.47602080000001,25.875],[-81.47407550000003,25.875],[-81.47262039999998,25.875],[-81.47067980000003,25.875],[-81.47063350000002,25.875],[-81.4703063,25.875],[-81.4698583,25.875],[-81.46966099999997,25.875],[-81.46497040000003,25.875],[-81.46470390000002,25.875],[-81.46439450000003,25.875],[-81.46398590000001,25.875],[-81.45762380000002,25.875],[-81.44999999999999,25.875],[-81.44999999999999,25.871150999999998],[-81.44999999999999,25.870787699999994],[-81.44999999999999,25.8704381],[-81.44999999999999,25.869229500000017],[-81.44999999999999,25.869128400000022],[-81.44999999999999,25.86868629999998],[-81.44999999999999,25.868116199999974],[-81.44999999999999,25.8660026],[-81.44999999999999,25.858017399999994],[-81.44999999999999,25.85187400000001],[-81.44999999999999,25.85062160000001],[-81.44999999999999,25.850270000000023],[-81.44999999999999,25.849950200000023],[-81.44999999999999,25.849301799999978],[-81.44999999999999,25.847611299999983],[-81.44999999999999,25.846148700000015],[-81.44999999999999,25.84548239999998],[-81.44999999999999,25.84509680000002],[-81.44999999999999,25.8426968],[-81.44999999999999,25.8412821],[-81.44999999999999,25.839761099999976],[-81.44999999999999,25.8343572],[-81.44999999999999,25.832422399999984],[-81.44999999999999,25.82506699999999],[-81.44999999999999,25.823584299999993],[-81.44999999999999,25.823406499999976],[-81.44999999999999,25.8227392],[-81.44999999999999,25.818018600000016],[-81.44999999999999,25.817430300000012],[-81.44999999999999,25.81715380000003],[-81.44999999999999,25.816604600000005],[-81.44999999999999,25.813018699999986],[-81.44999999999999,25.809233300000017],[-81.44999999999999,25.80908979999998],[-81.44999999999999,25.807732699999974],[-81.44999999999999,25.806916399999977],[-81.44999999999999,25.806792599999994],[-81.44999999999999,25.806467699999985],[-81.44999999999999,25.805472599999973],[-81.44999999999999,25.802946799999972],[-81.44999999999999,25.80000000000001],[-81.45118250000002,25.80000000000001],[-81.45141799999999,25.80000000000001],[-81.45164510000001,25.80000000000001],[-81.45348460000002,25.80000000000001],[-81.4554862,25.80000000000001],[-81.45592670000002,25.80000000000001],[-81.45605180000001,25.80000000000001],[-81.45658900000001,25.80000000000001],[-81.45840349999997,25.80000000000001],[-81.45901459999999,25.80000000000001],[-81.45944459999998,25.80000000000001],[-81.4616643,25.80000000000001],[-81.46667819999999,25.80000000000001],[-81.46790679999998,25.80000000000001],[-81.4761317,25.80000000000001],[-81.4978448,25.80000000000001]]]}},{"type":"Feature","properties":{},"geometry":{"type":"Polygon","coordinates":[[[-81.44106420000003,25.80000000000001],[-81.44999999999999,25.80000000000001],[-81.44999999999999,25.802946799999972],[-81.44999999999999,25.805472599999973],[-81.44999999999999,25.806467699999985],[-81.44999999999999,25.806792599999994],[-81.44999999999999,25.806916399999977],[-81.44999999999999,25.807732699999974],[-81.44999999999999,25.80908979999998],[-81.44999999999999,25.809233300000017],[-81.44999999999999,25.813018699999986],[-81.44999999999999,25.816604600000005],[-81.44999999999999,25.81715380000003],[-81.44999999999999,25.817430300000012],[-81.44999999999999,25.818018600000016],[-81.44999999999999,25.8227392],[-81.44999999999999,25.823406499999976],[-81.44999999999999,25.823584299999993],[-81.44999999999999,25.82506699999999],[-81.44999999999999,25.832422399999984],[-81.44999999999999,25.8343572],[-81.44999999999999,25.839761099999976],[-81.44999999999999,25.8412821],[-81.44999999999999,25.8426968],[-81.44999999999999,25.84509680000002],[-81.44999999999999,25.84548239999998],[-81.44999999999999,25.846148700000015],[-81.44999999999999,25.847611299999983],[-81.44999999999999,25.849301799999978],[-81.44999999999999,25.849950200000023],[-81.44999999999999,25.850270000000023],[-81.44999999999999,25.85062160000001],[-81.44999999999999,25.85187400000001],[-81.44999999999999,25.858017399999994],[-81.44999999999999,25.8660026],[-81.44999999999999,25.868116199999974],[-81.44999999999999,25.86868629999998],[-81.44999999999999,25.869128400000022],[-81.44999999999999,25.869229500000017],[-81.44999999999999,25.8704381],[-81.44999999999999,25.870787699999994],[-81.44999999999999,25.871150999999998],[-81.44999999999999,25.875],[-81.44089650000001,25.875],[-81.44038169999999,25.875],[-81.43486669999999,25.875],[-81.43406620000002,25.875],[-81.4017045,25.875],[-81.39606880000002,25.875],[-81.39542390000003,25.875],[-81.39094169999998,25.875],[-81.38588479999999,25.875],[-81.38532099999998,25.875],[-81.38430519999997,25.875],[-81.38382339999998,25.875],[-81.38306239999997,25.875],[-81.37944540000001,25.875],[-81.37921069999999,25.875],[-81.375,25.875],[-81.375,25.874862399999984],[-81.375,25.872599100000002],[-81.375,25.871762999999987],[-81.375,25.869486600000016],[-81.375,25.867397299999993],[-81.375,25.864132400000017],[-81.375,25.84973530000002],[-81.375,25.84363189999999],[-81.375,25.843272500000012],[-81.375,25.837603100000024],[-81.375,25.83731849999998],[-81.375,25.835246100000006],[-81.375,25.834855600000026],[-81.375,25.830537100000015],[-81.375,25.820431400000018],[-81.375,25.81650259999998],[-81.375,25.816299000000015],[-81.375,25.816089599999998],[-81.375,25.81166589999998],[-81.375,25.810619299999985],[-81.375,25.810304099999996],[-81.375,25.809853900000007],[-81.375,25.80905899999999],[-81.375,25.806340999999975],[-81.375,25.804462],[-81.375,25.8039718],[-81.375,25.801518199999975],[-81.375,25.801231299999984],[-81.375,25.800096300000007],[-81.375,25.80000000000001],[-81.37535300000002,25.80000000000001],[-81.37625209999999,25.80000000000001],[-81.37856649999998,25.80000000000001],[-81.3822285,25.80000000000001],[-81.38343830000002,25.80000000000001],[-81.3876952,25.80000000000001],[-81.39034370000002,25.80000000000001],[-81.3920334,25.80000000000001],[-81.3928573,25.80000000000001],[-81.39410459999999,25.80000000000001],[-81.39815870000001,25.80000000000001],[-81.4014952,25.80000000000001],[-81.40375440000003,25.80000000000001],[-81.40381289999999,25.80000000000001],[-81.40577910000002,25.80000000000001],[-81.40827530000001,25.80000000000001],[-81.40946009999999,25.80000000000001],[-81.40973550000001,25.80000000000001],[-81.41105090000002,25.80000000000001],[-81.41145080000001,25.80000000000001],[-81.41399990000002,25.80000000000001],[-81.41444480000001,25.80000000000001],[-81.41595790000002,25.80000000000001],[-81.41716609999997,25.80000000000001],[-81.42113990000001,25.80000000000001],[-81.42258729999998,25.80000000000001],[-81.42349999999999,25.80000000000001],[-81.42403760000002,25.80000000000001],[-81.42471669999998,25.80000000000001],[-81.426871,25.80000000000001],[-81.42924290000002,25.80000000000001],[-81.43057529999999,25.80000000000001],[-81.43071149999997,25.80000000000001],[-81.43112589999998,25.80000000000001],[-81.43151970000002,25.80000000000001],[-81.43520000000001,25.80000000000001],[-81.43563840000002,25.80000000000001],[-81.43624410000001,25.80000000000001],[-81.43682339999998,25.80000000000001],[-81.43801330000002,25.80000000000001],[-81.43824749999999,25.80000000000001],[-81.44106420000003,25.80000000000001]]]}}]}