{"type":"FeatureCollection","features":[{"type":"Feature","properties":{},"geometry":{"type":"Polygon","coordinates":[[[-82.04713179999999,24.44999999999999],[-82.05000000000001,24.44999999999999],[-82.05000000000001,24.450238000000013],[-82.05000000000001,24.462570099999994],[-82.05000000000001,24.472794299999975],[-82.05000000000001,24.474408600000004],[-82.05000000000001,24.477822300000014],[-82.05000000000001,24.481297100000006],[-82.05000000000001,24.49323340000001],[-82.05000000000001,24.494014900000025],[-82.05000000000001,24.494598600000018],[-82.05000000000001,24.49877220000002],[-82.05000000000001,24.513878499999976],[-82.05000000000001,24.514704999999992],[-82.05000000000001,24.51505020000002],[-82.05000000000001,24.516775999999993],[-82.05000000000001,24.517794700000024],[-82.05000000000001,24.524999999999977],[-82.04383969999998,24.524999999999977],[-82.03675770000001,24.524999999999977],[-82.02592229999999,24.524999999999977],[-82.0175274,24.524999999999977],[-82.01467600000001,24.524999999999977],[-82.0134744,24.524999999999977],[-82.0121775,24.524999999999977],[-82.01069869999998,24.524999999999977],[-82.00576439999998,24.524999999999977],[-82.0052192,24.524999999999977],[-81.98219239999997,24.524999999999977],[-81.9815428,24.524999999999977],[-81.98117969999998,24.524999999999977],[-81.98075139999997,24.524999999999977],[-81.97883630000001,24.524999999999977],[-81.97862179999998,24.524999999999977],[-81.976853,24.524999999999977],[-81.97500000000002,24.524999999999977],[-81.97500000000002,24.52341389999998],[-81.97500000000002,24.521789300000023],[-81.97500000000002,24.52025900000001],[-81.97500000000002,24.515338900000017],[-81.97500000000002,24.513184599999988],[-81.97500000000002,24.502948800000013],[-81.97500000000002,24.50157439999998],[-81.97500000000002,24.484718600000008],[-81.97500000000002,24.46166169999998],[-81.97500000000002,24.461166600000013],[-81.97500000000002,24.460890500000005],[-81.97500000000002,24.459467000000018],[-81.97500000000002,24.45649830000002],[-81.97500000000002,24.451919900000007],[-81.97500000000002,24.45041500000002],[-81.97500000000002,24.45009970000001],[-81.97500000000002,24.44999999999999],[-81.97509229999997,24.44999999999999],[-81.97633889999997,24.44999999999999],[-81.98166809999998,24.44999999999999],[-81.9820484,24.44999999999999],[-81.98222679999998,24.44999999999999],[-81.98345819999997,24.44999999999999],[-81.98944569999998,24.44999999999999],[-82.01467600000001,24.44999999999999],[-82.02335929999998,24.44999999999999],[-82.04713179999999,24.44999999999999]]]}},{"type":"Feature","properties":{},"geometry":{"type":"Polygon","coordinates":[[[-81.97391579999999,24.44999999999999],[-81.97500000000002,24.44999999999999],[-81.97500000000002,24.45009970000001],[-81.97500000000002,24.45041500000002],[-81.97500000000002,24.451919900000007],[-81.97500000000002,24.45649830000002],[-81.97500000000002,24.459467000000018],[-81.97500000000002,24.460890500000005],[-81.97500000000002,24.461166600000013],[-81.97500000000002,24.46166169999998],[-81.97500000000002,24.484718600000008],[-81.97500000000002,24.50157439999998],[-81.97500000000002,24.502948800000013],[-81.97500000000002,24.513184599999988],[-81.97500000000002,24.515338900000017],[-81.97500000000002,24.52025900000001],[-81.97500000000002,24.521789300000023],[-81.97500000000002,24.52341389999998],[-81.97500000000002,24.524999999999977],[-81.96815450000003,24.524999999999977],[-81.96475079999999,24.524999999999977],[-81.9636549,24.524999999999977],[-81.9630601,24.524999999999977],[-81.96207290000001,24.524999999999977],[-81.96070650000001,24.524999999999977],[-81.95533230000001,24.524999999999977],[-81.94178040000003,24.524999999999977],[-81.94018069999998,24.524999999999977],[-81.93932740000002,24.524999999999977],[-81.92531389999999,24.524999999999977],[-81.9046128,24.524999999999977],[-81.89999999999998,24.524999999999977],[-81.89999999999998,24.520854299999996],[-81.89999999999998,24.51810999999998],[-81.89999999999998,24.510240599999975],[-81.89999999999998,24.5100549],[-81.89999999999998,24.509700099999975],[-81.89999999999998,24.506957],[-81.89999999999998,24.503366200000016],[-81.89999999999998,24.50311069999998],[-81.89999999999998,24.50182769999998],[-81.89999999999998,24.495910200000026],[-81.89999999999998,24.495674399999984],[-81.89999999999998,24.492549899999972],[-81.89999999999998,24.491635700000018],[-81.89999999999998,24.484447999999986],[-81.89999999999998,24.48295569999999],[-81.89999999999998,24.482482600000026],[-81.89999999999998,24.48237499999999],[-81.89999999999998,24.479672100000016],[-81.89999999999998,24.479074500000024],[-81.89999999999998,24.47406000000001],[-81.89999999999998,24.453531499999997],[-81.89999999999998,24.450397399999986],[-81.89999999999998,24.44999999999999],[-81.91057039999998,24.44999999999999],[-81.91290500000002,24.44999999999999],[-81.91503130000001,24.44999999999999],[-81.9173184,24.44999999999999],[-81.92108139999999,24.44999999999999],[-81.92693969999999,24.44999999999999],[-81.9278117,24.44999999999999],[-81.9284662,24.44999999999999],[-81.92991719999998,24.44999999999999],[-81.9398582,24.44999999999999],[-81.94229710000002,24.44999999999999],[-81.9598416,24.44999999999999],[-81.97391579999999,24.44999999999999]]]}},{"type":"Feature","properties":{},"geometry":{"type":"Polygon","coordinates":[[[-81.84559639999998,24.44999999999999],[-81.84812570000003,24.44999999999999],[-81.85285809999999,24.44999999999999],[-81.8594668,24.44999999999999],[-81.8662521,24.44999999999999],[-81.86640249999999,24.44999999999999],[-81.86840110000003,24.44999999999999],[-81.87533450000001,24.44999999999999],[-81.89031929999999,24.44999999999999],[-81.89101060000002,24.44999999999999],[-81.8914408,24.44999999999999],[-81.89178120000003,24.44999999999999],[-81.89335069999998,24.44999999999999],[-81.89999999999998,24.44999999999999],[-81.89999999999998,24.450397399999986],[-81.89999999999998,24.453531499999997],[-81.89999999999998,24.47406000000001],[-81.89999999999998,24.479074500000024],[-81.89999999999998,24.479672100000016],[-81.89999999999998,24.48237499999999],[-81.89999999999998,24.482482600000026],[-81.89999999999998,24.48295569999999],[-81.89999999999998,24.484447999999986],[-81.89999999999998,24.491635700000018],[-81.89999999999998,24.492549899999972],[-81.89999999999998,24.495674399999984],[-81.89999999999998,24.495910200000026],[-81.89999999999998,24.50182769999998],[-81.89999999999998,24.50311069999998],[-81.89999999999998,24.503366200000016],[-81.89999999999998,24.506957],[-81.89999999999998,24.509700099999975],[-81.89999999999998,24.5100549],[-81.89999999999998,24.510240599999975],[-81.89999999999998,24.51810999999998],[-81.89999999999998,24.520854299999996],[-81.89999999999998,24.524999999999977],[-81.88507140000002,24.524999999999977],[-81.8702647,24.524999999999977],[-81.8631547,24.524999999999977],[-81.86231299999997,24.524999999999977],[-81.85975180000003,24.524999999999977],[-81.85028169999998,24.524999999999977],[-81.84547090000001,24.524999999999977],[-81.845,24.524999999999977],[-81.845,24.44999999999999],[-81.84559639999998,24.44999999999999]]]}},{"type":"Feature","properties":{},"geometry":{"type":"Polygon","coordinates":[[[-82.04383969999998,24.524999999999977],[-82.05000000000001,24.524999999999977],[-82.05000000000001,24.526405399999987],[-82.05000000000001,24.539660200000014],[-82.05000000000001,24.547974699999997],[-82.05000000000001,24.54808860000003],[-82.05000000000001,24.57368889999998],[-82.05000000000001,24.57583440000002],[-82.05000000000001,24.58299040000003],[-82.05000000000001,24.586269500000014],[-82.05000000000001,24.5886845],[-82.05000000000001,24.589875099999972],[-82.05000000000001,24.600000000000023],[-82.04615569999999,24.600000000000023],[-82.04587270000002,24.600000000000023],[-82.03875849999997,24.600000000000023],[-82.03593560000002,24.600000000000023],[-82.0338865,24.600000000000023],[-82.0305151,24.600000000000023],[-82.0254875,24.600000000000023],[-82.02505389999999,24.600000000000023],[-82.02206360000002,24.600000000000023],[-82.0173211,24.600000000000023],[-82.01467600000001,24.600000000000023],[-82.01448679999999,24.600000000000023],[-81.99634509999998,24.600000000000023],[-81.99455289999997,24.600000000000023],[-81.99267900000001,24.600000000000023],[-81.97887279999998,24.600000000000023],[-81.97611810000001,24.600000000000023],[-81.97541619999998,24.600000000000023],[-81.97500000000002,24.600000000000023],[-81.97500000000002,24.599525500000027],[-81.97500000000002,24.5948889],[-81.97500000000002,24.593477399999983],[-81.97500000000002,24.589513699999998],[-81.97500000000002,24.588506499999994],[-81.97500000000002,24.576875099999995],[-81.97500000000002,24.567778299999986],[-81.97500000000002,24.560218099999986],[-81.97500000000002,24.532798000000014],[-81.97500000000002,24.527049299999987],[-81.97500000000002,24.524999999999977],[-81.976853,24.524999999999977],[-81.97862179999998,24.524999999999977],[-81.97883630000001,24.524999999999977],[-81.98075139999997,24.524999999999977],[-81.98117969999998,24.524999999999977],[-81.9815428,24.524999999999977],[-81.98219239999997,24.524999999999977],[-82.0052192,24.524999999999977],[-82.00576439999998,24.524999999999977],[-82.01069869999998,24.524999999999977],[-82.0121775,24.524999999999977],[-82.0134744,24.524999999999977],[-82.01467600000001,24.524999999999977],[-82.0175274,24.524999999999977],[-82.02592229999999,24.524999999999977],[-82.03675770000001,24.524999999999977],[-82.04383969999998,24.524999999999977]]]}},{"type":"Feature","properties":{},"geometry":{"type":"Polygon","coordinates":[[[-81.96815450000003,24.524999999999977],[-81.97500000000002,24.524999999999977],[-81.97500000000002,24.527049299999987],[-81.97500000000002,24.532798000000014],[-81.97500000000002,24.560218099999986],[-81.97500000000002,24.567778299999986],[-81.97500000000002,24.576875099999995],[-81.97500000000002,24.588506499999994],[-81.97500000000002,24.589513699999998],[-81.97500000000002,24.593477399999983],[-81.97500000000002,24.5948889],[-81.97500000000002,24.599525500000027],[-81.97500000000002,24.600000000000023],[-81.96632690000001,24.600000000000023],[-81.93195350000002,24.600000000000023],[-81.93082299999998,24.600000000000023],[-81.92930519999999,24.600000000000023],[-81.9176248,24.600000000000023],[-81.90375899999998,24.600000000000023],[-81.9029021,24.600000000000023],[-81.90131300000002,24.600000000000023],[-81.89999999999998,24.600000000000023],[-81.89999999999998,24.597548200000006],[-81.89999999999998,24.594186400000012],[-81.89999999999998,24.592525500000022],[-81.89999999999998,24.59150870000002],[-81.89999999999998,24.590604100000007],[-81.89999999999998,24.590384400000005],[-81.89999999999998,24.57031619999998],[-81.89999999999998,24.565979000000027],[-81.89999999999998,24.549978399999986],[-81.89999999999998,24.545088099999987],[-81.89999999999998,24.54090070000001],[-81.89999999999998,24.535072200000002],[-81.89999999999998,24.533561099999986],[-81.89999999999998,24.533128599999998],[-81.89999999999998,24.531384000000003],[-81.89999999999998,24.530546800000025],[-81.89999999999998,24.529838400000017],[-81.89999999999998,24.529095400000017],[-81.89999999999998,24.52591339999998],[-81.89999999999998,24.524999999999977],[-81.9046128,24.524999999999977],[-81.92531389999999,24.524999999999977],[-81.93932740000002,24.524999999999977],[-81.94018069999998,24.524999999999977],[-81.94178040000003,24.524999999999977],[-81.95533230000001,24.524999999999977],[-81.96070650000001,24.524999999999977],[-81.96207290000001,24.524999999999977],[-81.9630601,24.524999999999977],[-81.9636549,24.524999999999977],[-81.96475079999999,24.524999999999977],[-81.96815450000003,24.524999999999977]]]}},{"type":"Feature","properties":{},"geometry":{"type":"Polygon","coordinates":[[[-81.84547090000001,24.524999999999977],[-81.85028169999998,24.524999999999977],[-81.85975180000003,24.524999999999977],[-81.86231299999997,24.524999999999977],[-81.8631547,24.524999999999977],[-81.8702647,24.524999999999977],[-81.88507140000002,24.524999999999977],[-81.89999999999998,24.524999999999977],[-81.89999999999998,24.52591339999998],[-81.89999999999998,24.529095400000017],[-81.89999999999998,24.529838400000017],[-81.89999999999998,24.530546800000025],[-81.89999999999998,24.531384000000003],[-81.89999999999998,24.533128599999998],[-81.89999999999998,24.533561099999986],[-81.89999999999998,24.535072200000002],[-81.89999999999998,24.54090070000001],[-81.89999999999998,24.545088099999987],[-81.89999999999998,24.549978399999986],[-81.89999999999998,24.565979000000027],[-81.89999999999998,24.57031619999998],[-81.89999999999998,24.590384400000005],[-81.89999999999998,24.590604100000007],[-81.89999999999998,24.59150870000002],[-81.89999999999998,24.592525500000022],[-81.89999999999998,24.594186400000012],[-81.89999999999998,24.597548200000006],[-81.89999999999998,24.600000000000023],[-81.89762139999999,24.600000000000023],[-81.89323439999998,24.600000000000023],[-81.88271329999998,24.600000000000023],[-81.88227210000002,24.600000000000023],[-81.87945159999998,24.600000000000023],[-81.87847629999999,24.600000000000023],[-81.8780461,24.600000000000023],[-81.8751919,24.600000000000023],[-81.86892139999998,24.600000000000023],[-81.86796729999998,24.600000000000023],[-81.86167549999999,24.600000000000023],[-81.86138649999998,24.600000000000023],[-81.8594109,24.600000000000023],[-81.84771289999998,24.600000000000023],[-81.84556950000001,24.600000000000023],[-81.84554730000002,24.600000000000023],[-81.845,24.600000000000023],[-81.845,24.524999999999977],[-81.84547090000001,24.524999999999977]]]}},{"type":"Feature","properties":{},"geometry":{"type":"Polygon","coordinates":[[[-82.04615569999999,24.600000000000023],[-82.05000000000001,24.600000000000023],[-82.05000000000001,24.602507899999978],[-82.05000000000001,24.607711400000028],[-82.05000000000001,24.608162400000026],[-82.05000000000001,24.614227099999994],[-82.05000000000001,24.616666699999996],[-82.05000000000001,24.617984499999977],[-82.05000000000001,24.618479499999978],[-82.05000000000001,24.620260499999972],[-82.05000000000001,24.620997499999987],[-82.05000000000001,24.624847799999998],[-82.05000000000001,24.625395200000014],[-82.05000000000001,24.626114200000018],[-82.05000000000001,24.635266],[-82.05000000000001,24.659878600000013],[-82.05000000000001,24.667143899999985],[-82.05000000000001,24.671666700000003],[-82.05000000000001,24.67500000000001],[-82.04949499999998,24.67500000000001],[-82.00733330000003,24.67500000000001],[-81.9993905,24.67500000000001],[-81.98457059999998,24.67500000000001],[-81.97500000000002,24.67500000000001],[-81.97500000000002,24.667190699999992],[-81.97500000000002,24.652622000000008],[-81.97500000000002,24.64931949999999],[-81.97500000000002,24.643395199999986],[-81.97500000000002,24.642959099999985],[-81.97500000000002,24.642823700000008],[-81.97500000000002,24.64268199999998],[-81.97500000000002,24.642163299999993],[-81.97500000000002,24.636134900000002],[-81.97500000000002,24.63543229999999],[-81.97500000000002,24.633680500000025],[-81.97500000000002,24.631378400000017],[-81.97500000000002,24.628518900000017],[-81.97500000000002,24.628085399999975],[-81.97500000000002,24.625380500000006],[-81.97500000000002,24.623854100000017],[-81.97500000000002,24.62277019999999],[-81.97500000000002,24.620699399999978],[-81.97500000000002,24.613316300000008],[-81.97500000000002,24.604694600000016],[-81.97500000000002,24.601144499999975],[-81.97500000000002,24.600000000000023],[-81.97541619999998,24.600000000000023],[-81.97611810000001,24.600000000000023],[-81.97887279999998,24.600000000000023],[-81.99267900000001,24.600000000000023],[-81.99455289999997,24.600000000000023],[-81.99634509999998,24.600000000000023],[-82.01448679999999,24.600000000000023],[-82.01467600000001,24.600000000000023],[-82.0173211,24.600000000000023],[-82.02206360000002,24.600000000000023],[-82.02505389999999,24.600000000000023],[-82.0254875,24.600000000000023],[-82.0305151,24.600000000000023],[-82.0338865,24.600000000000023],[-82.03593560000002,24.600000000000023],[-82.03875849999997,24.600000000000023],[-82.04587270000002,24.600000000000023],[-82.04615569999999,24.600000000000023]]]}},{"type":"Feature","properties":{},"geometry":{"type":"Polygon","coordinates":[[[-81.96632690000001,24.600000000000023],[-81.97500000000002,24.600000000000023],[-81.97500000000002,24.601144499999975],[-81.97500000000002,24.604694600000016],[-81.97500000000002,24.613316300000008],[-81.97500000000002,24.620699399999978],[-81.97500000000002,24.62277019999999],[-81.97500000000002,24.623854100000017],[-81.97500000000002,24.625380500000006],[-81.97500000000002,24.628085399999975],[-81.97500000000002,24.628518900000017],[-81.97500000000002,24.631378400000017],[-81.97500000000002,24.633680500000025],[-81.97500000000002,24.63543229999999],[-81.97500000000002,24.636134900000002],[-81.97500000000002,24.642163299999993],[-81.97500000000002,24.64268199999998],[-81.97500000000002,24.642823700000008],[-81.97500000000002,24.642959099999985],[-81.97500000000002,24.643395199999986],[-81.97500000000002,24.64931949999999],[-81.97500000000002,24.652622000000008],[-81.97500000000002,24.667190699999992],[-81.97500000000002,24.67500000000001],[-81.93380739999998,24.67500000000001],[-81.89999999999998,24.67500000000001],[-81.89999999999998,24.662753899999984],[-81.89999999999998,24.662384400000008],[-81.89999999999998,24.654959700000006],[-81.89999999999998,24.652622000000008],[-81.89999999999998,24.651016900000002],[-81.89999999999998,24.646099300000003],[-81.89999999999998,24.640849600000024],[-81.89999999999998,24.63729649999999],[-81.89999999999998,24.636723800000027],[-81.89999999999998,24.636644999999987],[-81.89999999999998,24.635926299999994],[-81.89999999999998,24.6301244],[-81.89999999999998,24.629613399999982],[-81.89999999999998,24.629370400000028],[-81.89999999999998,24.628850199999988],[-81.89999999999998,24.62757290000002],[-81.89999999999998,24.626030800000024],[-81.89999999999998,24.62074080000002],[-81.89999999999998,24.61827820000002],[-81.89999999999998,24.616074500000025],[-81.89999999999998,24.614353199999982],[-81.89999999999998,24.61129390000002],[-81.89999999999998,24.605940999999973],[-81.89999999999998,24.600000000000023],[-81.90131300000002,24.600000000000023],[-81.9029021,24.600000000000023],[-81.90375899999998,24.600000000000023],[-81.9176248,24.600000000000023],[-81.92930519999999,24.600000000000023],[-81.93082299999998,24.600000000000023],[-81.93195350000002,24.600000000000023],[-81.96632690000001,24.600000000000023]]]}},{"type":"Feature","properties":{},"geometry":{"type":"Polygon","coordinates":[[[-81.84554730000002,24.600000000000023],[-81.84556950000001,24.600000000000023],[-81.84771289999998,24.600000000000023],[-81.8594109,24.600000000000023],[-81.86138649999998,24.600000000000023],[-81.86167549999999,24.600000000000023],[-81.86796729999998,24.600000000000023],[-81.86892139999998,24.600000000000023],[-81.8751919,24.600000000000023],[-81.8780461,24.600000000000023],[-81.87847629999999,24.600000000000023],[-81.87945159999998,24.600000000000023],[-81.88227210000002,24.600000000000023],[-81.88271329999998,24.600000000000023],[-81.89323439999998,24.600000000000023],[-81.89762139999999,24.600000000000023],[-81.89999999999998,24.600000000000023],[-81.89999999999998,24.605940999999973],[-81.89999999999998,24.61129390000002],[-81.89999999999998,24.614353199999982],[-81.89999999999998,24.616074500000025],[-81.89999999999998,24.61827820000002],[-81.89999999999998,24.62074080000002],[-81.89999999999998,24.626030800000024],[-81.89999999999998,24.62757290000002],[-81.89999999999998,24.628850199999988],[-81.89999999999998,24.629370400000028],[-81.89999999999998,24.629613399999982],[-81.89999999999998,24.6301244],[-81.89999999999998,24.635926299999994],[-81.89999999999998,24.636644999999987],[-81.89999999999998,24.636723800000027],[-81.89999999999998,24.63729649999999],[-81.89999999999998,24.640849600000024],[-81.89999999999998,24.646099300000003],[-81.89999999999998,24.651016900000002],[-81.89999999999998,24.652622000000008],[-81.89999999999998,24.654959700000006],[-81.89999999999998,24.662384400000008],[-81.89999999999998,24.662753899999984],[-81.89999999999998,24.67500000000001],[-81.86569100000003,24.67500000000001],[-81.85273080000002,24.67500000000001],[-81.845,24.67500000000001],[-81.845,24.600000000000023],[-81.84554730000002,24.600000000000023]]]}}]}