{"type":"FeatureCollection","features":[{"type":"Feature","properties":{},"geometry":{"type":"Polygon","coordinates":[[[-83.00023499999998,24.524999999999977],[-83.02499999999998,24.524999999999977],[-83.02499999999998,24.527614099999994],[-83.02499999999998,24.554123500000003],[-83.02499999999998,24.557301600000017],[-83.02499999999998,24.558764999999994],[-83.02499999999998,24.563083600000027],[-83.02499999999998,24.600000000000023],[-83.01651099999998,24.600000000000023],[-83.00086729999998,24.600000000000023],[-82.99811640000001,24.600000000000023],[-82.99568670000002,24.600000000000023],[-82.99379199999998,24.600000000000023],[-82.99339229999998,24.600000000000023],[-82.99148939999998,24.600000000000023],[-82.99136049999998,24.600000000000023],[-82.97161210000002,24.600000000000023],[-82.96696609999998,24.600000000000023],[-82.96660400000002,24.600000000000023],[-82.96079500000002,24.600000000000023],[-82.951186,24.600000000000023],[-82.94999999999999,24.600000000000023],[-82.94999999999999,24.599049400000013],[-82.94999999999999,24.597645100000022],[-82.94999999999999,24.593185000000005],[-82.94999999999999,24.577444300000025],[-82.94999999999999,24.572860100000014],[-82.94999999999999,24.569571800000006],[-82.94999999999999,24.569206800000018],[-82.94999999999999,24.569063299999982],[-82.94999999999999,24.566882299999975],[-82.94999999999999,24.566324099999974],[-82.94999999999999,24.565926999999988],[-82.94999999999999,24.564159200000006],[-82.94999999999999,24.562988399999995],[-82.94999999999999,24.56057800000002],[-82.94999999999999,24.55491569999998],[-82.94999999999999,24.553401899999983],[-82.94999999999999,24.547652000000028],[-82.94999999999999,24.54714849999999],[-82.94999999999999,24.546071100000006],[-82.94999999999999,24.545156799999972],[-82.94999999999999,24.53941370000001],[-82.94999999999999,24.53667710000002],[-82.94999999999999,24.535075300000017],[-82.94999999999999,24.53333600000002],[-82.94999999999999,24.527831600000013],[-82.94999999999999,24.526796900000022],[-82.94999999999999,24.524999999999977],[-82.98325490000002,24.524999999999977],[-82.98491660000002,24.524999999999977],[-82.989867,24.524999999999977],[-82.99022680000002,24.524999999999977],[-82.99808330000002,24.524999999999977],[-82.99944799999997,24.524999999999977],[-83.00023499999998,24.524999999999977]]]}},{"type":"Feature","properties":{},"geometry":{"type":"Polygon","coordinates":[[[-82.9474386,24.524999999999977],[-82.94999999999999,24.524999999999977],[-82.94999999999999,24.526796900000022],[-82.94999999999999,24.527831600000013],[-82.94999999999999,24.53333600000002],[-82.94999999999999,24.535075300000017],[-82.94999999999999,24.53667710000002],[-82.94999999999999,24.53941370000001],[-82.94999999999999,24.545156799999972],[-82.94999999999999,24.546071100000006],[-82.94999999999999,24.54714849999999],[-82.94999999999999,24.547652000000028],[-82.94999999999999,24.553401899999983],[-82.94999999999999,24.55491569999998],[-82.94999999999999,24.56057800000002],[-82.94999999999999,24.562988399999995],[-82.94999999999999,24.564159200000006],[-82.94999999999999,24.565926999999988],[-82.94999999999999,24.566324099999974],[-82.94999999999999,24.566882299999975],[-82.94999999999999,24.569063299999982],[-82.94999999999999,24.569206800000018],[-82.94999999999999,24.569571800000006],[-82.94999999999999,24.572860100000014],[-82.94999999999999,24.577444300000025],[-82.94999999999999,24.593185000000005],[-82.94999999999999,24.597645100000022],[-82.94999999999999,24.599049400000013],[-82.94999999999999,24.600000000000023],[-82.939889,24.600000000000023],[-82.90805999999998,24.600000000000023],[-82.9051038,24.600000000000023],[-82.9039517,24.600000000000023],[-82.90235999999999,24.600000000000023],[-82.875,24.600000000000023],[-82.875,24.597611599999993],[-82.875,24.594793200000026],[-82.875,24.592788499999983],[-82.875,24.592787299999998],[-82.875,24.59186779999999],[-82.875,24.591246899999987],[-82.875,24.57918810000001],[-82.875,24.56255390000001],[-82.875,24.56218130000002],[-82.875,24.562078100000008],[-82.875,24.550434100000018],[-82.875,24.548031400000013],[-82.875,24.547652000000028],[-82.875,24.54155559999998],[-82.875,24.532811400000014],[-82.875,24.531485400000008],[-82.875,24.524999999999977],[-82.8946583,24.524999999999977],[-82.9249016,24.524999999999977],[-82.92868340000001,24.524999999999977],[-82.94562000000002,24.524999999999977],[-82.9474386,24.524999999999977]]]}},{"type":"Feature","properties":{},"geometry":{"type":"Polygon","coordinates":[[[-82.8463959,24.524999999999977],[-82.875,24.524999999999977],[-82.875,24.531485400000008],[-82.875,24.532811400000014],[-82.875,24.54155559999998],[-82.875,24.547652000000028],[-82.875,24.548031400000013],[-82.875,24.550434100000018],[-82.875,24.562078100000008],[-82.875,24.56218130000002],[-82.875,24.56255390000001],[-82.875,24.57918810000001],[-82.875,24.591246899999987],[-82.875,24.59186779999999],[-82.875,24.592787299999998],[-82.875,24.592788499999983],[-82.875,24.594793200000026],[-82.875,24.597611599999993],[-82.875,24.600000000000023],[-82.87325349999998,24.600000000000023],[-82.87297569999998,24.600000000000023],[-82.87236489999998,24.600000000000023],[-82.87174099999999,24.600000000000023],[-82.84526870000002,24.600000000000023],[-82.83337799999998,24.600000000000023],[-82.81794969999999,24.600000000000023],[-82.80000000000001,24.600000000000023],[-82.80000000000001,24.599304800000027],[-82.80000000000001,24.5989419],[-82.80000000000001,24.58413089999999],[-82.80000000000001,24.58371199999999],[-82.80000000000001,24.583394999999996],[-82.80000000000001,24.579820700000028],[-82.80000000000001,24.547652000000028],[-82.80000000000001,24.534039000000007],[-82.80000000000001,24.52631889999998],[-82.80000000000001,24.525036399999976],[-82.80000000000001,24.524999999999977],[-82.8012521,24.524999999999977],[-82.84092450000003,24.524999999999977],[-82.84202900000003,24.524999999999977],[-82.8463959,24.524999999999977]]]}},{"type":"Feature","properties":{},"geometry":{"type":"Polygon","coordinates":[[[-82.77232500000002,24.524999999999977],[-82.80000000000001,24.524999999999977],[-82.80000000000001,24.525036399999976],[-82.80000000000001,24.52631889999998],[-82.80000000000001,24.534039000000007],[-82.80000000000001,24.547652000000028],[-82.80000000000001,24.579820700000028],[-82.80000000000001,24.583394999999996],[-82.80000000000001,24.58371199999999],[-82.80000000000001,24.58413089999999],[-82.80000000000001,24.5989419],[-82.80000000000001,24.599304800000027],[-82.80000000000001,24.600000000000023],[-82.79461279999998,24.600000000000023],[-82.79262290000003,24.600000000000023],[-82.76904689999998,24.600000000000023],[-82.76688760000002,24.600000000000023],[-82.76651099999998,24.600000000000023],[-82.75550900000002,24.600000000000023],[-82.72500000000002,24.600000000000023],[-82.72500000000002,24.58412820000001],[-82.72500000000002,24.583399699999973],[-82.72500000000002,24.58259099999998],[-82.72500000000002,24.524999999999977],[-82.76362610000001,24.524999999999977],[-82.76947330000002,24.524999999999977],[-82.77061659999998,24.524999999999977],[-82.77232500000002,24.524999999999977]]]}},{"type":"Feature","properties":{},"geometry":{"type":"Polygon","coordinates":[[[-83.01651099999998,24.600000000000023],[-83.02499999999998,24.600000000000023],[-83.02499999999998,24.64884360000002],[-83.02499999999998,24.648858899999993],[-83.02499999999998,24.649781200000007],[-83.02499999999998,24.649962399999993],[-83.02499999999998,24.650798099999975],[-83.02499999999998,24.662077399999987],[-83.02499999999998,24.66356350000001],[-83.02499999999998,24.66407529999998],[-83.02499999999998,24.67500000000001],[-83.02012930000001,24.67500000000001],[-83.01651099999998,24.67500000000001],[-83.0141648,24.67500000000001],[-83.0058042,24.67500000000001],[-83.00049239999998,24.67500000000001],[-82.99189180000002,24.67500000000001],[-82.99141229999998,24.67500000000001],[-82.98859909999999,24.67500000000001],[-82.97601470000001,24.67500000000001],[-82.97553549999998,24.67500000000001],[-82.97510510000001,24.67500000000001],[-82.97482760000003,24.67500000000001],[-82.97431089999998,24.67500000000001],[-82.96644939999999,24.67500000000001],[-82.96560540000002,24.67500000000001],[-82.95296029999997,24.67500000000001],[-82.95233999999999,24.67500000000001],[-82.94999999999999,24.67500000000001],[-82.94999999999999,24.666766199999984],[-82.94999999999999,24.66666600000002],[-82.94999999999999,24.663230699999986],[-82.94999999999999,24.6537098],[-82.94999999999999,24.644840699999975],[-82.94999999999999,24.64161280000002],[-82.94999999999999,24.630079799999976],[-82.94999999999999,24.627416400000016],[-82.94999999999999,24.62441560000002],[-82.94999999999999,24.62340260000002],[-82.94999999999999,24.618765800000006],[-82.94999999999999,24.617409099999975],[-82.94999999999999,24.613671399999987],[-82.94999999999999,24.613380199999995],[-82.94999999999999,24.612450799999976],[-82.94999999999999,24.60984780000001],[-82.94999999999999,24.609393300000022],[-82.94999999999999,24.600000000000023],[-82.951186,24.600000000000023],[-82.96079500000002,24.600000000000023],[-82.96660400000002,24.600000000000023],[-82.96666699999997,24.600000000000023],[-82.96696609999998,24.600000000000023],[-82.97161210000002,24.600000000000023],[-82.99136049999998,24.600000000000023],[-82.99148939999998,24.600000000000023],[-82.99339229999998,24.600000000000023],[-82.99379199999998,24.600000000000023],[-82.99568670000002,24.600000000000023],[-82.99811640000001,24.600000000000023],[-83.00086729999998,24.600000000000023],[-83.01651099999998,24.600000000000023]]]}},{"type":"Feature","properties":{},"geometry":{"type":"Polygon","coordinates":[[[-82.939889,24.600000000000023],[-82.94999999999999,24.600000000000023],[-82.94999999999999,24.609393300000022],[-82.94999999999999,24.60984780000001],[-82.94999999999999,24.612450799999976],[-82.94999999999999,24.613380199999995],[-82.94999999999999,24.613671399999987],[-82.94999999999999,24.617409099999975],[-82.94999999999999,24.618765800000006],[-82.94999999999999,24.62340260000002],[-82.94999999999999,24.62441560000002],[-82.94999999999999,24.627416400000016],[-82.94999999999999,24.630079799999976],[-82.94999999999999,24.64161280000002],[-82.94999999999999,24.644840699999975],[-82.94999999999999,24.6537098],[-82.94999999999999,24.663171999999975],[-82.94999999999999,24.66666600000002],[-82.94999999999999,24.666766199999984],[-82.94999999999999,24.67500000000001],[-82.94475540000002,24.67500000000001],[-82.94313820000002,24.67500000000001],[-82.94176900000002,24.67500000000001],[-82.941666,24.67500000000001],[-82.92301350000002,24.67500000000001],[-82.9080083,24.67500000000001],[-82.90296849999999,24.67500000000001],[-82.89933730000001,24.67500000000001],[-82.89767369999998,24.67500000000001],[-82.8967189,24.67500000000001],[-82.89246220000001,24.67500000000001],[-82.8906905,24.67500000000001],[-82.88935650000002,24.67500000000001],[-82.8888493,24.67500000000001],[-82.88852709999998,24.67500000000001],[-82.885876,24.67500000000001],[-82.8857534,24.67500000000001],[-82.88552420000002,24.67500000000001],[-82.88521809999997,24.67500000000001],[-82.875,24.67500000000001],[-82.875,24.67056819999999],[-82.875,24.670152499999972],[-82.875,24.67007560000002],[-82.875,24.665816000000007],[-82.875,24.664199600000018],[-82.875,24.66400090000002],[-82.875,24.662899700000025],[-82.875,24.662268100000006],[-82.875,24.647467800000015],[-82.875,24.639319],[-82.875,24.636383500000022],[-82.875,24.631266900000014],[-82.875,24.625379599999974],[-82.875,24.625110000000006],[-82.875,24.623969499999987],[-82.875,24.623654999999985],[-82.875,24.622096999999997],[-82.875,24.609007700000006],[-82.875,24.600000000000023],[-82.90235999999999,24.600000000000023],[-82.9039517,24.600000000000023],[-82.9051038,24.600000000000023],[-82.90805999999998,24.600000000000023],[-82.939889,24.600000000000023]]]}},{"type":"Feature","properties":{},"geometry":{"type":"Polygon","coordinates":[[[-82.87325349999998,24.600000000000023],[-82.875,24.600000000000023],[-82.875,24.609007700000006],[-82.875,24.622096999999997],[-82.875,24.623654999999985],[-82.875,24.623969499999987],[-82.875,24.625110000000006],[-82.875,24.625379599999974],[-82.875,24.631266900000014],[-82.875,24.636383500000022],[-82.875,24.639319],[-82.875,24.647467800000015],[-82.875,24.662268100000006],[-82.875,24.662899700000025],[-82.875,24.66400090000002],[-82.875,24.664199600000018],[-82.875,24.665816000000007],[-82.875,24.67007560000002],[-82.875,24.670152499999972],[-82.875,24.67056819999999],[-82.875,24.67500000000001],[-82.86907819999999,24.67500000000001],[-82.84999049999999,24.67500000000001],[-82.82699539999999,24.67500000000001],[-82.82690389999999,24.67500000000001],[-82.8254129,24.67500000000001],[-82.8124785,24.67500000000001],[-82.80915729999998,24.67500000000001],[-82.805117,24.67500000000001],[-82.80337580000003,24.67500000000001],[-82.80245780000001,24.67500000000001],[-82.80073549999997,24.67500000000001],[-82.80000000000001,24.67500000000001],[-82.80000000000001,24.670962599999996],[-82.80000000000001,24.666861600000004],[-82.80000000000001,24.666057799999976],[-82.80000000000001,24.663510700000018],[-82.80000000000001,24.655422299999998],[-82.80000000000001,24.643851299999994],[-82.80000000000001,24.6428813],[-82.80000000000001,24.640820599999984],[-82.80000000000001,24.638883799999974],[-82.80000000000001,24.63385360000001],[-82.80000000000001,24.63269170000001],[-82.80000000000001,24.632422899999995],[-82.80000000000001,24.631930099999977],[-82.80000000000001,24.630871599999978],[-82.80000000000001,24.616689500000007],[-82.80000000000001,24.60836310000002],[-82.80000000000001,24.600000000000023],[-82.81794969999999,24.600000000000023],[-82.83337799999998,24.600000000000023],[-82.84526870000002,24.600000000000023],[-82.85000000000002,24.600000000000023],[-82.87174099999999,24.600000000000023],[-82.87236489999998,24.600000000000023],[-82.87297569999998,24.600000000000023],[-82.87325349999998,24.600000000000023]]]}},{"type":"Feature","properties":{},"geometry":{"type":"Polygon","coordinates":[[[-82.79461279999998,24.600000000000023],[-82.80000000000001,24.600000000000023],[-82.80000000000001,24.60836310000002],[-82.80000000000001,24.616689500000007],[-82.80000000000001,24.630871599999978],[-82.80000000000001,24.631930099999977],[-82.80000000000001,24.632422899999995],[-82.80000000000001,24.63269170000001],[-82.80000000000001,24.63385360000001],[-82.80000000000001,24.638883799999974],[-82.80000000000001,24.640820599999984],[-82.80000000000001,24.6428813],[-82.80000000000001,24.643851299999994],[-82.80000000000001,24.655422299999998],[-82.80000000000001,24.663510700000018],[-82.80000000000001,24.666057799999976],[-82.80000000000001,24.666861600000004],[-82.80000000000001,24.670962599999996],[-82.80000000000001,24.67500000000001],[-82.7990886,24.67500000000001],[-82.79620469999998,24.67500000000001],[-82.78761509999998,24.67500000000001],[-82.78760240000003,24.67500000000001],[-82.78516380000002,24.67500000000001],[-82.77596390000002,24.67500000000001],[-82.76684340000003,24.67500000000001],[-82.76651099999998,24.67500000000001],[-82.7584182,24.67500000000001],[-82.75723369999997,24.67500000000001],[-82.7567727,24.67500000000001],[-82.73163149999999,24.67500000000001],[-82.7300616,24.67500000000001],[-82.72852030000001,24.67500000000001],[-82.72615029999997,24.67500000000001],[-82.72500000000002,24.67500000000001],[-82.72500000000002,24.651994899999977],[-82.72500000000002,24.637316999999996],[-82.72500000000002,24.621367599999985],[-82.72500000000002,24.600000000000023],[-82.75550900000002,24.600000000000023],[-82.76651099999998,24.600000000000023],[-82.76688760000002,24.600000000000023],[-82.76904689999998,24.600000000000023],[-82.77665530000002,24.600000000000023],[-82.79262290000003,24.600000000000023],[-82.79461279999998,24.600000000000023]]]}},{"type":"Feature","properties":{},"geometry":{"type":"Polygon","coordinates":[[[-83.02012930000001,24.67500000000001],[-83.02499999999998,24.67500000000001],[-83.02499999999998,24.67964699999999],[-83.02499999999998,24.679883500000017],[-83.02499999999998,24.696990000000028],[-83.02499999999998,24.706030999999996],[-83.02499999999998,24.722443],[-83.02499999999998,24.72343649999999],[-83.02499999999998,24.72481190000002],[-83.02499999999998,24.727469699999972],[-83.02499999999998,24.75],[-83.02110390000001,24.75],[-83.0080102,24.75],[-82.97431499999999,24.75],[-82.9680659,24.75],[-82.94999999999999,24.75],[-82.94999999999999,24.73376300000001],[-82.94999999999999,24.72319349999998],[-82.94999999999999,24.715086100000008],[-82.94999999999999,24.677051199999994],[-82.94999999999999,24.676597800000025],[-82.94999999999999,24.67500000000001],[-82.95233999999999,24.67500000000001],[-82.95296029999997,24.67500000000001],[-82.96560540000002,24.67500000000001],[-82.96644939999999,24.67500000000001],[-82.97431089999998,24.67500000000001],[-82.97553549999998,24.67500000000001],[-82.97601470000001,24.67500000000001],[-82.98859909999999,24.67500000000001],[-82.99141229999998,24.67500000000001],[-82.99189180000002,24.67500000000001],[-83.00049239999998,24.67500000000001],[-83.0058042,24.67500000000001],[-83.0141648,24.67500000000001],[-83.01651099999998,24.67500000000001],[-83.02012930000001,24.67500000000001]]]}},{"type":"Feature","properties":{},"geometry":{"type":"Polygon","coordinates":[[[-82.94313820000002,24.67500000000001],[-82.94475540000002,24.67500000000001],[-82.94999999999999,24.67500000000001],[-82.94999999999999,24.676597800000025],[-82.94999999999999,24.677051199999994],[-82.94999999999999,24.715086100000008],[-82.94999999999999,24.72319349999998],[-82.94999999999999,24.73376300000001],[-82.94999999999999,24.75],[-82.91628750000001,24.75],[-82.875,24.75],[-82.875,24.73376300000001],[-82.875,24.72687719999999],[-82.875,24.7254418],[-82.875,24.723353099999997],[-82.875,24.723329499999977],[-82.875,24.720444199999974],[-82.875,24.70332639999998],[-82.875,24.702488000000017],[-82.875,24.697903199999985],[-82.875,24.694183899999985],[-82.875,24.693791599999997],[-82.875,24.69164840000002],[-82.875,24.689948000000015],[-82.875,24.68109020000003],[-82.875,24.67500000000001],[-82.88521809999997,24.67500000000001],[-82.88552420000002,24.67500000000001],[-82.8857534,24.67500000000001],[-82.885876,24.67500000000001],[-82.88852709999998,24.67500000000001],[-82.8888493,24.67500000000001],[-82.88935650000002,24.67500000000001],[-82.8906905,24.67500000000001],[-82.89246220000001,24.67500000000001],[-82.8967189,24.67500000000001],[-82.89767369999998,24.67500000000001],[-82.89933730000001,24.67500000000001],[-82.90296849999999,24.67500000000001],[-82.9080083,24.67500000000001],[-82.92301350000002,24.67500000000001],[-82.941666,24.67500000000001],[-82.94176900000002,24.67500000000001],[-82.94313820000002,24.67500000000001]]]}},{"type":"Feature","properties":{},"geometry":{"type":"Polygon","coordinates":[[[-82.84999049999999,24.67500000000001],[-82.86907819999999,24.67500000000001],[-82.875,24.67500000000001],[-82.875,24.68109020000003],[-82.875,24.689948000000015],[-82.875,24.69164840000002],[-82.875,24.693791599999997],[-82.875,24.694183899999985],[-82.875,24.697903199999985],[-82.875,24.702488000000017],[-82.875,24.70332639999998],[-82.875,24.720444199999974],[-82.875,24.723329499999977],[-82.875,24.723353099999997],[-82.875,24.7254418],[-82.875,24.72687719999999],[-82.875,24.73376300000001],[-82.875,24.75],[-82.80000000000001,24.75],[-82.80000000000001,24.73376300000001],[-82.80000000000001,24.731061899999986],[-82.80000000000001,24.725679500000012],[-82.80000000000001,24.72551199999998],[-82.80000000000001,24.712404300000003],[-82.80000000000001,24.711329999999975],[-82.80000000000001,24.710944400000017],[-82.80000000000001,24.700982099999976],[-82.80000000000001,24.700615700000014],[-82.80000000000001,24.700404400000025],[-82.80000000000001,24.698510199999987],[-82.80000000000001,24.69740139999999],[-82.80000000000001,24.696498200000008],[-82.80000000000001,24.690011700000014],[-82.80000000000001,24.68629900000002],[-82.80000000000001,24.681795299999976],[-82.80000000000001,24.678708900000004],[-82.80000000000001,24.676868899999988],[-82.80000000000001,24.676555599999972],[-82.80000000000001,24.67500000000001],[-82.80073549999997,24.67500000000001],[-82.80245780000001,24.67500000000001],[-82.80337580000003,24.67500000000001],[-82.805117,24.67500000000001],[-82.80915729999998,24.67500000000001],[-82.8124785,24.67500000000001],[-82.8254129,24.67500000000001],[-82.82690389999999,24.67500000000001],[-82.82699539999999,24.67500000000001],[-82.84999049999999,24.67500000000001]]]}},{"type":"Feature","properties":{},"geometry":{"type":"Polygon","coordinates":[[[-82.7990886,24.67500000000001],[-82.80000000000001,24.67500000000001],[-82.80000000000001,24.676555599999972],[-82.80000000000001,24.676868899999988],[-82.80000000000001,24.678708900000004],[-82.80000000000001,24.681795299999976],[-82.80000000000001,24.68629900000002],[-82.80000000000001,24.690011700000014],[-82.80000000000001,24.696498200000008],[-82.80000000000001,24.69740139999999],[-82.80000000000001,24.698510199999987],[-82.80000000000001,24.700404400000025],[-82.80000000000001,24.700615700000014],[-82.80000000000001,24.700982099999976],[-82.80000000000001,24.710944400000017],[-82.80000000000001,24.711329999999975],[-82.80000000000001,24.712404300000003],[-82.80000000000001,24.72551199999998],[-82.80000000000001,24.725679500000012],[-82.80000000000001,24.731061899999986],[-82.80000000000001,24.73376300000001],[-82.80000000000001,24.75],[-82.79998799999998,24.75],[-82.77251510000002,24.75],[-82.75991820000002,24.75],[-82.7299003,24.75],[-82.72500000000002,24.75],[-82.72500000000002,24.727371100000028],[-82.72500000000002,24.725845300000003],[-82.72500000000002,24.67500000000001],[-82.72615029999997,24.67500000000001],[-82.72852030000001,24.67500000000001],[-82.7300616,24.67500000000001],[-82.73163149999999,24.67500000000001],[-82.7567727,24.67500000000001],[-82.75723369999997,24.67500000000001],[-82.7584182,24.67500000000001],[-82.76651099999998,24.67500000000001],[-82.76684340000003,24.67500000000001],[-82.77596390000002,24.67500000000001],[-82.78516380000002,24.67500000000001],[-82.78760240000003,24.67500000000001],[-82.78761509999998,24.67500000000001],[-82.79620469999998,24.67500000000001],[-82.7990886,24.67500000000001]]]}}]}