{"type":"FeatureCollection","features":[{"type":"Feature","properties":{},"geometry":{"type":"Polygon","coordinates":[[[-75.82462340000001,35.10000000000002],[-75.82499999999999,35.10000000000002],[-75.82499999999999,35.10018769999999],[-75.82499999999999,35.10579940000002],[-75.82499999999999,35.1077009],[-75.82499999999999,35.10810379999998],[-75.82499999999999,35.15241759999998],[-75.82499999999999,35.15524770000002],[-75.82499999999999,35.15673700000002],[-75.82499999999999,35.1597003],[-75.82499999999999,35.16493869999999],[-75.82499999999999,35.16563860000002],[-75.82499999999999,35.16775819999998],[-75.82499999999999,35.170658100000026],[-75.82499999999999,35.17500000000001],[-75.81004109999998,35.17500000000001],[-75.8046137,35.17500000000001],[-75.7974132,35.17500000000001],[-75.79019829999999,35.17500000000001],[-75.78414579999998,35.17500000000001],[-75.77956760000001,35.17500000000001],[-75.77570509999998,35.17500000000001],[-75.76770800000003,35.17500000000001],[-75.76286090000002,35.17500000000001],[-75.76026430000002,35.17500000000001],[-75.75989090000002,35.17500000000001],[-75.75,35.17500000000001],[-75.75,35.17415089999997],[-75.75,35.17251220000003],[-75.75,35.16952980000002],[-75.75,35.16216989999998],[-75.75,35.13308940000002],[-75.75,35.132054400000015],[-75.75,35.131668400000024],[-75.75,35.1193576],[-75.75,35.10000000000002],[-75.80756919999999,35.10000000000002],[-75.82462340000001,35.10000000000002]]]}},{"type":"Feature","properties":{},"geometry":{"type":"Polygon","coordinates":[[[-75.7197597,35.10000000000002],[-75.75,35.10000000000002],[-75.75,35.1193576],[-75.75,35.131668400000024],[-75.75,35.132054400000015],[-75.75,35.13308940000002],[-75.75,35.16216989999998],[-75.75,35.16952980000002],[-75.75,35.17251220000003],[-75.75,35.17415089999997],[-75.75,35.17500000000001],[-75.7474947,35.17500000000001],[-75.73944749999998,35.17500000000001],[-75.73868950000002,35.17500000000001],[-75.7226976,35.17500000000001],[-75.67500000000001,35.17500000000001],[-75.67500000000001,35.15909099999999],[-75.67500000000001,35.15903270000001],[-75.67500000000001,35.15869049999998],[-75.67500000000001,35.14028760000002],[-75.67500000000001,35.132232699999975],[-75.67500000000001,35.132004300000006],[-75.67500000000001,35.10000000000002],[-75.7111696,35.10000000000002],[-75.7197597,35.10000000000002]]]}},{"type":"Feature","properties":{},"geometry":{"type":"Polygon","coordinates":[[[-75.81004109999998,35.17500000000001],[-75.82499999999999,35.17500000000001],[-75.82499999999999,35.19150680000001],[-75.82499999999999,35.193105],[-75.82499999999999,35.20155599999998],[-75.82499999999999,35.20932379999999],[-75.82499999999999,35.21139529999999],[-75.82499999999999,35.219202199999984],[-75.82499999999999,35.22296060000002],[-75.82499999999999,35.23743059999998],[-75.82499999999999,35.240402700000004],[-75.82499999999999,35.25],[-75.80367799999999,35.25],[-75.79727789999998,35.25],[-75.79722429999998,35.25],[-75.7708179,35.25],[-75.76240250000001,35.25],[-75.75455149999999,35.25],[-75.75,35.25],[-75.75,35.246252700000014],[-75.75,35.24195880000002],[-75.75,35.23645479999999],[-75.75,35.23196999999999],[-75.75,35.229119000000026],[-75.75,35.22605440000001],[-75.75,35.22545389999999],[-75.75,35.22428719999999],[-75.75,35.2236767],[-75.75,35.222941100000014],[-75.75,35.21782569999999],[-75.75,35.212152],[-75.75,35.20448049999999],[-75.75,35.19425690000003],[-75.75,35.19342499999999],[-75.75,35.19326080000002],[-75.75,35.192333399999995],[-75.75,35.19220519999999],[-75.75,35.19072619999997],[-75.75,35.19009840000001],[-75.75,35.188168899999994],[-75.75,35.184200799999985],[-75.75,35.177279],[-75.75,35.17500000000001],[-75.75989090000002,35.17500000000001],[-75.76026430000002,35.17500000000001],[-75.76286090000002,35.17500000000001],[-75.76770800000003,35.17500000000001],[-75.77570509999998,35.17500000000001],[-75.77956760000001,35.17500000000001],[-75.78414579999998,35.17500000000001],[-75.79019829999999,35.17500000000001],[-75.7974132,35.17500000000001],[-75.8046137,35.17500000000001],[-75.81004109999998,35.17500000000001]]]}},{"type":"Feature","properties":{},"geometry":{"type":"Polygon","coordinates":[[[-75.7474947,35.17500000000001],[-75.75,35.17500000000001],[-75.75,35.177279],[-75.75,35.184200799999985],[-75.75,35.188168899999994],[-75.75,35.19009840000001],[-75.75,35.19072619999997],[-75.75,35.19220519999999],[-75.75,35.192333399999995],[-75.75,35.19326080000002],[-75.75,35.19342499999999],[-75.75,35.19425690000003],[-75.75,35.20448049999999],[-75.75,35.212152],[-75.75,35.21782569999999],[-75.75,35.222941100000014],[-75.75,35.2236767],[-75.75,35.22428719999999],[-75.75,35.22545389999999],[-75.75,35.22605440000001],[-75.75,35.229119000000026],[-75.75,35.23196999999999],[-75.75,35.23645479999999],[-75.75,35.24195880000002],[-75.75,35.246252700000014],[-75.75,35.25],[-75.7416452,35.25],[-75.73504839999998,35.25],[-75.71906910000001,35.25],[-75.71897910000001,35.25],[-75.71671500000002,35.25],[-75.71643949999998,35.25],[-75.71604769999999,35.25],[-75.71539369999999,35.25],[-75.70873369999998,35.25],[-75.70388750000001,35.25],[-75.70135219999997,35.25],[-75.69825400000002,35.25],[-75.69424329999998,35.25],[-75.67500000000001,35.25],[-75.67500000000001,35.24783719999999],[-75.67500000000001,35.23499670000001],[-75.67500000000001,35.218893700000024],[-75.67500000000001,35.2141383],[-75.67500000000001,35.21413740000003],[-75.67500000000001,35.20854270000001],[-75.67500000000001,35.204294600000026],[-75.67500000000001,35.20098680000001],[-75.67500000000001,35.2008113],[-75.67500000000001,35.17500000000001],[-75.7226976,35.17500000000001],[-75.73868950000002,35.17500000000001],[-75.73944749999998,35.17500000000001],[-75.7474947,35.17500000000001]]]}},{"type":"Feature","properties":{},"geometry":{"type":"Polygon","coordinates":[[[-75.80367799999999,35.25],[-75.82499999999999,35.25],[-75.82499999999999,35.26818029999998],[-75.82499999999999,35.302106200000026],[-75.82499999999999,35.303533300000026],[-75.82499999999999,35.30373880000002],[-75.82499999999999,35.32499999999999],[-75.78326040000002,35.32499999999999],[-75.75,35.32499999999999],[-75.75,35.30362120000001],[-75.75,35.293964500000016],[-75.75,35.291028299999994],[-75.75,35.27436829999999],[-75.75,35.271404200000006],[-75.75,35.27108930000003],[-75.75,35.2693567],[-75.75,35.25489279999999],[-75.75,35.25],[-75.75455149999999,35.25],[-75.76240250000001,35.25],[-75.7708179,35.25],[-75.79722429999998,35.25],[-75.79727789999998,35.25],[-75.80367799999999,35.25]]]}},{"type":"Feature","properties":{},"geometry":{"type":"Polygon","coordinates":[[[-75.7416452,35.25],[-75.75,35.25],[-75.75,35.25489279999999],[-75.75,35.2693567],[-75.75,35.27108930000003],[-75.75,35.271404200000006],[-75.75,35.27436829999999],[-75.75,35.291028299999994],[-75.75,35.293964500000016],[-75.75,35.30362120000001],[-75.75,35.32499999999999],[-75.73785989999999,35.32499999999999],[-75.71636219999999,35.32499999999999],[-75.67500000000001,35.32499999999999],[-75.67500000000001,35.31104499999998],[-75.67500000000001,35.30992029999999],[-75.67500000000001,35.30848450000002],[-75.67500000000001,35.30546199999998],[-75.67500000000001,35.2997565],[-75.67500000000001,35.29829000000001],[-75.67500000000001,35.29677570000001],[-75.67500000000001,35.29631599999999],[-75.67500000000001,35.28981449999998],[-75.67500000000001,35.270949299999984],[-75.67500000000001,35.266937600000006],[-75.67500000000001,35.26197619999999],[-75.67500000000001,35.25917759999999],[-75.67500000000001,35.2557329],[-75.67500000000001,35.25],[-75.69424329999998,35.25],[-75.69825400000002,35.25],[-75.70135219999997,35.25],[-75.70388750000001,35.25],[-75.70873369999998,35.25],[-75.71539369999999,35.25],[-75.71604769999999,35.25],[-75.71643949999998,35.25],[-75.71671500000002,35.25],[-75.71897910000001,35.25],[-75.71906910000001,35.25],[-75.73504839999998,35.25],[-75.7416452,35.25]]]}},{"type":"Feature","properties":{},"geometry":{"type":"Polygon","coordinates":[[[-75.97716329999997,35.02499999999998],[-75.97659529999999,35.02499999999998],[-75.97500000000002,35.02499999999998],[-75.97500000000002,35.0265637],[-75.97500000000002,35.027147300000024],[-75.97500000000002,35.067475],[-75.97500000000002,35.06895509999998],[-75.97500000000002,35.07774970000003],[-75.97500000000002,35.088313200000016],[-75.97500000000002,35.08880479999999],[-75.97500000000002,35.09119449999997],[-75.97500000000002,35.09204089999997],[-75.97500000000002,35.09240699999998],[-75.97500000000002,35.10000000000002],[-75.97500000000002,35.10964180000002],[-75.97500000000002,35.115104599999995],[-75.97500000000002,35.11618120000003],[-75.97500000000002,35.11641900000001],[-75.97500000000002,35.11720380000003],[-75.97500000000002,35.11749229999998],[-75.97500000000002,35.118662900000004],[-75.97500000000002,35.11915399999998],[-75.97500000000002,35.120058900000004],[-75.97500000000002,35.120968500000004],[-75.97500000000002,35.12404120000002],[-75.97500000000002,35.125398099999984],[-75.97500000000002,35.1302445],[-75.97500000000002,35.130522600000006],[-75.97500000000002,35.132599200000016],[-75.97500000000002,35.14461920000002],[-75.97500000000002,35.14632230000001],[-75.97500000000002,35.15805560000001],[-75.96490460000001,35.15805560000001],[-75.95364619999998,35.15805560000001],[-75.9329224,35.15805560000001],[-75.9329166,35.15805560000001],[-75.9329166,35.15162839999999],[-75.9329166,35.150645],[-75.9329166,35.149694899999986],[-75.9329166,35.14950520000002],[-75.9329166,35.143157099999996],[-75.9329166,35.136965299999986],[-75.9329166,35.1292426],[-75.9329166,35.127788099999975],[-75.9329166,35.11732599999999],[-75.9329166,35.11718050000002],[-75.9329166,35.110949500000004],[-75.9329166,35.10619539999999],[-75.9329166,35.055438700000025],[-75.9329166,35.05496249999999],[-75.9329166,35.05266019999999],[-75.9329166,35.045422099999996],[-75.9329166,35.04532310000002],[-75.9329166,35.04340930000001],[-75.9329166,35.03710389999998],[-75.9329166,34.87133540000002],[-75.9329166,34.87076619999999],[-75.9329166,34.87037939999999],[-75.9329166,34.870373400000005],[-75.9329166,34.85861110000002],[-75.94964670000002,34.85861110000002],[-75.94967830000002,34.85861110000002],[-75.95031260000002,34.85861110000002],[-76.005,34.85861110000002],[-76.005,35.02499999999998],[-75.97716329999997,35.02499999999998]]]}},{"type":"Feature","properties":{},"geometry":{"type":"Polygon","coordinates":[[[-76.0007582,35.10000000000002],[-75.9999899,35.10000000000002],[-75.99982340000003,35.10000000000002],[-75.999592,35.10000000000002],[-75.99897040000002,35.10000000000002],[-75.99870120000003,35.10000000000002],[-75.99675869999999,35.10000000000002],[-75.99538580000001,35.10000000000002],[-75.99514850000003,35.10000000000002],[-75.99507770000002,35.10000000000002],[-75.99384090000001,35.10000000000002],[-75.99345249999999,35.10000000000002],[-75.99132700000001,35.10000000000002],[-75.99063840000002,35.10000000000002],[-75.98976440000001,35.10000000000002],[-75.98852799999997,35.10000000000002],[-75.9866414,35.10000000000002],[-75.98551659999998,35.10000000000002],[-75.98505549999999,35.10000000000002],[-75.98391450000003,35.10000000000002],[-75.98372979999999,35.10000000000002],[-75.97500000000002,35.10000000000002],[-75.97500000000002,35.09240699999998],[-75.97500000000002,35.09204089999997],[-75.97500000000002,35.09119449999997],[-75.97500000000002,35.08880479999999],[-75.97500000000002,35.088313200000016],[-75.97500000000002,35.07774970000003],[-75.97500000000002,35.06895509999998],[-75.97500000000002,35.067475],[-75.97500000000002,35.027147300000024],[-75.97500000000002,35.0265637],[-75.97500000000002,35.02499999999998],[-75.97659529999999,35.02499999999998],[-75.97716329999997,35.02499999999998],[-76.005,35.02499999999998],[-76.005,35.10000000000002],[-76.0007582,35.10000000000002]]]}},{"type":"Feature","properties":{},"geometry":{"type":"Polygon","coordinates":[[[-75.97746649999999,35.17500000000001],[-75.97500000000002,35.17500000000001],[-75.97500000000002,35.17336999999998],[-75.97500000000002,35.16073449999999],[-75.97500000000002,35.15972649999998],[-75.97500000000002,35.15806199999997],[-75.97500000000002,35.15805560000001],[-75.97500000000002,35.14632230000001],[-75.97500000000002,35.14461920000002],[-75.97500000000002,35.132599200000016],[-75.97500000000002,35.130522600000006],[-75.97500000000002,35.1302445],[-75.97500000000002,35.125398099999984],[-75.97500000000002,35.12404120000002],[-75.97500000000002,35.120968500000004],[-75.97500000000002,35.120058900000004],[-75.97500000000002,35.11915399999998],[-75.97500000000002,35.118662900000004],[-75.97500000000002,35.11749229999998],[-75.97500000000002,35.11720380000003],[-75.97500000000002,35.11641900000001],[-75.97500000000002,35.11618120000003],[-75.97500000000002,35.115104599999995],[-75.97500000000002,35.10964180000002],[-75.97500000000002,35.10000000000002],[-75.98372979999999,35.10000000000002],[-75.98391450000003,35.10000000000002],[-75.98505549999999,35.10000000000002],[-75.98551659999998,35.10000000000002],[-75.9866414,35.10000000000002],[-75.98852799999997,35.10000000000002],[-75.98976440000001,35.10000000000002],[-75.99063840000002,35.10000000000002],[-75.99132700000001,35.10000000000002],[-75.99345249999999,35.10000000000002],[-75.99384090000001,35.10000000000002],[-75.99507770000002,35.10000000000002],[-75.99514850000003,35.10000000000002],[-75.99538580000001,35.10000000000002],[-75.99675869999999,35.10000000000002],[-75.99870120000003,35.10000000000002],[-75.99897040000002,35.10000000000002],[-75.999592,35.10000000000002],[-75.99982340000003,35.10000000000002],[-75.9999899,35.10000000000002],[-76.0007582,35.10000000000002],[-76.005,35.10000000000002],[-76.005,35.17500000000001],[-75.97746649999999,35.17500000000001]]]}},{"type":"Feature","properties":{},"geometry":{"type":"Polygon","coordinates":[[[-75.97500000000002,35.25],[-75.97500000000002,35.1943091],[-75.97500000000002,35.17694310000002],[-75.97500000000002,35.17500000000001],[-75.97746649999999,35.17500000000001],[-76.005,35.17500000000001],[-76.005,35.25],[-75.97500000000002,35.25]]]}},{"type":"Feature","properties":{},"geometry":{"type":"Polygon","coordinates":[[[-75.97286860000003,35.17500000000001],[-75.97500000000002,35.17500000000001],[-75.97500000000002,35.17694310000002],[-75.97500000000002,35.1943091],[-75.97500000000002,35.25],[-75.89999999999998,35.25],[-75.89999999999998,35.229964300000006],[-75.89999999999998,35.20918160000002],[-75.89999999999998,35.20620280000003],[-75.89999999999998,35.17500000000001],[-75.97286860000003,35.17500000000001]]]}},{"type":"Feature","properties":{},"geometry":{"type":"Polygon","coordinates":[[[-75.89901739999999,35.17500000000001],[-75.89999999999998,35.17500000000001],[-75.89999999999998,35.20620280000003],[-75.89999999999998,35.20918160000002],[-75.89999999999998,35.229964300000006],[-75.89999999999998,35.25],[-75.88777379999999,35.25],[-75.87242279999998,35.25],[-75.86719950000003,35.25],[-75.82499999999999,35.25],[-75.82499999999999,35.240402700000004],[-75.82499999999999,35.23743059999998],[-75.82499999999999,35.22296060000002],[-75.82499999999999,35.219202199999984],[-75.82499999999999,35.21139529999999],[-75.82499999999999,35.20932379999999],[-75.82499999999999,35.20155599999998],[-75.82499999999999,35.193105],[-75.82499999999999,35.19150680000001],[-75.82499999999999,35.17500000000001],[-75.86775340000003,35.17500000000001],[-75.8973853,35.17500000000001],[-75.89901739999999,35.17500000000001]]]}}]}