{"type":"FeatureCollection","features":[{"type":"Feature","properties":{},"geometry":{"type":"Polygon","coordinates":[[[-75.819591,35.173021000000006],[-75.819591,35.17284599999999],[-75.81963400000001,35.172740999999974],[-75.81978299999997,35.17258399999997],[-75.819995,35.17249700000002],[-75.820357,35.172567000000015],[-75.82050600000002,35.172758999999985],[-75.82048500000002,35.17298599999998],[-75.820315,35.17314299999998],[-75.819995,35.17319500000002],[-75.81971900000002,35.17314299999998],[-75.819591,35.173021000000006]]]}},{"type":"Feature","properties":{},"geometry":{"type":"Polygon","coordinates":[[[-75.82499999999999,35.16563860000002],[-75.82499999999999,35.16775819999998],[-75.82491440000001,35.167801],[-75.8249386,35.167935],[-75.82483660000003,35.16818799999999],[-75.824568,35.168274],[-75.82440700000001,35.16826200000003],[-75.82411400000001,35.168154000000015],[-75.8236,35.167850999999985],[-75.82308280000001,35.16720529999998],[-75.82276910000002,35.16692870000003],[-75.82253409999998,35.16686870000001],[-75.82231410000003,35.16697670000002],[-75.82231510000003,35.16715069999998],[-75.82327020000002,35.16799959999997],[-75.82370300000002,35.16886899999997],[-75.82395100000002,35.169174],[-75.82396799999998,35.169381999999985],[-75.82385,35.169647],[-75.82371899999998,35.16975500000001],[-75.82344,35.16987499999999],[-75.82302900000002,35.169824000000006],[-75.82257499999997,35.16976699999998],[-75.822429,35.169790999999975],[-75.821867,35.16997600000002],[-75.82119699999998,35.170525999999995],[-75.82090399999998,35.17063400000001],[-75.82075800000001,35.17062199999998],[-75.820538,35.17042900000001],[-75.82022999999998,35.16958699999998],[-75.82008300000001,35.16933399999999],[-75.819863,35.169129999999996],[-75.81973099999999,35.16914200000002],[-75.81963250000001,35.16929929999998],[-75.8193655,35.16960540000002],[-75.81913050000003,35.16968939999998],[-75.81883749999997,35.169545400000004],[-75.8182875,35.16902219999997],[-75.81800040000002,35.168815300000006],[-75.81782909999998,35.16879460000001],[-75.81770820000003,35.16885259999998],[-75.81773340000001,35.16912559999997],[-75.8176717,35.16922310000001],[-75.81748149999999,35.16929520000002],[-75.8172659,35.16932650000001],[-75.81715300000002,35.16943600000002],[-75.81713989999997,35.169616700000006],[-75.81723499999998,35.169689000000005],[-75.81834090000001,35.169809199999975],[-75.81841680000002,35.16986939999998],[-75.81842890000001,35.17005019999999],[-75.81833369999998,35.17037499999998],[-75.81809429999998,35.17085159999999],[-75.81782600000003,35.171176],[-75.81757700000003,35.17139300000002],[-75.81709699999999,35.17167699999999],[-75.81672099999997,35.172121000000004],[-75.81659990000003,35.17231349999997],[-75.81639840000003,35.17231349999997],[-75.8161465,35.17221360000002],[-75.81540999999999,35.171835999999985],[-75.81496800000002,35.17176599999999],[-75.81467500000002,35.171802000000014],[-75.81455799999998,35.172031000000004],[-75.81468999999998,35.17240399999997],[-75.81479480000002,35.172754699999984],[-75.814799,35.172961499999985],[-75.81465700000001,35.17303900000002],[-75.81444629999999,35.17306150000002],[-75.81424479999998,35.172940900000015],[-75.81393000000003,35.172443999999984],[-75.81380819999998,35.172251500000016],[-75.81368229999998,35.172258399999976],[-75.81360999999998,35.17236200000002],[-75.8135522,35.1725376],[-75.81338849999997,35.172647900000015],[-75.81309299999998,35.172634000000016],[-75.81139200000001,35.17251299999998],[-75.81077599999998,35.17263300000002],[-75.81051200000002,35.17280199999999],[-75.80996900000002,35.173383],[-75.80920300000002,35.17357900000002],[-75.80909000000003,35.173765],[-75.809143,35.17393700000002],[-75.80955999999998,35.174030000000016],[-75.80985299999998,35.17419799999999],[-75.81001400000002,35.17442699999998],[-75.81012399999997,35.17466300000001],[-75.81008600000001,35.174870999999996],[-75.81004109999998,35.17500000000001],[-75.8046137,35.17500000000001],[-75.7974132,35.17500000000001],[-75.79932889999998,35.17436889999999],[-75.801939,35.17350909999999],[-75.802123,35.173448500000006],[-75.80240700000002,35.173344799999995],[-75.8031631,35.173068899999976],[-75.80571370000001,35.172138099999984],[-75.80753329999999,35.1715226],[-75.81017489999999,35.17052000000001],[-75.81368099999997,35.16925420000001],[-75.81758610000003,35.16784949999999],[-75.81880130000002,35.16734300000002],[-75.8209673,35.16656039999998],[-75.82499999999999,35.16493869999999],[-75.82499999999999,35.16563860000002]]]}},{"type":"Feature","properties":{},"geometry":{"type":"Polygon","coordinates":[[[-75.81895200000002,35.17319500000002],[-75.81848400000001,35.17333500000001],[-75.81808000000001,35.17333500000001],[-75.81773900000002,35.17322999999999],[-75.817633,35.173021000000006],[-75.81773900000002,35.17272400000002],[-75.81810100000001,35.172461999999996],[-75.81858999999997,35.172304999999994],[-75.81884600000001,35.17234000000002],[-75.81912299999999,35.17249700000002],[-75.81931400000002,35.172706000000005],[-75.819229,35.173021000000006],[-75.81895200000002,35.17319500000002]]]}},{"type":"Feature","properties":{},"geometry":{"type":"Polygon","coordinates":[[[-75.7619454,35.2046828],[-75.76179029999997,35.2046555],[-75.76154659999997,35.204482799999994],[-75.76144690000001,35.20428279999999],[-75.76152450000001,35.203973700000006],[-75.76174600000002,35.203610000000026],[-75.76202289999998,35.20330089999999],[-75.7624217,35.20313729999998],[-75.76273179999998,35.20306449999998],[-75.76316379999997,35.20310999999998],[-75.7635515,35.20337360000002],[-75.7637176,35.20359180000003],[-75.7637176,35.203819099999976],[-75.76350719999999,35.20424639999999],[-75.76329670000001,35.204701],[-75.7632413,35.20512830000001],[-75.76311950000002,35.205419199999994],[-75.76293120000003,35.205546500000025],[-75.762765,35.205555600000025],[-75.76257670000001,35.20532830000002],[-75.76247710000001,35.20485550000001],[-75.76233309999998,35.2047192],[-75.76213369999999,35.2047101],[-75.7619454,35.2046828]]]}},{"type":"Feature","properties":{},"geometry":{"type":"Polygon","coordinates":[[[-75.77332960000001,35.1885949],[-75.7731392,35.18857409999998],[-75.77287139999999,35.18839159999999],[-75.7727251,35.188291900000024],[-75.77256360000001,35.188181799999995],[-75.77249139999998,35.18813260000002],[-75.7724129,35.188079200000004],[-75.77163480000002,35.1880506],[-75.77145589999998,35.188042300000006],[-75.7714497,35.188041999999996],[-75.77095700000001,35.18801910000002],[-75.770714,35.18800779999998],[-75.77024840000001,35.18805950000001],[-75.76993429999999,35.187907199999984],[-75.76980150000003,35.18779169999999],[-75.76967730000001,35.187683600000014],[-75.76950119999998,35.18760739999999],[-75.76885879999998,35.18745990000002],[-75.7685108,35.18716010000003],[-75.76849670000001,35.187145499999986],[-75.7682633,35.186903099999995],[-75.76790640000002,35.18661759999998],[-75.7676922,35.18653669999998],[-75.7675117,35.186554899999976],[-75.76762230000003,35.186282500000004],[-75.7677999,35.185913700000015],[-75.76784220000002,35.185701800000004],[-75.7679043,35.185390600000005],[-75.76805059999998,35.1850819],[-75.76835349999999,35.184790299999975],[-75.76884940000002,35.18450059999998],[-75.7701712,35.18375329999998],[-75.7710108,35.1832708],[-75.77178320000002,35.1826643],[-75.77264789999998,35.181706099999985],[-75.77329309999999,35.18122310000001],[-75.77388250000001,35.18097829999999],[-75.776726,35.180147999999974],[-75.77775200000002,35.17993100000001],[-75.7794786,35.17968769999999],[-75.7806721,35.179455700000005],[-75.7834244,35.178920600000026],[-75.7862361,35.17834529999999],[-75.78906690000002,35.177693499999975],[-75.79404950000003,35.17620979999998],[-75.79688140000002,35.175177399999995],[-75.796943,35.175154899999995],[-75.7974132,35.17500000000001],[-75.8046137,35.17500000000001],[-75.81004109999998,35.17500000000001],[-75.80997000000002,35.17520400000001],[-75.809752,35.175478],[-75.80850199999998,35.176064],[-75.80832900000001,35.17626799999999],[-75.808358,35.176581],[-75.80868099999998,35.176822000000016],[-75.80937999999998,35.17708099999999],[-75.80931900000002,35.17733399999997],[-75.80885699999999,35.177809000000025],[-75.80853100000002,35.17782299999999],[-75.80812900000001,35.177347],[-75.80771650000003,35.176287100000025],[-75.80732499999999,35.17536799999999],[-75.80712699999998,35.17528199999998],[-75.80691000000002,35.17545999999999],[-75.8069094,35.17546629999998],[-75.806848,35.176169000000016],[-75.80715789999999,35.1767696],[-75.8074699,35.1772282],[-75.8077745,35.177794000000006],[-75.80783100000002,35.17838699999999],[-75.80763669999999,35.178645700000004],[-75.807274,35.17881999999997],[-75.80698100000001,35.17881999999997],[-75.80665900000002,35.178552000000025],[-75.80601910000001,35.178222800000015],[-75.80593199999998,35.17830620000001],[-75.80569100000002,35.178653],[-75.805588,35.178905999999984],[-75.80513400000001,35.17923000000002],[-75.804665,35.17927800000001],[-75.80410599999999,35.17910899999998],[-75.80369400000001,35.178990999999996],[-75.80343299999998,35.178675999999996],[-75.803334,35.17842200000001],[-75.80334449999998,35.177484900000024],[-75.8034998,35.17686800000001],[-75.803474,35.17662769999998],[-75.8034624,35.17657270000001],[-75.80326409999998,35.17649610000001],[-75.8029745,35.17653109999998],[-75.80200059999999,35.17671369999999],[-75.8014675,35.17689300000001],[-75.80111060000002,35.17722730000003],[-75.80082520000002,35.177599499999985],[-75.80060270000001,35.177785700000015],[-75.8002543,35.1778994],[-75.79907459999998,35.17813719999998],[-75.79742490000001,35.178461200000015],[-75.79692949999998,35.17860940000003],[-75.79653489999998,35.17877490000001],[-75.79626619999999,35.17899540000002],[-75.7960228,35.17962619999997],[-75.79583810000003,35.180060500000025],[-75.79580449999997,35.180136300000015],[-75.79572889999997,35.18020519999999],[-75.79562820000001,35.18020180000002],[-75.79554839999997,35.18017070000002],[-75.7954896,35.18012249999998],[-75.79538050000002,35.18005699999998],[-75.7952378,35.1800915],[-75.7951496,35.180212100000006],[-75.79503210000001,35.18036719999998],[-75.79493969999999,35.180477499999995],[-75.7948012,35.1806464],[-75.79468780000002,35.180732499999976],[-75.79450730000002,35.180742899999984],[-75.79440240000002,35.180760099999986],[-75.79391959999998,35.180760099999986],[-75.7937475,35.18079460000001],[-75.79344950000001,35.18097719999997],[-75.79315559999998,35.18118399999997],[-75.7929163,35.181445999999994],[-75.7926225,35.18177680000002],[-75.79240420000002,35.1818389],[-75.79205569999999,35.18188709999998],[-75.79190039999997,35.181894],[-75.79175350000003,35.181928500000026],[-75.79167790000002,35.182093899999984],[-75.7915688,35.18233520000001],[-75.79151839999997,35.18246959999999],[-75.7914303,35.182483400000024],[-75.7911952,35.182483400000024],[-75.79095589999997,35.18252469999999],[-75.79067880000002,35.1826729],[-75.7902297,35.18300720000002],[-75.79001979999998,35.183313999999996],[-75.7898854,35.18349319999999],[-75.78979729999998,35.18360689999997],[-75.78963779999998,35.18358970000003],[-75.78952020000003,35.183548299999984],[-75.78933970000003,35.183544900000015],[-75.78912559999998,35.18368620000001],[-75.78904169999998,35.183782699999995],[-75.78900390000001,35.18394119999999],[-75.7889619,35.18421000000001],[-75.78885689999998,35.184330699999975],[-75.78858830000001,35.18440989999999],[-75.78825660000001,35.18445129999998],[-75.78789560000001,35.184533999999985],[-75.7876144,35.184630500000026],[-75.7872911,35.18483730000003],[-75.7869637,35.185278400000016],[-75.7865617,35.18568959999999],[-75.7863094,35.18583130000002],[-75.78570389999999,35.186120500000015],[-75.78523760000002,35.18635499999999],[-75.78431490000003,35.186812299999985],[-75.78379260000003,35.18709100000001],[-75.7835402,35.18729830000001],[-75.7833225,35.187641299999996],[-75.78328770000002,35.18794860000003],[-75.78358370000001,35.188291600000014],[-75.78407120000003,35.18866320000001],[-75.78451510000002,35.189006199999994],[-75.78477620000001,35.18912769999997],[-75.78496769999998,35.189299199999994],[-75.7850722,35.189627900000005],[-75.78501540000002,35.19024910000002],[-75.78493689999999,35.19043060000001],[-75.7847203,35.19059349999998],[-75.78442849999999,35.1908353],[-75.7842483,35.190847099999985],[-75.7839932,35.19086390000001],[-75.78353449999997,35.19068609999999],[-75.7833665,35.1906209],[-75.782644,35.19020649999999],[-75.7820347,35.18982060000002],[-75.78154719999998,35.18939180000001],[-75.7809727,35.189055999999994],[-75.78062449999999,35.18894879999999],[-75.78028499999999,35.189006000000006],[-75.78011959999998,35.1892704],[-75.77983239999998,35.18980629999999],[-75.77976269999999,35.190027799999996],[-75.78005000000002,35.19020649999999],[-75.78058099999998,35.19057809999998],[-75.78076379999999,35.19070909999999],[-75.78065930000002,35.190842499999974],[-75.78005869999998,35.1910211],[-75.7800421,35.19102600000002],[-75.77952770000002,35.19117829999999],[-75.77905759999999,35.19119979999999],[-75.77860500000003,35.19097820000002],[-75.77822200000003,35.19059950000002],[-75.77785640000002,35.19030650000002],[-75.77758649999998,35.1902422],[-75.7770468,35.1900564],[-75.77676509999998,35.18992250000002],[-75.77671609999999,35.18989920000001],[-75.77629080000003,35.18967479999998],[-75.77562549999999,35.18949279999998],[-75.77555860000001,35.18946790000001],[-75.77517549999999,35.18923640000003],[-75.77495060000001,35.189100499999995],[-75.7746194,35.18896969999997],[-75.7743557,35.188865599999986],[-75.77418619999997,35.18880610000002],[-75.77373410000001,35.18868709999998],[-75.77339690000002,35.18861029999999],[-75.77332960000001,35.1885949]]]}},{"type":"Feature","properties":{},"geometry":{"type":"Polygon","coordinates":[[[-75.78975179999998,35.18399679999999],[-75.78977279999998,35.184038199999975],[-75.7897896,35.18412430000001],[-75.78973919999999,35.1842312],[-75.78966359999998,35.18435870000002],[-75.78955450000001,35.184448299999985],[-75.78943700000002,35.18446549999999],[-75.789353,35.18437940000001],[-75.78928580000002,35.184244999999976],[-75.78928580000002,35.184065799999985],[-75.78944960000001,35.18394169999999],[-75.78955869999999,35.183903799999996],[-75.78973500000001,35.18395889999999],[-75.78975179999998,35.18399679999999]]]}},{"type":"Feature","properties":{},"geometry":{"type":"Polygon","coordinates":[[[-75.79073640000001,35.18311749999998],[-75.79083609999998,35.18318870000002],[-75.79088710000002,35.18328070000001],[-75.79088109999998,35.18340069999999],[-75.79083109999999,35.18352570000002],[-75.79074859999997,35.18362289999999],[-75.79060609999999,35.1836677],[-75.79049479999998,35.183644800000025],[-75.79038279999997,35.183588799999995],[-75.79034380000002,35.18353380000002],[-75.7903488,35.18339580000003],[-75.79037240000002,35.1832268],[-75.79045839999998,35.183125700000005],[-75.79062040000002,35.18308830000001],[-75.79073640000001,35.18311749999998]]]}},{"type":"Feature","properties":{},"geometry":{"type":"Polygon","coordinates":[[[-75.806713,35.18406700000003],[-75.80695500000002,35.184230000000014],[-75.80712599999998,35.18433599999997],[-75.80728299999998,35.18446399999999],[-75.80726900000002,35.18464],[-75.80696999999998,35.18481600000001],[-75.80658399999999,35.18485099999998],[-75.80614200000002,35.18487399999998],[-75.80579999999998,35.184909000000005],[-75.80547200000001,35.184920999999974],[-75.80512900000002,35.18467500000003],[-75.80490099999997,35.18448799999999],[-75.804844,35.18428899999998],[-75.80494399999998,35.184055],[-75.80518599999999,35.18398500000001],[-75.80552899999998,35.18396100000001],[-75.80584299999998,35.18399599999998],[-75.806128,35.18398500000001],[-75.80634199999997,35.18398500000001],[-75.806713,35.18406700000003]]]}},{"type":"Feature","properties":{},"geometry":{"type":"Polygon","coordinates":[[[-75.68137919999998,35.220310100000006],[-75.68154390000001,35.22016309999998],[-75.68192010000001,35.21993379999998],[-75.6823177,35.21968099999998],[-75.68243239999998,35.219642799999974],[-75.68252189999998,35.21965749999998],[-75.68259710000001,35.219716300000016],[-75.68264370000003,35.21982209999999],[-75.6828658,35.219989699999985],[-75.6830127,35.2200249],[-75.68316320000002,35.22005139999999],[-75.68319539999999,35.220083699999975],[-75.68320260000002,35.22022479999998],[-75.6831775,35.220298300000024],[-75.68304490000003,35.22038359999999],[-75.68288369999999,35.22049240000001],[-75.68266160000002,35.22074809999998],[-75.68243589999997,35.22100089999998],[-75.68237149999999,35.22112149999998],[-75.68237149999999,35.221268399999985],[-75.68232130000001,35.2213155],[-75.68224249999997,35.22131839999997],[-75.68214940000001,35.221274300000005],[-75.68211710000003,35.221189100000004],[-75.68209200000001,35.22104209999998],[-75.68192720000002,35.220903899999996],[-75.6815762,35.220674599999995],[-75.68140060000002,35.22050410000003],[-75.6813684,35.22036889999998],[-75.68137919999998,35.220310100000006]]]}},{"type":"Feature","properties":{},"geometry":{"type":"Polygon","coordinates":[[[-75.67950159999998,35.22382859999999],[-75.67939960000001,35.22363760000002],[-75.67930560000002,35.2234904],[-75.67917740000001,35.22345530000001],[-75.6789296,35.22343430000001],[-75.67880989999998,35.22330099999999],[-75.67870740000001,35.223125700000026],[-75.67876719999998,35.22293639999998],[-75.67874160000002,35.22277509999998],[-75.6786219,35.2225507],[-75.6783656,35.222494600000005],[-75.6780152,35.22236839999999],[-75.6779052,35.22228910000001],[-75.67773319999998,35.22216500000002],[-75.67760500000003,35.221954600000004],[-75.6776135,35.221765300000015],[-75.67786139999998,35.2214778],[-75.67812370000001,35.22120560000002],[-75.67840569999998,35.220840899999985],[-75.67849969999997,35.220693600000004],[-75.67868370000002,35.22052450000001],[-75.67871330000003,35.22049729999998],[-75.67914919999998,35.22036400000002],[-75.67988409999998,35.2205323],[-75.67989560000001,35.22053340000002],[-75.68032849999997,35.220574399999975],[-75.6809096,35.22048319999999],[-75.68108050000001,35.22055339999997],[-75.6811232,35.2208339],[-75.6811745,35.22144400000002],[-75.68119159999998,35.22167539999998],[-75.68127709999999,35.22181569999998],[-75.68150780000002,35.22189279999998],[-75.68178130000001,35.221864700000026],[-75.68202910000002,35.221731499999976],[-75.6822684,35.22159829999998],[-75.68249909999997,35.22152110000002],[-75.68270419999999,35.22132479999999],[-75.68285800000001,35.2210513],[-75.68288369999999,35.220854900000006],[-75.68302890000001,35.22075669999998],[-75.68321689999999,35.220693600000004],[-75.68338840000001,35.2206688],[-75.68356560000001,35.2204643],[-75.68393989999998,35.220378100000005],[-75.68401610000001,35.220369800000014],[-75.68413579999998,35.22035199999999],[-75.68426799999997,35.2203313],[-75.68441630000001,35.22034350000001],[-75.68456079999999,35.22038079999999],[-75.68465780000002,35.22042320000003],[-75.68482990000001,35.22049370000002],[-75.68493219999999,35.220491700000025],[-75.68501049999998,35.220453599999985],[-75.68513489999998,35.22034819999999],[-75.68522330000002,35.22023780000001],[-75.68530800000002,35.22011379999998],[-75.68535120000001,35.220076800000015],[-75.68539609999999,35.22008349999999],[-75.68556699999999,35.220041400000014],[-75.68578070000001,35.22000639999999],[-75.6860456,35.21987309999997],[-75.68632760000003,35.21962769999999],[-75.68654980000002,35.21938920000002],[-75.68676340000002,35.219305099999985],[-75.6870113,35.219305099999985],[-75.68721640000001,35.219269999999995],[-75.6873531,35.219157800000005],[-75.68740439999999,35.219073700000024],[-75.68757529999999,35.2190253],[-75.6882091,35.21877280000001],[-75.68827829999998,35.21875080000001],[-75.6886862,35.21862090000002],[-75.6888571,35.218404599999985],[-75.68910620000003,35.218074],[-75.68884070000001,35.21788600000002],[-75.68852450000003,35.2181736],[-75.68840490000002,35.21836289999999],[-75.6882086,35.2184924],[-75.68796090000001,35.21846240000002],[-75.6878716,35.218442700000026],[-75.68778229999998,35.21845960000002],[-75.6876307,35.218588599999975],[-75.68745259999997,35.218682],[-75.6872449,35.218698200000006],[-75.68713609999998,35.21862520000002],[-75.68701249999998,35.218588599999975],[-75.68691849999999,35.218641400000024],[-75.6867504,35.21877940000002],[-75.68650309999998,35.21902699999998],[-75.68609759999998,35.219327299999975],[-75.68603769999999,35.2193585],[-75.6857316,35.219517999999994],[-75.68551400000001,35.21959509999999],[-75.68538050000001,35.21960730000001],[-75.68517279999998,35.21947740000002],[-75.68497989999997,35.219262300000025],[-75.6849403,35.21914459999999],[-75.68487599999997,35.218990399999996],[-75.68476229999999,35.218876799999975],[-75.68452000000002,35.21881189999999],[-75.68407489999998,35.21878340000001],[-75.68380780000001,35.2188443],[-75.68359520000001,35.218937700000026],[-75.6833924,35.219018800000015],[-75.68318959999999,35.21900260000001],[-75.682972,35.218941700000016],[-75.6829548,35.21894739999999],[-75.6828731,35.21897419999999],[-75.68271979999997,35.21907970000001],[-75.68264429999999,35.21917000000002],[-75.68254669999999,35.2192867],[-75.68232419999998,35.21936790000001],[-75.6820472,35.21949369999999],[-75.6816862,35.21963169999998],[-75.6814933,35.21972090000003],[-75.68130539999999,35.21985890000002],[-75.68121639999998,35.2199928],[-75.68110760000002,35.22006590000001],[-75.68091399999997,35.22016180000003],[-75.68031100000002,35.2202527],[-75.67984619999999,35.22027400000002],[-75.67953849999998,35.220152900000016],[-75.6791078,35.22004179999999],[-75.67867710000002,35.219991300000004],[-75.67845899999998,35.219921699999986],[-75.67838210000002,35.2195921],[-75.67859570000002,35.219388700000025],[-75.67888629999999,35.21912229999998],[-75.67920049999998,35.21882649999998],[-75.67947830000003,35.21852259999997],[-75.67972040000001,35.21810770000002],[-75.68000519999998,35.21788559999999],[-75.68016899999998,35.21786220000001],[-75.68045389999997,35.217984899999976],[-75.6806747,35.21801420000003],[-75.68076719999999,35.21796740000002],[-75.68077440000002,35.217868099999976],[-75.6806889,35.2177044],[-75.680676,35.217649300000005],[-75.68065330000002,35.21755250000001],[-75.68071029999999,35.21735380000001],[-75.6807316,35.21713169999998],[-75.68065330000002,35.216792699999985],[-75.6806004,35.21662839999999],[-75.6805536,35.21648299999998],[-75.68037559999999,35.21641870000002],[-75.68024029999998,35.21647710000002],[-75.68019750000002,35.21658230000003],[-75.68034,35.21682199999998],[-75.68045389999997,35.21710830000001],[-75.6804325,35.21728359999997],[-75.68023310000001,35.2173947],[-75.67989840000001,35.21745900000002],[-75.6795922,35.21757000000002],[-75.67940700000003,35.21775120000001],[-75.67911930000002,35.218106499999976],[-75.6788616,35.21849400000002],[-75.67842480000002,35.218928000000005],[-75.67811089999998,35.21913619999998],[-75.6779234,35.21917830000001],[-75.67756739999999,35.21927169999998],[-75.67746849999997,35.21931289999998],[-75.67737490000002,35.21935189999999],[-75.6769344,35.219535399999984],[-75.67671680000001,35.21958009999997],[-75.6765239,35.2195557],[-75.6762766,35.219401500000004],[-75.67619250000001,35.21926760000002],[-75.67617280000002,35.219076900000005],[-75.67626669999999,35.21881309999998],[-75.67636069999998,35.2184924],[-75.67648930000001,35.21817179999999],[-75.67648930000001,35.21797299999997],[-75.6764349,35.21775789999998],[-75.67631619999997,35.21762389999998],[-75.6761975,35.217611799999986],[-75.67613319999998,35.21757930000001],[-75.6759902,35.2174718],[-75.6757409,35.217518600000005],[-75.67557,35.217577000000006],[-75.67554860000001,35.2176705],[-75.67559849999998,35.217845899999986],[-75.67577649999998,35.21815559999999],[-75.6759902,35.21840099999997],[-75.67609700000003,35.2186231],[-75.67609700000003,35.218786799999975],[-75.6760329,35.21894450000002],[-75.6758264,35.21907900000002],[-75.6755842,35.21915489999998],[-75.67534920000003,35.21915489999998],[-75.67516410000002,35.219043899999974],[-75.67500000000001,35.218893700000024],[-75.67500000000001,35.2141383],[-75.67708850000002,35.213422200000025],[-75.68067350000001,35.2121363],[-75.6848225,35.21073719999998],[-75.6884326,35.209410100000014],[-75.69093959999998,35.2085151],[-75.69304540000002,35.20783610000001],[-75.69780279999998,35.2062502],[-75.6979215,35.20621060000002],[-75.70087710000001,35.205221600000016],[-75.7047781,35.2039163],[-75.70941599999998,35.202198099999976],[-75.7140915,35.200551899999994],[-75.71632269999998,35.19982140000002],[-75.7197071,35.19863809999998],[-75.72393140000003,35.19704330000002],[-75.7256863,35.19665229999998],[-75.72779209999999,35.19604529999998],[-75.7298604,35.19529410000001],[-75.73125169999997,35.1947591],[-75.7322044,35.19432690000002],[-75.7328061,35.19422400000002],[-75.7333701,35.19431659999998],[-75.73361039999998,35.194336299999975],[-75.73387150000002,35.19435779999998],[-75.73447320000002,35.19435779999998],[-75.73528800000003,35.19421369999998],[-75.73599869999998,35.194004500000005],[-75.7364412,35.19387419999998],[-75.73730610000001,35.193699200000026],[-75.73828379999998,35.193791799999985],[-75.7389106,35.194151999999974],[-75.7390881,35.19419429999999],[-75.73929909999998,35.19424459999999],[-75.73946210000003,35.19449150000003],[-75.73942449999998,35.19473850000003],[-75.7390484,35.19497519999999],[-75.73901489999997,35.19498900000002],[-75.73882279999998,35.195067800000004],[-75.73822109999998,35.19538669999997],[-75.73735119999998,35.196079499999996],[-75.73713729999997,35.1962499],[-75.73684379999997,35.19648360000002],[-75.73424119999999,35.198164099999985],[-75.73410460000002,35.198263699999984],[-75.73392910000001,35.198404100000005],[-75.73372360000002,35.198629700000026],[-75.73349289999999,35.19889549999999],[-75.73332249999999,35.19907089999998],[-75.73325729999999,35.19914110000002],[-75.73319980000002,35.19919859999999],[-75.7328253,35.19960750000001],[-75.73263079999998,35.19978680000003],[-75.732462,35.19993340000002],[-75.7322954,35.200088900000026],[-75.7321465,35.200193300000024],[-75.73189989999997,35.20031549999999],[-75.73169999999999,35.200388799999985],[-75.73148450000002,35.20044660000002],[-75.73093469999998,35.200678700000026],[-75.73039699999998,35.200878699999976],[-75.73009109999998,35.2009898],[-75.72971130000002,35.20108750000003],[-75.7291639,35.20122409999999],[-75.72907500000002,35.20123749999999],[-75.72897719999997,35.2012441],[-75.7288173,35.201226399999996],[-75.72866399999998,35.201233],[-75.7285374,35.201250800000025],[-75.72830850000003,35.201308600000004],[-75.72802059999998,35.2013996],[-75.72796949999997,35.20140409999999],[-75.7279029,35.2013996],[-75.7276918,35.201379599999996],[-75.7276296,35.20137080000001],[-75.72758959999999,35.20137740000001],[-75.72754520000001,35.201379599999996],[-75.72750969999998,35.2013685],[-75.72749110000001,35.20133470000002],[-75.72749110000001,35.201254000000006],[-75.72744560000001,35.20104730000003],[-75.7273616,35.2009554],[-75.72707830000002,35.200854900000024],[-75.72702930000003,35.200966900000026],[-75.72707480000003,35.20108750000003],[-75.72708180000001,35.201176499999974],[-75.72700129999998,35.201225299999976],[-75.7269523,35.20119949999997],[-75.72685089999999,35.20110469999997],[-75.72674940000002,35.20102429999997],[-75.72659900000002,35.20094390000003],[-75.72648709999999,35.20092090000003],[-75.72642409999997,35.2010042],[-75.72645210000002,35.20107890000003],[-75.7266095,35.201222400000006],[-75.72680539999999,35.20142340000001],[-75.72680539999999,35.20146629999999],[-75.72678769999999,35.201492900000005],[-75.7267521,35.20150849999999],[-75.7262523,35.201552900000024],[-75.72592120000002,35.20155740000001],[-75.72571019999998,35.201566300000025],[-75.7256147,35.2015796],[-75.725528,35.201606200000015],[-75.72546799999998,35.201619600000015],[-75.72540140000001,35.201619600000015],[-75.7250138,35.201568099999974],[-75.72430700000001,35.201498000000015],[-75.7228829,35.20137949999997],[-75.72144129999998,35.201473799999974],[-75.72117730000002,35.20139139999998],[-75.72092420000001,35.20113650000002],[-75.72067049999998,35.20099479999999],[-75.7203576,35.20075939999998],[-75.7201311,35.20075939999998],[-75.71989430000002,35.200843899999995],[-75.71969869999998,35.2010214],[-75.71966780000002,35.20121569999998],[-75.71963690000001,35.20143539999998],[-75.71945160000001,35.2015538],[-75.71921479999997,35.20162140000002],[-75.71891620000002,35.20146080000001],[-75.7187103,35.2012833],[-75.7185455,35.20127489999999],[-75.71838079999998,35.20137629999999],[-75.71820580000002,35.201595999999995],[-75.71792779999998,35.201781900000015],[-75.71756740000001,35.20192559999998],[-75.71726890000002,35.20195940000002],[-75.71699089999998,35.201858000000016],[-75.71680559999999,35.20192559999998],[-75.71680300000003,35.201931],[-75.71673349999998,35.20207770000002],[-75.71676439999999,35.2025256],[-75.71670260000002,35.20284670000001],[-75.71651730000002,35.2030833],[-75.71613630000002,35.20330310000003],[-75.71579659999998,35.2034721],[-75.7153745,35.20360729999999],[-75.71515820000002,35.20370869999999],[-75.7150244,35.20391990000002],[-75.71481849999998,35.20429180000002],[-75.71459199999998,35.204494599999975],[-75.714314,35.20463819999998],[-75.7140463,35.2047058],[-75.71388159999998,35.20482420000002],[-75.7139022,35.204942500000016],[-75.71386100000001,35.20515369999998],[-75.71366540000002,35.20532270000001],[-75.71331529999998,35.205483300000026],[-75.71291380000002,35.205576199999996],[-75.71236809999999,35.20560160000002],[-75.71170919999997,35.205534],[-75.71126650000002,35.20559309999999],[-75.71084430000002,35.20547479999999],[-75.71065900000002,35.205297400000006],[-75.71050459999998,35.20528890000003],[-75.71044280000001,35.20534809999998],[-75.71042219999998,35.20552550000002],[-75.71057660000002,35.205821300000025],[-75.7107517,35.206125499999985],[-75.7108134,35.206387500000005],[-75.71061780000002,35.206522699999994],[-75.7102678,35.20664099999999],[-75.70978389999999,35.206683199999986],[-75.70954710000001,35.20680149999998],[-75.70944409999998,35.2069874],[-75.7091661,35.20708880000001],[-75.70885729999998,35.207232499999975],[-75.7088435,35.207246399999974],[-75.70858959999998,35.20750290000001],[-75.7085793,35.20765499999999],[-75.70869249999998,35.20786629999998],[-75.70867190000001,35.20808599999998],[-75.70850719999999,35.20828030000001],[-75.70803360000002,35.20843239999999],[-75.70709670000002,35.2086099],[-75.7060568,35.20867750000002],[-75.70518170000003,35.2087535],[-75.70454699999999,35.208762999999976],[-75.703956,35.20872200000002],[-75.70391380000001,35.208629299999984],[-75.70419570000001,35.208470999999975],[-75.70390859999998,35.208193600000016],[-75.7036976,35.208293000000026],[-75.7036028,35.208269299999984],[-75.703574,35.2081915],[-75.7036688,35.20800209999999],[-75.7042831,35.20748830000002],[-75.70376320000003,35.20714340000001],[-75.70292289999998,35.20774549999999],[-75.70258819999998,35.207973400000014],[-75.70219650000001,35.20821310000002],[-75.70196149999998,35.20802600000002],[-75.70153420000003,35.20839430000001],[-75.70154250000002,35.208399799999995],[-75.70199710000003,35.208698200000015],[-75.70229990000001,35.20880269999998],[-75.70218169999998,35.2089967],[-75.70209210000002,35.20904969999998],[-75.7019381,35.20893790000002],[-75.70175899999998,35.208970299999976],[-75.70166219999999,35.20903499999997],[-75.70163359999998,35.20913489999998],[-75.70172309999998,35.20925549999998],[-75.70204910000001,35.20942309999998],[-75.70224259999998,35.20943779999999],[-75.70239299999997,35.20937600000002],[-75.70241809999999,35.209296600000016],[-75.70231059999998,35.209205499999996],[-75.70229269999999,35.2090996],[-75.70231059999998,35.20900260000002],[-75.70245039999998,35.20890850000001],[-75.70276619999999,35.209089800000015],[-75.70280780000002,35.20910959999998],[-75.7035282,35.20945219999999],[-75.70357810000002,35.20970349999999],[-75.7034969,35.2098249],[-75.7033687,35.20988799999998],[-75.70304399999998,35.20997219999998],[-75.7028474,35.21007739999999],[-75.70278760000002,35.21024569999997],[-75.70272779999999,35.21039300000001],[-75.70253980000001,35.210449100000005],[-75.70224919999998,35.2104281],[-75.70195869999998,35.210484199999996],[-75.70174500000002,35.210575300000016],[-75.70156559999998,35.210862899999995],[-75.70147159999999,35.21112240000002],[-75.70128360000001,35.21133279999998],[-75.70109559999997,35.211431000000005],[-75.70092460000001,35.211466099999996],[-75.70077079999999,35.211402899999996],[-75.70071100000001,35.21129769999999],[-75.70077079999999,35.21117850000002],[-75.70099299999998,35.21105929999999],[-75.70106140000001,35.2109471],[-75.7009759,35.210827800000004],[-75.7006854,35.210561299999995],[-75.70036060000001,35.21035790000002],[-75.7001641,35.210322899999994],[-75.69981369999999,35.210638500000016],[-75.69967700000001,35.210673499999984],[-75.6994206,35.21035790000002],[-75.69930090000003,35.210301800000025],[-75.69921549999998,35.210301800000025],[-75.69910440000001,35.21039300000001],[-75.69906170000002,35.210561299999995],[-75.69909580000001,35.21070159999999],[-75.69923260000002,35.21086989999998],[-75.6998132,35.21125000000001],[-75.70010330000002,35.211618999999985],[-75.70058499999999,35.211479],[-75.70092399999999,35.21171700000002],[-75.70097199999998,35.21203400000002],[-75.7006528,35.21280489999998],[-75.7002837,35.21435339999999],[-75.70010930000001,35.21458910000001],[-75.69967860000003,35.214976200000024],[-75.69964549999997,35.215235800000016],[-75.69957040000003,35.215825300000006],[-75.69938810000002,35.21609410000002],[-75.6990035,35.21659199999999],[-75.69864130000002,35.2171348],[-75.6986104,35.217181100000005],[-75.69861889999999,35.217363499999976],[-75.69880690000002,35.21749670000003],[-75.69908040000001,35.21758089999997],[-75.6995162,35.21781229999999],[-75.69929409999997,35.218050800000015],[-75.69799440000003,35.21913089999998],[-75.69767680000001,35.2193881],[-75.69754339999997,35.21949619999998],[-75.6972417,35.219650100000024],[-75.69680749999998,35.21973969999999],[-75.6963149,35.21981269999998],[-75.69572149999999,35.21993450000002],[-75.6954,35.220102499999996],[-75.69524790000003,35.22018430000003],[-75.69514720000001,35.2202173],[-75.69513339999997,35.22022179999999],[-75.69506990000002,35.22023109999998],[-75.69503659999998,35.22021890000002],[-75.69495,35.22015929999998],[-75.69489060000001,35.21999779999999],[-75.69490250000001,35.21971050000002],[-75.69512759999998,35.219336399999975],[-75.69573889999998,35.218878700000005],[-75.69624329999999,35.21843059999998],[-75.6966291,35.218026399999985],[-75.69664690000002,35.217870500000004],[-75.69655790000002,35.217685500000016],[-75.6963442,35.21746150000001],[-75.69618989999998,35.21740790000001],[-75.69608899999997,35.21740790000001],[-75.69589910000002,35.21751019999999],[-75.69577450000003,35.217622199999994],[-75.6957448,35.2177001],[-75.6958338,35.217817000000025],[-75.6959822,35.21793869999999],[-75.6961306,35.21808970000001],[-75.6961306,35.21819679999999],[-75.69567360000002,35.218562099999986],[-75.6948587,35.219230900000014],[-75.69396339999997,35.2198492],[-75.69214210000001,35.22125649999998],[-75.69109609999998,35.221761500000014],[-75.69044389999999,35.22218559999999],[-75.69001730000002,35.2223707],[-75.6896481,35.2223707],[-75.6890328,35.22194990000003],[-75.6889152,35.222098500000016],[-75.68876089999998,35.22231770000002],[-75.6890517,35.2224784],[-75.68900209999998,35.222648400000026],[-75.68878669999998,35.22282510000002],[-75.68880719999999,35.22303549999998],[-75.68898159999998,35.2230692],[-75.68917640000001,35.22297659999998],[-75.68938150000002,35.2228083],[-75.68960709999999,35.22278299999999],[-75.68990450000001,35.222909300000026],[-75.6900321,35.2229011],[-75.69015059999998,35.22282510000002],[-75.6904993,35.22243800000001],[-75.691012,35.2221351],[-75.691371,35.222042499999986],[-75.69164510000002,35.22224640000002],[-75.69181179999998,35.22226970000003],[-75.69191000000001,35.22220440000001],[-75.6921903,35.221958099999995],[-75.6933826,35.22110420000001],[-75.69392959999999,35.22093589999997],[-75.69414660000001,35.22104949999999],[-75.69336770000001,35.221615299999996],[-75.69319919999998,35.22176510000003],[-75.69177289999999,35.22303299999999],[-75.69172409999999,35.223335599999984],[-75.6919249,35.2236489],[-75.69204200000001,35.22403409999998],[-75.69208300000003,35.2242445],[-75.692001,35.224463300000025],[-75.69179589999999,35.22459789999999],[-75.69145909999997,35.22477509999999],[-75.69139589999997,35.22480830000001],[-75.69099599999998,35.22550669999998],[-75.6903704,35.22624719999999],[-75.69012800000002,35.226688000000024],[-75.68948899999998,35.22742099999999],[-75.68943030000003,35.227505399999984],[-75.68897800000002,35.228155000000015],[-75.6887587,35.22832699999998],[-75.6884938,35.22849530000002],[-75.68831920000002,35.22858280000003],[-75.68783580000002,35.228824900000006],[-75.6873999,35.2291965],[-75.68673339999998,35.2299117],[-75.6864855,35.23010099999999],[-75.68623769999999,35.23033939999999],[-75.68593010000001,35.2305288],[-75.68541729999998,35.23083730000002],[-75.6850071,35.23106869999998],[-75.68456270000001,35.23142630000001],[-75.68415599999997,35.23175859999998],[-75.68404079999999,35.23184070000002],[-75.6837663,35.232036300000004],[-75.68368959999998,35.23206290000002],[-75.68323299999997,35.232221400000014],[-75.682907,35.23227800000001],[-75.68255599999998,35.232339000000024],[-75.68217759999999,35.2325285],[-75.68200760000002,35.2326137],[-75.68155180000002,35.23286489999998],[-75.6810605,35.233174599999984],[-75.6809465,35.233104500000024],[-75.68099640000003,35.232882399999994],[-75.68128760000002,35.23213019999997],[-75.68138090000002,35.23188909999999],[-75.68141429999997,35.23180789999998],[-75.681559,35.231456700000024],[-75.68162310000002,35.231111999999996],[-75.68163729999998,35.230679599999974],[-75.6814094,35.23021210000002],[-75.68103200000002,35.229703700000016],[-75.68080680000003,35.22954069999997],[-75.68066879999998,35.22944080000002],[-75.68036690000002,35.229128],[-75.68027000000001,35.22885500000001],[-75.6803175,35.228645099999994],[-75.68039160000001,35.228478800000005],[-75.68051029999998,35.22827590000003],[-75.68062459999999,35.228182100000026],[-75.680812,35.228028300000005],[-75.68110869999998,35.227699599999994],[-75.68147470000002,35.227168000000006],[-75.68160820000003,35.2269814],[-75.68174169999998,35.2268191],[-75.68214110000002,35.226676699999985],[-75.68265389999999,35.22662059999999],[-75.68283330000003,35.226564499999995],[-75.68289479999999,35.226437799999985],[-75.68270960000001,35.22626839999998],[-75.68259330000001,35.226121999999975],[-75.68242329999998,35.22594700000002],[-75.68219690000001,35.22583589999999],[-75.68201169999998,35.22599960000002],[-75.68154500000003,35.22635159999999],[-75.68134559999999,35.2266204],[-75.68125300000003,35.226865799999985],[-75.68123159999999,35.22716380000003],[-75.68078209999999,35.22760790000001],[-75.68063740000002,35.22767299999998],[-75.68055679999998,35.227676599999995],[-75.68052610000001,35.2276779],[-75.6804411,35.227572899999984],[-75.6804247,35.227470100000005],[-75.6804912,35.227344800000026],[-75.6806378,35.227068299999985],[-75.6806891,35.226883199999975],[-75.68042250000002,35.226100599999995],[-75.680203,35.2255452],[-75.6799815,35.225030300000014],[-75.6798339,35.224616200000014],[-75.67982810000001,35.22460239999998],[-75.67950159999998,35.22382859999999]]]}},{"type":"Feature","properties":{},"geometry":{"type":"Polygon","coordinates":[[[-75.68535120000001,35.220076800000015],[-75.68530800000002,35.22011379999998],[-75.68522330000002,35.22023780000001],[-75.68513489999998,35.22034819999999],[-75.68501049999998,35.220453599999985],[-75.68493219999999,35.220491700000025],[-75.68482990000001,35.22049370000002],[-75.68465780000002,35.22042320000003],[-75.68456079999999,35.22038079999999],[-75.68441630000001,35.22034350000001],[-75.68426799999997,35.2203313],[-75.68413579999998,35.22035199999999],[-75.68401610000001,35.220369800000014],[-75.68393989999998,35.220378100000005],[-75.68389009999999,35.220343300000025],[-75.68363140000002,35.2203925],[-75.68348099999997,35.22041359999997],[-75.68334340000001,35.2203184],[-75.6832703,35.22020900000001],[-75.68325750000002,35.21996919999998],[-75.68325320000002,35.219715199999996],[-75.6832961,35.219566999999984],[-75.68346810000003,35.21945410000001],[-75.68370019999998,35.21936950000003],[-75.6841,35.21924250000001],[-75.68438800000001,35.219203600000014],[-75.68453419999997,35.21923889999999],[-75.68467609999999,35.219387100000006],[-75.68481359999998,35.21961640000001],[-75.6849082,35.21980339999999],[-75.68501570000001,35.21985269999999],[-75.6851704,35.21984570000001],[-75.68529510000002,35.21984570000001],[-75.68538969999997,35.219926799999996],[-75.68540259999997,35.22003269999999],[-75.68535120000001,35.220076800000015]]]}},{"type":"Feature","properties":{},"geometry":{"type":"Polygon","coordinates":[[[-75.71618480000001,35.208039799999995],[-75.7162151,35.207880999999986],[-75.71630570000002,35.20763790000001],[-75.71645080000002,35.20737989999998],[-75.7166866,35.20712689999999],[-75.71690419999999,35.206958199999974],[-75.7171399,35.20688869999998],[-75.7172367,35.206997899999976],[-75.71726080000002,35.2070971],[-75.71714600000001,35.207330300000024],[-75.7170069,35.207548599999996],[-75.71691629999998,35.20769250000001],[-75.71678930000002,35.20785619999998],[-75.7166866,35.207985199999996],[-75.71657779999998,35.208099300000015],[-75.7164085,35.20814389999998],[-75.71625130000001,35.20812910000001],[-75.71618480000001,35.208039799999995]]]}},{"type":"Feature","properties":{},"geometry":{"type":"Polygon","coordinates":[[[-75.71586819999999,35.217148699999996],[-75.71566819999998,35.2168011],[-75.71559760000002,35.21645339999998],[-75.71568000000002,35.21616369999998],[-75.7159153,35.216038200000014],[-75.71632720000002,35.21598990000001],[-75.71690380000001,35.216018899999995],[-75.7174804,35.21634719999997],[-75.71803340000002,35.21692660000002],[-75.71816289999998,35.2171874],[-75.7181511,35.21739020000001],[-75.71796280000001,35.21757359999998],[-75.71755100000001,35.21769920000003],[-75.7170097,35.21772820000001],[-75.71653900000001,35.217631600000004],[-75.71598590000002,35.217312900000024],[-75.71586819999999,35.217148699999996]]]}},{"type":"Feature","properties":{},"geometry":{"type":"Polygon","coordinates":[[[-75.71663219999999,35.2138655],[-75.7164487,35.21376190000001],[-75.71628809999999,35.21363009999999],[-75.7162308,35.213470099999995],[-75.71626509999999,35.2133288],[-75.7164257,35.21331950000001],[-75.71667810000002,35.213611300000025],[-75.716724,35.21373369999998],[-75.71663219999999,35.2138655]]]}},{"type":"Feature","properties":{},"geometry":{"type":"Polygon","coordinates":[[[-75.675073,35.29631999999998],[-75.675231,35.29647499999999],[-75.67519900000002,35.29664300000002],[-75.67500000000001,35.29677570000001],[-75.67500000000001,35.29631599999999],[-75.675073,35.29631999999998]]]}},{"type":"Feature","properties":{},"geometry":{"type":"Polygon","coordinates":[[[-75.9329166,35.11732599999999],[-75.933044,35.11726900000002],[-75.9339455,35.116779199999996],[-75.93511210000003,35.11615569999998],[-75.93618609999999,35.11556589999998],[-75.9364008,35.115419599999996],[-75.93655799999999,35.115303299999994],[-75.93672570000001,35.115195700000015],[-75.93696139999997,35.11507949999998],[-75.93737529999999,35.114881500000024],[-75.93792009999999,35.11457150000001],[-75.93849119999999,35.11420989999999],[-75.93880030000003,35.11404199999998],[-75.93921419999998,35.1138828],[-75.94004189999998,35.11350820000001],[-75.94124690000001,35.112888399999974],[-75.9421532,35.11242340000001],[-75.94299669999998,35.11198000000002],[-75.9435363,35.11168730000003],[-75.94406099999998,35.11142100000001],[-75.94428599999998,35.11128200000002],[-75.94449600000002,35.111140999999975],[-75.94489399999998,35.110929],[-75.94512800000001,35.110793],[-75.94538299999999,35.110637],[-75.94565399999999,35.110483999999985],[-75.946078,35.11022600000001],[-75.94667120000003,35.10988689999999],[-75.94701320000001,35.10969549999999],[-75.94738430000001,35.1094564],[-75.94915700000001,35.10844020000002],[-75.95009249999998,35.107900900000004],[-75.95097520000002,35.1073677],[-75.95144290000002,35.10708260000001],[-75.95181250000002,35.10686559999999],[-75.95266500000002,35.106388200000026],[-75.95362310000002,35.105879800000025],[-75.95462650000002,35.10524750000002],[-75.95558460000001,35.104670899999974],[-75.95636919999998,35.1041874],[-75.95752340000001,35.1034434],[-75.9580967,35.103108599999985],[-75.95822709999999,35.10307030000001],[-75.9587272,35.10269199999999],[-75.95946989999999,35.102198499999986],[-75.96145289999998,35.100984400000016],[-75.96284400000002,35.10013279999998],[-75.96443210000001,35.09915360000002],[-75.9660164,35.09819390000001],[-75.9670122,35.0975689],[-75.96774549999998,35.097114999999974],[-75.9686145,35.096475199999986],[-75.9691034,35.09608079999998],[-75.96963749999998,35.09574600000002],[-75.97046130000001,35.095299599999976],[-75.97095919999998,35.09502429999998],[-75.9713395,35.09483829999999],[-75.97164729999997,35.09467460000002],[-75.97180120000002,35.09454069999998],[-75.971855,35.09446270000001],[-75.9719546,35.09441099999998],[-75.97219030000002,35.094264599999974],[-75.97341770000003,35.09343869999998],[-75.9740061,35.093036900000016],[-75.97430489999999,35.09285089999997],[-75.97465790000001,35.09262769999998],[-75.97498380000002,35.09241939999998],[-75.97500000000002,35.09240699999998],[-75.97500000000002,35.10000000000002],[-75.97500000000002,35.10964180000002],[-75.97500000000002,35.115104599999995],[-75.97500000000002,35.11618120000003],[-75.97464200000002,35.116510000000005],[-75.97370899999999,35.117321000000004],[-75.97321899999997,35.117763000000025],[-75.97310099999999,35.11785400000002],[-75.97303900000003,35.117887999999994],[-75.97294900000003,35.117887999999994],[-75.97267299999999,35.11783700000001],[-75.97267299999999,35.11781400000001],[-75.97270700000001,35.117751999999996],[-75.973274,35.117088000000024],[-75.97385400000002,35.116401999999994],[-75.97433799999999,35.115835000000004],[-75.97462100000001,35.11554000000001],[-75.97465599999998,35.11554000000001],[-75.974739,35.115557000000024],[-75.97479399999997,35.115557000000024],[-75.974918,35.115455],[-75.97492499999998,35.115421000000026],[-75.97487000000001,35.11535300000003],[-75.97456599999998,35.11513100000002],[-75.9742,35.11488800000001],[-75.97400599999997,35.11476299999998],[-75.973951,35.11475100000001],[-75.973903,35.11478499999998],[-75.97377799999998,35.11492199999998],[-75.97329500000001,35.115432],[-75.97296999999998,35.11575499999998],[-75.97278299999999,35.115943000000016],[-75.97272099999998,35.116044999999986],[-75.97268700000001,35.11613],[-75.97269999999997,35.11623700000001],[-75.97277600000001,35.116401999999994],[-75.97297700000001,35.11677100000003],[-75.97301800000002,35.116855999999984],[-75.97301800000002,35.116907000000026],[-75.97294900000003,35.11700300000001],[-75.97274199999998,35.11720700000001],[-75.97252800000001,35.117434],[-75.972327,35.11760399999997],[-75.972215,35.11757499999999],[-75.972084,35.11752999999999],[-75.971925,35.117444999999975],[-75.97178000000002,35.11731400000002],[-75.97154499999999,35.11723999999998],[-75.97130299999998,35.11719499999998],[-75.971047,35.11716100000001],[-75.97090200000002,35.11712699999998],[-75.97072300000002,35.117035999999985],[-75.97065579999997,35.117004699999995],[-75.97057699999999,35.116967999999986],[-75.97036300000002,35.116917],[-75.96999,35.11685499999999],[-75.96950700000002,35.11679800000002],[-75.96911999999998,35.116826],[-75.96889900000002,35.11684300000002],[-75.968774,35.11683799999997],[-75.96862900000002,35.11679800000002],[-75.96849800000001,35.11678699999999],[-75.96842199999998,35.116821000000016],[-75.96835299999998,35.11691200000001],[-75.968277,35.116990999999985],[-75.96822800000001,35.117031],[-75.96815199999998,35.11704800000001],[-75.967828,35.117002000000014],[-75.96768300000002,35.116963],[-75.96760699999999,35.116917],[-75.96750300000002,35.116804],[-75.96735799999999,35.11662799999999],[-75.96720599999998,35.11644100000001],[-75.96707500000002,35.11623100000003],[-75.96701200000001,35.116083],[-75.96697799999998,35.11591299999998],[-75.96692300000001,35.115793999999994],[-75.966812,35.115635],[-75.96668799999998,35.115504999999985],[-75.96654999999998,35.115373999999974],[-75.96642500000002,35.115204000000006],[-75.96632799999998,35.11500000000001],[-75.96621800000003,35.114779],[-75.966204,35.114693999999986],[-75.96624600000001,35.11445600000002],[-75.96630099999999,35.11425700000001],[-75.96631500000001,35.114104],[-75.96631500000001,35.113917000000015],[-75.96630099999999,35.113774999999976],[-75.966273,35.11372399999999],[-75.96623199999999,35.11372399999999],[-75.966183,35.11378100000002],[-75.96608700000002,35.11399],[-75.96599700000002,35.11422299999998],[-75.96592099999998,35.11435899999998],[-75.96585900000002,35.114416000000006],[-75.96579000000003,35.11444999999998],[-75.965686,35.114461000000006],[-75.96561000000003,35.11450100000002],[-75.965555,35.114597],[-75.965555,35.114705000000015],[-75.96561000000003,35.11476699999997],[-75.96574099999998,35.114904000000024],[-75.965983,35.11511300000001],[-75.966024,35.11519900000002],[-75.966073,35.11535199999997],[-75.966114,35.115454],[-75.96616999999998,35.11553900000001],[-75.96621099999999,35.115617999999984],[-75.96623899999997,35.115702999999996],[-75.96625899999998,35.11587400000002],[-75.96632199999999,35.11597599999999],[-75.96636999999998,35.116048999999975],[-75.96639099999999,35.11613999999997],[-75.96639099999999,35.116423999999995],[-75.966432,35.11653100000001],[-75.966501,35.11661099999998],[-75.96659799999998,35.116746999999975],[-75.96666699999997,35.116849],[-75.96666699999997,35.11695700000001],[-75.96661899999998,35.117042000000026],[-75.96655600000003,35.11711600000001],[-75.96645999999998,35.11711600000001],[-75.96632799999998,35.11707000000001],[-75.96616999999998,35.116990999999985],[-75.96598999999998,35.11691200000001],[-75.96592099999998,35.116894],[-75.965893,35.11691200000001],[-75.96585900000002,35.116967999999986],[-75.96581700000002,35.11708199999998],[-75.965776,35.11714999999998],[-75.96569299999999,35.117188999999996],[-75.96561700000001,35.11718400000001],[-75.96553399999999,35.11713800000001],[-75.965486,35.11709300000001],[-75.96544399999999,35.11705899999998],[-75.965327,35.11704800000001],[-75.96514000000002,35.11701900000003],[-75.965037,35.116990999999985],[-75.96499499999999,35.116922999999986],[-75.964988,35.11683799999997],[-75.96493299999997,35.11672399999998],[-75.96480200000002,35.116600000000005],[-75.96470499999998,35.11651999999998],[-75.964677,35.116445999999996],[-75.964677,35.116197],[-75.96457400000003,35.11596400000002],[-75.96457400000003,35.11586799999998],[-75.96462200000002,35.11571500000002],[-75.96467000000001,35.11560100000003],[-75.96468399999998,35.11553900000001],[-75.96468399999998,35.11544199999997],[-75.964629,35.115272000000004],[-75.96453200000002,35.11496599999998],[-75.96450499999997,35.114643],[-75.96446300000002,35.114575],[-75.96439400000003,35.11454600000002],[-75.96432499999997,35.114562999999976],[-75.96425599999998,35.114630999999974],[-75.96418699999998,35.11465399999997],[-75.964111,35.11465399999997],[-75.964021,35.11462599999999],[-75.963841,35.11452400000002],[-75.96376500000002,35.114461000000006],[-75.96369600000003,35.114416000000006],[-75.963641,35.114416000000006],[-75.96358600000002,35.11444999999998],[-75.96357899999998,35.114507],[-75.96363400000001,35.11460299999999],[-75.96371699999997,35.114705000000015],[-75.96374500000002,35.11476699999997],[-75.963772,35.11489799999998],[-75.96381400000001,35.11500000000001],[-75.96385500000002,35.115050999999994],[-75.96395899999999,35.11513600000001],[-75.96400699999998,35.11518699999999],[-75.964069,35.11525],[-75.96409,35.11530099999999],[-75.96409,35.115386],[-75.964,35.115511000000026],[-75.96383400000002,35.11576000000002],[-75.96361300000001,35.115970000000004],[-75.96356500000002,35.116061],[-75.96354400000001,35.116179999999986],[-75.96357899999998,35.116259000000014],[-75.96373799999998,35.11641800000001],[-75.96384799999998,35.11654900000002],[-75.96387600000003,35.11665099999999],[-75.96385500000002,35.11675300000002],[-75.963821,35.11687699999999],[-75.96373799999998,35.116963],[-75.96363400000001,35.11701399999998],[-75.96351700000002,35.117065000000025],[-75.963302,35.117110000000025],[-75.963123,35.117155000000025],[-75.96288800000002,35.117188999999996],[-75.96274299999999,35.117223000000024],[-75.96268099999998,35.11727500000001],[-75.96268700000002,35.11732599999999],[-75.962736,35.11736000000002],[-75.962874,35.117376999999976],[-75.96312999999998,35.11738200000002],[-75.96342700000002,35.11737099999999],[-75.96364799999998,35.11733099999998],[-75.963821,35.11727500000001],[-75.96391,35.11720100000002],[-75.96393799999998,35.117087000000026],[-75.96393799999998,35.116872],[-75.96400699999998,35.116736],[-75.96408300000002,35.116701999999975],[-75.96417300000002,35.116701999999975],[-75.96429,35.11675300000002],[-75.964359,35.116826],[-75.96439400000003,35.116922999999986],[-75.96439400000003,35.117008],[-75.96434599999998,35.117098999999996],[-75.96426300000002,35.11720100000002],[-75.964201,35.11729700000001],[-75.96416599999998,35.11745000000002],[-75.96416599999998,35.11788100000001],[-75.96419400000002,35.117977999999994],[-75.96427,35.11802899999998],[-75.96445599999998,35.118119999999976],[-75.96488499999998,35.118312],[-75.964967,35.11838599999999],[-75.96501599999999,35.11846000000003],[-75.96500900000001,35.118528000000026],[-75.96492599999999,35.118596000000025],[-75.96478100000002,35.11862400000001],[-75.964587,35.118607],[-75.96419400000002,35.11855600000001],[-75.96355799999998,35.118453999999986],[-75.96291500000001,35.118312],[-75.96256299999999,35.118199000000004],[-75.96248000000003,35.11812500000002],[-75.96239000000003,35.11798900000002],[-75.962287,35.11779100000001],[-75.96221100000002,35.117602999999974],[-75.96219000000002,35.11745000000002],[-75.962176,35.117211999999995],[-75.96214900000001,35.11709300000001],[-75.96210000000002,35.117002000000014],[-75.96201180000003,35.116875100000016],[-75.96200449999998,35.11686450000002],[-75.96194100000002,35.11678699999999],[-75.96176200000002,35.11654299999998],[-75.961679,35.116292999999985],[-75.96161699999999,35.11598099999998],[-75.96159599999999,35.11573199999998],[-75.96161000000001,35.115215999999975],[-75.96161699999999,35.114904000000024],[-75.96163000000001,35.114779],[-75.96161699999999,35.114688],[-75.961548,35.11465399999997],[-75.96143699999999,35.11461400000002],[-75.96135399999997,35.114552],[-75.96131300000002,35.11450100000002],[-75.96131300000002,35.11434800000001],[-75.96130599999998,35.11432500000001],[-75.96126400000003,35.11429099999998],[-75.96121599999998,35.11430200000001],[-75.96118100000001,35.11432500000001],[-75.961161,35.11444399999999],[-75.96114,35.114517999999975],[-75.96109200000001,35.11456900000002],[-75.96094599999998,35.11461400000002],[-75.96082899999999,35.11460899999997],[-75.96073200000001,35.114630999999974],[-75.96070500000002,35.114665],[-75.96067699999998,35.114802],[-75.96068400000001,35.11494299999998],[-75.96065599999997,35.114994000000024],[-75.96059400000001,35.115005999999994],[-75.96051799999998,35.115005999999994],[-75.96049,35.114982999999995],[-75.96043500000002,35.114904000000024],[-75.96038700000003,35.11479600000001],[-75.96032500000001,35.11469899999997],[-75.96024899999998,35.11462599999999],[-75.96015899999998,35.114529000000005],[-75.96005500000001,35.114461000000006],[-75.95993099999998,35.11442099999999],[-75.95984800000002,35.11443300000002],[-75.959813,35.11447800000002],[-75.95979299999999,35.114552],[-75.95979299999999,35.11476699999997],[-75.95975800000002,35.11486400000001],[-75.95968900000003,35.114904000000024],[-75.959544,35.11495500000001],[-75.95948199999998,35.114982999999995],[-75.95943999999997,35.11504000000002],[-75.95942000000002,35.11513000000002],[-75.95942000000002,35.115436999999986],[-75.95937099999998,35.115499],[-75.95928800000002,35.115556000000026],[-75.959247,35.11560700000001],[-75.959226,35.115725999999995],[-75.95919900000001,35.11580500000002],[-75.95914299999998,35.11583999999999],[-75.95903299999998,35.115857000000005],[-75.95895000000002,35.11582199999998],[-75.95886000000002,35.115737000000024],[-75.95871499999998,35.115612999999996],[-75.95855599999999,35.11553300000003],[-75.95841100000001,35.115481999999986],[-75.95828699999998,35.11546499999997],[-75.95821699999999,35.11548800000003],[-75.95814100000001,35.115556000000026],[-75.95805899999999,35.11564099999998],[-75.95795500000003,35.11570899999998],[-75.95784400000002,35.115725999999995],[-75.95772,35.115725999999995],[-75.957603,35.11576000000002],[-75.957492,35.11582800000002],[-75.957292,35.11597599999999],[-75.95710500000001,35.11609499999997],[-75.95691900000003,35.11618499999997],[-75.956725,35.11628200000001],[-75.95644199999998,35.11638399999998],[-75.95604800000001,35.11654299999998],[-75.95583399999998,35.11668500000002],[-75.95562699999999,35.11684300000002],[-75.955399,35.11702500000001],[-75.95527399999997,35.117110000000025],[-75.95514300000002,35.11716100000001],[-75.95496300000002,35.117178000000024],[-75.95470799999998,35.117178000000024],[-75.95460400000002,35.117211999999995],[-75.95450699999998,35.117279999999994],[-75.954383,35.11739899999998],[-75.954272,35.11746699999998],[-75.95413400000001,35.117524],[-75.95392700000002,35.11764299999999],[-75.95372700000001,35.11776200000003],[-75.95356099999998,35.117864],[-75.95336099999997,35.11794400000002],[-75.95325000000003,35.11794400000002],[-75.95308399999999,35.117966000000024],[-75.953036,35.11799500000001],[-75.952967,35.11806899999999],[-75.95291800000001,35.11814800000002],[-75.952835,35.118199000000004],[-75.95255200000003,35.11826100000002],[-75.952317,35.118300999999974],[-75.9522,35.11834099999999],[-75.95204799999999,35.118408999999986],[-75.95193,35.118517],[-75.95182699999998,35.118573000000026],[-75.95169499999997,35.11861299999998],[-75.951371,35.11868099999998],[-75.95106700000002,35.11877800000002],[-75.95092899999997,35.11886800000002],[-75.95088700000002,35.118952999999976],[-75.95087999999998,35.119020999999975],[-75.95081800000003,35.11908399999999],[-75.950535,35.119151999999985],[-75.950466,35.11920300000003],[-75.95043099999998,35.119305],[-75.95038299999999,35.11934500000001],[-75.95022399999999,35.11935599999998],[-75.95005800000001,35.119395999999995],[-75.949948,35.11946999999998],[-75.94989199999998,35.11955999999998],[-75.94989900000002,35.11963400000002],[-75.94987200000003,35.119730000000004],[-75.94978200000003,35.11978099999999],[-75.949478,35.11985499999997],[-75.94933300000002,35.11992900000001],[-75.94922200000002,35.120025],[-75.94916699999999,35.12015600000001],[-75.94913200000002,35.12029799999999],[-75.94907,35.12035400000002],[-75.94896599999998,35.120360000000005],[-75.94884200000001,35.12032599999998],[-75.94872500000002,35.120348999999976],[-75.94859300000002,35.120416999999975],[-75.94844799999998,35.120506999999975],[-75.94838600000003,35.120587],[-75.94834500000002,35.12072899999998],[-75.94835799999998,35.120791],[-75.948352,35.12087600000001],[-75.948282,35.12094999999999],[-75.94819999999999,35.12093900000002],[-75.94814400000001,35.120858999999996],[-75.948103,35.12080800000001],[-75.94799899999998,35.12077399999998],[-75.94787500000001,35.12080800000001],[-75.94768099999999,35.120893000000024],[-75.94723199999999,35.12111399999998],[-75.94685900000002,35.12134099999997],[-75.94631299999998,35.12166400000001],[-75.94581599999998,35.121937],[-75.94516700000003,35.122243000000026],[-75.944773,35.122476000000006],[-75.94444800000002,35.12268],[-75.94428900000003,35.122725],[-75.94411000000002,35.12275299999999],[-75.94383299999998,35.122765000000015],[-75.94377800000001,35.122793],[-75.943757,35.12285000000003],[-75.943757,35.12296900000001],[-75.94370900000001,35.123065],[-75.94352900000001,35.123132999999996],[-75.94336299999998,35.12318399999998],[-75.94306599999999,35.12318399999998],[-75.94298300000003,35.12320699999998],[-75.942928,35.12324699999999],[-75.94288699999998,35.12334299999998],[-75.94284499999998,35.123478999999975],[-75.94278300000002,35.123576000000014],[-75.94256899999999,35.12386500000002],[-75.94234799999998,35.124120000000005],[-75.94212700000003,35.12435799999997],[-75.94197500000001,35.124472000000026],[-75.94180899999998,35.12457999999998],[-75.94160199999999,35.12464799999998],[-75.941056,35.124795000000006],[-75.94075900000001,35.12486899999999],[-75.940676,35.124919999999975],[-75.94054499999999,35.125084000000015],[-75.940427,35.125204],[-75.94022000000001,35.12535700000001],[-75.93979100000001,35.12564600000002],[-75.93932899999999,35.12591200000003],[-75.93881699999997,35.126172999999994],[-75.93843700000002,35.12635499999999],[-75.938085,35.12649099999999],[-75.93780199999998,35.126576],[-75.93768399999999,35.12661600000001],[-75.93764299999998,35.12666100000001],[-75.93759399999999,35.12680899999998],[-75.93751800000001,35.12702999999999],[-75.93742900000001,35.127137000000005],[-75.93729000000002,35.127251],[-75.937097,35.127301999999986],[-75.936758,35.127319],[-75.936669,35.127369999999985],[-75.93651699999998,35.127489000000025],[-75.936399,35.127590999999995],[-75.93622699999997,35.12768199999999],[-75.93602600000003,35.127767000000006],[-75.93575700000002,35.12788599999999],[-75.935494,35.128016],[-75.93532099999999,35.128107],[-75.935183,35.128175],[-75.93508000000003,35.12819200000001],[-75.93472700000001,35.12819200000001],[-75.934617,35.128225999999984],[-75.934327,35.128345000000024],[-75.93418100000002,35.128378999999995],[-75.93370499999997,35.12837400000001],[-75.933491,35.128401999999994],[-75.933401,35.12844200000001],[-75.933401,35.12851599999999],[-75.93342100000001,35.12856099999999],[-75.93351100000001,35.12861800000002],[-75.933719,35.12869699999999],[-75.933967,35.12877099999997],[-75.93404299999997,35.12881599999997],[-75.93408499999998,35.128867000000014],[-75.93409200000002,35.128923999999984],[-75.93404299999997,35.129008999999996],[-75.933719,35.12930399999999],[-75.93367,35.12932699999999],[-75.93360799999999,35.12933800000002],[-75.93356699999998,35.12932699999999],[-75.93356699999998,35.12925799999999],[-75.93358699999999,35.12910499999998],[-75.93361499999997,35.12901499999998],[-75.93361499999997,35.12894699999998],[-75.93357300000002,35.12891300000001],[-75.93351100000001,35.12891300000001],[-75.93345599999998,35.12893500000001],[-75.93325599999997,35.12919599999998],[-75.9332,35.12922400000002],[-75.9329166,35.1292426],[-75.9329166,35.127788099999975],[-75.9329166,35.11732599999999]]]}},{"type":"Feature","properties":{},"geometry":{"type":"Polygon","coordinates":[[[-75.83433000000002,35.19833399999999],[-75.83444100000003,35.198414000000014],[-75.83455099999998,35.19861700000001],[-75.834588,35.19876799999997],[-75.8345524,35.19886589999999],[-75.834496,35.19893999999999],[-75.83439700000002,35.199006],[-75.83423699999997,35.19904600000001],[-75.83408300000002,35.19903099999999],[-75.83391510000001,35.198887300000024],[-75.83377410000003,35.198751300000026],[-75.83371210000001,35.198594300000025],[-75.83378010000001,35.1984233],[-75.83393410000002,35.1983113],[-75.83411999999998,35.19828799999999],[-75.83433000000002,35.19833399999999]]]}},{"type":"Feature","properties":{},"geometry":{"type":"Polygon","coordinates":[[[-75.97500000000002,35.11915399999998],[-75.97500000000002,35.120058900000004],[-75.97494599999999,35.12003800000002],[-75.97442799999999,35.119822],[-75.97405500000002,35.11971399999999],[-75.97378500000002,35.119618],[-75.97357799999997,35.11946999999998],[-75.97330099999999,35.119249000000025],[-75.972894,35.11881299999999],[-75.97272800000002,35.11861399999998],[-75.97366799999998,35.11781400000001],[-75.97500000000002,35.11915399999998]]]}},{"type":"Feature","properties":{},"geometry":{"type":"Polygon","coordinates":[[[-75.97500000000002,35.11749229999998],[-75.97500000000002,35.118662900000004],[-75.97498000000002,35.11864200000002],[-75.97471100000001,35.11837000000003],[-75.97393,35.11756500000001],[-75.97430300000002,35.11704900000001],[-75.97441400000002,35.116975000000025],[-75.97447599999998,35.116975000000025],[-75.97459300000003,35.116998000000024],[-75.974669,35.117088000000024],[-75.97500000000002,35.11749229999998]]]}},{"type":"Feature","properties":{},"geometry":{"type":"Polygon","coordinates":[[[-75.97500000000002,35.11720380000003],[-75.97487000000001,35.11704900000001],[-75.974718,35.11688400000003],[-75.97470399999997,35.11680999999999],[-75.974718,35.116731000000016],[-75.97481499999998,35.116623000000004],[-75.97500000000002,35.11641900000001],[-75.97500000000002,35.11720380000003]]]}},{"type":"Feature","properties":{},"geometry":{"type":"Polygon","coordinates":[[[-75.97027100000003,35.143056],[-75.97012699999999,35.14307000000002],[-75.96993600000002,35.14307000000002],[-75.96982100000002,35.14306499999998],[-75.96979199999998,35.143032000000005],[-75.96980300000001,35.14300400000002],[-75.969873,35.14293700000002],[-75.97008,35.14281399999999],[-75.97028799999998,35.14271000000002],[-75.97036300000002,35.14268099999998],[-75.97045000000003,35.14267699999999],[-75.97051299999998,35.14269100000001],[-75.97055999999998,35.14274799999998],[-75.97061100000002,35.14280500000001],[-75.970594,35.142871000000014],[-75.970531,35.14292799999998],[-75.97045600000001,35.14298500000001],[-75.97027100000003,35.143056]]]}},{"type":"Feature","properties":{},"geometry":{"type":"Polygon","coordinates":[[[-75.97340700000001,35.116494999999986],[-75.97332399999999,35.11659100000003],[-75.97328299999998,35.11661400000003],[-75.97322700000001,35.11661400000003],[-75.973165,35.116562999999985],[-75.97310299999998,35.11647799999997],[-75.97305499999999,35.116393000000016],[-75.973006,35.11622299999999],[-75.97301299999998,35.11609199999998],[-75.97306800000001,35.11599000000001],[-75.97317900000002,35.115831000000014],[-75.973386,35.115575999999976],[-75.97355199999998,35.11538899999999],[-75.97373900000002,35.115196000000026],[-75.97384199999999,35.115088000000014],[-75.97393199999999,35.115031999999985],[-75.97401500000001,35.115020000000015],[-75.97409099999999,35.115043000000014],[-75.97418099999999,35.115099999999984],[-75.97427699999997,35.115196000000026],[-75.97433999999998,35.11528099999998],[-75.974381,35.115342999999996],[-75.974381,35.11538899999999],[-75.97340700000001,35.116494999999986]]]}},{"type":"Feature","properties":{},"geometry":{"type":"Polygon","coordinates":[[[-75.96922599999999,35.14283799999998],[-75.96923199999998,35.142781000000014],[-75.96928400000002,35.14273800000001],[-75.96937000000003,35.14272399999999],[-75.96944500000001,35.14272399999999],[-75.96952599999997,35.14273300000002],[-75.96954899999997,35.14275700000002],[-75.96954399999998,35.14280500000001],[-75.96950299999997,35.14289000000002],[-75.96941700000002,35.14292799999998],[-75.96931799999999,35.14294699999999],[-75.96924899999999,35.142908999999975],[-75.96922599999999,35.14283799999998]]]}},{"type":"Feature","properties":{},"geometry":{"type":"Polygon","coordinates":[[[-75.96806600000002,35.14281399999999],[-75.96797900000001,35.14275700000002],[-75.96794999999997,35.142696],[-75.96794999999997,35.14262500000001],[-75.96797900000001,35.14258699999999],[-75.96803699999998,35.142539],[-75.96812899999998,35.14252499999998],[-75.96849300000002,35.142606],[-75.968683,35.14265799999998],[-75.96875799999998,35.14269100000001],[-75.96882199999999,35.14277099999998],[-75.96883400000002,35.14289000000002],[-75.96879899999999,35.14298500000001],[-75.96873,35.14302700000002],[-75.96865500000001,35.14302700000002],[-75.96838300000002,35.142899],[-75.96823899999998,35.142871000000014],[-75.96806600000002,35.14281399999999]]]}},{"type":"Feature","properties":{},"geometry":{"type":"Polygon","coordinates":[[[-75.96499599999999,35.14283599999999],[-75.96493800000002,35.14277099999998],[-75.96493299999997,35.142720999999995],[-75.96494899999999,35.14268299999998],[-75.96499899999998,35.14265],[-75.96507500000001,35.14261800000003],[-75.96514100000002,35.14260899999999],[-75.96520099999998,35.14261299999998],[-75.96525100000002,35.14263699999998],[-75.965283,35.142675999999994],[-75.96529600000002,35.14273700000001],[-75.96526999999998,35.14280100000002],[-75.96520099999998,35.142859999999985],[-75.96513800000002,35.14289000000002],[-75.96507200000002,35.142875000000004],[-75.96499599999999,35.14283599999999]]]}},{"type":"Feature","properties":{},"geometry":{"type":"Polygon","coordinates":[[[-75.96567499999998,35.143129999999985],[-75.96565700000002,35.143102],[-75.96566200000001,35.14307600000001],[-75.96570100000002,35.14304299999998],[-75.96579400000002,35.14301999999998],[-75.965891,35.14300400000002],[-75.96598,35.14300700000001],[-75.96609899999999,35.143012999999996],[-75.96614399999999,35.14304099999998],[-75.96614399999999,35.14308399999999],[-75.96610700000002,35.143123],[-75.966046,35.143145000000004],[-75.96591999999998,35.143148999999994],[-75.96572800000001,35.143147],[-75.96567499999998,35.143129999999985]]]}},{"type":"Feature","properties":{},"geometry":{"type":"Polygon","coordinates":[[[-75.96433200000001,35.14317399999999],[-75.96412400000003,35.143208000000016],[-75.96398599999998,35.143193],[-75.963887,35.14316500000001],[-75.963864,35.143107999999984],[-75.96387600000003,35.14304600000003],[-75.96396199999998,35.14300400000002],[-75.96410100000003,35.14298500000001],[-75.96425699999998,35.14297099999999],[-75.96432600000003,35.14298500000001],[-75.96439900000001,35.143028000000015],[-75.96442400000001,35.14307000000002],[-75.964407,35.14312699999999],[-75.96433200000001,35.14317399999999]]]}},{"type":"Feature","properties":{},"geometry":{"type":"Polygon","coordinates":[[[-75.959677,35.115763500000014],[-75.959674,35.1157905],[-75.959656,35.1158375],[-75.95963599999999,35.115865499999984],[-75.95960400000001,35.115875500000016],[-75.95955500000002,35.115875500000016],[-75.95954,35.11585650000001],[-75.959542,35.1158355],[-75.95956799999999,35.1157925],[-75.95959900000003,35.11576550000001],[-75.95963,35.115748499999995],[-75.95966099999998,35.115748499999995],[-75.959677,35.115763500000014]]]}},{"type":"Feature","properties":{},"geometry":{"type":"Polygon","coordinates":[[[-75.96316999999999,35.14301899999998],[-75.96313199999997,35.14306099999999],[-75.96306499999997,35.143078],[-75.96299599999998,35.14306499999998],[-75.96291300000001,35.14301499999999],[-75.96287699999999,35.142945],[-75.96285599999999,35.14288399999998],[-75.96285899999998,35.142832999999996],[-75.96287699999999,35.142795999999976],[-75.962919,35.14276799999999],[-75.96297099999998,35.14275700000002],[-75.96304700000002,35.142765],[-75.96309000000002,35.142773999999974],[-75.96314100000001,35.14281799999998],[-75.96317299999998,35.14287300000001],[-75.96317299999998,35.14295800000002],[-75.96316999999999,35.14301899999998]]]}},{"type":"Feature","properties":{},"geometry":{"type":"Polygon","coordinates":[[[-75.97073799999998,35.14292799999998],[-75.97072700000001,35.142899],[-75.97073799999998,35.14283799999998],[-75.970779,35.14280500000001],[-75.970842,35.142786],[-75.97094099999998,35.142786],[-75.97099200000002,35.142832999999996],[-75.97102100000001,35.14290399999999],[-75.970981,35.14296999999999],[-75.970912,35.14300400000002],[-75.97080799999998,35.14300400000002],[-75.970756,35.14298000000002],[-75.97073799999998,35.14292799999998]]]}},{"type":"Feature","properties":{},"geometry":{"type":"Polygon","coordinates":[[[-76.00463669999999,35.07404530000002],[-76.0040219,35.07405720000003],[-76.00370900000001,35.07409910000001],[-76.00340699999998,35.07420380000002],[-76.00297039999998,35.074440100000004],[-76.00239920000001,35.0747063],[-76.00216790000002,35.07479540000003],[-76.00189540000002,35.07486],[-76.0016597,35.074885800000004],[-76.00148159999998,35.074941799999976],[-76.00132960000002,35.075040899999976],[-76.0010886,35.07523470000001],[-76.00084240000001,35.075376800000015],[-76.00070620000002,35.07544999999999],[-76.00051239999999,35.075579300000015],[-76.0003552,35.07572570000002],[-76.00019800000001,35.075906599999996],[-76.0001666,35.075971200000026],[-76.0001823,35.076014199999975],[-76.00028179999998,35.0760229],[-76.00120909999998,35.0760315],[-76.00140299999998,35.0760358],[-76.00205779999999,35.076208099999974],[-76.00211839999997,35.07622040000001],[-76.00241929999999,35.076281300000005],[-76.00267079999998,35.07629850000001],[-76.00297990000001,35.07633299999998],[-76.00222489999999,35.076996399999985],[-76.0020227,35.07717409999998],[-76.00145730000003,35.07787910000002],[-76.00091479999998,35.07842640000001],[-76.0005989,35.078744900000004],[-76.00018119999999,35.079310899999996],[-75.99986130000002,35.079744300000016],[-75.9996347,35.08005079999998],[-75.99942729999998,35.08015230000001],[-75.99930649999999,35.080173100000025],[-75.99918229999997,35.08019439999998],[-75.99895670000001,35.080197399999975],[-75.99875350000002,35.0802693],[-75.99864059999999,35.08035699999999],[-75.99855830000001,35.0804928],[-75.99852570000002,35.080753800000025],[-75.99848379999997,35.081003599999974],[-75.99845240000002,35.081175900000005],[-75.99841040000001,35.08127919999998],[-75.998269,35.08140839999999],[-75.99800699999997,35.08158070000002],[-75.99770319999999,35.08181760000002],[-75.99754080000002,35.0819338],[-75.99728929999998,35.08221809999998],[-75.99707840000002,35.0824882],[-75.9967916,35.08285540000003],[-75.99600700000002,35.0838248],[-75.99594810000002,35.0838976],[-75.99533000000002,35.084642599999995],[-75.9947641,35.085297200000014],[-75.99468560000003,35.08547800000002],[-75.99463839999999,35.0856761],[-75.9946433,35.08573769999998],[-75.99465409999999,35.08587419999998],[-75.99464999999998,35.08598260000002],[-75.99464890000002,35.08601199999998],[-75.99450769999999,35.086198000000024],[-75.99447789999999,35.08627439999998],[-75.99446560000001,35.0864244],[-75.99440600000003,35.086587399999985],[-75.99430860000001,35.08676580000002],[-75.99425400000001,35.08683309999998],[-75.99422070000003,35.0868754],[-75.99418129999998,35.0868979],[-75.99413270000002,35.08685800000001],[-75.99406909999999,35.08676830000002],[-75.99401599999999,35.086731999999984],[-75.99388199999999,35.08662800000002],[-75.99373229999998,35.08655420000002],[-75.99363499999998,35.08652999999998],[-75.99350099999998,35.086517000000015],[-75.99329899999998,35.086517000000015],[-75.99309699999998,35.08649300000002],[-75.99296199999998,35.08645000000001],[-75.99284999999998,35.086388],[-75.99269299999997,35.08625999999998],[-75.99263400000001,35.086198000000024],[-75.99258099999997,35.08616699999999],[-75.99251400000003,35.08618000000001],[-75.99252100000001,35.086247000000014],[-75.99258099999997,35.08633900000001],[-75.99264799999997,35.08640100000002],[-75.99276800000001,35.08649300000002],[-75.99297000000001,35.086585000000014],[-75.99318699999998,35.086659],[-75.99334399999998,35.086726],[-75.99348600000002,35.086817999999994],[-75.99358999999998,35.086915999999974],[-75.99366500000002,35.08702069999998],[-75.99374,35.08716800000002],[-75.99377700000002,35.08731499999999],[-75.99377700000002,35.087414000000024],[-75.99374699999998,35.08750600000002],[-75.993695,35.087579000000005],[-75.99368120000003,35.087593200000015],[-75.99363499999998,35.08764100000002],[-75.993516,35.08767799999998],[-75.993314,35.087739],[-75.99321700000002,35.087806],[-75.993112,35.08789899999999],[-75.993,35.08804600000002],[-75.992888,35.088235999999995],[-75.99270100000001,35.08856100000003],[-75.99252899999999,35.088824999999986],[-75.99232699999999,35.089095999999984],[-75.991916,35.089691000000016],[-75.99174399999998,35.08992999999998],[-75.99154199999998,35.09017],[-75.99151,35.090216],[-75.991288,35.09053799999998],[-75.991154,35.09077100000002],[-75.991064,35.090967999999975],[-75.990997,35.09112099999999],[-75.99098199999997,35.09126199999997],[-75.99101200000001,35.09133600000001],[-75.99107099999998,35.09139699999997],[-75.99113899999998,35.091453],[-75.99118299999998,35.09152599999999],[-75.991176,35.091593999999986],[-75.99114600000001,35.091655],[-75.99105600000001,35.09174100000001],[-75.990952,35.09177799999998],[-75.99078700000001,35.09182099999998],[-75.99063799999999,35.09185200000002],[-75.99057800000003,35.09189500000002],[-75.99052599999999,35.09197399999999],[-75.99045799999999,35.09212200000002],[-75.990384,35.092243999999994],[-75.990294,35.09230600000001],[-75.990115,35.09231799999998],[-75.990003,35.092336999999986],[-75.98994299999998,35.09237400000001],[-75.98989,35.092502000000025],[-75.989846,35.092600000000004],[-75.98976299999998,35.09267399999999],[-75.98967399999998,35.092705000000024],[-75.989532,35.09269899999998],[-75.98940499999998,35.09271100000001],[-75.98931499999998,35.09274799999997],[-75.989195,35.09283399999998],[-75.98910799999999,35.092940999999996],[-75.98907600000001,35.093020000000024],[-75.989083,35.093098],[-75.98917799999998,35.09319799999997],[-75.98942,35.09350599999999],[-75.98942699999998,35.093590000000006],[-75.98936900000001,35.093658000000005],[-75.98926699999998,35.093695000000025],[-75.98916500000001,35.093726000000004],[-75.98909500000002,35.093695000000025],[-75.98907600000001,35.09364199999999],[-75.98907000000003,35.093564000000015],[-75.989038,35.093501],[-75.98893600000002,35.09348499999999],[-75.98884099999998,35.093511999999976],[-75.98875199999998,35.09357399999999],[-75.988745,35.09366799999998],[-75.98877099999999,35.09375699999998],[-75.98884700000002,35.093819999999994],[-75.98887300000001,35.093883000000005],[-75.98882200000003,35.09396700000002],[-75.98873200000003,35.09402899999998],[-75.98868800000002,35.09409199999999],[-75.988675,35.09418099999999],[-75.98859900000002,35.09427499999998],[-75.98842000000002,35.09443700000003],[-75.98831200000001,35.094516],[-75.98820999999998,35.094573000000025],[-75.98812099999998,35.09462000000002],[-75.988045,35.09468800000002],[-75.98801900000001,35.09479299999998],[-75.988,35.09499699999998],[-75.98796199999998,35.09504399999997],[-75.98790400000001,35.09509600000001],[-75.987822,35.095132999999976],[-75.98780299999999,35.095185000000015],[-75.98780900000003,35.09528999999998],[-75.98780900000003,35.095462],[-75.98777100000001,35.09556199999997],[-75.98769399999998,35.09572400000002],[-75.987592,35.095912],[-75.98752200000001,35.09601700000002],[-75.98743300000001,35.096078999999975],[-75.98728,35.09617400000002],[-75.98715299999998,35.096247000000005],[-75.987057,35.09632499999998],[-75.98700000000002,35.09640400000001],[-75.98692399999999,35.09645599999999],[-75.986764,35.096519],[-75.98647799999998,35.09661299999999],[-75.98638899999997,35.096659999999986],[-75.98634399999997,35.096738000000016],[-75.98627399999998,35.09684299999998],[-75.98621000000003,35.09688],[-75.98613399999999,35.096874000000014],[-75.98604499999999,35.096833000000004],[-75.98596800000001,35.096780000000024],[-75.985905,35.096780000000024],[-75.98586599999999,35.09681699999999],[-75.985771,35.09698400000002],[-75.98570699999999,35.097020999999984],[-75.98555399999998,35.097031000000015],[-75.9853,35.09704199999999],[-75.98520400000001,35.097046999999975],[-75.98514,35.09708899999998],[-75.985096,35.09713599999998],[-75.985051,35.09721400000001],[-75.98501900000002,35.09729800000002],[-75.984981,35.097402999999986],[-75.98492399999998,35.097465],[-75.984847,35.097533],[-75.98461200000003,35.097779],[-75.98448400000001,35.09792599999997],[-75.98447800000002,35.097999000000016],[-75.98449099999999,35.098067000000015],[-75.98450400000002,35.09814499999999],[-75.98457400000001,35.098276],[-75.98467599999998,35.09840700000001],[-75.98479700000001,35.09859],[-75.98492399999998,35.09868899999998],[-75.98505799999998,35.09875699999998],[-75.98523599999999,35.09884599999998],[-75.98540200000002,35.09890899999999],[-75.98545899999999,35.098951],[-75.98548399999999,35.098997999999995],[-75.98548399999999,35.09908100000001],[-75.98542700000002,35.09916500000003],[-75.98533800000001,35.09923300000003],[-75.98528700000003,35.099312],[-75.98529300000001,35.099379],[-75.98535099999998,35.099489000000005],[-75.98544600000002,35.09958899999998],[-75.98545899999999,35.099650999999994],[-75.98542099999997,35.09974599999998],[-75.985344,35.09983399999999],[-75.98522300000002,35.099928999999975],[-75.98505549999999,35.10000000000002],[-75.98391450000003,35.10000000000002],[-75.98386679999999,35.099972200000025],[-75.98378600000001,35.099942999999996],[-75.983745,35.099928999999975],[-75.983698,35.09992399999999],[-75.983675,35.09993400000002],[-75.98366600000003,35.09995300000003],[-75.98366600000003,35.099977000000024],[-75.983698,35.09999099999999],[-75.98372979999999,35.10000000000002],[-75.97500000000002,35.10000000000002],[-75.97500000000002,35.09240699999998],[-75.97540029999999,35.092099399999995],[-75.97579860000002,35.09178689999999],[-75.97631460000002,35.09144459999999],[-75.97702980000003,35.09100560000002],[-75.9777178,35.09042520000003],[-75.9782338,35.09008290000003],[-75.9787498,35.089755500000024],[-75.9794559,35.089189999999974],[-75.97996289999998,35.088780799999995],[-75.98043360000003,35.08838639999999],[-75.98095869999997,35.088029199999994],[-75.98137509999998,35.08776130000001],[-75.98243430000002,35.086972600000024],[-75.98351159999999,35.08620610000003],[-75.98429920000001,35.08558849999997],[-75.98462510000002,35.08527600000002],[-75.98501440000001,35.084948499999996],[-75.98580199999998,35.08439040000002],[-75.9865805,35.08377280000002],[-75.98773929999999,35.08284259999999],[-75.9884907,35.082239800000025],[-75.98906099999999,35.081733799999995],[-75.98983049999998,35.081116099999974],[-75.99057290000002,35.08039430000002],[-75.9909078,35.08011149999999],[-75.991107,35.079865900000016],[-75.99130609999997,35.07967239999999],[-75.9914781,35.07953850000001],[-75.99208290000001,35.07919679999998],[-75.99236150000002,35.07906650000001],[-75.99278020000003,35.07877480000002],[-75.99399670000003,35.07754840000001],[-75.9945032,35.076941799999986],[-75.9947924,35.07660069999997],[-75.99508559999998,35.076275899999985],[-75.99528709999998,35.07599859999999],[-75.99558050000002,35.07537339999999],[-75.99598420000001,35.07480629999998],[-75.99662460000002,35.07407649999999],[-75.9970902,35.07355009999998],[-75.99733400000002,35.073313799999994],[-75.9976155,35.07288999999997],[-75.99786799999998,35.07250959999999],[-75.99797919999997,35.072364900000025],[-75.9983547,35.071827799999994],[-75.99862710000002,35.071517700000015],[-75.99904620000001,35.07116450000001],[-75.99953870000002,35.070824200000004],[-75.99999969999999,35.0705615],[-76.00034019999998,35.070458099999996],[-76.00071739999998,35.070415000000025],[-76.00126829999999,35.0703517],[-76.00181140000001,35.07026239999999],[-76.00267150000002,35.06997209999997],[-76.00387289999998,35.06929960000002],[-76.00426590000001,35.06898510000002],[-76.00463819999999,35.06869219999999],[-76.0048736,35.06850700000001],[-76.005,35.068362452946076],[-76.005,35.07405854021051],[-76.00463669999999,35.07404530000002]]]}},{"type":"Feature","properties":{},"geometry":{"type":"Polygon","coordinates":[[[-75.98505549999999,35.10000000000002],[-75.98503899999997,35.100007000000005],[-75.98474599999997,35.10007000000002],[-75.98451599999999,35.100122],[-75.98438900000002,35.10014799999999],[-75.98427400000003,35.100143],[-75.98409600000002,35.100100999999995],[-75.98400700000002,35.100054],[-75.98391450000003,35.10000000000002],[-75.98505549999999,35.10000000000002]]]}},{"type":"Feature","properties":{},"geometry":{"type":"Polygon","coordinates":[[[-75.98372979999999,35.10000000000002],[-75.98381799999999,35.10002500000002],[-75.98390899999998,35.10006800000002],[-75.984038,35.100149999999985],[-75.98413699999998,35.10024099999998],[-75.98420499999997,35.10030899999998],[-75.98425200000003,35.100325],[-75.984331,35.10033299999998],[-75.984442,35.100323],[-75.984599,35.10029500000002],[-75.98464999999999,35.10028199999999],[-75.98483099999999,35.100243999999975],[-75.98497200000003,35.10020500000002],[-75.985183,35.10015199999998],[-75.985341,35.100099],[-75.985478,35.10002700000001],[-75.98551659999998,35.10000000000002],[-75.9866414,35.10000000000002],[-75.986629,35.10013900000001],[-75.986629,35.10045100000002],[-75.98675600000001,35.100888999999995],[-75.986693,35.101252999999986],[-75.986693,35.101451],[-75.98673100000002,35.10159700000003],[-75.98688299999998,35.101815999999985],[-75.98701,35.101950999999985],[-75.98701,35.10198300000002],[-75.98694699999999,35.10207700000001],[-75.98659099999998,35.10217],[-75.985792,35.10235799999998],[-75.98565200000002,35.10233699999998],[-75.98560199999997,35.10229500000003],[-75.98560199999997,35.10220199999998],[-75.98563999999999,35.10210799999999],[-75.985792,35.10199299999999],[-75.98586799999998,35.10188900000003],[-75.98586799999998,35.10180600000001],[-75.98571600000002,35.101764],[-75.98553800000002,35.10181699999998],[-75.98500000000001,35.10210699999999],[-75.98487599999999,35.102160000000026],[-75.98485099999999,35.102187000000015],[-75.98485099999999,35.102210000000014],[-75.98486200000002,35.10222199999998],[-75.98490500000003,35.10224499999998],[-75.98501199999998,35.10227200000003],[-75.98508399999997,35.10230999999999],[-75.985116,35.102351],[-75.98512299999999,35.10241400000001],[-75.98510900000002,35.102486999999996],[-75.98506700000002,35.10255000000001],[-75.98497099999997,35.10261200000002],[-75.98486000000003,35.10265700000002],[-75.984736,35.102742999999975],[-75.98463199999998,35.10282799999999],[-75.98461800000001,35.10289],[-75.98463900000002,35.102913],[-75.98472199999998,35.10292399999997],[-75.984805,35.10287299999999],[-75.98492900000002,35.102799000000005],[-75.98510199999998,35.10270300000002],[-75.98529500000001,35.10262899999998],[-75.98546800000003,35.10258399999998],[-75.985661,35.10256700000002],[-75.98590999999999,35.10257200000001],[-75.98629699999998,35.10260099999999],[-75.98653200000001,35.10259500000001],[-75.98670499999997,35.102554999999995],[-75.987009,35.10245900000001],[-75.98729900000001,35.10237999999998],[-75.9873303,35.102375499999994],[-75.987458,35.102356999999984],[-75.98756800000001,35.102356999999984],[-75.98766499999999,35.102419],[-75.98782399999999,35.10258900000002],[-75.98800399999999,35.10279400000002],[-75.98816900000003,35.10294099999999],[-75.98827299999999,35.102998000000014],[-75.98841800000002,35.103038000000026],[-75.988653,35.10306600000001],[-75.98879099999999,35.103106000000025],[-75.988902,35.103196000000025],[-75.98908799999998,35.10333300000002],[-75.98915,35.10341799999998],[-75.98920600000002,35.103598999999974],[-75.9892178,35.103626099999985],[-75.98926799999998,35.103741000000014],[-75.98935799999998,35.10387700000001],[-75.98943400000002,35.10396100000003],[-75.98949599999997,35.10403000000002],[-75.98954400000002,35.10409800000002],[-75.98956500000003,35.10421200000002],[-75.98953699999998,35.104371000000015],[-75.98945400000002,35.104444],[-75.98923300000001,35.104592000000025],[-75.989081,35.10473400000001],[-75.98892219999999,35.1048945],[-75.988902,35.104915000000005],[-75.98862500000001,35.105260999999985],[-75.98845999999998,35.105545000000006],[-75.98830099999998,35.10594200000003],[-75.98825199999999,35.10628200000002],[-75.98823199999998,35.106776000000025],[-75.98832099999998,35.10765500000002],[-75.98835600000001,35.107842000000005],[-75.98841800000002,35.107898999999975],[-75.98853600000001,35.10793899999999],[-75.988674,35.107979],[-75.98884600000002,35.10805199999999],[-75.988902,35.108115],[-75.98890899999998,35.108187999999984],[-75.98883999999998,35.10849999999999],[-75.98859099999999,35.10943099999997],[-75.98818299999999,35.110888999999986],[-75.9881772,35.1109113],[-75.987976,35.11168300000003],[-75.987976,35.111717],[-75.988245,35.11210799999998],[-75.98826600000001,35.11213099999998],[-75.98828700000001,35.11212499999999],[-75.98834900000003,35.11202300000002],[-75.98839700000002,35.11196100000001],[-75.98845999999998,35.111943999999994],[-75.988515,35.11194899999998],[-75.98853600000001,35.11201199999999],[-75.988722,35.11269199999998],[-75.98881899999998,35.11317100000002],[-75.98888799999997,35.11351500000001],[-75.98890899999998,35.113628000000006],[-75.98890899999998,35.113674],[-75.988902,35.113759000000016],[-75.988853,35.11381],[-75.988515,35.114014],[-75.98836999999997,35.114048000000025],[-75.98809999999997,35.11404199999998],[-75.98809219999998,35.11404090000002],[-75.98789299999999,35.114014],[-75.987797,35.11398300000002],[-75.98767900000001,35.113946],[-75.987368,35.113804000000016],[-75.987098,35.113639999999975],[-75.98691200000002,35.113451999999995],[-75.98685790000002,35.113374799999974],[-75.98662200000001,35.11303800000002],[-75.98648050000003,35.1128703],[-75.98628000000002,35.11263279999997],[-75.98611260000001,35.11245330000003],[-75.98607600000003,35.112414],[-75.98599300000001,35.11229500000002],[-75.985972,35.11215900000002],[-75.98599300000001,35.11200600000001],[-75.986041,35.111875999999995],[-75.98613799999998,35.111739],[-75.9862,35.111620000000016],[-75.98622799999998,35.11147799999998],[-75.98618699999997,35.11138799999998],[-75.98608300000001,35.111177999999995],[-75.985972,35.110968000000014],[-75.98581300000001,35.11075199999999],[-75.98562700000002,35.11064499999998],[-75.98532999999998,35.11053700000002],[-75.98501199999998,35.11047400000001],[-75.98480740000002,35.110468200000014],[-75.984625,35.11046299999998],[-75.98423100000002,35.11056000000002],[-75.98420820000001,35.11056810000002],[-75.9838656,35.110690499999976],[-75.98375499999997,35.11072999999999],[-75.98368449999998,35.11075099999999],[-75.98341440000002,35.110831399999995],[-75.98327799999998,35.11087199999997],[-75.98300799999998,35.110996],[-75.98297050000002,35.1110223],[-75.982732,35.111189000000024],[-75.98231800000002,35.111530000000016],[-75.98226460000001,35.11159140000001],[-75.98213099999998,35.111744999999985],[-75.98204800000002,35.111898],[-75.98202700000002,35.11202900000001],[-75.98206199999998,35.11210799999998],[-75.98210999999998,35.11218200000002],[-75.98213099999998,35.112318000000016],[-75.98213099999998,35.11232289999998],[-75.98213099999998,35.11256259999999],[-75.98213099999998,35.112640999999996],[-75.9821349,35.11267939999999],[-75.98214810000002,35.11280959999999],[-75.982166,35.112986999999976],[-75.9821986,35.113077799999985],[-75.98220700000002,35.11310099999997],[-75.982414,35.113293999999996],[-75.98251800000003,35.113381000000004],[-75.98271349999999,35.11354460000001],[-75.982732,35.11356000000001],[-75.98289749999998,35.11368629999998],[-75.98302669999998,35.113784899999985],[-75.983112,35.11385000000001],[-75.9832275,35.113913000000025],[-75.98341429999999,35.11401489999997],[-75.98350599999998,35.11406499999998],[-75.98360200000002,35.114141700000005],[-75.98373400000003,35.11424699999998],[-75.98374369999999,35.11425730000002],[-75.983879,35.11439999999999],[-75.98404390000002,35.11455799999999],[-75.98427040000001,35.11469260000001],[-75.98429299999998,35.11470600000001],[-75.9844296,35.114824899999974],[-75.984625,35.11499500000002],[-75.98526099999998,35.115545],[-75.98543289999998,35.115608099999974],[-75.98550899999998,35.115635999999995],[-75.985793,35.11566499999998],[-75.98581689999997,35.115663100000006],[-75.98600699999997,35.11564800000002],[-75.98613749999998,35.11562789999999],[-75.98622799999998,35.115613999999994],[-75.98686400000003,35.115459999999985],[-75.98706399999998,35.115387],[-75.98727100000002,35.11528499999997],[-75.98746499999999,35.11514299999999],[-75.98756800000001,35.11504600000001],[-75.987617,35.11496699999998],[-75.987637,35.114859000000024],[-75.98762399999998,35.114757],[-75.98765100000003,35.11465500000003],[-75.98770910000002,35.11460779999999],[-75.98790009999999,35.114595399999985],[-75.98807299999999,35.114595399999985],[-75.98810309999999,35.114599],[-75.98844409999998,35.114639599999975],[-75.98849130000002,35.114645199999984],[-75.98857559999999,35.11465229999999],[-75.98884609999999,35.1146751],[-75.98907300000002,35.11470379999997],[-75.98912059999998,35.11471499999999],[-75.98913099999999,35.11471740000002],[-75.9891432,35.11476720000002],[-75.9891189,35.11484200000001],[-75.98904920000001,35.11503379999999],[-75.9889609,35.1151749],[-75.98882479999997,35.115392499999984],[-75.98872599999999,35.115526999999986],[-75.98870099999999,35.11555099999998],[-75.988584,35.11564800000002],[-75.98843900000003,35.11578400000002],[-75.98826600000001,35.11597699999999],[-75.98801700000001,35.116243],[-75.98775499999999,35.11646400000001],[-75.987527,35.116633999999976],[-75.98734089999999,35.11674870000002],[-75.98694599999999,35.11699199999998],[-75.98677629999997,35.11709719999999],[-75.98643499999997,35.11730899999998],[-75.9862,35.117457],[-75.98603500000002,35.117650000000026],[-75.98583400000001,35.11788200000001],[-75.98567500000001,35.11802399999999],[-75.98550899999998,35.11811499999999],[-75.98528099999999,35.118217000000016],[-75.98497099999997,35.118381],[-75.984736,35.11852299999998],[-75.984535,35.11862500000001],[-75.98436900000002,35.11868800000002],[-75.984265,35.11872299999999],[-75.984217,35.118739000000005],[-75.984059,35.11875600000002],[-75.983789,35.118772999999976],[-75.98366499999997,35.11880100000002],[-75.98355400000003,35.118863999999974],[-75.98339499999997,35.118960000000015],[-75.983022,35.119204000000025],[-75.98283600000002,35.11937999999998],[-75.98281500000002,35.11948699999999],[-75.98283099999998,35.11983859999998],[-75.98283600000002,35.119947000000025],[-75.982822,35.12016799999998],[-75.98278699999997,35.12021299999998],[-75.98265600000002,35.12021900000002],[-75.98205200000001,35.12022519999999],[-75.98197199999998,35.11922099999998],[-75.98191000000003,35.119147],[-75.98177900000002,35.119124],[-75.98110200000002,35.11911900000001],[-75.98100499999998,35.11915299999998],[-75.980887,35.119215],[-75.980729,35.11937999999998],[-75.98059119999999,35.119588599999986],[-75.98054200000001,35.119663],[-75.980369,35.119845],[-75.980276,35.119969000000026],[-75.98014799999999,35.12019099999998],[-75.980141,35.12082600000002],[-75.98010620000002,35.120865200000026],[-75.98008599999997,35.12088799999998],[-75.979982,35.12088799999998],[-75.97948500000001,35.12085400000001],[-75.97924999999998,35.12084299999998],[-75.97902199999999,35.12087100000002],[-75.978566,35.120990000000006],[-75.978386,35.120990000000006],[-75.97817199999997,35.12095099999999],[-75.97796499999998,35.12090499999999],[-75.97746799999999,35.12084299999998],[-75.97719339999998,35.12077959999999],[-75.97687539999998,35.12070610000001],[-75.97657500000003,35.120633],[-75.97643099999999,35.12060500000001],[-75.976182,35.120559000000014],[-75.97594099999998,35.120469000000014],[-75.97571299999998,35.12035500000002],[-75.975326,35.12018499999999],[-75.97500000000002,35.120058900000004],[-75.97500000000002,35.11915399999998],[-75.97517399999998,35.11932899999999],[-75.97516000000002,35.11938500000002],[-75.97510499999999,35.11947600000002],[-75.975077,35.119560999999976],[-75.97510499999999,35.119628999999975],[-75.97531199999997,35.119827999999984],[-75.97534000000002,35.11983300000003],[-75.97542199999998,35.119777],[-75.975505,35.11968000000002],[-75.97556800000001,35.11959000000002],[-75.97560199999998,35.11949299999998],[-75.975616,35.11938500000002],[-75.975574,35.11927800000001],[-75.975436,35.11911900000001],[-75.97500000000002,35.118662900000004],[-75.97500000000002,35.11749229999998],[-75.97580199999999,35.118472],[-75.97590600000001,35.11859700000002],[-75.97598199999999,35.11863099999999],[-75.976044,35.11863699999998],[-75.97611999999998,35.11862500000001],[-75.97611999999998,35.11859099999998],[-75.97610600000002,35.11835300000001],[-75.97607900000003,35.11832500000003],[-75.975885,35.11820599999999],[-75.97574700000001,35.11808100000002],[-75.97549800000002,35.117796999999996],[-75.97500000000002,35.11720380000003],[-75.97500000000002,35.11641900000001],[-75.975098,35.116310999999996],[-75.97536000000002,35.116101000000015],[-75.97757100000001,35.11794500000002],[-75.97764699999999,35.118165999999974],[-75.97777200000002,35.11837600000001],[-75.97791000000001,35.118529000000024],[-75.978138,35.118739000000005],[-75.97837299999998,35.11892599999999],[-75.97873900000002,35.119181000000026],[-75.97904999999997,35.11932300000001],[-75.97940899999998,35.11944799999998],[-75.97959500000002,35.119504000000006],[-75.97965799999997,35.119504000000006],[-75.97968500000002,35.11948699999999],[-75.97967799999998,35.11944199999999],[-75.97960899999998,35.11940199999998],[-75.97942999999998,35.11930000000001],[-75.979153,35.11918700000001],[-75.97893199999999,35.119061999999985],[-75.978635,35.118898],[-75.97835199999997,35.118671000000006],[-75.978096,35.118404],[-75.97794399999998,35.11818899999997],[-75.977889,35.11808100000002],[-75.97785399999998,35.11802399999999],[-75.97780599999999,35.11793899999998],[-75.97762599999999,35.117751999999996],[-75.97735,35.117502],[-75.976652,35.11692900000003],[-75.97621700000002,35.116600000000005],[-75.97574700000001,35.11622],[-75.975416,35.115890999999976],[-75.97535299999998,35.115880000000004],[-75.97529100000003,35.115913999999975],[-75.97500000000002,35.11618120000003],[-75.97500000000002,35.115104599999995],[-75.97500000000002,35.10964180000002],[-75.97500000000002,35.10000000000002],[-75.98372979999999,35.10000000000002]]]}}]}