{"type":"FeatureCollection","features":[{"type":"Feature","properties":{},"geometry":{"type":"Polygon","coordinates":[[[-78.0,33.606076599999994],[-78.0,33.6211174],[-78.0,33.62151560000001],[-78.0,33.66041000000001],[-78.0,33.67500000000001],[-77.9363305,33.67500000000001],[-77.92500000000001,33.67500000000001],[-77.92500000000001,33.6732801],[-77.92500000000001,33.67005019999999],[-77.92500000000001,33.66143310000001],[-77.92500000000001,33.65724419999998],[-77.92500000000001,33.65566480000001],[-77.92500000000001,33.64450950000003],[-77.92500000000001,33.64405740000001],[-77.92500000000001,33.64065099999999],[-77.92500000000001,33.62065580000001],[-77.92500000000001,33.62033059999999],[-77.92500000000001,33.609679099999994],[-77.92500000000001,33.60000000000002],[-77.95320379999998,33.60000000000002],[-77.95581979999997,33.60000000000002],[-77.96685719999999,33.60000000000002],[-77.97263450000003,33.60000000000002],[-77.98558600000001,33.60000000000002],[-77.9941015,33.60000000000002],[-78.0,33.60000000000002],[-78.0,33.606076599999994]]]}},{"type":"Feature","properties":{},"geometry":{"type":"Polygon","coordinates":[[[-77.8685185,33.60000000000002],[-77.87601919999997,33.60000000000002],[-77.8983318,33.60000000000002],[-77.90349079999999,33.60000000000002],[-77.91810800000002,33.60000000000002],[-77.92500000000001,33.60000000000002],[-77.92500000000001,33.609679099999994],[-77.92500000000001,33.62033059999999],[-77.92500000000001,33.62065580000001],[-77.92500000000001,33.64065099999999],[-77.92500000000001,33.64405740000001],[-77.92500000000001,33.64450950000003],[-77.92500000000001,33.65566480000001],[-77.92500000000001,33.65724419999998],[-77.92500000000001,33.66143310000001],[-77.92500000000001,33.67005019999999],[-77.92500000000001,33.6732801],[-77.92500000000001,33.67500000000001],[-77.92135660000002,33.67500000000001],[-77.91113139999999,33.67500000000001],[-77.9103988,33.67500000000001],[-77.90958940000002,33.67500000000001],[-77.90084239999999,33.67500000000001],[-77.8871957,33.67500000000001],[-77.8824007,33.67500000000001],[-77.87716519999998,33.67500000000001],[-77.86244010000001,33.67500000000001],[-77.86158569999998,33.67500000000001],[-77.85000000000002,33.67500000000001],[-77.85000000000002,33.6636158],[-77.85000000000002,33.66145469999998],[-77.85000000000002,33.65322859999998],[-77.85000000000002,33.6403363],[-77.85000000000002,33.630026799999996],[-77.85000000000002,33.619598800000006],[-77.85000000000002,33.615659300000004],[-77.85000000000002,33.61465290000001],[-77.85000000000002,33.6105594],[-77.85000000000002,33.603623200000015],[-77.85000000000002,33.60000000000002],[-77.8539821,33.60000000000002],[-77.8587412,33.60000000000002],[-77.8685185,33.60000000000002]]]}},{"type":"Feature","properties":{},"geometry":{"type":"Polygon","coordinates":[[[-78.14999999999998,33.67871220000001],[-78.14999999999998,33.69653060000002],[-78.14999999999998,33.7178801],[-78.14999999999998,33.73844559999998],[-78.14999999999998,33.744216900000026],[-78.14999999999998,33.75],[-78.14547959999999,33.75],[-78.1362186,33.75],[-78.1149878,33.75],[-78.1110969,33.75],[-78.08470340000002,33.75],[-78.08101749999997,33.75],[-78.07499999999999,33.75],[-78.07499999999999,33.745156899999984],[-78.07499999999999,33.741284699999994],[-78.07499999999999,33.675906399999974],[-78.07499999999999,33.67500000000001],[-78.075173,33.67500000000001],[-78.1095535,33.67500000000001],[-78.12700919999997,33.67500000000001],[-78.14999999999998,33.67500000000001],[-78.14999999999998,33.67871220000001]]]}},{"type":"Feature","properties":{},"geometry":{"type":"Polygon","coordinates":[[[-78.07499999999999,33.675906399999974],[-78.07499999999999,33.741284699999994],[-78.07499999999999,33.745156899999984],[-78.07499999999999,33.75],[-78.05168629999997,33.75],[-78.0466667,33.75],[-78.01666879999999,33.75],[-78.01666669999997,33.75],[-78.0,33.75],[-78.0,33.741284699999994],[-78.0,33.67500000000001],[-78.06777640000001,33.67500000000001],[-78.07499999999999,33.67500000000001],[-78.07499999999999,33.675906399999974]]]}},{"type":"Feature","properties":{},"geometry":{"type":"Polygon","coordinates":[[[-77.9363305,33.67500000000001],[-78.0,33.67500000000001],[-78.0,33.741284699999994],[-78.0,33.75],[-77.96876420000001,33.75],[-77.94900660000002,33.75],[-77.94138420000002,33.75],[-77.94008550000001,33.75],[-77.93605659999997,33.75],[-77.92661679999998,33.75],[-77.92500000000001,33.75],[-77.92500000000001,33.7472229],[-77.92500000000001,33.741284699999994],[-77.92500000000001,33.726640599999996],[-77.92500000000001,33.72411349999999],[-77.92500000000001,33.722616000000016],[-77.92500000000001,33.70500190000001],[-77.92500000000001,33.70481799999999],[-77.92500000000001,33.6986895],[-77.92500000000001,33.69550579999998],[-77.92500000000001,33.68342680000001],[-77.92500000000001,33.67500000000001],[-77.9363305,33.67500000000001]]]}},{"type":"Feature","properties":{},"geometry":{"type":"Polygon","coordinates":[[[-77.92500000000001,33.68342680000001],[-77.92500000000001,33.69550579999998],[-77.92500000000001,33.6986895],[-77.92500000000001,33.70481799999999],[-77.92500000000001,33.70500190000001],[-77.92500000000001,33.722616000000016],[-77.92500000000001,33.72411349999999],[-77.92500000000001,33.726640599999996],[-77.92500000000001,33.741284699999994],[-77.92500000000001,33.7472229],[-77.92500000000001,33.75],[-77.92349489999998,33.75],[-77.9203683,33.75],[-77.91854030000002,33.75],[-77.90838289999999,33.75],[-77.89970870000002,33.75],[-77.89432160000001,33.75],[-77.85000000000002,33.75],[-77.85000000000002,33.693941499999994],[-77.85000000000002,33.688069299999995],[-77.85000000000002,33.67500000000001],[-77.86158569999998,33.67500000000001],[-77.86244010000001,33.67500000000001],[-77.87716519999998,33.67500000000001],[-77.8824007,33.67500000000001],[-77.8871957,33.67500000000001],[-77.90084239999999,33.67500000000001],[-77.90958940000002,33.67500000000001],[-77.9103988,33.67500000000001],[-77.91113139999999,33.67500000000001],[-77.92135660000002,33.67500000000001],[-77.92500000000001,33.67500000000001],[-77.92500000000001,33.68342680000001]]]}},{"type":"Feature","properties":{},"geometry":{"type":"Polygon","coordinates":[[[-78.14547959999999,33.75],[-78.14999999999998,33.75],[-78.14999999999998,33.767005600000005],[-78.14999999999998,33.79974720000001],[-78.14999999999998,33.80152939999999],[-78.14999999999998,33.82499999999999],[-78.1149878,33.82499999999999],[-78.07499999999999,33.82499999999999],[-78.07499999999999,33.80224679999998],[-78.07499999999999,33.801946199999975],[-78.07499999999999,33.79073949999997],[-78.07499999999999,33.75],[-78.08101749999997,33.75],[-78.08470340000002,33.75],[-78.1110969,33.75],[-78.1149878,33.75],[-78.1362186,33.75],[-78.14547959999999,33.75]]]}},{"type":"Feature","properties":{},"geometry":{"type":"Polygon","coordinates":[[[-78.01666669999997,33.75],[-78.01666879999999,33.75],[-78.0466667,33.75],[-78.05168629999997,33.75],[-78.07499999999999,33.75],[-78.07499999999999,33.79073949999997],[-78.07499999999999,33.801946199999975],[-78.07499999999999,33.80224679999998],[-78.07499999999999,33.82499999999999],[-78.0523743,33.82499999999999],[-78.05223430000001,33.82499999999999],[-78.05188859999998,33.82499999999999],[-78.0516667,33.82499999999999],[-78.05098240000001,33.82499999999999],[-78.04908699999999,33.82499999999999],[-78.03661010000002,33.82499999999999],[-78.03491079999998,33.82499999999999],[-78.0344857,33.82499999999999],[-78.03406100000001,33.82499999999999],[-78.03404749999999,33.82499999999999],[-78.03363630000001,33.82499999999999],[-78.03321190000003,33.82499999999999],[-78.00876520000003,33.82499999999999],[-78.0,33.82499999999999],[-78.0,33.81667709999999],[-78.0,33.78119579999998],[-78.0,33.75],[-78.01666669999997,33.75]]]}},{"type":"Feature","properties":{},"geometry":{"type":"Polygon","coordinates":[[[-78.0,33.78119579999998],[-78.0,33.81667709999999],[-78.0,33.82499999999999],[-77.97790099999997,33.82499999999999],[-77.9702011,33.82499999999999],[-77.9690683,33.82499999999999],[-77.96712120000001,33.82499999999999],[-77.95941540000001,33.82499999999999],[-77.95783519999998,33.82499999999999],[-77.9510904,33.82499999999999],[-77.94615620000002,33.82499999999999],[-77.94247960000001,33.82499999999999],[-77.93000640000002,33.82499999999999],[-77.9265054,33.82499999999999],[-77.92500000000001,33.82499999999999],[-77.92500000000001,33.80504589999998],[-77.92500000000001,33.80385769999998],[-77.92500000000001,33.78327089999999],[-77.92500000000001,33.77735769999998],[-77.92500000000001,33.76381889999999],[-77.92500000000001,33.75047119999999],[-77.92500000000001,33.75],[-77.92661679999998,33.75],[-77.93605659999997,33.75],[-77.94008550000001,33.75],[-77.94138420000002,33.75],[-77.94900660000002,33.75],[-78.0,33.75],[-78.0,33.78119579999998]]]}},{"type":"Feature","properties":{},"geometry":{"type":"Polygon","coordinates":[[[-77.92500000000001,33.75047119999999],[-77.92500000000001,33.76381889999999],[-77.92500000000001,33.77735769999998],[-77.92500000000001,33.78327089999999],[-77.92500000000001,33.80385769999998],[-77.92500000000001,33.80504589999998],[-77.92500000000001,33.82499999999999],[-77.920121,33.82499999999999],[-77.91961579999997,33.82499999999999],[-77.89970870000002,33.82499999999999],[-77.89670430000001,33.82499999999999],[-77.85000000000002,33.82499999999999],[-77.85000000000002,33.78212239999999],[-77.85000000000002,33.75],[-77.89432160000001,33.75],[-77.89970870000002,33.75],[-77.90838289999999,33.75],[-77.91854030000002,33.75],[-77.9203683,33.75],[-77.92349489999998,33.75],[-77.92500000000001,33.75],[-77.92500000000001,33.75047119999999]]]}},{"type":"Feature","properties":{},"geometry":{"type":"Polygon","coordinates":[[[-78.1149878,33.82499999999999],[-78.14999999999998,33.82499999999999],[-78.14999999999998,33.85431699999998],[-78.14999999999998,33.862583599999994],[-78.14999999999998,33.87535100000002],[-78.14999999999998,33.898557900000014],[-78.14999999999998,33.89999999999998],[-78.1149878,33.89999999999998],[-78.09139590000001,33.89999999999998],[-78.07789789999998,33.89999999999998],[-78.07549030000001,33.89999999999998],[-78.07499999999999,33.89999999999998],[-78.07499999999999,33.89941640000001],[-78.07499999999999,33.898635300000024],[-78.07499999999999,33.89574110000001],[-78.07499999999999,33.8717638],[-78.07499999999999,33.846034599999996],[-78.07499999999999,33.82499999999999],[-78.1149878,33.82499999999999]]]}},{"type":"Feature","properties":{},"geometry":{"type":"Polygon","coordinates":[[[-78.05223430000001,33.82499999999999],[-78.0523743,33.82499999999999],[-78.07499999999999,33.82499999999999],[-78.07499999999999,33.846034599999996],[-78.07499999999999,33.84649539999998],[-78.07499999999999,33.847421999999995],[-78.07499999999999,33.8717638],[-78.07499999999999,33.89574110000001],[-78.07499999999999,33.898635300000024],[-78.07499999999999,33.89941640000001],[-78.07499999999999,33.89999999999998],[-78.07117840000001,33.89999999999998],[-78.06879550000002,33.89999999999998],[-78.06723260000001,33.89999999999998],[-78.0577422,33.89999999999998],[-78.0570224,33.89999999999998],[-78.05534929999999,33.89999999999998],[-78.04958829999998,33.89999999999998],[-78.04943259999999,33.89999999999998],[-78.03622050000001,33.89999999999998],[-78.03568630000001,33.89999999999998],[-78.03432529999998,33.89999999999998],[-78.03032350000001,33.89999999999998],[-78.029992,33.89999999999998],[-78.02885359999999,33.89999999999998],[-78.0283397,33.89999999999998],[-78.02755339999999,33.89999999999998],[-78.02532230000003,33.89999999999998],[-78.02359230000002,33.89999999999998],[-78.02235990000003,33.89999999999998],[-78.02023830000002,33.89999999999998],[-78.01974180000002,33.89999999999998],[-78.01969960000002,33.89999999999998],[-78.01876629999998,33.89999999999998],[-78.01853410000001,33.89999999999998],[-78.01693060000002,33.89999999999998],[-78.01633989999999,33.89999999999998],[-78.0160684,33.89999999999998],[-78.01575400000002,33.89999999999998],[-78.01517289999998,33.89999999999998],[-78.0145971,33.89999999999998],[-78.01377300000001,33.89999999999998],[-78.01246459999999,33.89999999999998],[-78.01226209999999,33.89999999999998],[-78.01200440000002,33.89999999999998],[-78.01131299999997,33.89999999999998],[-78.0089094,33.89999999999998],[-78.0059559,33.89999999999998],[-78.0032837,33.89999999999998],[-78.0016817,33.89999999999998],[-78.0,33.89999999999998],[-78.0,33.893315900000005],[-78.0,33.89232129999999],[-78.0,33.88879680000002],[-78.0,33.8882352],[-78.0,33.88105860000002],[-78.0,33.88101039999998],[-78.0,33.88019889999998],[-78.0,33.879848200000026],[-78.0,33.87982649999998],[-78.0,33.879442400000016],[-78.0,33.8777369],[-78.0,33.8758469],[-78.0,33.87232610000001],[-78.0,33.85588769999998],[-78.0,33.8556959],[-78.0,33.8549653],[-78.0,33.84987030000002],[-78.0,33.84977570000001],[-78.0,33.84254520000002],[-78.0,33.82499999999999],[-78.00876520000003,33.82499999999999],[-78.03321190000003,33.82499999999999],[-78.03363630000001,33.82499999999999],[-78.03404749999999,33.82499999999999],[-78.03406100000001,33.82499999999999],[-78.0344857,33.82499999999999],[-78.03491079999998,33.82499999999999],[-78.03661010000002,33.82499999999999],[-78.04908699999999,33.82499999999999],[-78.05098240000001,33.82499999999999],[-78.05113269999998,33.82499999999999],[-78.05188859999998,33.82499999999999],[-78.05191910000002,33.82499999999999],[-78.05223430000001,33.82499999999999]]]}},{"type":"Feature","properties":{},"geometry":{"type":"Polygon","coordinates":[[[-78.0,33.84254520000002],[-78.0,33.84977570000001],[-78.0,33.84987030000002],[-78.0,33.8549653],[-78.0,33.8556959],[-78.0,33.85588769999998],[-78.0,33.87232610000001],[-78.0,33.8758469],[-78.0,33.8777369],[-78.0,33.879442400000016],[-78.0,33.87982649999998],[-78.0,33.879848200000026],[-78.0,33.88019889999998],[-78.0,33.88101039999998],[-78.0,33.88105860000002],[-78.0,33.8882352],[-78.0,33.88879680000002],[-78.0,33.89232129999999],[-78.0,33.893315900000005],[-78.0,33.89999999999998],[-77.9957948,33.89999999999998],[-77.98660749999999,33.89999999999998],[-77.98472420000002,33.89999999999998],[-77.98404420000003,33.89999999999998],[-77.98351339999999,33.89999999999998],[-77.9818737,33.89999999999998],[-77.98116010000001,33.89999999999998],[-77.98064779999999,33.89999999999998],[-77.98047179999998,33.89999999999998],[-77.97805119999998,33.89999999999998],[-77.97752889999998,33.89999999999998],[-77.97156189999998,33.89999999999998],[-77.97093469999999,33.89999999999998],[-77.96918950000003,33.89999999999998],[-77.9663835,33.89999999999998],[-77.96531099999999,33.89999999999998],[-77.9577941,33.89999999999998],[-77.95365600000002,33.89999999999998],[-77.94991520000002,33.89999999999998],[-77.948961,33.89999999999998],[-77.94799949999998,33.89999999999998],[-77.94181329999998,33.89999999999998],[-77.93031159999998,33.89999999999998],[-77.92836749999998,33.89999999999998],[-77.92574209999998,33.89999999999998],[-77.92500000000001,33.89999999999998],[-77.92500000000001,33.882364199999984],[-77.92500000000001,33.8463213],[-77.92500000000001,33.82831629999998],[-77.92500000000001,33.82739120000002],[-77.92500000000001,33.82499999999999],[-77.9265054,33.82499999999999],[-77.93000640000002,33.82499999999999],[-77.94247960000001,33.82499999999999],[-77.94615620000002,33.82499999999999],[-77.9510904,33.82499999999999],[-77.95783519999998,33.82499999999999],[-77.95941540000001,33.82499999999999],[-77.96712120000001,33.82499999999999],[-77.9690683,33.82499999999999],[-77.9702011,33.82499999999999],[-77.97790099999997,33.82499999999999],[-78.0,33.82499999999999],[-78.0,33.84254520000002]]]}},{"type":"Feature","properties":{},"geometry":{"type":"Polygon","coordinates":[[[-77.92500000000001,33.82739120000002],[-77.92500000000001,33.82831629999998],[-77.92500000000001,33.8463213],[-77.92500000000001,33.882364199999984],[-77.92500000000001,33.89999999999998],[-77.91212510000003,33.89999999999998],[-77.90918749999997,33.89999999999998],[-77.89970870000002,33.89999999999998],[-77.88316509999999,33.89999999999998],[-77.85000000000002,33.89999999999998],[-77.85000000000002,33.82499999999999],[-77.89670430000001,33.82499999999999],[-77.89970870000002,33.82499999999999],[-77.91961579999997,33.82499999999999],[-77.920121,33.82499999999999],[-77.92500000000001,33.82499999999999],[-77.92500000000001,33.82739120000002]]]}},{"type":"Feature","properties":{},"geometry":{"type":"Polygon","coordinates":[[[-78.07117840000001,33.89999999999998],[-78.07499999999999,33.89999999999998],[-78.07499999999999,33.90055580000001],[-78.07499999999999,33.90156539999998],[-78.07499999999999,33.90199389999998],[-78.07499999999999,33.9034853],[-78.07499999999999,33.90475980000002],[-78.07499999999999,33.90510180000001],[-78.07499999999999,33.91144539999999],[-78.07499999999999,33.9123783],[-78.07499999999999,33.92003],[-78.07499999999999,33.92095310000002],[-78.07499999999999,33.92158260000002],[-78.07499999999999,33.921855600000015],[-78.07499999999999,33.921932200000015],[-78.07499999999999,33.92193780000002],[-78.07499999999999,33.92196999999999],[-78.07499999999999,33.922110499999974],[-78.07499999999999,33.92221999999998],[-78.07499999999999,33.92232539999998],[-78.07499999999999,33.922330699999975],[-78.07499999999999,33.922404099999994],[-78.07499999999999,33.92292250000003],[-78.07499999999999,33.92871280000003],[-78.07499999999999,33.929901599999994],[-78.07499999999999,33.97500000000002],[-78.00863609999999,33.97500000000002],[-78.00708309999999,33.97500000000002],[-78.00707469999998,33.97500000000002],[-78.00306669999998,33.97500000000002],[-78.0,33.97500000000002],[-78.0,33.97117079999998],[-78.0,33.97007989999997],[-78.0,33.96980150000002],[-78.0,33.9696505],[-78.0,33.96863769999999],[-78.0,33.96766960000002],[-78.0,33.963695400000006],[-78.0,33.962710800000025],[-78.0,33.937745800000016],[-78.0,33.93641839999998],[-78.0,33.92630539999999],[-78.0,33.92555379999999],[-78.0,33.92520000000002],[-78.0,33.92434909999997],[-78.0,33.923923100000025],[-78.0,33.92345019999999],[-78.0,33.92289790000001],[-78.0,33.92256550000002],[-78.0,33.922250399999996],[-78.0,33.922233000000006],[-78.0,33.92222170000002],[-78.0,33.92190049999999],[-78.0,33.921567900000014],[-78.0,33.9200773],[-78.0,33.919842500000016],[-78.0,33.919320700000014],[-78.0,33.9192463],[-78.0,33.918788199999995],[-78.0,33.9142248],[-78.0,33.91044099999999],[-78.0,33.9026748],[-78.0,33.89999999999998],[-78.0016817,33.89999999999998],[-78.0032837,33.89999999999998],[-78.0059559,33.89999999999998],[-78.0089094,33.89999999999998],[-78.01131299999997,33.89999999999998],[-78.01200440000002,33.89999999999998],[-78.01226209999999,33.89999999999998],[-78.01246459999999,33.89999999999998],[-78.01377300000001,33.89999999999998],[-78.0145971,33.89999999999998],[-78.01517289999998,33.89999999999998],[-78.01575400000002,33.89999999999998],[-78.0160684,33.89999999999998],[-78.01633989999999,33.89999999999998],[-78.01693060000002,33.89999999999998],[-78.01853410000001,33.89999999999998],[-78.01876629999998,33.89999999999998],[-78.01969960000002,33.89999999999998],[-78.01974180000002,33.89999999999998],[-78.02023830000002,33.89999999999998],[-78.02235990000003,33.89999999999998],[-78.02359230000002,33.89999999999998],[-78.02532230000003,33.89999999999998],[-78.02755339999999,33.89999999999998],[-78.0283397,33.89999999999998],[-78.02885359999999,33.89999999999998],[-78.029992,33.89999999999998],[-78.03032350000001,33.89999999999998],[-78.03432529999998,33.89999999999998],[-78.03568630000001,33.89999999999998],[-78.03622050000001,33.89999999999998],[-78.04943259999999,33.89999999999998],[-78.04958829999998,33.89999999999998],[-78.05534929999999,33.89999999999998],[-78.0570224,33.89999999999998],[-78.0577422,33.89999999999998],[-78.06723260000001,33.89999999999998],[-78.06879550000002,33.89999999999998],[-78.07117840000001,33.89999999999998]]]}},{"type":"Feature","properties":{},"geometry":{"type":"Polygon","coordinates":[[[-77.9957948,33.89999999999998],[-78.0,33.89999999999998],[-78.0,33.9026748],[-78.0,33.91044099999999],[-78.0,33.9142248],[-78.0,33.918788199999995],[-78.0,33.9192463],[-78.0,33.919320700000014],[-78.0,33.919842500000016],[-78.0,33.9200773],[-78.0,33.921567900000014],[-78.0,33.92190049999999],[-78.0,33.92222170000002],[-78.0,33.922233000000006],[-78.0,33.922250399999996],[-78.0,33.92256550000002],[-78.0,33.92289790000001],[-78.0,33.92345019999999],[-78.0,33.923923100000025],[-78.0,33.92434909999997],[-78.0,33.92520000000002],[-78.0,33.92555379999999],[-78.0,33.92630539999999],[-78.0,33.93641839999998],[-78.0,33.937745800000016],[-78.0,33.962710800000025],[-78.0,33.963695400000006],[-78.0,33.96766960000002],[-78.0,33.96863769999999],[-78.0,33.9696505],[-78.0,33.96980150000002],[-78.0,33.97007989999997],[-78.0,33.97117079999998],[-78.0,33.97500000000002],[-77.99836970000001,33.97500000000002],[-77.99793349999999,33.97500000000002],[-77.99761239999998,33.97500000000002],[-77.99635369999999,33.97500000000002],[-77.99616959999997,33.97500000000002],[-77.99578079999998,33.97500000000002],[-77.9954889,33.97500000000002],[-77.99463939999998,33.97500000000002],[-77.994167,33.97500000000002],[-77.991577,33.97500000000002],[-77.9908193,33.97500000000002],[-77.99058780000001,33.97500000000002],[-77.99013739999998,33.97500000000002],[-77.9888302,33.97500000000002],[-77.9880991,33.97500000000002],[-77.98581230000002,33.97500000000002],[-77.98524259999999,33.97500000000002],[-77.97963040000002,33.97500000000002],[-77.97742010000002,33.97500000000002],[-77.9770102,33.97500000000002],[-77.97525259999998,33.97500000000002],[-77.97407529999998,33.97500000000002],[-77.96926989999997,33.97500000000002],[-77.95938869999998,33.97500000000002],[-77.95530120000001,33.97500000000002],[-77.95430820000001,33.97500000000002],[-77.95334430000003,33.97500000000002],[-77.9528436,33.97500000000002],[-77.95195059999998,33.97500000000002],[-77.95102220000001,33.97500000000002],[-77.95024590000003,33.97500000000002],[-77.94994559999998,33.97500000000002],[-77.94940709999997,33.97500000000002],[-77.94910379999999,33.97500000000002],[-77.94893889999997,33.97500000000002],[-77.94860770000003,33.97500000000002],[-77.94828519999999,33.97500000000002],[-77.94827800000002,33.97500000000002],[-77.94827650000002,33.97500000000002],[-77.94794530000001,33.97500000000002],[-77.94761399999999,33.97500000000002],[-77.94703629999998,33.97500000000002],[-77.9468708,33.97500000000002],[-77.94652919999999,33.97500000000002],[-77.94618439999999,33.97500000000002],[-77.94555589999999,33.97500000000002],[-77.94433079999999,33.97500000000002],[-77.94412440000002,33.97500000000002],[-77.943105,33.97500000000002],[-77.94197259999999,33.97500000000002],[-77.94140809999999,33.97500000000002],[-77.92500000000001,33.97500000000002],[-77.92500000000001,33.973546],[-77.92500000000001,33.970035300000006],[-77.92500000000001,33.96782480000002],[-77.92500000000001,33.96080669999998],[-77.92500000000001,33.96052100000003],[-77.92500000000001,33.96041300000002],[-77.92500000000001,33.95986110000001],[-77.92500000000001,33.957819900000004],[-77.92500000000001,33.957683599999996],[-77.92500000000001,33.95693590000002],[-77.92500000000001,33.95387779999999],[-77.92500000000001,33.946883300000025],[-77.92500000000001,33.94188129999998],[-77.92500000000001,33.94101439999997],[-77.92500000000001,33.934818800000016],[-77.92500000000001,33.934737600000005],[-77.92500000000001,33.93085480000002],[-77.92500000000001,33.92223259999997],[-77.92500000000001,33.92070380000001],[-77.92500000000001,33.91395560000001],[-77.92500000000001,33.900699599999996],[-77.92500000000001,33.89999999999998],[-77.92574209999998,33.89999999999998],[-77.92836749999998,33.89999999999998],[-77.93031159999998,33.89999999999998],[-77.94181329999998,33.89999999999998],[-77.94799949999998,33.89999999999998],[-77.948961,33.89999999999998],[-77.94991520000002,33.89999999999998],[-77.95365600000002,33.89999999999998],[-77.9577941,33.89999999999998],[-77.96531099999999,33.89999999999998],[-77.9663835,33.89999999999998],[-77.96918950000003,33.89999999999998],[-77.97093469999999,33.89999999999998],[-77.97156189999998,33.89999999999998],[-77.97752889999998,33.89999999999998],[-77.97805119999998,33.89999999999998],[-77.98047179999998,33.89999999999998],[-77.98064779999999,33.89999999999998],[-77.98116010000001,33.89999999999998],[-77.9818737,33.89999999999998],[-77.98351339999999,33.89999999999998],[-77.98404420000003,33.89999999999998],[-77.98472420000002,33.89999999999998],[-77.98660749999999,33.89999999999998],[-77.9957948,33.89999999999998]]]}},{"type":"Feature","properties":{},"geometry":{"type":"Polygon","coordinates":[[[-77.92500000000001,33.900699599999996],[-77.92500000000001,33.91395560000001],[-77.92500000000001,33.92070380000001],[-77.92500000000001,33.92223259999997],[-77.92500000000001,33.93085480000002],[-77.92500000000001,33.934737600000005],[-77.92500000000001,33.934818800000016],[-77.92500000000001,33.94101439999997],[-77.92500000000001,33.94188129999998],[-77.92500000000001,33.946883300000025],[-77.92500000000001,33.95387779999999],[-77.92500000000001,33.95693590000002],[-77.92500000000001,33.957683599999996],[-77.92500000000001,33.957819900000004],[-77.92500000000001,33.95986110000001],[-77.92500000000001,33.96041300000002],[-77.92500000000001,33.96052100000003],[-77.92500000000001,33.96080669999998],[-77.92500000000001,33.96782480000002],[-77.92500000000001,33.970035300000006],[-77.92500000000001,33.973546],[-77.92500000000001,33.97500000000002],[-77.9215259,33.97500000000002],[-77.92020760000003,33.97500000000002],[-77.91330590000001,33.97500000000002],[-77.91231019999998,33.97500000000002],[-77.9111221,33.97500000000002],[-77.91057890000002,33.97500000000002],[-77.90911210000002,33.97500000000002],[-77.90400649999998,33.97500000000002],[-77.89970870000002,33.97500000000002],[-77.89913619999999,33.97500000000002],[-77.89561650000002,33.97500000000002],[-77.88173970000003,33.97500000000002],[-77.87636650000002,33.97500000000002],[-77.87284770000002,33.97500000000002],[-77.85000000000002,33.97500000000002],[-77.85000000000002,33.974541999999985],[-77.85000000000002,33.89999999999998],[-77.88316509999999,33.89999999999998],[-77.89970870000002,33.89999999999998],[-77.90918749999997,33.89999999999998],[-77.91212510000003,33.89999999999998],[-77.92500000000001,33.89999999999998],[-77.92500000000001,33.900699599999996]]]}},{"type":"Feature","properties":{},"geometry":{"type":"Polygon","coordinates":[[[-77.92500000000001,33.97500000000002],[-77.94140809999999,33.97500000000002],[-77.94197259999999,33.97500000000002],[-77.943105,33.97500000000002],[-77.94412440000002,33.97500000000002],[-77.94433079999999,33.97500000000002],[-77.94555589999999,33.97500000000002],[-77.94618439999999,33.97500000000002],[-77.94652919999999,33.97500000000002],[-77.9468708,33.97500000000002],[-77.94703629999998,33.97500000000002],[-77.94761399999999,33.97500000000002],[-77.94794530000001,33.97500000000002],[-77.94827650000002,33.97500000000002],[-77.94827800000002,33.97500000000002],[-77.94828519999999,33.97500000000002],[-77.94860770000003,33.97500000000002],[-77.94893889999997,33.97500000000002],[-77.94910379999999,33.97500000000002],[-77.94940709999997,33.97500000000002],[-77.94994559999998,33.97500000000002],[-77.95024590000003,33.97500000000002],[-77.95102220000001,33.97500000000002],[-77.95195059999998,33.97500000000002],[-77.9528436,33.97500000000002],[-77.95334430000003,33.97500000000002],[-77.95430820000001,33.97500000000002],[-77.95530120000001,33.97500000000002],[-77.95938869999998,33.97500000000002],[-77.96926989999997,33.97500000000002],[-77.97407529999998,33.97500000000002],[-77.97525259999998,33.97500000000002],[-77.9770102,33.97500000000002],[-77.97742010000002,33.97500000000002],[-77.97963040000002,33.97500000000002],[-77.98524259999999,33.97500000000002],[-77.98581230000002,33.97500000000002],[-77.9880991,33.97500000000002],[-77.9888302,33.97500000000002],[-77.99013739999998,33.97500000000002],[-77.99058780000001,33.97500000000002],[-77.9908193,33.97500000000002],[-77.991577,33.97500000000002],[-77.994167,33.97500000000002],[-77.99463939999998,33.97500000000002],[-77.9954889,33.97500000000002],[-77.99578079999998,33.97500000000002],[-77.99616959999997,33.97500000000002],[-77.99635369999999,33.97500000000002],[-77.99761239999998,33.97500000000002],[-77.99793349999999,33.97500000000002],[-77.99836970000001,33.97500000000002],[-78.0,33.97500000000002],[-78.0,33.9752244],[-78.0,33.9768416],[-78.0,33.978214700000024],[-78.0,33.97836619999998],[-78.0,33.97914700000001],[-78.0,33.9807222],[-78.0,34.005],[-77.92500000000001,34.005],[-77.92500000000001,33.97500000000002]]]}},{"type":"Feature","properties":{},"geometry":{"type":"Polygon","coordinates":[[[-78.44999999999999,33.8287828],[-78.44999999999999,33.850782700000025],[-78.44999999999999,33.86678330000001],[-78.44999999999999,33.87874799999997],[-78.44999999999999,33.880225300000006],[-78.44999999999999,33.88157469999999],[-78.44999999999999,33.88227899999998],[-78.44999999999999,33.88299139999998],[-78.44999999999999,33.88712090000001],[-78.44999999999999,33.88868170000001],[-78.44999999999999,33.89172960000002],[-78.44999999999999,33.893002000000024],[-78.44999999999999,33.893649900000014],[-78.44999999999999,33.893779300000006],[-78.44999999999999,33.89390420000001],[-78.44999999999999,33.89455509999999],[-78.44999999999999,33.89483940000002],[-78.44999999999999,33.89999999999998],[-78.43109090000002,33.89999999999998],[-78.42914000000002,33.89999999999998],[-78.42258299999997,33.89999999999998],[-78.42041089999998,33.89999999999998],[-78.41807690000002,33.89999999999998],[-78.41746389999997,33.89999999999998],[-78.41704249999998,33.89999999999998],[-78.41433339999998,33.89999999999998],[-78.41032039999999,33.89999999999998],[-78.4077274,33.89999999999998],[-78.4049829,33.89999999999998],[-78.39839740000002,33.89999999999998],[-78.38750440000001,33.89999999999998],[-78.38629350000002,33.89999999999998],[-78.38625389999999,33.89999999999998],[-78.38515669999998,33.89999999999998],[-78.38501500000001,33.89999999999998],[-78.3763424,33.89999999999998],[-78.37603009999998,33.89999999999998],[-78.3755453,33.89999999999998],[-78.375,33.89999999999998],[-78.375,33.89994300000001],[-78.375,33.899653],[-78.375,33.89785869999997],[-78.375,33.89437650000002],[-78.375,33.894035099999996],[-78.375,33.8938708],[-78.375,33.893075099999976],[-78.375,33.886758199999974],[-78.375,33.87108949999998],[-78.375,33.846788100000026],[-78.375,33.82499999999999],[-78.44999999999999,33.82499999999999],[-78.44999999999999,33.8287828]]]}},{"type":"Feature","properties":{},"geometry":{"type":"Polygon","coordinates":[[[-78.375,33.846788100000026],[-78.375,33.87108949999998],[-78.375,33.886758199999974],[-78.375,33.893075099999976],[-78.375,33.8938708],[-78.375,33.894035099999996],[-78.375,33.89437650000002],[-78.375,33.89785869999997],[-78.375,33.899653],[-78.375,33.89994300000001],[-78.375,33.89999999999998],[-78.37400159999999,33.89999999999998],[-78.3708034,33.89999999999998],[-78.3650384,33.89999999999998],[-78.36261669999999,33.89999999999998],[-78.35788070000001,33.89999999999998],[-78.30000000000001,33.89999999999998],[-78.30000000000001,33.899750400000016],[-78.30000000000001,33.8913963],[-78.30000000000001,33.88571719999999],[-78.30000000000001,33.8592117],[-78.30000000000001,33.853669500000024],[-78.30000000000001,33.82499999999999],[-78.32818229999998,33.82499999999999],[-78.375,33.82499999999999],[-78.375,33.846788100000026]]]}},{"type":"Feature","properties":{},"geometry":{"type":"Polygon","coordinates":[[[-78.30000000000001,33.853669500000024],[-78.30000000000001,33.8592117],[-78.30000000000001,33.88571719999999],[-78.30000000000001,33.8913963],[-78.30000000000001,33.899750400000016],[-78.30000000000001,33.89999999999998],[-78.29493969999999,33.89999999999998],[-78.28063730000002,33.89999999999998],[-78.27650929999999,33.89999999999998],[-78.2713602,33.89999999999998],[-78.26822370000002,33.89999999999998],[-78.26066270000001,33.89999999999998],[-78.24675869999999,33.89999999999998],[-78.24551020000001,33.89999999999998],[-78.2426739,33.89999999999998],[-78.23207480000002,33.89999999999998],[-78.22500000000002,33.89999999999998],[-78.22500000000002,33.896589800000015],[-78.22500000000002,33.86089579999998],[-78.22500000000002,33.853880600000025],[-78.22500000000002,33.82499999999999],[-78.30000000000001,33.82499999999999],[-78.30000000000001,33.853669500000024]]]}},{"type":"Feature","properties":{},"geometry":{"type":"Polygon","coordinates":[[[-78.19719830000003,33.82499999999999],[-78.22500000000002,33.82499999999999],[-78.22500000000002,33.853880600000025],[-78.22500000000002,33.86089579999998],[-78.22500000000002,33.896589800000015],[-78.22500000000002,33.89999999999998],[-78.19740359999997,33.89999999999998],[-78.18141320000001,33.89999999999998],[-78.1630912,33.89999999999998],[-78.16105520000002,33.89999999999998],[-78.14999999999998,33.89999999999998],[-78.14999999999998,33.898557900000014],[-78.14999999999998,33.87535100000002],[-78.14999999999998,33.862583599999994],[-78.14999999999998,33.85431699999998],[-78.14999999999998,33.82499999999999],[-78.19719830000003,33.82499999999999]]]}},{"type":"Feature","properties":{},"geometry":{"type":"Polygon","coordinates":[[[-78.375,33.950254400000006],[-78.375,33.948986400000024],[-78.375,33.939419999999984],[-78.375,33.93890190000002],[-78.375,33.93844330000002],[-78.375,33.93053409999999],[-78.375,33.930036599999994],[-78.375,33.914946999999984],[-78.375,33.91464180000003],[-78.375,33.91370549999999],[-78.375,33.913164600000016],[-78.375,33.91303549999998],[-78.375,33.912908200000004],[-78.375,33.912609799999984],[-78.375,33.9109641],[-78.375,33.910312499999975],[-78.375,33.9074804],[-78.375,33.90615009999999],[-78.375,33.900455799999975],[-78.375,33.900143000000014],[-78.375,33.900059],[-78.375,33.89999999999998],[-78.3755453,33.89999999999998],[-78.37603009999998,33.89999999999998],[-78.3763424,33.89999999999998],[-78.38501500000001,33.89999999999998],[-78.38515669999998,33.89999999999998],[-78.38625389999999,33.89999999999998],[-78.38629350000002,33.89999999999998],[-78.38750440000001,33.89999999999998],[-78.39839740000002,33.89999999999998],[-78.4049829,33.89999999999998],[-78.4077274,33.89999999999998],[-78.41032039999999,33.89999999999998],[-78.41433339999998,33.89999999999998],[-78.41704249999998,33.89999999999998],[-78.41746389999997,33.89999999999998],[-78.41807690000002,33.89999999999998],[-78.42041089999998,33.89999999999998],[-78.42258299999997,33.89999999999998],[-78.42914000000002,33.89999999999998],[-78.43109090000002,33.89999999999998],[-78.44999999999999,33.89999999999998],[-78.44999999999999,33.91863590000003],[-78.44999999999999,33.97500000000002],[-78.375,33.97500000000002],[-78.375,33.971734200000014],[-78.375,33.97032840000003],[-78.375,33.950254400000006]]]}},{"type":"Feature","properties":{},"geometry":{"type":"Polygon","coordinates":[[[-78.37400159999999,33.89999999999998],[-78.375,33.89999999999998],[-78.375,33.900059],[-78.375,33.900143000000014],[-78.375,33.900455799999975],[-78.375,33.90615009999999],[-78.375,33.9074804],[-78.375,33.910312499999975],[-78.375,33.9109641],[-78.375,33.912609799999984],[-78.375,33.912908200000004],[-78.375,33.91303549999998],[-78.375,33.913164600000016],[-78.375,33.91370549999999],[-78.375,33.91464180000003],[-78.375,33.914946999999984],[-78.375,33.930036599999994],[-78.375,33.93053409999999],[-78.375,33.93844330000002],[-78.375,33.93890190000002],[-78.375,33.939419999999984],[-78.375,33.948986400000024],[-78.375,33.950254400000006],[-78.375,33.97032840000003],[-78.375,33.971734200000014],[-78.375,33.97500000000002],[-78.36835389999999,33.97500000000002],[-78.36457990000002,33.97500000000002],[-78.3640057,33.97500000000002],[-78.3619109,33.97500000000002],[-78.30000000000001,33.97500000000002],[-78.30000000000001,33.91727259999999],[-78.30000000000001,33.916671399999984],[-78.30000000000001,33.91633150000001],[-78.30000000000001,33.916167299999984],[-78.30000000000001,33.91608359999998],[-78.30000000000001,33.9153627],[-78.30000000000001,33.91146620000001],[-78.30000000000001,33.91050769999998],[-78.30000000000001,33.910093700000004],[-78.30000000000001,33.90890619999999],[-78.30000000000001,33.9082085],[-78.30000000000001,33.9067364],[-78.30000000000001,33.89999999999998],[-78.35788070000001,33.89999999999998],[-78.36261669999999,33.89999999999998],[-78.3650384,33.89999999999998],[-78.3708034,33.89999999999998],[-78.37400159999999,33.89999999999998]]]}},{"type":"Feature","properties":{},"geometry":{"type":"Polygon","coordinates":[[[-78.29493969999999,33.89999999999998],[-78.30000000000001,33.89999999999998],[-78.30000000000001,33.9067364],[-78.30000000000001,33.9082085],[-78.30000000000001,33.90890619999999],[-78.30000000000001,33.910093700000004],[-78.30000000000001,33.91050769999998],[-78.30000000000001,33.91146620000001],[-78.30000000000001,33.9153627],[-78.30000000000001,33.91608359999998],[-78.30000000000001,33.916167299999984],[-78.30000000000001,33.91633150000001],[-78.30000000000001,33.916671399999984],[-78.30000000000001,33.91727259999999],[-78.30000000000001,33.97500000000002],[-78.24186809999998,33.97500000000002],[-78.23269019999998,33.97500000000002],[-78.22500000000002,33.97500000000002],[-78.22500000000002,33.953990999999974],[-78.22500000000002,33.948602600000015],[-78.22500000000002,33.94725749999998],[-78.22500000000002,33.94387790000002],[-78.22500000000002,33.94327240000001],[-78.22500000000002,33.92920579999998],[-78.22500000000002,33.92839900000001],[-78.22500000000002,33.92811590000002],[-78.22500000000002,33.92801109999999],[-78.22500000000002,33.92764729999999],[-78.22500000000002,33.92729209999999],[-78.22500000000002,33.92604239999997],[-78.22500000000002,33.92398939999998],[-78.22500000000002,33.92363080000001],[-78.22500000000002,33.92349109999998],[-78.22500000000002,33.9233519],[-78.22500000000002,33.92295139999999],[-78.22500000000002,33.921697300000005],[-78.22500000000002,33.919241899999975],[-78.22500000000002,33.9190256],[-78.22500000000002,33.918865400000016],[-78.22500000000002,33.91850679999999],[-78.22500000000002,33.91796099999999],[-78.22500000000002,33.91708569999997],[-78.22500000000002,33.9155389],[-78.22500000000002,33.912678099999994],[-78.22500000000002,33.91216320000001],[-78.22500000000002,33.91110650000002],[-78.22500000000002,33.91094930000003],[-78.22500000000002,33.907842500000015],[-78.22500000000002,33.90765110000001],[-78.22500000000002,33.90674990000002],[-78.22500000000002,33.90380299999998],[-78.22500000000002,33.89999999999998],[-78.23207480000002,33.89999999999998],[-78.2426739,33.89999999999998],[-78.24551020000001,33.89999999999998],[-78.24675869999999,33.89999999999998],[-78.26066270000001,33.89999999999998],[-78.26822370000002,33.89999999999998],[-78.2713602,33.89999999999998],[-78.27650929999999,33.89999999999998],[-78.28063730000002,33.89999999999998],[-78.29493969999999,33.89999999999998]]]}},{"type":"Feature","properties":{},"geometry":{"type":"Polygon","coordinates":[[[-78.19740359999997,33.89999999999998],[-78.22500000000002,33.89999999999998],[-78.22500000000002,33.90380299999998],[-78.22500000000002,33.90674990000002],[-78.22500000000002,33.90765110000001],[-78.22500000000002,33.907842500000015],[-78.22500000000002,33.91094930000003],[-78.22500000000002,33.91110650000002],[-78.22500000000002,33.91216320000001],[-78.22500000000002,33.912678099999994],[-78.22500000000002,33.9155389],[-78.22500000000002,33.91708569999997],[-78.22500000000002,33.91796099999999],[-78.22500000000002,33.91850679999999],[-78.22500000000002,33.918865400000016],[-78.22500000000002,33.9190256],[-78.22500000000002,33.919241899999975],[-78.22500000000002,33.921697300000005],[-78.22500000000002,33.92295139999999],[-78.22500000000002,33.9233519],[-78.22500000000002,33.92349109999998],[-78.22500000000002,33.92363080000001],[-78.22500000000002,33.92398939999998],[-78.22500000000002,33.92604239999997],[-78.22500000000002,33.92729209999999],[-78.22500000000002,33.92764729999999],[-78.22500000000002,33.92801109999999],[-78.22500000000002,33.92811590000002],[-78.22500000000002,33.92839900000001],[-78.22500000000002,33.92920579999998],[-78.22500000000002,33.94327240000001],[-78.22500000000002,33.94387790000002],[-78.22500000000002,33.94725749999998],[-78.22500000000002,33.948602600000015],[-78.22500000000002,33.953990999999974],[-78.22500000000002,33.97500000000002],[-78.14999999999998,33.97500000000002],[-78.14999999999998,33.940985599999976],[-78.14999999999998,33.9272302],[-78.14999999999998,33.9268945],[-78.14999999999998,33.926779599999975],[-78.14999999999998,33.926644599999975],[-78.14999999999998,33.92624669999998],[-78.14999999999998,33.925831500000015],[-78.14999999999998,33.9180801],[-78.14999999999998,33.917139899999995],[-78.14999999999998,33.91680100000002],[-78.14999999999998,33.9158013],[-78.14999999999998,33.91323190000003],[-78.14999999999998,33.91280760000001],[-78.14999999999998,33.91180159999999],[-78.14999999999998,33.9111006],[-78.14999999999998,33.91019510000001],[-78.14999999999998,33.90190610000002],[-78.14999999999998,33.89999999999998],[-78.16105520000002,33.89999999999998],[-78.1630912,33.89999999999998],[-78.18141320000001,33.89999999999998],[-78.18797949999998,33.89999999999998],[-78.19740359999997,33.89999999999998]]]}},{"type":"Feature","properties":{},"geometry":{"type":"Polygon","coordinates":[[[-78.14999999999998,33.90190610000002],[-78.14999999999998,33.91019510000001],[-78.14999999999998,33.9111006],[-78.14999999999998,33.91180159999999],[-78.14999999999998,33.91280760000001],[-78.14999999999998,33.91323190000003],[-78.14999999999998,33.9158013],[-78.14999999999998,33.91680100000002],[-78.14999999999998,33.917139899999995],[-78.14999999999998,33.9180801],[-78.14999999999998,33.925831500000015],[-78.14999999999998,33.92624669999998],[-78.14999999999998,33.926644599999975],[-78.14999999999998,33.926779599999975],[-78.14999999999998,33.9268945],[-78.14999999999998,33.9272302],[-78.14999999999998,33.940985599999976],[-78.14999999999998,33.97500000000002],[-78.1149878,33.97500000000002],[-78.07499999999999,33.97500000000002],[-78.07499999999999,33.929901599999994],[-78.07499999999999,33.92871280000003],[-78.07499999999999,33.92292250000003],[-78.07499999999999,33.922404099999994],[-78.07499999999999,33.922330699999975],[-78.07499999999999,33.92232539999998],[-78.07499999999999,33.92221999999998],[-78.07499999999999,33.922110499999974],[-78.07499999999999,33.92196999999999],[-78.07499999999999,33.92193780000002],[-78.07499999999999,33.921932200000015],[-78.07499999999999,33.921855600000015],[-78.07499999999999,33.92158260000002],[-78.07499999999999,33.92095310000002],[-78.07499999999999,33.92003],[-78.07499999999999,33.9123783],[-78.07499999999999,33.91144539999999],[-78.07499999999999,33.90510180000001],[-78.07499999999999,33.90475980000002],[-78.07499999999999,33.9034853],[-78.07499999999999,33.90199389999998],[-78.07499999999999,33.90156539999998],[-78.07499999999999,33.90055580000001],[-78.07499999999999,33.89999999999998],[-78.07549030000001,33.89999999999998],[-78.07789789999998,33.89999999999998],[-78.09139590000001,33.89999999999998],[-78.1149878,33.89999999999998],[-78.14999999999998,33.89999999999998],[-78.14999999999998,33.90190610000002]]]}},{"type":"Feature","properties":{},"geometry":{"type":"Polygon","coordinates":[[[-77.85000000000002,33.9835056],[-77.85000000000002,33.97744239999997],[-77.85000000000002,33.97572170000001],[-77.85000000000002,33.97500000000002],[-77.85022579999998,33.97500000000002],[-77.85067299999997,33.97500000000002],[-77.87284770000002,33.97500000000002],[-77.87636650000002,33.97500000000002],[-77.88173970000003,33.97500000000002],[-77.89561650000002,33.97500000000002],[-77.89913619999999,33.97500000000002],[-77.89970870000002,33.97500000000002],[-77.90400649999998,33.97500000000002],[-77.90911210000002,33.97500000000002],[-77.91057890000002,33.97500000000002],[-77.9111221,33.97500000000002],[-77.91231019999998,33.97500000000002],[-77.91330590000001,33.97500000000002],[-77.92020760000003,33.97500000000002],[-77.9215259,33.97500000000002],[-77.92500000000001,33.97500000000002],[-77.92500000000001,34.005],[-77.85000000000002,34.005],[-77.85000000000002,33.9835056]]]}}]}