{"type":"FeatureCollection","features":[{"type":"Feature","properties":{},"geometry":{"type":"Polygon","coordinates":[[[-81.2628719,24.67500000000001],[-81.26212939999999,24.67500000000001],[-81.26094169999999,24.67500000000001],[-81.25955770000002,24.67500000000001],[-81.25678299999998,24.67500000000001],[-81.2551886,24.67500000000001],[-81.25064220000002,24.67500000000001],[-81.25045720000003,24.67500000000001],[-81.25014709999999,24.67500000000001],[-81.24999530000002,24.67500000000001],[-81.249887,24.67500000000001],[-81.2495978,24.67500000000001],[-81.2495189,24.67500000000001],[-81.24868809999998,24.67500000000001],[-81.2475748,24.67500000000001],[-81.24735420000002,24.67500000000001],[-81.24506589999999,24.67500000000001],[-81.24446590000002,24.67500000000001],[-81.24411989999999,24.67500000000001],[-81.24375090000001,24.67500000000001],[-81.24197240000001,24.67500000000001],[-81.2411975,24.67500000000001],[-81.24098029999999,24.67500000000001],[-81.24060960000003,24.67500000000001],[-81.24032840000001,24.67500000000001],[-81.23843749999997,24.67500000000001],[-81.2370482,24.67500000000001],[-81.23279450000001,24.67500000000001],[-81.23116449999998,24.67500000000001],[-81.22980899999999,24.67500000000001],[-81.22760060000002,24.67500000000001],[-81.22725589999999,24.67500000000001],[-81.22500000000002,24.67500000000001],[-81.22500000000002,24.6729421],[-81.22500000000002,24.672648400000014],[-81.22500000000002,24.669462399999986],[-81.22500000000002,24.665141399999982],[-81.22500000000002,24.66467510000001],[-81.22500000000002,24.657854199999974],[-81.22500000000002,24.652210799999978],[-81.22500000000002,24.648978199999988],[-81.22500000000002,24.648808499999973],[-81.22500000000002,24.64845489999999],[-81.22500000000002,24.639483100000007],[-81.22500000000002,24.633602499999995],[-81.22500000000002,24.632563800000014],[-81.22500000000002,24.63008689999998],[-81.22500000000002,24.62114330000003],[-81.22500000000002,24.620754299999987],[-81.22500000000002,24.620536200000004],[-81.22500000000002,24.6128688],[-81.22500000000002,24.61230949999998],[-81.22500000000002,24.610399299999983],[-81.22500000000002,24.607228099999986],[-81.22500000000002,24.607040600000005],[-81.22500000000002,24.605318399999987],[-81.22500000000002,24.605017499999974],[-81.22500000000002,24.605],[-81.27499999999999,24.605],[-81.27499999999999,24.67500000000001],[-81.2628719,24.67500000000001]]]}},{"type":"Feature","properties":{},"geometry":{"type":"Polygon","coordinates":[[[-81.22500000000002,24.605017499999974],[-81.22500000000002,24.605318399999987],[-81.22500000000002,24.607040600000005],[-81.22500000000002,24.607228099999986],[-81.22500000000002,24.610399299999983],[-81.22500000000002,24.61230949999998],[-81.22500000000002,24.6128688],[-81.22500000000002,24.620536200000004],[-81.22500000000002,24.620754299999987],[-81.22500000000002,24.62114330000003],[-81.22500000000002,24.63008689999998],[-81.22500000000002,24.632563800000014],[-81.22500000000002,24.633602499999995],[-81.22500000000002,24.639483100000007],[-81.22500000000002,24.64845489999999],[-81.22500000000002,24.648808499999973],[-81.22500000000002,24.648978199999988],[-81.22500000000002,24.652210799999978],[-81.22500000000002,24.657854199999974],[-81.22500000000002,24.66467510000001],[-81.22500000000002,24.665141399999982],[-81.22500000000002,24.669462399999986],[-81.22500000000002,24.672648400000014],[-81.22500000000002,24.6729421],[-81.22500000000002,24.67500000000001],[-81.21436490000002,24.67500000000001],[-81.20983580000001,24.67500000000001],[-81.20601249999999,24.67500000000001],[-81.20533719999997,24.67500000000001],[-81.20368739999998,24.67500000000001],[-81.20328410000002,24.67500000000001],[-81.20156980000002,24.67500000000001],[-81.1998542,24.67500000000001],[-81.19867870000002,24.67500000000001],[-81.1944952,24.67500000000001],[-81.19351899999998,24.67500000000001],[-81.19088399999998,24.67500000000001],[-81.18781439999998,24.67500000000001],[-81.18661379999998,24.67500000000001],[-81.18633110000002,24.67500000000001],[-81.18615699999998,24.67500000000001],[-81.18141559999998,24.67500000000001],[-81.16978699999999,24.67500000000001],[-81.16899330000001,24.67500000000001],[-81.1666631,24.67500000000001],[-81.16653059999999,24.67500000000001],[-81.16523110000003,24.67500000000001],[-81.14999999999998,24.67500000000001],[-81.14999999999998,24.668796499999985],[-81.14999999999998,24.66713870000001],[-81.14999999999998,24.666842700000018],[-81.14999999999998,24.66611039999998],[-81.14999999999998,24.66575899999998],[-81.14999999999998,24.658870700000023],[-81.14999999999998,24.647349599999984],[-81.14999999999998,24.6472943],[-81.14999999999998,24.646822699999973],[-81.14999999999998,24.6466135],[-81.14999999999998,24.632288800000026],[-81.14999999999998,24.628613599999994],[-81.14999999999998,24.614266799999996],[-81.14999999999998,24.608148500000027],[-81.14999999999998,24.608136100000024],[-81.14999999999998,24.605],[-81.22500000000002,24.605],[-81.22500000000002,24.605017499999974]]]}},{"type":"Feature","properties":{},"geometry":{"type":"Polygon","coordinates":[[[-81.272133,24.75],[-81.27020929999998,24.75],[-81.26703229999998,24.75],[-81.25830830000001,24.75],[-81.24766119999998,24.75],[-81.24713980000001,24.75],[-81.23434680000003,24.75],[-81.23284330000001,24.75],[-81.2295403,24.75],[-81.2264414,24.75],[-81.2260336,24.75],[-81.22500000000002,24.75],[-81.22500000000002,24.74976700000002],[-81.22500000000002,24.748808499999996],[-81.22500000000002,24.7380938],[-81.22500000000002,24.734549800000025],[-81.22500000000002,24.72837229999999],[-81.22500000000002,24.723282600000005],[-81.22500000000002,24.721751799999993],[-81.22500000000002,24.720399499999985],[-81.22500000000002,24.706369999999993],[-81.22500000000002,24.7059754],[-81.22500000000002,24.7051429],[-81.22500000000002,24.704986500000018],[-81.22500000000002,24.702361800000006],[-81.22500000000002,24.687138100000027],[-81.22500000000002,24.686257599999976],[-81.22500000000002,24.68612250000001],[-81.22500000000002,24.685184300000003],[-81.22500000000002,24.683621500000015],[-81.22500000000002,24.683590700000025],[-81.22500000000002,24.68339279999998],[-81.22500000000002,24.683172500000012],[-81.22500000000002,24.683121500000027],[-81.22500000000002,24.68289199999998],[-81.22500000000002,24.676402900000028],[-81.22500000000002,24.67500000000001],[-81.22725589999999,24.67500000000001],[-81.22760060000002,24.67500000000001],[-81.22980899999999,24.67500000000001],[-81.23116449999998,24.67500000000001],[-81.23279450000001,24.67500000000001],[-81.2370482,24.67500000000001],[-81.23843749999997,24.67500000000001],[-81.24032840000001,24.67500000000001],[-81.24060960000003,24.67500000000001],[-81.24098029999999,24.67500000000001],[-81.2411975,24.67500000000001],[-81.24197240000001,24.67500000000001],[-81.24375090000001,24.67500000000001],[-81.24411989999999,24.67500000000001],[-81.24446590000002,24.67500000000001],[-81.24506589999999,24.67500000000001],[-81.24735420000002,24.67500000000001],[-81.2475748,24.67500000000001],[-81.24868809999998,24.67500000000001],[-81.2495189,24.67500000000001],[-81.2495978,24.67500000000001],[-81.249887,24.67500000000001],[-81.24999530000002,24.67500000000001],[-81.25014709999999,24.67500000000001],[-81.2504571,24.67500000000001],[-81.25064220000002,24.67500000000001],[-81.2551886,24.67500000000001],[-81.25678299999998,24.67500000000001],[-81.25955770000002,24.67500000000001],[-81.26094169999999,24.67500000000001],[-81.26212939999999,24.67500000000001],[-81.2628719,24.67500000000001],[-81.27499999999999,24.67500000000001],[-81.27499999999999,24.75],[-81.272133,24.75]]]}},{"type":"Feature","properties":{},"geometry":{"type":"Polygon","coordinates":[[[-81.21436490000002,24.67500000000001],[-81.22500000000002,24.67500000000001],[-81.22500000000002,24.676402900000028],[-81.22500000000002,24.68289199999998],[-81.22500000000002,24.683121500000027],[-81.22500000000002,24.683172500000012],[-81.22500000000002,24.68339279999998],[-81.22500000000002,24.683590700000025],[-81.22500000000002,24.683621500000015],[-81.22500000000002,24.685184300000003],[-81.22500000000002,24.68612250000001],[-81.22500000000002,24.686257599999976],[-81.22500000000002,24.687138100000027],[-81.22500000000002,24.702361800000006],[-81.22500000000002,24.704986500000018],[-81.22500000000002,24.7051429],[-81.22500000000002,24.7059754],[-81.22500000000002,24.706369999999993],[-81.22500000000002,24.720399499999985],[-81.22500000000002,24.721751799999993],[-81.22500000000002,24.723282600000005],[-81.22500000000002,24.72837229999999],[-81.22500000000002,24.734549800000025],[-81.22500000000002,24.7380938],[-81.22500000000002,24.748808499999996],[-81.22500000000002,24.74976700000002],[-81.22500000000002,24.75],[-81.22465310000001,24.75],[-81.22419710000003,24.75],[-81.2183632,24.75],[-81.2140465,24.75],[-81.21316519999999,24.75],[-81.21024540000002,24.75],[-81.20870559999997,24.75],[-81.20819410000001,24.75],[-81.20571749999999,24.75],[-81.20423069999998,24.75],[-81.20196179999999,24.75],[-81.19927969999998,24.75],[-81.1989451,24.75],[-81.19811370000002,24.75],[-81.19568750000002,24.75],[-81.18491119999999,24.75],[-81.18185490000002,24.75],[-81.18158970000002,24.75],[-81.17301470000001,24.75],[-81.17234280000002,24.75],[-81.15182090000002,24.75],[-81.14999999999998,24.75],[-81.14999999999998,24.74773879999998],[-81.14999999999998,24.7396751],[-81.14999999999998,24.73947340000001],[-81.14999999999998,24.738387999999986],[-81.14999999999998,24.736925799999995],[-81.14999999999998,24.73419080000002],[-81.14999999999998,24.712537399999974],[-81.14999999999998,24.709565800000007],[-81.14999999999998,24.708726899999988],[-81.14999999999998,24.706654000000015],[-81.14999999999998,24.705033200000003],[-81.14999999999998,24.704815399999973],[-81.14999999999998,24.704201099999977],[-81.14999999999998,24.703551199999993],[-81.14999999999998,24.70327229999998],[-81.14999999999998,24.703046200000017],[-81.14999999999998,24.70290990000001],[-81.14999999999998,24.6923084],[-81.14999999999998,24.691045700000018],[-81.14999999999998,24.68955249999999],[-81.14999999999998,24.67500000000001],[-81.16523110000003,24.67500000000001],[-81.16653059999999,24.67500000000001],[-81.1666631,24.67500000000001],[-81.16899330000001,24.67500000000001],[-81.16978699999999,24.67500000000001],[-81.18141559999998,24.67500000000001],[-81.18615699999998,24.67500000000001],[-81.18633110000002,24.67500000000001],[-81.18661379999998,24.67500000000001],[-81.18781439999998,24.67500000000001],[-81.19088399999998,24.67500000000001],[-81.19351899999998,24.67500000000001],[-81.1944952,24.67500000000001],[-81.19867870000002,24.67500000000001],[-81.1998542,24.67500000000001],[-81.20156980000002,24.67500000000001],[-81.20328410000002,24.67500000000001],[-81.20368739999998,24.67500000000001],[-81.20533719999997,24.67500000000001],[-81.20601249999999,24.67500000000001],[-81.20983580000001,24.67500000000001],[-81.21436490000002,24.67500000000001]]]}},{"type":"Feature","properties":{},"geometry":{"type":"Polygon","coordinates":[[[-81.12814909999997,24.67500000000001],[-81.14999999999998,24.67500000000001],[-81.14999999999998,24.68955249999999],[-81.14999999999998,24.691045700000018],[-81.14999999999998,24.6923084],[-81.14999999999998,24.70290990000001],[-81.14999999999998,24.703046200000017],[-81.14999999999998,24.70327229999998],[-81.14999999999998,24.703551199999993],[-81.14999999999998,24.704201099999977],[-81.14999999999998,24.704815399999973],[-81.14999999999998,24.705033200000003],[-81.14999999999998,24.706654000000015],[-81.14999999999998,24.708726899999988],[-81.14999999999998,24.709565800000007],[-81.14999999999998,24.712537399999974],[-81.14999999999998,24.73419080000002],[-81.14999999999998,24.736925799999995],[-81.14999999999998,24.738387999999986],[-81.14999999999998,24.73947340000001],[-81.14999999999998,24.7396751],[-81.14999999999998,24.74773879999998],[-81.14999999999998,24.75],[-81.1480972,24.75],[-81.14376870000001,24.75],[-81.14307550000001,24.75],[-81.14262880000001,24.75],[-81.14250390000001,24.75],[-81.14050959999997,24.75],[-81.13973320000002,24.75],[-81.13908350000003,24.75],[-81.1375066,24.75],[-81.13706389999999,24.75],[-81.1184045,24.75],[-81.085669,24.75],[-81.07499999999999,24.75],[-81.07499999999999,24.744602199999974],[-81.07499999999999,24.743680499999982],[-81.07499999999999,24.73782060000002],[-81.07499999999999,24.726779899999997],[-81.07499999999999,24.72422590000002],[-81.07499999999999,24.72283729999998],[-81.07499999999999,24.721447399999988],[-81.07499999999999,24.71212700000001],[-81.07499999999999,24.710859400000004],[-81.07499999999999,24.7107752],[-81.07499999999999,24.705379800000003],[-81.07499999999999,24.70531490000002],[-81.07499999999999,24.705113400000016],[-81.07499999999999,24.699930900000027],[-81.07499999999999,24.699619900000016],[-81.07499999999999,24.69754640000002],[-81.07499999999999,24.69498709999999],[-81.07499999999999,24.694121699999982],[-81.07499999999999,24.693619300000023],[-81.07499999999999,24.692036400000006],[-81.07499999999999,24.688742900000022],[-81.07499999999999,24.686954300000025],[-81.07499999999999,24.686705399999994],[-81.07499999999999,24.685788000000002],[-81.07499999999999,24.6844203],[-81.07499999999999,24.68163099999998],[-81.07499999999999,24.67500000000001],[-81.09157950000002,24.67500000000001],[-81.10894300000001,24.67500000000001],[-81.12241319999998,24.67500000000001],[-81.12505340000001,24.67500000000001],[-81.12814909999997,24.67500000000001]]]}},{"type":"Feature","properties":{},"geometry":{"type":"Polygon","coordinates":[[[-81.0700746,24.67500000000001],[-81.07499999999999,24.67500000000001],[-81.07499999999999,24.68163099999998],[-81.07499999999999,24.6844203],[-81.07499999999999,24.685788000000002],[-81.07499999999999,24.686705399999994],[-81.07499999999999,24.686954300000025],[-81.07499999999999,24.688742900000022],[-81.07499999999999,24.692036400000006],[-81.07499999999999,24.693619300000023],[-81.07499999999999,24.694121699999982],[-81.07499999999999,24.69498709999999],[-81.07499999999999,24.69754640000002],[-81.07499999999999,24.699619900000016],[-81.07499999999999,24.699930900000027],[-81.07499999999999,24.705113400000016],[-81.07499999999999,24.70531490000002],[-81.07499999999999,24.705379800000003],[-81.07499999999999,24.7107752],[-81.07499999999999,24.710859400000004],[-81.07499999999999,24.71212700000001],[-81.07499999999999,24.721447399999988],[-81.07499999999999,24.72283729999998],[-81.07499999999999,24.72422590000002],[-81.07499999999999,24.726779899999997],[-81.07499999999999,24.73782060000002],[-81.07499999999999,24.743680499999982],[-81.07499999999999,24.744602199999974],[-81.07499999999999,24.75],[-81.06639560000002,24.75],[-81.0591973,24.75],[-81.03675470000002,24.75],[-81.03598169999998,24.75],[-81.02623490000002,24.75],[-81.00383920000002,24.75],[-81.00154680000003,24.75],[-81.0,24.75],[-81.0,24.744044900000006],[-81.0,24.74271040000002],[-81.0,24.742476899999986],[-81.0,24.734395500000005],[-81.0,24.73428419999999],[-81.0,24.73418529999998],[-81.0,24.73402199999998],[-81.0,24.731087600000023],[-81.0,24.730304999999987],[-81.0,24.7296915],[-81.0,24.726580800000022],[-81.0,24.725968599999987],[-81.0,24.721958400000005],[-81.0,24.71163180000002],[-81.0,24.70382280000001],[-81.0,24.69866619999999],[-81.0,24.695470999999998],[-81.0,24.693540499999983],[-81.0,24.685836900000027],[-81.0,24.68488000000002],[-81.0,24.67951310000001],[-81.0,24.6787784],[-81.0,24.67631879999999],[-81.0,24.67500000000001],[-81.00231450000001,24.67500000000001],[-81.01058189999998,24.67500000000001],[-81.01253250000002,24.67500000000001],[-81.03474030000001,24.67500000000001],[-81.0380113,24.67500000000001],[-81.04615139999999,24.67500000000001],[-81.05473289999998,24.67500000000001],[-81.05838929999999,24.67500000000001],[-81.05973130000001,24.67500000000001],[-81.0700746,24.67500000000001]]]}},{"type":"Feature","properties":{},"geometry":{"type":"Polygon","coordinates":[[[-80.98946230000001,24.67500000000001],[-80.98988809999997,24.67500000000001],[-80.99066620000002,24.67500000000001],[-81.0,24.67500000000001],[-81.0,24.67631879999999],[-81.0,24.6787784],[-81.0,24.67951310000001],[-81.0,24.68488000000002],[-81.0,24.685836900000027],[-81.0,24.693540499999983],[-81.0,24.695470999999998],[-81.0,24.69866619999999],[-81.0,24.70382280000001],[-81.0,24.71163180000002],[-81.0,24.721958400000005],[-81.0,24.725968599999987],[-81.0,24.726580800000022],[-81.0,24.7296915],[-81.0,24.730304999999987],[-81.0,24.731087600000023],[-81.0,24.73402199999998],[-81.0,24.73418529999998],[-81.0,24.73428419999999],[-81.0,24.734395500000005],[-81.0,24.742476899999986],[-81.0,24.74271040000002],[-81.0,24.744044900000006],[-81.0,24.75],[-80.99011460000003,24.75],[-80.9895707,24.75],[-80.98927680000003,24.75],[-80.98361249999999,24.75],[-80.98318269999999,24.75],[-80.98299750000001,24.75],[-80.98112789999999,24.75],[-80.98092910000003,24.75],[-80.97821199999998,24.75],[-80.97702800000002,24.75],[-80.97603930000002,24.75],[-80.9756238,24.75],[-80.97509459999998,24.75],[-80.97282330000002,24.75],[-80.97265579999998,24.75],[-80.97242010000002,24.75],[-80.97201740000003,24.75],[-80.97045020000002,24.75],[-80.96906710000002,24.75],[-80.96867630000003,24.75],[-80.96864260000001,24.75],[-80.96824500000002,24.75],[-80.96798369999999,24.75],[-80.96667330000002,24.75],[-80.9662811,24.75],[-80.96550719999999,24.75],[-80.96490299999999,24.75],[-80.96305619999998,24.75],[-80.96154189999999,24.75],[-80.95746539999999,24.75],[-80.93494270000002,24.75],[-80.93361779999998,24.75],[-80.92500000000001,24.75],[-80.92500000000001,24.745342100000016],[-80.92500000000001,24.730467299999987],[-80.92500000000001,24.728181500000005],[-80.92500000000001,24.726966000000004],[-80.92500000000001,24.72364010000001],[-80.92500000000001,24.72288370000001],[-80.92500000000001,24.721129399999995],[-80.92500000000001,24.720100899999977],[-80.92500000000001,24.713972099999978],[-80.92500000000001,24.712380900000028],[-80.92500000000001,24.71191970000001],[-80.92500000000001,24.711653000000013],[-80.92500000000001,24.709113899999977],[-80.92500000000001,24.707356100000027],[-80.92500000000001,24.70593120000001],[-80.92500000000001,24.6992616],[-80.92500000000001,24.69836909999998],[-80.92500000000001,24.685856100000024],[-80.92500000000001,24.683867700000008],[-80.92500000000001,24.683331699999997],[-80.92500000000001,24.682786899999996],[-80.92500000000001,24.682161099999973],[-80.92500000000001,24.675562300000024],[-80.92500000000001,24.67500000000001],[-80.92678489999997,24.67500000000001],[-80.9445177,24.67500000000001],[-80.94499730000001,24.67500000000001],[-80.94504869999997,24.67500000000001],[-80.94568459999999,24.67500000000001],[-80.9482645,24.67500000000001],[-80.9546029,24.67500000000001],[-80.9568744,24.67500000000001],[-80.96081529999998,24.67500000000001],[-80.97492449999999,24.67500000000001],[-80.9755677,24.67500000000001],[-80.97673320000001,24.67500000000001],[-80.98114559999999,24.67500000000001],[-80.98256090000001,24.67500000000001],[-80.98429800000002,24.67500000000001],[-80.9862766,24.67500000000001],[-80.98946230000001,24.67500000000001]]]}},{"type":"Feature","properties":{},"geometry":{"type":"Polygon","coordinates":[[[-81.1480972,24.75],[-81.14999999999998,24.75],[-81.14999999999998,24.752492099999984],[-81.14999999999998,24.755892300000028],[-81.14999999999998,24.75621849999999],[-81.14999999999998,24.757338100000027],[-81.14999999999998,24.758629400000018],[-81.14999999999998,24.759754699999974],[-81.14999999999998,24.777105500000005],[-81.14999999999998,24.803510200000005],[-81.14999999999998,24.822381300000018],[-81.14999999999998,24.82499999999999],[-81.14999899999998,24.82499999999999],[-81.08165539999999,24.82499999999999],[-81.07499999999999,24.82499999999999],[-81.07499999999999,24.813395000000014],[-81.07499999999999,24.786760500000014],[-81.07499999999999,24.785591399999987],[-81.07499999999999,24.785189000000003],[-81.07499999999999,24.783791599999972],[-81.07499999999999,24.7834163],[-81.07499999999999,24.781887900000015],[-81.07499999999999,24.781121100000007],[-81.07499999999999,24.763036399999976],[-81.07499999999999,24.751808400000016],[-81.07499999999999,24.75],[-81.085669,24.75],[-81.1184045,24.75],[-81.13706389999999,24.75],[-81.1375066,24.75],[-81.13908350000003,24.75],[-81.13973320000002,24.75],[-81.14050959999997,24.75],[-81.14250390000001,24.75],[-81.14262880000001,24.75],[-81.14307550000001,24.75],[-81.14376870000001,24.75],[-81.1480972,24.75]]]}},{"type":"Feature","properties":{},"geometry":{"type":"Polygon","coordinates":[[[-81.06639560000002,24.75],[-81.07499999999999,24.75],[-81.07499999999999,24.751808400000016],[-81.07499999999999,24.763036399999976],[-81.07499999999999,24.781121100000007],[-81.07499999999999,24.781887900000015],[-81.07499999999999,24.7834163],[-81.07499999999999,24.783791599999972],[-81.07499999999999,24.785189000000003],[-81.07499999999999,24.785591399999987],[-81.07499999999999,24.786760500000014],[-81.07499999999999,24.813395000000014],[-81.07499999999999,24.82499999999999],[-81.05311180000001,24.82499999999999],[-81.0227405,24.82499999999999],[-81.0,24.82499999999999],[-81.0,24.8246671],[-81.0,24.82426670000001],[-81.0,24.82362660000001],[-81.0,24.82337289999998],[-81.0,24.814445200000023],[-81.0,24.8119461],[-81.0,24.760498400000017],[-81.0,24.75],[-81.00154680000003,24.75],[-81.00383920000002,24.75],[-81.02623490000002,24.75],[-81.03598169999998,24.75],[-81.03675470000002,24.75],[-81.0591973,24.75],[-81.06639560000002,24.75]]]}},{"type":"Feature","properties":{},"geometry":{"type":"Polygon","coordinates":[[[-81.0,24.760498400000017],[-81.0,24.8119461],[-81.0,24.814445200000023],[-81.0,24.82337289999998],[-81.0,24.82362660000001],[-81.0,24.82426670000001],[-81.0,24.8246671],[-81.0,24.82499999999999],[-80.98407320000001,24.82499999999999],[-80.96325689999998,24.82499999999999],[-80.96113910000003,24.82499999999999],[-80.92500000000001,24.82499999999999],[-80.92500000000001,24.797693900000013],[-80.92500000000001,24.793405500000006],[-80.92500000000001,24.791582100000028],[-80.92500000000001,24.791571299999987],[-80.92500000000001,24.788922800000023],[-80.92500000000001,24.78746799999999],[-80.92500000000001,24.785602400000016],[-80.92500000000001,24.785222299999987],[-80.92500000000001,24.784953400000006],[-80.92500000000001,24.784545999999978],[-80.92500000000001,24.782376199999987],[-80.92500000000001,24.780477599999983],[-80.92500000000001,24.77695990000001],[-80.92500000000001,24.77636209999997],[-80.92500000000001,24.776193200000023],[-80.92500000000001,24.776027499999998],[-80.92500000000001,24.77469719999999],[-80.92500000000001,24.774083700000006],[-80.92500000000001,24.773377299999993],[-80.92500000000001,24.773219900000015],[-80.92500000000001,24.772697199999982],[-80.92500000000001,24.772254299999986],[-80.92500000000001,24.770414399999993],[-80.92500000000001,24.763217199999985],[-80.92500000000001,24.761799300000007],[-80.92500000000001,24.76031210000002],[-80.92500000000001,24.75775729999998],[-80.92500000000001,24.756359499999974],[-80.92500000000001,24.75510969999999],[-80.92500000000001,24.75],[-80.93361779999998,24.75],[-80.93494270000002,24.75],[-80.95746539999999,24.75],[-80.96154189999999,24.75],[-80.96305619999998,24.75],[-80.96490299999999,24.75],[-80.96550719999999,24.75],[-80.9662811,24.75],[-80.96667330000002,24.75],[-80.96798369999999,24.75],[-80.96824500000002,24.75],[-80.96864260000001,24.75],[-80.96867630000003,24.75],[-80.96906710000002,24.75],[-80.97045020000002,24.75],[-80.97201740000003,24.75],[-80.97242010000002,24.75],[-80.97265579999998,24.75],[-80.97282330000002,24.75],[-80.97509459999998,24.75],[-80.9756238,24.75],[-80.97603930000002,24.75],[-80.97702800000002,24.75],[-80.97821199999998,24.75],[-80.98092910000003,24.75],[-80.98112789999999,24.75],[-80.98299750000001,24.75],[-80.98318269999999,24.75],[-80.98361249999999,24.75],[-80.98927680000003,24.75],[-80.9895707,24.75],[-80.99011460000003,24.75],[-81.0,24.75],[-81.0,24.760498400000017]]]}},{"type":"Feature","properties":{},"geometry":{"type":"Polygon","coordinates":[[[-80.92500000000001,24.75510969999999],[-80.92500000000001,24.756359499999974],[-80.92500000000001,24.75775729999998],[-80.92500000000001,24.76031210000002],[-80.92500000000001,24.761799300000007],[-80.92500000000001,24.763217199999985],[-80.92500000000001,24.770414399999993],[-80.92500000000001,24.772254299999986],[-80.92500000000001,24.772697199999982],[-80.92500000000001,24.773219900000015],[-80.92500000000001,24.773377299999993],[-80.92500000000001,24.774083700000006],[-80.92500000000001,24.77469719999999],[-80.92500000000001,24.776027499999998],[-80.92500000000001,24.776193200000023],[-80.92500000000001,24.77636209999997],[-80.92500000000001,24.77695990000001],[-80.92500000000001,24.780477599999983],[-80.92500000000001,24.782376199999987],[-80.92500000000001,24.784545999999978],[-80.92500000000001,24.784953400000006],[-80.92500000000001,24.785222299999987],[-80.92500000000001,24.785602400000016],[-80.92500000000001,24.78746799999999],[-80.92500000000001,24.788922800000023],[-80.92500000000001,24.791571299999987],[-80.92500000000001,24.791582100000028],[-80.92500000000001,24.793405500000006],[-80.92500000000001,24.797693900000013],[-80.92500000000001,24.82499999999999],[-80.91446430000002,24.82499999999999],[-80.91077660000002,24.82499999999999],[-80.90976519999998,24.82499999999999],[-80.90877280000001,24.82499999999999],[-80.90736779999997,24.82499999999999],[-80.9069753,24.82499999999999],[-80.90673029999999,24.82499999999999],[-80.90636599999999,24.82499999999999],[-80.9056268,24.82499999999999],[-80.9030912,24.82499999999999],[-80.89918779999999,24.82499999999999],[-80.89911369999999,24.82499999999999],[-80.89824140000002,24.82499999999999],[-80.89732980000002,24.82499999999999],[-80.89701439999999,24.82499999999999],[-80.89686769999997,24.82499999999999],[-80.8550808,24.82499999999999],[-80.85469210000002,24.82499999999999],[-80.8518565,24.82499999999999],[-80.85127940000001,24.82499999999999],[-80.85000000000002,24.82499999999999],[-80.85000000000002,24.82196399999998],[-80.85000000000002,24.808820400000002],[-80.85000000000002,24.806926799999985],[-80.85000000000002,24.803761099999974],[-80.85000000000002,24.80372729999999],[-80.85000000000002,24.8036161],[-80.85000000000002,24.8029095],[-80.85000000000002,24.8028233],[-80.85000000000002,24.80195200000003],[-80.85000000000002,24.794125599999973],[-80.85000000000002,24.78978330000001],[-80.85000000000002,24.76902799999999],[-80.85000000000002,24.76318759999998],[-80.85000000000002,24.762565699999982],[-80.85000000000002,24.760427400000026],[-80.85000000000002,24.75914039999998],[-80.85000000000002,24.753887799999973],[-80.85000000000002,24.751709600000027],[-80.85000000000002,24.75123209999998],[-80.85000000000002,24.751001400000007],[-80.85000000000002,24.75],[-80.85125440000002,24.75],[-80.85148559999999,24.75],[-80.85215649999998,24.75],[-80.85756149999997,24.75],[-80.85774179999999,24.75],[-80.86399649999998,24.75],[-80.90923179999999,24.75],[-80.92500000000001,24.75],[-80.92500000000001,24.75510969999999]]]}},{"type":"Feature","properties":{},"geometry":{"type":"Polygon","coordinates":[[[-80.85000000000002,24.751001400000007],[-80.85000000000002,24.75123209999998],[-80.85000000000002,24.751709600000027],[-80.85000000000002,24.753887799999973],[-80.85000000000002,24.75914039999998],[-80.85000000000002,24.760427400000026],[-80.85000000000002,24.762565699999982],[-80.85000000000002,24.76318759999998],[-80.85000000000002,24.76902799999999],[-80.85000000000002,24.78978330000001],[-80.85000000000002,24.794125599999973],[-80.85000000000002,24.80195200000003],[-80.85000000000002,24.8028233],[-80.85000000000002,24.8029095],[-80.85000000000002,24.8036161],[-80.85000000000002,24.80372729999999],[-80.85000000000002,24.803761099999974],[-80.85000000000002,24.806926799999985],[-80.85000000000002,24.808820400000002],[-80.85000000000002,24.82196399999998],[-80.85000000000002,24.82499999999999],[-80.8480399,24.82499999999999],[-80.82814639999998,24.82499999999999],[-80.8278287,24.82499999999999],[-80.81681220000002,24.82499999999999],[-80.81635870000002,24.82499999999999],[-80.81618320000001,24.82499999999999],[-80.8141387,24.82499999999999],[-80.81386300000003,24.82499999999999],[-80.81167720000002,24.82499999999999],[-80.81130760000002,24.82499999999999],[-80.80975610000002,24.82499999999999],[-80.80679839999999,24.82499999999999],[-80.80298490000001,24.82499999999999],[-80.80085389999999,24.82499999999999],[-80.79715529999999,24.82499999999999],[-80.79459430000003,24.82499999999999],[-80.79356080000002,24.82499999999999],[-80.79232050000002,24.82499999999999],[-80.78842730000002,24.82499999999999],[-80.78822730000002,24.82499999999999],[-80.78800130000002,24.82499999999999],[-80.7872729,24.82499999999999],[-80.78679840000001,24.82499999999999],[-80.78417280000002,24.82499999999999],[-80.78371850000002,24.82499999999999],[-80.78354339999999,24.82499999999999],[-80.78336630000001,24.82499999999999],[-80.78273960000001,24.82499999999999],[-80.78265160000001,24.82499999999999],[-80.7816512,24.82499999999999],[-80.7814381,24.82499999999999],[-80.77499999999998,24.82499999999999],[-80.77499999999998,24.82005700000002],[-80.77499999999998,24.816182400000002],[-80.77499999999998,24.815735000000018],[-80.77499999999998,24.8143642],[-80.77499999999998,24.81270089999998],[-80.77499999999998,24.80502469999999],[-80.77499999999998,24.800077299999998],[-80.77499999999998,24.796367599999996],[-80.77499999999998,24.779748799999993],[-80.77499999999998,24.77719330000002],[-80.77499999999998,24.775726399999996],[-80.77499999999998,24.773124999999993],[-80.77499999999998,24.772485300000028],[-80.77499999999998,24.7693491],[-80.77499999999998,24.768239100000017],[-80.77499999999998,24.765762699999982],[-80.77499999999998,24.76569810000001],[-80.77499999999998,24.764376900000002],[-80.77499999999998,24.762736099999984],[-80.77499999999998,24.762481200000025],[-80.77499999999998,24.762361199999987],[-80.77499999999998,24.76218560000001],[-80.77499999999998,24.756550500000003],[-80.77499999999998,24.75],[-80.78232600000001,24.75],[-80.81278850000001,24.75],[-80.8183373,24.75],[-80.82052349999998,24.75],[-80.85000000000002,24.75],[-80.85000000000002,24.751001400000007]]]}},{"type":"Feature","properties":{},"geometry":{"type":"Polygon","coordinates":[[[-80.92500000000001,24.83711219999998],[-80.92500000000001,24.84359219999999],[-80.92500000000001,24.84395699999999],[-80.92500000000001,24.85009309999998],[-80.92500000000001,24.85236309999999],[-80.92500000000001,24.857681800000023],[-80.92500000000001,24.85805290000002],[-80.92500000000001,24.867577900000015],[-80.92500000000001,24.872676300000023],[-80.92500000000001,24.879068399999994],[-80.92500000000001,24.89401700000002],[-80.92500000000001,24.899999999999977],[-80.92280099999999,24.899999999999977],[-80.92234910000002,24.899999999999977],[-80.91911049999999,24.899999999999977],[-80.88481209999998,24.899999999999977],[-80.88460520000001,24.899999999999977],[-80.8698187,24.899999999999977],[-80.85803199999998,24.899999999999977],[-80.8566649,24.899999999999977],[-80.85472709999999,24.899999999999977],[-80.85375269999997,24.899999999999977],[-80.85000000000002,24.899999999999977],[-80.85000000000002,24.894467899999995],[-80.85000000000002,24.862135000000023],[-80.85000000000002,24.859792200000015],[-80.85000000000002,24.85951940000001],[-80.85000000000002,24.858436900000015],[-80.85000000000002,24.85742640000001],[-80.85000000000002,24.857246599999996],[-80.85000000000002,24.855364599999973],[-80.85000000000002,24.82629209999999],[-80.85000000000002,24.82499999999999],[-80.85127940000001,24.82499999999999],[-80.8518565,24.82499999999999],[-80.85469210000002,24.82499999999999],[-80.8550808,24.82499999999999],[-80.89686769999997,24.82499999999999],[-80.89701439999999,24.82499999999999],[-80.89732980000002,24.82499999999999],[-80.89824140000002,24.82499999999999],[-80.89911369999999,24.82499999999999],[-80.89918779999999,24.82499999999999],[-80.9030912,24.82499999999999],[-80.9056268,24.82499999999999],[-80.90636599999999,24.82499999999999],[-80.90673029999999,24.82499999999999],[-80.9069753,24.82499999999999],[-80.90736779999997,24.82499999999999],[-80.90877280000001,24.82499999999999],[-80.90976519999998,24.82499999999999],[-80.91077660000002,24.82499999999999],[-80.91446430000002,24.82499999999999],[-80.92500000000001,24.82499999999999],[-80.92500000000001,24.83711219999998]]]}},{"type":"Feature","properties":{},"geometry":{"type":"Polygon","coordinates":[[[-80.85000000000002,24.82629209999999],[-80.85000000000002,24.855364599999973],[-80.85000000000002,24.857246599999996],[-80.85000000000002,24.85742640000001],[-80.85000000000002,24.858436900000015],[-80.85000000000002,24.85951940000001],[-80.85000000000002,24.859792200000015],[-80.85000000000002,24.862135000000023],[-80.85000000000002,24.894467899999995],[-80.85000000000002,24.899999999999977],[-80.8363415,24.899999999999977],[-80.83605690000002,24.899999999999977],[-80.83571490000003,24.899999999999977],[-80.83541530000002,24.899999999999977],[-80.81677830000001,24.899999999999977],[-80.80916780000001,24.899999999999977],[-80.80009610000002,24.899999999999977],[-80.79777039999999,24.899999999999977],[-80.78959309999999,24.899999999999977],[-80.78890639999997,24.899999999999977],[-80.78814169999998,24.899999999999977],[-80.78723009999999,24.899999999999977],[-80.78601090000001,24.899999999999977],[-80.78467269999999,24.899999999999977],[-80.78206560000001,24.899999999999977],[-80.77559289999999,24.899999999999977],[-80.77558099999999,24.899999999999977],[-80.77527429999998,24.899999999999977],[-80.77499999999998,24.899999999999977],[-80.77499999999998,24.891784299999983],[-80.77499999999998,24.880239000000017],[-80.77499999999998,24.848365100000024],[-80.77499999999998,24.846966699999996],[-80.77499999999998,24.840204599999993],[-80.77499999999998,24.839141600000005],[-80.77499999999998,24.838684100000023],[-80.77499999999998,24.83858429999998],[-80.77499999999998,24.838156099999992],[-80.77499999999998,24.838062999999977],[-80.77499999999998,24.837926700000025],[-80.77499999999998,24.837856499999987],[-80.77499999999998,24.836935200000028],[-80.77499999999998,24.82499999999999],[-80.7814381,24.82499999999999],[-80.7816512,24.82499999999999],[-80.78265160000001,24.82499999999999],[-80.78273960000001,24.82499999999999],[-80.78336630000001,24.82499999999999],[-80.78354339999999,24.82499999999999],[-80.78371850000002,24.82499999999999],[-80.78417280000002,24.82499999999999],[-80.78679840000001,24.82499999999999],[-80.7872729,24.82499999999999],[-80.78800130000002,24.82499999999999],[-80.78822730000002,24.82499999999999],[-80.78842730000002,24.82499999999999],[-80.79232050000002,24.82499999999999],[-80.79356080000002,24.82499999999999],[-80.79459430000003,24.82499999999999],[-80.79715529999999,24.82499999999999],[-80.80085389999999,24.82499999999999],[-80.80298490000001,24.82499999999999],[-80.80679839999999,24.82499999999999],[-80.80975610000002,24.82499999999999],[-80.81130760000002,24.82499999999999],[-80.81167720000002,24.82499999999999],[-80.81386300000003,24.82499999999999],[-80.8141387,24.82499999999999],[-80.81618320000001,24.82499999999999],[-80.81635870000002,24.82499999999999],[-80.81681220000002,24.82499999999999],[-80.8278287,24.82499999999999],[-80.82814639999998,24.82499999999999],[-80.8480399,24.82499999999999],[-80.85000000000002,24.82499999999999],[-80.85000000000002,24.82629209999999]]]}},{"type":"Feature","properties":{},"geometry":{"type":"Polygon","coordinates":[[[-80.77499999999998,24.836935200000028],[-80.77499999999998,24.837856499999987],[-80.77499999999998,24.837926700000025],[-80.77499999999998,24.838062999999977],[-80.77499999999998,24.838156099999992],[-80.77499999999998,24.83858429999998],[-80.77499999999998,24.838684100000023],[-80.77499999999998,24.839141600000005],[-80.77499999999998,24.840204599999993],[-80.77499999999998,24.846966699999996],[-80.77499999999998,24.848365100000024],[-80.77499999999998,24.880239000000017],[-80.77499999999998,24.891784299999983],[-80.77499999999998,24.899999999999977],[-80.77340850000002,24.899999999999977],[-80.74954330000003,24.899999999999977],[-80.74683870000001,24.899999999999977],[-80.74540150000001,24.899999999999977],[-80.7450303,24.899999999999977],[-80.73923730000001,24.899999999999977],[-80.7379765,24.899999999999977],[-80.7366275,24.899999999999977],[-80.73589070000003,24.899999999999977],[-80.73564950000002,24.899999999999977],[-80.73456220000003,24.899999999999977],[-80.73275139999998,24.899999999999977],[-80.7294326,24.899999999999977],[-80.72662839999998,24.899999999999977],[-80.72574759999998,24.899999999999977],[-80.72488900000002,24.899999999999977],[-80.72467110000002,24.899999999999977],[-80.72382879999998,24.899999999999977],[-80.72330290000002,24.899999999999977],[-80.72273259999997,24.899999999999977],[-80.72053349999999,24.899999999999977],[-80.72032610000002,24.899999999999977],[-80.71968299999997,24.899999999999977],[-80.71902390000002,24.899999999999977],[-80.71864829999998,24.899999999999977],[-80.71770350000003,24.899999999999977],[-80.71142850000001,24.899999999999977],[-80.71140270000001,24.899999999999977],[-80.71111660000003,24.899999999999977],[-80.70776269999999,24.899999999999977],[-80.70759989999999,24.899999999999977],[-80.70625890000002,24.899999999999977],[-80.70565800000003,24.899999999999977],[-80.7054857,24.899999999999977],[-80.70519890000003,24.899999999999977],[-80.70502800000003,24.899999999999977],[-80.7048504,24.899999999999977],[-80.7045516,24.899999999999977],[-80.70448010000001,24.899999999999977],[-80.69999999999999,24.899999999999977],[-80.69999999999999,24.898265100000003],[-80.69999999999999,24.897863299999983],[-80.69999999999999,24.894167700000025],[-80.69999999999999,24.893401900000015],[-80.69999999999999,24.89324879999998],[-80.69999999999999,24.892857100000015],[-80.69999999999999,24.89249319999999],[-80.69999999999999,24.892429900000025],[-80.69999999999999,24.892041699999993],[-80.69999999999999,24.891239400000018],[-80.69999999999999,24.890939600000024],[-80.69999999999999,24.890901199999973],[-80.69999999999999,24.89028510000003],[-80.69999999999999,24.88845839999999],[-80.69999999999999,24.883498599999996],[-80.69999999999999,24.883214199999998],[-80.69999999999999,24.88296009999999],[-80.69999999999999,24.88282529999998],[-80.69999999999999,24.882247099999972],[-80.69999999999999,24.88184990000002],[-80.69999999999999,24.881647499999985],[-80.69999999999999,24.881188800000018],[-80.69999999999999,24.880513699999995],[-80.69999999999999,24.87432819999998],[-80.69999999999999,24.874046700000008],[-80.69999999999999,24.87279430000001],[-80.69999999999999,24.8712903],[-80.69999999999999,24.866879299999994],[-80.69999999999999,24.864398600000015],[-80.69999999999999,24.863562300000012],[-80.69999999999999,24.8623872],[-80.69999999999999,24.86210729999999],[-80.69999999999999,24.859745799999985],[-80.69999999999999,24.854648699999984],[-80.69999999999999,24.84417430000002],[-80.69999999999999,24.838293599999986],[-80.69999999999999,24.837137499999983],[-80.69999999999999,24.835403699999972],[-80.69999999999999,24.830693699999983],[-80.69999999999999,24.829405800000018],[-80.69999999999999,24.827726199999972],[-80.69999999999999,24.826253199999996],[-80.69999999999999,24.82499999999999],[-80.72237059999998,24.82499999999999],[-80.72354189999999,24.82499999999999],[-80.72484789999999,24.82499999999999],[-80.73773219999998,24.82499999999999],[-80.74330129999998,24.82499999999999],[-80.7615596,24.82499999999999],[-80.76469689999999,24.82499999999999],[-80.76689679999998,24.82499999999999],[-80.76797490000001,24.82499999999999],[-80.76853720000003,24.82499999999999],[-80.769158,24.82499999999999],[-80.76940939999997,24.82499999999999],[-80.77046130000002,24.82499999999999],[-80.77072909999998,24.82499999999999],[-80.77075839999998,24.82499999999999],[-80.77138589999998,24.82499999999999],[-80.77163489999998,24.82499999999999],[-80.77178129999999,24.82499999999999],[-80.77221359999999,24.82499999999999],[-80.7726475,24.82499999999999],[-80.77307150000001,24.82499999999999],[-80.77338049999997,24.82499999999999],[-80.77499999999998,24.82499999999999],[-80.77499999999998,24.836935200000028]]]}},{"type":"Feature","properties":{},"geometry":{"type":"Polygon","coordinates":[[[-80.77499999999998,24.90039280000002],[-80.77499999999998,24.910507499999994],[-80.77499999999998,24.912495799999988],[-80.77499999999998,24.91403109999999],[-80.77499999999998,24.91481429999999],[-80.77499999999998,24.916198500000007],[-80.77499999999998,24.91936750000002],[-80.77499999999998,24.921358999999995],[-80.77499999999998,24.921547499999974],[-80.77499999999998,24.92218120000001],[-80.77499999999998,24.932383800000025],[-80.77499999999998,24.93292839999998],[-80.77499999999998,24.933416899999997],[-80.77499999999998,24.933450300000004],[-80.77499999999998,24.943331],[-80.77499999999998,24.944563800000026],[-80.77499999999998,24.945430999999985],[-80.77499999999998,24.94638420000001],[-80.77499999999998,24.95717780000001],[-80.77499999999998,24.966747399999974],[-80.77499999999998,24.975000000000023],[-80.7479227,24.975000000000023],[-80.74720459999998,24.975000000000023],[-80.74076050000002,24.975000000000023],[-80.74075420000003,24.975000000000023],[-80.73942019999998,24.975000000000023],[-80.7393634,24.975000000000023],[-80.73896059999998,24.975000000000023],[-80.73892380000001,24.975000000000023],[-80.73599669999999,24.975000000000023],[-80.73552590000003,24.975000000000023],[-80.73520509999997,24.975000000000023],[-80.7344908,24.975000000000023],[-80.7336626,24.975000000000023],[-80.69999999999999,24.975000000000023],[-80.69999999999999,24.9594654],[-80.69999999999999,24.954324900000017],[-80.69999999999999,24.953399400000023],[-80.69999999999999,24.945563100000015],[-80.69999999999999,24.941856700000017],[-80.69999999999999,24.94139530000001],[-80.69999999999999,24.934519899999998],[-80.69999999999999,24.926199699999984],[-80.69999999999999,24.925484700000027],[-80.69999999999999,24.924976700000002],[-80.69999999999999,24.924033500000007],[-80.69999999999999,24.92221790000002],[-80.69999999999999,24.917951500000015],[-80.69999999999999,24.910855400000003],[-80.69999999999999,24.910554900000022],[-80.69999999999999,24.909247900000025],[-80.69999999999999,24.909102099999984],[-80.69999999999999,24.90834430000001],[-80.69999999999999,24.90814610000001],[-80.69999999999999,24.899999999999977],[-80.70448010000001,24.899999999999977],[-80.7045516,24.899999999999977],[-80.7048504,24.899999999999977],[-80.70502800000003,24.899999999999977],[-80.70519890000003,24.899999999999977],[-80.7054857,24.899999999999977],[-80.70565800000003,24.899999999999977],[-80.70625890000002,24.899999999999977],[-80.70759989999999,24.899999999999977],[-80.70776269999999,24.899999999999977],[-80.71111660000003,24.899999999999977],[-80.71140270000001,24.899999999999977],[-80.71142850000001,24.899999999999977],[-80.71770350000003,24.899999999999977],[-80.71864829999998,24.899999999999977],[-80.71902390000002,24.899999999999977],[-80.71968299999997,24.899999999999977],[-80.72032610000002,24.899999999999977],[-80.72053349999999,24.899999999999977],[-80.72273259999997,24.899999999999977],[-80.72330290000002,24.899999999999977],[-80.72382879999998,24.899999999999977],[-80.72467110000002,24.899999999999977],[-80.72488900000002,24.899999999999977],[-80.72574759999998,24.899999999999977],[-80.72662839999998,24.899999999999977],[-80.7294326,24.899999999999977],[-80.73275139999998,24.899999999999977],[-80.73456220000003,24.899999999999977],[-80.73564950000002,24.899999999999977],[-80.73589070000003,24.899999999999977],[-80.7366275,24.899999999999977],[-80.7379765,24.899999999999977],[-80.73923730000001,24.899999999999977],[-80.7450303,24.899999999999977],[-80.74540150000001,24.899999999999977],[-80.74683870000001,24.899999999999977],[-80.74954330000003,24.899999999999977],[-80.77340850000002,24.899999999999977],[-80.77499999999998,24.899999999999977],[-80.77499999999998,24.90039280000002]]]}},{"type":"Feature","properties":{},"geometry":{"type":"Polygon","coordinates":[[[-80.6485323,24.82499999999999],[-80.65125230000001,24.82499999999999],[-80.65301010000002,24.82499999999999],[-80.66558270000002,24.82499999999999],[-80.67405780000001,24.82499999999999],[-80.67439519999999,24.82499999999999],[-80.67513430000002,24.82499999999999],[-80.68502089999998,24.82499999999999],[-80.68857450000002,24.82499999999999],[-80.69999999999999,24.82499999999999],[-80.69999999999999,24.826253199999996],[-80.69999999999999,24.827726199999972],[-80.69999999999999,24.829405800000018],[-80.69999999999999,24.830693699999983],[-80.69999999999999,24.835403699999972],[-80.69999999999999,24.837137499999983],[-80.69999999999999,24.838293599999986],[-80.69999999999999,24.84417430000002],[-80.69999999999999,24.854648699999984],[-80.69999999999999,24.859745799999985],[-80.69999999999999,24.86210729999999],[-80.69999999999999,24.8623872],[-80.69999999999999,24.863562300000012],[-80.69999999999999,24.864398600000015],[-80.69999999999999,24.866879299999994],[-80.69999999999999,24.8712903],[-80.69999999999999,24.87279430000001],[-80.69999999999999,24.874046700000008],[-80.69999999999999,24.87432819999998],[-80.69999999999999,24.880513699999995],[-80.69999999999999,24.881188800000018],[-80.69999999999999,24.881647499999985],[-80.69999999999999,24.88184990000002],[-80.69999999999999,24.882247099999972],[-80.69999999999999,24.88282529999998],[-80.69999999999999,24.88296009999999],[-80.69999999999999,24.883214199999998],[-80.69999999999999,24.883498599999996],[-80.69999999999999,24.88845839999999],[-80.69999999999999,24.89028510000003],[-80.69999999999999,24.890901199999973],[-80.69999999999999,24.890939600000024],[-80.69999999999999,24.891239400000018],[-80.69999999999999,24.892041699999993],[-80.69999999999999,24.892429900000025],[-80.69999999999999,24.89249319999999],[-80.69999999999999,24.892857100000015],[-80.69999999999999,24.89324879999998],[-80.69999999999999,24.893401900000015],[-80.69999999999999,24.894167700000025],[-80.69999999999999,24.897863299999983],[-80.69999999999999,24.898265100000003],[-80.69999999999999,24.899999999999977],[-80.69352600000002,24.899999999999977],[-80.6933358,24.899999999999977],[-80.69264090000001,24.899999999999977],[-80.691802,24.899999999999977],[-80.69066520000001,24.899999999999977],[-80.68889560000002,24.899999999999977],[-80.688806,24.899999999999977],[-80.68849979999999,24.899999999999977],[-80.6882746,24.899999999999977],[-80.6881553,24.899999999999977],[-80.6871792,24.899999999999977],[-80.68697150000003,24.899999999999977],[-80.68648030000003,24.899999999999977],[-80.68621109999998,24.899999999999977],[-80.68513860000002,24.899999999999977],[-80.6848862,24.899999999999977],[-80.68463480000003,24.899999999999977],[-80.68294839999999,24.899999999999977],[-80.68138520000002,24.899999999999977],[-80.67538769999999,24.899999999999977],[-80.67435289999997,24.899999999999977],[-80.67397699999998,24.899999999999977],[-80.67363469999998,24.899999999999977],[-80.67308000000003,24.899999999999977],[-80.67214580000001,24.899999999999977],[-80.67085989999998,24.899999999999977],[-80.67021920000002,24.899999999999977],[-80.67020739999998,24.899999999999977],[-80.66920909999999,24.899999999999977],[-80.66865089999999,24.899999999999977],[-80.66777300000001,24.899999999999977],[-80.6674276,24.899999999999977],[-80.66583580000002,24.899999999999977],[-80.66528590000001,24.899999999999977],[-80.6652507,24.899999999999977],[-80.66509910000002,24.899999999999977],[-80.66347910000002,24.899999999999977],[-80.66345410000002,24.899999999999977],[-80.66265520000002,24.899999999999977],[-80.6612462,24.899999999999977],[-80.66092500000002,24.899999999999977],[-80.65999199999999,24.899999999999977],[-80.65871920000001,24.899999999999977],[-80.6572711,24.899999999999977],[-80.65704629999999,24.899999999999977],[-80.6566982,24.899999999999977],[-80.6542839,24.899999999999977],[-80.65398959999999,24.899999999999977],[-80.65378229999999,24.899999999999977],[-80.6535955,24.899999999999977],[-80.6532588,24.899999999999977],[-80.6488046,24.899999999999977],[-80.64786459999999,24.899999999999977],[-80.64701129999997,24.899999999999977],[-80.64500000000001,24.899999999999977],[-80.64500000000001,24.82499999999999],[-80.6485323,24.82499999999999]]]}},{"type":"Feature","properties":{},"geometry":{"type":"Polygon","coordinates":[[[-80.64701129999997,24.899999999999977],[-80.64786459999999,24.899999999999977],[-80.6488046,24.899999999999977],[-80.6532588,24.899999999999977],[-80.6535955,24.899999999999977],[-80.65378229999999,24.899999999999977],[-80.65398959999999,24.899999999999977],[-80.6542839,24.899999999999977],[-80.6566982,24.899999999999977],[-80.65704629999999,24.899999999999977],[-80.6572711,24.899999999999977],[-80.65871920000001,24.899999999999977],[-80.65999199999999,24.899999999999977],[-80.66092500000002,24.899999999999977],[-80.6612462,24.899999999999977],[-80.66265520000002,24.899999999999977],[-80.66345410000002,24.899999999999977],[-80.66347910000002,24.899999999999977],[-80.66509910000002,24.899999999999977],[-80.6652507,24.899999999999977],[-80.66528590000001,24.899999999999977],[-80.66583580000002,24.899999999999977],[-80.6674276,24.899999999999977],[-80.66777300000001,24.899999999999977],[-80.66865089999999,24.899999999999977],[-80.66920909999999,24.899999999999977],[-80.67020739999998,24.899999999999977],[-80.67021920000002,24.899999999999977],[-80.67085989999998,24.899999999999977],[-80.67214580000001,24.899999999999977],[-80.67308000000003,24.899999999999977],[-80.67363469999998,24.899999999999977],[-80.67397699999998,24.899999999999977],[-80.67435289999997,24.899999999999977],[-80.67538769999999,24.899999999999977],[-80.68138520000002,24.899999999999977],[-80.68294839999999,24.899999999999977],[-80.68463480000003,24.899999999999977],[-80.6848862,24.899999999999977],[-80.68513860000002,24.899999999999977],[-80.68621109999998,24.899999999999977],[-80.68648030000003,24.899999999999977],[-80.68697150000003,24.899999999999977],[-80.6871792,24.899999999999977],[-80.6881553,24.899999999999977],[-80.6882746,24.899999999999977],[-80.68849979999999,24.899999999999977],[-80.688806,24.899999999999977],[-80.68889560000002,24.899999999999977],[-80.69066520000001,24.899999999999977],[-80.691802,24.899999999999977],[-80.69264090000001,24.899999999999977],[-80.6933358,24.899999999999977],[-80.69352600000002,24.899999999999977],[-80.69999999999999,24.899999999999977],[-80.69999999999999,24.90814610000001],[-80.69999999999999,24.90834430000001],[-80.69999999999999,24.909102099999984],[-80.69999999999999,24.909247900000025],[-80.69999999999999,24.910554900000022],[-80.69999999999999,24.910855400000003],[-80.69999999999999,24.917951500000015],[-80.69999999999999,24.92221790000002],[-80.69999999999999,24.924033500000007],[-80.69999999999999,24.924976700000002],[-80.69999999999999,24.925484700000027],[-80.69999999999999,24.926199699999984],[-80.69999999999999,24.934519899999998],[-80.69999999999999,24.94139530000001],[-80.69999999999999,24.941856700000017],[-80.69999999999999,24.945563100000015],[-80.69999999999999,24.953399400000023],[-80.69999999999999,24.954324900000017],[-80.69999999999999,24.95959210000001],[-80.69999999999999,24.975000000000023],[-80.68110899999999,24.975000000000023],[-80.67173220000001,24.975000000000023],[-80.67157730000002,24.975000000000023],[-80.66715549999998,24.975000000000023],[-80.66244819999997,24.975000000000023],[-80.65405829999997,24.975000000000023],[-80.65289990000002,24.975000000000023],[-80.64943790000001,24.975000000000023],[-80.64500000000001,24.975000000000023],[-80.64500000000001,24.899999999999977],[-80.64701129999997,24.899999999999977]]]}}]}