{"type":"FeatureCollection","features":[{"type":"Feature","properties":{},"geometry":{"type":"Polygon","coordinates":[[[-75.332965,38.69999999999999],[-75.30000000000001,38.69999999999999],[-75.22500000000002,38.69999999999999],[-75.16419910000002,38.69999999999999],[-75.16057799999999,38.69999999999999],[-75.15931849999998,38.69999999999999],[-75.15832469999998,38.69999999999999],[-75.14999999999998,38.69999999999999],[-75.14898290000002,38.69999999999999],[-75.14853419999997,38.69999999999999],[-75.1387815,38.69999999999999],[-75.13808089999998,38.69999999999999],[-75.13790510000001,38.69999999999999],[-75.12864869999999,38.69999999999999],[-75.1234581,38.69999999999999],[-75.12038569999999,38.69999999999999],[-75.11957289999998,38.69999999999999],[-75.1124711,38.69999999999999],[-75.11199049999999,38.69999999999999],[-75.11042939999999,38.69999999999999],[-75.10944219999999,38.69999999999999],[-75.10788889999998,38.69999999999999],[-75.1064614,38.69999999999999],[-75.094246,38.69999999999999],[-75.09378040000001,38.69999999999999],[-75.09326570000002,38.69999999999999],[-75.0907843,38.69999999999999],[-75.08976030000002,38.69999999999999],[-75.07816550000001,38.69999999999999],[-75.07499999999999,38.69999999999999],[-75.0723936,38.69999999999999],[-75.07212659999999,38.69999999999999],[-75.07193230000001,38.69999999999999],[-75.07087489999998,38.69999999999999],[-75.06817009999997,38.69999999999999],[-75.06094969999998,38.69999999999999],[-75.0191944,38.69999999999999],[-75.01856079999999,38.69999999999999],[-75.0161723,38.69999999999999],[-75.00912920000002,38.69999999999999],[-75.0086594,38.69999999999999],[-75.0,38.69999999999999],[-74.9996294,38.69999999999999],[-74.9996294,38.6837041],[-74.9996294,38.681814900000006],[-74.9996294,38.680599099999995],[-74.9996294,38.66665280000001],[-74.9996294,38.644999999999996],[-75.332965,38.644999999999996],[-75.332965,38.69999999999999]]]}},{"type":"Feature","properties":{},"geometry":{"type":"Polygon","coordinates":[[[-75.16419910000002,38.69999999999999],[-75.22500000000002,38.69999999999999],[-75.22500000000002,38.77499999999998],[-75.19574970000002,38.77499999999998],[-75.19523270000002,38.77499999999998],[-75.19358729999999,38.77499999999998],[-75.19342940000001,38.77499999999998],[-75.19317180000002,38.77499999999998],[-75.19286929999998,38.77499999999998],[-75.19227540000003,38.77499999999998],[-75.1920973,38.77499999999998],[-75.1910097,38.77499999999998],[-75.18921990000001,38.77499999999998],[-75.18825520000001,38.77499999999998],[-75.18754810000001,38.77499999999998],[-75.18716280000001,38.77499999999998],[-75.1810893,38.77499999999998],[-75.17431640000001,38.77499999999998],[-75.17152779999998,38.77499999999998],[-75.17123830000003,38.77499999999998],[-75.16896489999999,38.77499999999998],[-75.14999999999998,38.77499999999998],[-75.14999999999998,38.75235980000002],[-75.14999999999998,38.69999999999999],[-75.15832469999998,38.69999999999999],[-75.15931849999998,38.69999999999999],[-75.16057799999999,38.69999999999999],[-75.16419910000002,38.69999999999999]]]}},{"type":"Feature","properties":{},"geometry":{"type":"Polygon","coordinates":[[[-75.14898290000002,38.69999999999999],[-75.14999999999998,38.69999999999999],[-75.14999999999998,38.75235980000002],[-75.14999999999998,38.77499999999998],[-75.13663079999998,38.77499999999998],[-75.13662720000002,38.77499999999998],[-75.13651800000002,38.77499999999998],[-75.136369,38.77499999999998],[-75.1363217,38.77499999999998],[-75.13584200000003,38.77499999999998],[-75.13566479999997,38.77499999999998],[-75.13560810000001,38.77499999999998],[-75.1354988,38.77499999999998],[-75.13549210000002,38.77499999999998],[-75.13229560000002,38.77499999999998],[-75.13206050000002,38.77499999999998],[-75.13101,38.77499999999998],[-75.10005940000002,38.77499999999998],[-75.08389879999999,38.77499999999998],[-75.0835763,38.77499999999998],[-75.08244930000001,38.77499999999998],[-75.08177840000002,38.77499999999998],[-75.08072820000001,38.77499999999998],[-75.07543229999999,38.77499999999998],[-75.07540999999998,38.77499999999998],[-75.07499999999999,38.77499999999998],[-75.07499999999999,38.77361459999997],[-75.07499999999999,38.773463900000024],[-75.07499999999999,38.773039600000004],[-75.07499999999999,38.7717763],[-75.07499999999999,38.76017539999998],[-75.07499999999999,38.75178570000003],[-75.07499999999999,38.72431369999998],[-75.07499999999999,38.72186319999997],[-75.07499999999999,38.7202977],[-75.07499999999999,38.718185800000015],[-75.07499999999999,38.71639379999999],[-75.07499999999999,38.7085505],[-75.07499999999999,38.70299269999998],[-75.07499999999999,38.69999999999999],[-75.07816550000001,38.69999999999999],[-75.08976030000002,38.69999999999999],[-75.0907843,38.69999999999999],[-75.09326570000002,38.69999999999999],[-75.09378040000001,38.69999999999999],[-75.094246,38.69999999999999],[-75.1064614,38.69999999999999],[-75.10788889999998,38.69999999999999],[-75.10944219999999,38.69999999999999],[-75.11042939999999,38.69999999999999],[-75.11199049999999,38.69999999999999],[-75.1124711,38.69999999999999],[-75.11957289999998,38.69999999999999],[-75.12038569999999,38.69999999999999],[-75.1234581,38.69999999999999],[-75.12864869999999,38.69999999999999],[-75.13790510000001,38.69999999999999],[-75.13808089999998,38.69999999999999],[-75.1387815,38.69999999999999],[-75.14853419999997,38.69999999999999],[-75.14898290000002,38.69999999999999]]]}},{"type":"Feature","properties":{},"geometry":{"type":"Polygon","coordinates":[[[-75.0723936,38.69999999999999],[-75.07499999999999,38.69999999999999],[-75.07499999999999,38.70299269999998],[-75.07499999999999,38.7085505],[-75.07499999999999,38.71639379999999],[-75.07499999999999,38.718185800000015],[-75.07499999999999,38.7202977],[-75.07499999999999,38.72186319999997],[-75.07499999999999,38.72431369999998],[-75.07499999999999,38.75178570000003],[-75.07499999999999,38.76017539999998],[-75.07499999999999,38.7717763],[-75.07499999999999,38.773039600000004],[-75.07499999999999,38.773463900000024],[-75.07499999999999,38.77361459999997],[-75.07499999999999,38.77499999999998],[-75.07375619999999,38.77499999999998],[-75.07165930000002,38.77499999999998],[-75.07038590000002,38.77499999999998],[-75.06968289999998,38.77499999999998],[-75.0671016,38.77499999999998],[-75.06377120000002,38.77499999999998],[-75.05712199999999,38.77499999999998],[-75.0564956,38.77499999999998],[-75.05566049999999,38.77499999999998],[-75.03352369999999,38.77499999999998],[-75.01805730000001,38.77499999999998],[-75.0175926,38.77499999999998],[-75.01618710000002,38.77499999999998],[-75.0,38.77499999999998],[-75.0,38.75991749999997],[-75.0,38.72843799999998],[-75.0,38.71920460000001],[-75.0,38.71371859999999],[-75.0,38.69999999999999],[-75.0086594,38.69999999999999],[-75.00912920000002,38.69999999999999],[-75.0161723,38.69999999999999],[-75.01856079999999,38.69999999999999],[-75.0191944,38.69999999999999],[-75.06094969999998,38.69999999999999],[-75.06817009999997,38.69999999999999],[-75.07087489999998,38.69999999999999],[-75.07193230000001,38.69999999999999],[-75.07212659999999,38.69999999999999],[-75.0723936,38.69999999999999]]]}},{"type":"Feature","properties":{},"geometry":{"type":"Polygon","coordinates":[[[-75.19574970000002,38.77499999999998],[-75.22500000000002,38.77499999999998],[-75.22500000000002,38.800119300000006],[-75.22500000000002,38.80546859999998],[-75.22500000000002,38.8057857],[-75.22500000000002,38.80928879999999],[-75.22500000000002,38.809963400000015],[-75.22500000000002,38.81882519999999],[-75.22500000000002,38.81896499999999],[-75.22500000000002,38.81957649999998],[-75.22500000000002,38.81974789999998],[-75.22500000000002,38.82360540000002],[-75.22500000000002,38.83014539999999],[-75.22500000000002,38.8310156],[-75.22500000000002,38.83148590000002],[-75.22500000000002,38.83253669999999],[-75.22500000000002,38.83286650000002],[-75.22500000000002,38.83317699999998],[-75.22500000000002,38.83354400000002],[-75.22500000000002,38.8336736],[-75.22500000000002,38.835000200000025],[-75.22500000000002,38.83523439999999],[-75.22500000000002,38.83600910000001],[-75.22500000000002,38.8361774],[-75.22500000000002,38.83953700000001],[-75.22500000000002,38.839862600000004],[-75.22500000000002,38.84871420000002],[-75.22500000000002,38.85000000000002],[-75.200064,38.85000000000002],[-75.19820040000002,38.85000000000002],[-75.18092419999999,38.85000000000002],[-75.17415799999998,38.85000000000002],[-75.16774950000001,38.85000000000002],[-75.1666356,38.85000000000002],[-75.1584365,38.85000000000002],[-75.15130729999998,38.85000000000002],[-75.14999999999998,38.85000000000002],[-75.14999999999998,38.84830290000002],[-75.14999999999998,38.8434924],[-75.14999999999998,38.8422463],[-75.14999999999998,38.84058240000002],[-75.14999999999998,38.839624000000015],[-75.14999999999998,38.825906499999974],[-75.14999999999998,38.821318700000006],[-75.14999999999998,38.7961942],[-75.14999999999998,38.78922269999998],[-75.14999999999998,38.789218000000005],[-75.14999999999998,38.78894389999999],[-75.14999999999998,38.786978799999986],[-75.14999999999998,38.78660000000002],[-75.14999999999998,38.78656489999997],[-75.14999999999998,38.78638339999998],[-75.14999999999998,38.784200999999996],[-75.14999999999998,38.7837624],[-75.14999999999998,38.78373049999999],[-75.14999999999998,38.7833023],[-75.14999999999998,38.783260299999995],[-75.14999999999998,38.781827899999996],[-75.14999999999998,38.78177119999998],[-75.14999999999998,38.78176580000002],[-75.14999999999998,38.781227100000024],[-75.14999999999998,38.78111050000001],[-75.14999999999998,38.7810642],[-75.14999999999998,38.78094570000002],[-75.14999999999998,38.78092800000002],[-75.14999999999998,38.7805692],[-75.14999999999998,38.78048239999998],[-75.14999999999998,38.78034509999998],[-75.14999999999998,38.78031179999999],[-75.14999999999998,38.78008940000001],[-75.14999999999998,38.77499999999998],[-75.16896489999999,38.77499999999998],[-75.17123830000003,38.77499999999998],[-75.17152779999998,38.77499999999998],[-75.17431640000001,38.77499999999998],[-75.1810893,38.77499999999998],[-75.18716280000001,38.77499999999998],[-75.18754810000001,38.77499999999998],[-75.18825520000001,38.77499999999998],[-75.18921990000001,38.77499999999998],[-75.1910097,38.77499999999998],[-75.1920973,38.77499999999998],[-75.19227540000003,38.77499999999998],[-75.19286929999998,38.77499999999998],[-75.19317180000002,38.77499999999998],[-75.19342940000001,38.77499999999998],[-75.19358729999999,38.77499999999998],[-75.19523270000002,38.77499999999998],[-75.19574970000002,38.77499999999998]]]}},{"type":"Feature","properties":{},"geometry":{"type":"Polygon","coordinates":[[[-75.13663079999998,38.77499999999998],[-75.14999999999998,38.77499999999998],[-75.14999999999998,38.78008940000001],[-75.14999999999998,38.78031179999999],[-75.14999999999998,38.78034509999998],[-75.14999999999998,38.7805692],[-75.14999999999998,38.78092800000002],[-75.14999999999998,38.78111050000001],[-75.14999999999998,38.781227100000024],[-75.14999999999998,38.78176580000002],[-75.14999999999998,38.78177119999998],[-75.14999999999998,38.781827899999996],[-75.14999999999998,38.783260299999995],[-75.14999999999998,38.7833023],[-75.14999999999998,38.78373049999999],[-75.14999999999998,38.7837624],[-75.14999999999998,38.784200999999996],[-75.14999999999998,38.78638339999998],[-75.14999999999998,38.78656489999997],[-75.14999999999998,38.786978799999986],[-75.14999999999998,38.78922269999998],[-75.14999999999998,38.7961942],[-75.14999999999998,38.821318700000006],[-75.14999999999998,38.825906499999974],[-75.14999999999998,38.839624000000015],[-75.14999999999998,38.84058240000002],[-75.14999999999998,38.8422463],[-75.14999999999998,38.8434924],[-75.14999999999998,38.84830290000002],[-75.14999999999998,38.85000000000002],[-75.14605799999998,38.85000000000002],[-75.11911529999998,38.85000000000002],[-75.11766369999998,38.85000000000002],[-75.11516160000002,38.85000000000002],[-75.1084042,38.85000000000002],[-75.10326579999997,38.85000000000002],[-75.09271940000002,38.85000000000002],[-75.07499999999999,38.85000000000002],[-75.07499999999999,38.835052899999994],[-75.07499999999999,38.83017410000002],[-75.07499999999999,38.83006690000002],[-75.07499999999999,38.83006449999999],[-75.07499999999999,38.82992630000001],[-75.07499999999999,38.824749999999995],[-75.07499999999999,38.821846300000004],[-75.07499999999999,38.81905979999999],[-75.07499999999999,38.816554999999994],[-75.07499999999999,38.816040199999975],[-75.07499999999999,38.815854100000024],[-75.07499999999999,38.80299630000002],[-75.07499999999999,38.796033799999975],[-75.07499999999999,38.791542100000015],[-75.07499999999999,38.78772550000002],[-75.07499999999999,38.78583200000003],[-75.07499999999999,38.78203109999998],[-75.07499999999999,38.77583290000001],[-75.07499999999999,38.77499999999998],[-75.07540999999998,38.77499999999998],[-75.07543229999999,38.77499999999998],[-75.08072820000001,38.77499999999998],[-75.08177840000002,38.77499999999998],[-75.08244930000001,38.77499999999998],[-75.0835763,38.77499999999998],[-75.08389879999999,38.77499999999998],[-75.10005940000002,38.77499999999998],[-75.13100889999998,38.77499999999998],[-75.13206050000002,38.77499999999998],[-75.13229560000002,38.77499999999998],[-75.1322973,38.77499999999998],[-75.13258159999998,38.77499999999998],[-75.1326985,38.77499999999998],[-75.13549210000002,38.77499999999998],[-75.1354988,38.77499999999998],[-75.13560810000001,38.77499999999998],[-75.13566479999997,38.77499999999998],[-75.1363217,38.77499999999998],[-75.136369,38.77499999999998],[-75.13663079999998,38.77499999999998]]]}},{"type":"Feature","properties":{},"geometry":{"type":"Polygon","coordinates":[[[-75.07375619999999,38.77499999999998],[-75.07499999999999,38.77499999999998],[-75.07499999999999,38.77583290000001],[-75.07499999999999,38.78203109999998],[-75.07499999999999,38.78583200000003],[-75.07499999999999,38.78772550000002],[-75.07499999999999,38.791542100000015],[-75.07499999999999,38.796033799999975],[-75.07499999999999,38.80299630000002],[-75.07499999999999,38.815854100000024],[-75.07499999999999,38.816040199999975],[-75.07499999999999,38.816554999999994],[-75.07499999999999,38.81905979999999],[-75.07499999999999,38.821846300000004],[-75.07499999999999,38.824749999999995],[-75.07499999999999,38.82992630000001],[-75.07499999999999,38.83006449999999],[-75.07499999999999,38.83006690000002],[-75.07499999999999,38.83017410000002],[-75.07499999999999,38.835052899999994],[-75.07499999999999,38.85000000000002],[-75.05291160000002,38.85000000000002],[-75.05278929999997,38.85000000000002],[-75.05259510000002,38.85000000000002],[-75.05209939999997,38.85000000000002],[-75.04471969999997,38.85000000000002],[-75.04445429999998,38.85000000000002],[-75.03867050000002,38.85000000000002],[-75.03645719999997,38.85000000000002],[-75.0343158,38.85000000000002],[-75.03310970000001,38.85000000000002],[-75.03246469999999,38.85000000000002],[-75.02899589999998,38.85000000000002],[-75.02821319999998,38.85000000000002],[-75.02778940000002,38.85000000000002],[-75.01831069999997,38.85000000000002],[-75.01618480000002,38.85000000000002],[-75.00972910000002,38.85000000000002],[-75.00669779999998,38.85000000000002],[-75.00033880000001,38.85000000000002],[-75.0,38.85000000000002],[-75.0,38.84933380000001],[-75.0,38.8351988],[-75.0,38.834346400000015],[-75.0,38.82912049999999],[-75.0,38.82799],[-75.0,38.82571089999999],[-75.0,38.82016429999999],[-75.0,38.817073300000004],[-75.0,38.809322699999996],[-75.0,38.80907079999997],[-75.0,38.80495380000002],[-75.0,38.80444840000001],[-75.0,38.80020339999999],[-75.0,38.80011630000001],[-75.0,38.79547960000002],[-75.0,38.77973830000002],[-75.0,38.77499999999998],[-75.01618710000002,38.77499999999998],[-75.0175926,38.77499999999998],[-75.01805730000001,38.77499999999998],[-75.03352369999999,38.77499999999998],[-75.05566049999999,38.77499999999998],[-75.0564956,38.77499999999998],[-75.05712199999999,38.77499999999998],[-75.06377120000002,38.77499999999998],[-75.0671016,38.77499999999998],[-75.06968289999998,38.77499999999998],[-75.07038590000002,38.77499999999998],[-75.07165930000002,38.77499999999998],[-75.07375619999999,38.77499999999998]]]}},{"type":"Feature","properties":{},"geometry":{"type":"Polygon","coordinates":[[[-75.30000000000001,38.69999999999999],[-75.30000000000001,38.77499999999998],[-75.28972570000002,38.77499999999998],[-75.289087,38.77499999999998],[-75.2515057,38.77499999999998],[-75.25122299999998,38.77499999999998],[-75.2509336,38.77499999999998],[-75.22500000000002,38.77499999999998],[-75.22500000000002,38.69999999999999],[-75.30000000000001,38.69999999999999]]]}},{"type":"Feature","properties":{},"geometry":{"type":"Polygon","coordinates":[[[-74.9702742,38.69999999999999],[-74.9879975,38.69999999999999],[-74.9996294,38.69999999999999],[-75.0,38.69999999999999],[-75.0,38.71371859999999],[-75.0,38.713777400000026],[-75.0,38.71908789999998],[-75.0,38.71920460000001],[-75.0,38.72843799999998],[-75.0,38.73202409999999],[-75.0,38.73537390000001],[-75.0,38.75469579999998],[-75.0,38.759471899999994],[-75.0,38.75991749999997],[-75.0,38.77499999999998],[-74.9996294,38.77499999999998],[-74.98790819999999,38.77499999999998],[-74.98200800000001,38.77499999999998],[-74.96766020000001,38.77499999999998],[-74.965,38.77499999999998],[-74.965,38.69999999999999],[-74.9702742,38.69999999999999]]]}},{"type":"Feature","properties":{},"geometry":{"type":"Polygon","coordinates":[[[-75.28972570000002,38.77499999999998],[-75.30000000000001,38.77499999999998],[-75.30000000000001,38.7755406],[-75.30000000000001,38.77648370000003],[-75.30000000000001,38.77686749999998],[-75.30000000000001,38.77815650000002],[-75.30000000000001,38.85000000000002],[-75.2651505,38.85000000000002],[-75.26251710000003,38.85000000000002],[-75.26216620000002,38.85000000000002],[-75.25796860000003,38.85000000000002],[-75.25779720000003,38.85000000000002],[-75.25231739999998,38.85000000000002],[-75.25231289999999,38.85000000000002],[-75.2518986,38.85000000000002],[-75.2513581,38.85000000000002],[-75.2512496,38.85000000000002],[-75.25066329999999,38.85000000000002],[-75.25033530000002,38.85000000000002],[-75.2494878,38.85000000000002],[-75.2494112,38.85000000000002],[-75.2459457,38.85000000000002],[-75.24580220000001,38.85000000000002],[-75.2456793,38.85000000000002],[-75.2441053,38.85000000000002],[-75.24076450000001,38.85000000000002],[-75.24065990000003,38.85000000000002],[-75.2405655,38.85000000000002],[-75.23771979999998,38.85000000000002],[-75.23691209999998,38.85000000000002],[-75.22680309999998,38.85000000000002],[-75.22500000000002,38.85000000000002],[-75.22500000000002,38.84871420000002],[-75.22500000000002,38.839862600000004],[-75.22500000000002,38.83953700000001],[-75.22500000000002,38.8361774],[-75.22500000000002,38.83600910000001],[-75.22500000000002,38.83523439999999],[-75.22500000000002,38.835000200000025],[-75.22500000000002,38.8336736],[-75.22500000000002,38.83354400000002],[-75.22500000000002,38.83317699999998],[-75.22500000000002,38.83286650000002],[-75.22500000000002,38.83253669999999],[-75.22500000000002,38.83148590000002],[-75.22500000000002,38.8310156],[-75.22500000000002,38.83014539999999],[-75.22500000000002,38.82360540000002],[-75.22500000000002,38.81974789999998],[-75.22500000000002,38.81957649999998],[-75.22500000000002,38.81896499999999],[-75.22500000000002,38.81882519999999],[-75.22500000000002,38.809963400000015],[-75.22500000000002,38.80928879999999],[-75.22500000000002,38.8057857],[-75.22500000000002,38.80546859999998],[-75.22500000000002,38.800119300000006],[-75.22500000000002,38.77499999999998],[-75.2509336,38.77499999999998],[-75.25122299999998,38.77499999999998],[-75.2515057,38.77499999999998],[-75.289087,38.77499999999998],[-75.28972570000002,38.77499999999998]]]}},{"type":"Feature","properties":{},"geometry":{"type":"Polygon","coordinates":[[[-74.96766020000001,38.77499999999998],[-74.98200800000001,38.77499999999998],[-74.98790819999999,38.77499999999998],[-74.9996294,38.77499999999998],[-75.0,38.77499999999998],[-75.0,38.77973830000002],[-75.0,38.787086199999976],[-75.0,38.79547960000002],[-75.0,38.79753529999999],[-75.0,38.80011630000001],[-75.0,38.80020339999999],[-75.0,38.80444840000001],[-75.0,38.80495380000002],[-75.0,38.805676300000016],[-75.0,38.80888169999997],[-75.0,38.80907079999997],[-75.0,38.809322699999996],[-75.0,38.80977710000002],[-75.0,38.817073300000004],[-75.0,38.8172644],[-75.0,38.81807379999998],[-75.0,38.82016429999999],[-75.0,38.820272699999975],[-75.0,38.82171319999998],[-75.0,38.82571089999999],[-75.0,38.82799],[-75.0,38.82912049999999],[-75.0,38.83038929999998],[-75.0,38.834346400000015],[-75.0,38.8351988],[-75.0,38.84933380000001],[-75.0,38.85000000000002],[-74.9996294,38.85000000000002],[-74.99844109999998,38.85000000000002],[-74.99736569999999,38.85000000000002],[-74.9950624,38.85000000000002],[-74.9844094,38.85000000000002],[-74.982752,38.85000000000002],[-74.97988229999999,38.85000000000002],[-74.97727370000001,38.85000000000002],[-74.97609670000003,38.85000000000002],[-74.965,38.85000000000002],[-74.965,38.77499999999998],[-74.96766020000001,38.77499999999998]]]}},{"type":"Feature","properties":{},"geometry":{"type":"Polygon","coordinates":[[[-75.14605799999998,38.85000000000002],[-75.14999999999998,38.85000000000002],[-75.14999999999998,38.85011400000002],[-75.14999999999998,38.85223780000001],[-75.14999999999998,38.86274159999999],[-75.14999999999998,38.86962369999998],[-75.14999999999998,38.87058189999999],[-75.14999999999998,38.873813600000005],[-75.14999999999998,38.87434409999997],[-75.14999999999998,38.885584800000004],[-75.14999999999998,38.89201459999998],[-75.14999999999998,38.89289659999997],[-75.14999999999998,38.89901600000002],[-75.14999999999998,38.9053457],[-75.14999999999998,38.92201720000003],[-75.14999999999998,38.92427420000001],[-75.14999999999998,38.92500000000001],[-75.14931890000003,38.92500000000001],[-75.1463607,38.92500000000001],[-75.13932269999998,38.92500000000001],[-75.1007773,38.92500000000001],[-75.0998224,38.92500000000001],[-75.09886749999998,38.92500000000001],[-75.09852940000002,38.92500000000001],[-75.09791259999997,38.92500000000001],[-75.09695770000002,38.92500000000001],[-75.07499999999999,38.92500000000001],[-75.07499999999999,38.88171540000002],[-75.07499999999999,38.85011400000002],[-75.07499999999999,38.85000000000002],[-75.09271940000002,38.85000000000002],[-75.10048740000002,38.85000000000002],[-75.10158769999998,38.85000000000002],[-75.10326579999997,38.85000000000002],[-75.1084042,38.85000000000002],[-75.11516160000002,38.85000000000002],[-75.11745000000002,38.85000000000002],[-75.11766369999998,38.85000000000002],[-75.11911529999998,38.85000000000002],[-75.14605799999998,38.85000000000002]]]}},{"type":"Feature","properties":{},"geometry":{"type":"Polygon","coordinates":[[[-75.05718430000002,38.85000000000002],[-75.07499999999999,38.85000000000002],[-75.07499999999999,38.85011400000002],[-75.07499999999999,38.88171540000002],[-75.07499999999999,38.92500000000001],[-75.0679619,38.92500000000001],[-75.02856980000001,38.92500000000001],[-75.02818810000002,38.92500000000001],[-75.01823180000002,38.92500000000001],[-75.01198690000001,38.92500000000001],[-75.00521809999998,38.92500000000001],[-75.00469320000002,38.92500000000001],[-75.00305120000002,38.92500000000001],[-75.00281610000002,38.92500000000001],[-75.0,38.92500000000001],[-75.0,38.92013639999999],[-75.0,38.91626230000003],[-75.0,38.911004100000014],[-75.0,38.9105649],[-75.0,38.90423959999998],[-75.0,38.9022473],[-75.0,38.9021295],[-75.0,38.901602000000025],[-75.0,38.90052639999999],[-75.0,38.89931610000002],[-75.0,38.897888799999976],[-75.0,38.89749169999999],[-75.0,38.89738190000003],[-75.0,38.89502620000002],[-75.0,38.89447849999999],[-75.0,38.89369420000003],[-75.0,38.89233139999999],[-75.0,38.89189160000001],[-75.0,38.89150480000001],[-75.0,38.889321499999994],[-75.0,38.888200900000015],[-75.0,38.88381720000001],[-75.0,38.882886799999994],[-75.0,38.87873780000001],[-75.0,38.87643459999998],[-75.0,38.87591950000001],[-75.0,38.87480119999998],[-75.0,38.869527800000014],[-75.0,38.869166500000006],[-75.0,38.86707150000001],[-75.0,38.85501390000002],[-75.0,38.85011400000002],[-75.0,38.85000000000002],[-75.00033880000001,38.85000000000002],[-75.00669779999998,38.85000000000002],[-75.00972910000002,38.85000000000002],[-75.01618480000002,38.85000000000002],[-75.01831069999997,38.85000000000002],[-75.02778940000002,38.85000000000002],[-75.02821319999998,38.85000000000002],[-75.02899589999998,38.85000000000002],[-75.03246469999999,38.85000000000002],[-75.03310970000001,38.85000000000002],[-75.0343158,38.85000000000002],[-75.03645719999997,38.85000000000002],[-75.03867050000002,38.85000000000002],[-75.04445429999998,38.85000000000002],[-75.04471969999997,38.85000000000002],[-75.05209939999997,38.85000000000002],[-75.05259510000002,38.85000000000002],[-75.05278929999997,38.85000000000002],[-75.05291160000002,38.85000000000002],[-75.05718430000002,38.85000000000002]]]}},{"type":"Feature","properties":{},"geometry":{"type":"Polygon","coordinates":[[[-75.14999999999998,38.962892899999986],[-75.14999999999998,38.95326180000001],[-75.14999999999998,38.95190489999999],[-75.14999999999998,38.94615090000002],[-75.14999999999998,38.94540599999999],[-75.14999999999998,38.94421319999998],[-75.14999999999998,38.939885000000004],[-75.14999999999998,38.93209280000002],[-75.14999999999998,38.92967859999999],[-75.14999999999998,38.927907800000014],[-75.14999999999998,38.9259194],[-75.14999999999998,38.92500000000001],[-75.15187250000002,38.92500000000001],[-75.15217940000002,38.92500000000001],[-75.15584610000002,38.92500000000001],[-75.1697795,38.92500000000001],[-75.17013229999998,38.92500000000001],[-75.17900700000001,38.92500000000001],[-75.18324469999999,38.92500000000001],[-75.18339939999998,38.92500000000001],[-75.18407000000002,38.92500000000001],[-75.18478750000003,38.92500000000001],[-75.19298839999999,38.92500000000001],[-75.19848050000002,38.92500000000001],[-75.20436380000001,38.92500000000001],[-75.21096879999999,38.92500000000001],[-75.21278080000002,38.92500000000001],[-75.21571060000002,38.92500000000001],[-75.22500000000002,38.92500000000001],[-75.22500000000002,38.93186530000003],[-75.22500000000002,38.934580700000026],[-75.22500000000002,38.937396999999976],[-75.22500000000002,38.94094639999997],[-75.22500000000002,38.94445910000002],[-75.22500000000002,38.956307700000025],[-75.22500000000002,38.975],[-75.14999999999998,38.975],[-75.14999999999998,38.962892899999986]]]}},{"type":"Feature","properties":{},"geometry":{"type":"Polygon","coordinates":[[[-75.07499999999999,38.9735771],[-75.07499999999999,38.9717172],[-75.07499999999999,38.9695165],[-75.07499999999999,38.9595458],[-75.07499999999999,38.92585120000001],[-75.07499999999999,38.92500000000001],[-75.09695770000002,38.92500000000001],[-75.09791259999997,38.92500000000001],[-75.09852940000002,38.92500000000001],[-75.09886749999998,38.92500000000001],[-75.0998224,38.92500000000001],[-75.1007773,38.92500000000001],[-75.13932269999998,38.92500000000001],[-75.1463607,38.92500000000001],[-75.14931890000003,38.92500000000001],[-75.14999999999998,38.92500000000001],[-75.14999999999998,38.9259194],[-75.14999999999998,38.927907800000014],[-75.14999999999998,38.92967859999999],[-75.14999999999998,38.93209280000002],[-75.14999999999998,38.939885000000004],[-75.14999999999998,38.94421319999998],[-75.14999999999998,38.94540599999999],[-75.14999999999998,38.94615090000002],[-75.14999999999998,38.95190489999999],[-75.14999999999998,38.95326180000001],[-75.14999999999998,38.962892899999986],[-75.14999999999998,38.975],[-75.07499999999999,38.975],[-75.07499999999999,38.9735771]]]}},{"type":"Feature","properties":{},"geometry":{"type":"Polygon","coordinates":[[[-75.0,38.974339999999984],[-75.0,38.96554839999999],[-75.0,38.9651073],[-75.0,38.9630952],[-75.0,38.962602100000026],[-75.0,38.959720000000004],[-75.0,38.959103200000015],[-75.0,38.95044580000001],[-75.0,38.947359000000006],[-75.0,38.94701309999999],[-75.0,38.945391099999995],[-75.0,38.943115999999975],[-75.0,38.931696699999975],[-75.0,38.92972780000002],[-75.0,38.92895229999999],[-75.0,38.9282839],[-75.0,38.92500000000001],[-75.00281610000002,38.92500000000001],[-75.00305120000002,38.92500000000001],[-75.00469320000002,38.92500000000001],[-75.00521809999998,38.92500000000001],[-75.01198690000001,38.92500000000001],[-75.01823180000002,38.92500000000001],[-75.02818810000002,38.92500000000001],[-75.02856980000001,38.92500000000001],[-75.0679619,38.92500000000001],[-75.07499999999999,38.92500000000001],[-75.07499999999999,38.92585120000001],[-75.07499999999999,38.9595458],[-75.07499999999999,38.9695165],[-75.07499999999999,38.9717172],[-75.07499999999999,38.9735771],[-75.07499999999999,38.975],[-75.0,38.975],[-75.0,38.974339999999984]]]}},{"type":"Feature","properties":{},"geometry":{"type":"Polygon","coordinates":[[[-74.97609670000003,38.85000000000002],[-74.97727370000001,38.85000000000002],[-74.97988229999999,38.85000000000002],[-74.982752,38.85000000000002],[-74.9844094,38.85000000000002],[-74.9950624,38.85000000000002],[-74.99736569999999,38.85000000000002],[-74.99844109999998,38.85000000000002],[-74.9996294,38.85000000000002],[-75.0,38.85000000000002],[-75.0,38.85011400000002],[-75.0,38.85501390000002],[-75.0,38.86707150000001],[-75.0,38.869166500000006],[-75.0,38.869527800000014],[-75.0,38.87480119999998],[-75.0,38.87591950000001],[-75.0,38.87643459999998],[-75.0,38.87873780000001],[-75.0,38.882886799999994],[-75.0,38.88381720000001],[-75.0,38.888200900000015],[-75.0,38.889321499999994],[-75.0,38.89150480000001],[-75.0,38.89189160000001],[-75.0,38.89233139999999],[-75.0,38.89369420000003],[-75.0,38.89447849999999],[-75.0,38.89502620000002],[-75.0,38.89738190000003],[-75.0,38.89749169999999],[-75.0,38.897888799999976],[-75.0,38.89931610000002],[-75.0,38.90052639999999],[-75.0,38.901602000000025],[-75.0,38.9021295],[-75.0,38.9022473],[-75.0,38.90423959999998],[-75.0,38.9105649],[-75.0,38.911004100000014],[-75.0,38.91626230000003],[-75.0,38.92013639999999],[-75.0,38.92500000000001],[-74.98876680000001,38.92500000000001],[-74.98867819999998,38.92500000000001],[-74.97580909999999,38.92500000000001],[-74.97545760000003,38.92500000000001],[-74.97462910000002,38.92500000000001],[-74.97417630000001,38.92500000000001],[-74.97111050000001,38.92500000000001],[-74.96954240000002,38.92500000000001],[-74.96935230000003,38.92500000000001],[-74.96922999999998,38.92500000000001],[-74.9686352,38.92500000000001],[-74.96572789999999,38.92500000000001],[-74.965,38.92500000000001],[-74.965,38.85000000000002],[-74.97609670000003,38.85000000000002]]]}},{"type":"Feature","properties":{},"geometry":{"type":"Polygon","coordinates":[[[-74.96572789999999,38.92500000000001],[-74.9686352,38.92500000000001],[-74.96922999999998,38.92500000000001],[-74.96926560000003,38.92500000000001],[-74.96935230000003,38.92500000000001],[-74.96954240000002,38.92500000000001],[-74.9695428,38.92500000000001],[-74.97111050000001,38.92500000000001],[-74.97417630000001,38.92500000000001],[-74.97462910000002,38.92500000000001],[-74.97545760000003,38.92500000000001],[-74.97580909999999,38.92500000000001],[-74.98867819999998,38.92500000000001],[-74.98876680000001,38.92500000000001],[-75.0,38.92500000000001],[-75.0,38.9282839],[-75.0,38.92895229999999],[-75.0,38.92972780000002],[-75.0,38.931696699999975],[-75.0,38.943115999999975],[-75.0,38.945391099999995],[-75.0,38.94701309999999],[-75.0,38.947359000000006],[-75.0,38.95044580000001],[-75.0,38.959103200000015],[-75.0,38.959720000000004],[-75.0,38.962602100000026],[-75.0,38.9630952],[-75.0,38.9651073],[-75.0,38.96554839999999],[-75.0,38.974339999999984],[-75.0,38.975],[-74.965,38.975],[-74.965,38.92500000000001],[-74.96572789999999,38.92500000000001]]]}}]}