{"type":"FeatureCollection","features":[{"type":"Feature","properties":{},"geometry":{"type":"Polygon","coordinates":[[[-74.17500000000001,39.9486268],[-74.17500000000001,39.94643639999998],[-74.17500000000001,39.941696200000024],[-74.17500000000001,39.94127450000002],[-74.17500000000001,39.89999999999998],[-74.18170170000002,39.89999999999998],[-74.25,39.89999999999998],[-74.25,39.97500000000002],[-74.17500000000001,39.97500000000002],[-74.17500000000001,39.94900740000003],[-74.17500000000001,39.9486268]]]}},{"type":"Feature","properties":{},"geometry":{"type":"Polygon","coordinates":[[[-74.14022319999998,39.89999999999998],[-74.17500000000001,39.89999999999998],[-74.17500000000001,39.94127450000002],[-74.17500000000001,39.941696200000024],[-74.17500000000001,39.94643639999998],[-74.17500000000001,39.9486268],[-74.17500000000001,39.94900740000003],[-74.17500000000001,39.97500000000002],[-74.11601730000001,39.97500000000002],[-74.1093596,39.97500000000002],[-74.1093186,39.97500000000002],[-74.1057452,39.97500000000002],[-74.10000000000002,39.97500000000002],[-74.10000000000002,39.972852699999976],[-74.10000000000002,39.96270679999998],[-74.10000000000002,39.95770349999998],[-74.10000000000002,39.948277899999994],[-74.10000000000002,39.946689900000024],[-74.10000000000002,39.945822899999996],[-74.10000000000002,39.945594099999994],[-74.10000000000002,39.94549239999998],[-74.10000000000002,39.94391669999999],[-74.10000000000002,39.939492599999994],[-74.10000000000002,39.93752599999999],[-74.10000000000002,39.9346051],[-74.10000000000002,39.934484699999985],[-74.10000000000002,39.93205660000001],[-74.10000000000002,39.9295252],[-74.10000000000002,39.927254300000016],[-74.10000000000002,39.9258519],[-74.10000000000002,39.923647800000026],[-74.10000000000002,39.92315910000002],[-74.10000000000002,39.92244729999999],[-74.10000000000002,39.922210699999994],[-74.10000000000002,39.9187589],[-74.10000000000002,39.91684329999998],[-74.10000000000002,39.916298600000005],[-74.10000000000002,39.91601129999998],[-74.10000000000002,39.9088079],[-74.10000000000002,39.908468500000026],[-74.10000000000002,39.9076101],[-74.10000000000002,39.9067359],[-74.10000000000002,39.90636039999998],[-74.10000000000002,39.89999999999998],[-74.10194689999997,39.89999999999998],[-74.10863760000001,39.89999999999998],[-74.11132559999999,39.89999999999998],[-74.11731880000002,39.89999999999998],[-74.12073830000003,39.89999999999998],[-74.12648109999998,39.89999999999998],[-74.13139269999999,39.89999999999998],[-74.13267689999998,39.89999999999998],[-74.13290319999999,39.89999999999998],[-74.13779249999999,39.89999999999998],[-74.13867590000001,39.89999999999998],[-74.14022319999998,39.89999999999998]]]}},{"type":"Feature","properties":{},"geometry":{"type":"Polygon","coordinates":[[[-74.087175,39.89999999999998],[-74.10000000000002,39.89999999999998],[-74.10000000000002,39.90636039999998],[-74.10000000000002,39.9067359],[-74.10000000000002,39.9076101],[-74.10000000000002,39.908468500000026],[-74.10000000000002,39.9088079],[-74.10000000000002,39.91601129999998],[-74.10000000000002,39.916298600000005],[-74.10000000000002,39.91684329999998],[-74.10000000000002,39.9187589],[-74.10000000000002,39.922210699999994],[-74.10000000000002,39.92244729999999],[-74.10000000000002,39.92315910000002],[-74.10000000000002,39.923647800000026],[-74.10000000000002,39.9258519],[-74.10000000000002,39.927254300000016],[-74.10000000000002,39.9295252],[-74.10000000000002,39.93205660000001],[-74.10000000000002,39.934484699999985],[-74.10000000000002,39.9346051],[-74.10000000000002,39.93752599999999],[-74.10000000000002,39.939492599999994],[-74.10000000000002,39.94391669999999],[-74.10000000000002,39.94549239999998],[-74.10000000000002,39.945594099999994],[-74.10000000000002,39.945822899999996],[-74.10000000000002,39.946689900000024],[-74.10000000000002,39.948277899999994],[-74.10000000000002,39.95770349999998],[-74.10000000000002,39.96270679999998],[-74.10000000000002,39.972852699999976],[-74.10000000000002,39.97500000000002],[-74.0728537,39.97500000000002],[-74.07163220000001,39.97500000000002],[-74.06425159999998,39.97500000000002],[-74.06400050000002,39.97500000000002],[-74.06289070000003,39.97500000000002],[-74.06246199999998,39.97500000000002],[-74.06161700000001,39.97500000000002],[-74.06116250000002,39.97500000000002],[-74.06115349999999,39.97500000000002],[-74.0606363,39.97500000000002],[-74.05842089999999,39.97500000000002],[-74.05807620000002,39.97500000000002],[-74.03551720000002,39.97500000000002],[-74.02499999999998,39.97500000000002],[-74.02499999999998,39.94249989999997],[-74.02499999999998,39.89999999999998],[-74.04295459999997,39.89999999999998],[-74.0719623,39.89999999999998],[-74.07260020000001,39.89999999999998],[-74.07314650000001,39.89999999999998],[-74.07519029999997,39.89999999999998],[-74.0767841,39.89999999999998],[-74.07721900000001,39.89999999999998],[-74.07852810000003,39.89999999999998],[-74.07881650000002,39.89999999999998],[-74.08662099999998,39.89999999999998],[-74.087175,39.89999999999998]]]}},{"type":"Feature","properties":{},"geometry":{"type":"Polygon","coordinates":[[[-74.1093596,39.97500000000002],[-74.11601730000001,39.97500000000002],[-74.17500000000001,39.97500000000002],[-74.17500000000001,40.05000000000001],[-74.14481410000002,40.05000000000001],[-74.144743,40.05000000000001],[-74.11342450000001,40.05000000000001],[-74.11228829999999,40.05000000000001],[-74.11216239999999,40.05000000000001],[-74.11004700000001,40.05000000000001],[-74.10986309999998,40.05000000000001],[-74.1094943,40.05000000000001],[-74.10900140000001,40.05000000000001],[-74.10873620000001,40.05000000000001],[-74.10851680000002,40.05000000000001],[-74.10833209999998,40.05000000000001],[-74.10822739999998,40.05000000000001],[-74.10729989999999,40.05000000000001],[-74.10243600000001,40.05000000000001],[-74.10000000000002,40.05000000000001],[-74.10000000000002,40.04928799999999],[-74.10000000000002,40.04918679999997],[-74.10000000000002,40.0482121],[-74.10000000000002,40.04763270000001],[-74.10000000000002,40.04710929999999],[-74.10000000000002,40.04489819999998],[-74.10000000000002,40.023109799999986],[-74.10000000000002,40.02207379999999],[-74.10000000000002,40.02018129999999],[-74.10000000000002,40.01791960000003],[-74.10000000000002,40.01757500000002],[-74.10000000000002,40.016553499999986],[-74.10000000000002,40.01610720000002],[-74.10000000000002,40.01566029999998],[-74.10000000000002,40.013645499999996],[-74.10000000000002,40.012901899999974],[-74.10000000000002,40.00985320000001],[-74.10000000000002,39.99732590000002],[-74.10000000000002,39.97500000000002],[-74.1057452,39.97500000000002],[-74.1093186,39.97500000000002],[-74.1093596,39.97500000000002]]]}},{"type":"Feature","properties":{},"geometry":{"type":"Polygon","coordinates":[[[-74.10000000000002,39.99732590000002],[-74.10000000000002,40.00985320000001],[-74.10000000000002,40.012901899999974],[-74.10000000000002,40.013645499999996],[-74.10000000000002,40.01566029999998],[-74.10000000000002,40.01610720000002],[-74.10000000000002,40.016553499999986],[-74.10000000000002,40.01757500000002],[-74.10000000000002,40.01791960000003],[-74.10000000000002,40.02018129999999],[-74.10000000000002,40.02207379999999],[-74.10000000000002,40.023109799999986],[-74.10000000000002,40.04489819999998],[-74.10000000000002,40.04710929999999],[-74.10000000000002,40.04763270000001],[-74.10000000000002,40.0482121],[-74.10000000000002,40.04918679999997],[-74.10000000000002,40.04928799999999],[-74.10000000000002,40.05000000000001],[-74.0992349,40.05000000000001],[-74.099106,40.05000000000001],[-74.09796160000002,40.05000000000001],[-74.09666800000002,40.05000000000001],[-74.0958253,40.05000000000001],[-74.09558600000003,40.05000000000001],[-74.09539949999998,40.05000000000001],[-74.09220140000002,40.05000000000001],[-74.08855879999999,40.05000000000001],[-74.0831862,40.05000000000001],[-74.08155190000002,40.05000000000001],[-74.0815005,40.05000000000001],[-74.08056479999999,40.05000000000001],[-74.080489,40.05000000000001],[-74.07932640000001,40.05000000000001],[-74.07882660000001,40.05000000000001],[-74.07835119999999,40.05000000000001],[-74.07810510000002,40.05000000000001],[-74.0771067,40.05000000000001],[-74.07659860000001,40.05000000000001],[-74.0760108,40.05000000000001],[-74.07575489999999,40.05000000000001],[-74.07428449999998,40.05000000000001],[-74.07214379999999,40.05000000000001],[-74.07174659999998,40.05000000000001],[-74.07113240000001,40.05000000000001],[-74.06782679999998,40.05000000000001],[-74.06751960000003,40.05000000000001],[-74.06207999999998,40.05000000000001],[-74.06181900000001,40.05000000000001],[-74.061577,40.05000000000001],[-74.05995769999998,40.05000000000001],[-74.05716330000001,40.05000000000001],[-74.05599860000001,40.05000000000001],[-74.05594730000001,40.05000000000001],[-74.05581089999998,40.05000000000001],[-74.05099899999999,40.05000000000001],[-74.0504416,40.05000000000001],[-74.04995680000002,40.05000000000001],[-74.0492906,40.05000000000001],[-74.04651530000001,40.05000000000001],[-74.04618770000002,40.05000000000001],[-74.04539679999999,40.05000000000001],[-74.0451319,40.05000000000001],[-74.04407420000001,40.05000000000001],[-74.04342150000002,40.05000000000001],[-74.04316399999999,40.05000000000001],[-74.0414695,40.05000000000001],[-74.04112300000003,40.05000000000001],[-74.02499999999998,40.05000000000001],[-74.02499999999998,40.0269619],[-74.02499999999998,39.98959380000002],[-74.02499999999998,39.97500000000002],[-74.03551720000002,39.97500000000002],[-74.05807620000002,39.97500000000002],[-74.05842089999999,39.97500000000002],[-74.0606363,39.97500000000002],[-74.06115349999999,39.97500000000002],[-74.06116250000002,39.97500000000002],[-74.06161700000001,39.97500000000002],[-74.06246199999998,39.97500000000002],[-74.06289070000003,39.97500000000002],[-74.06400050000002,39.97500000000002],[-74.06425159999998,39.97500000000002],[-74.07163220000001,39.97500000000002],[-74.0728537,39.97500000000002],[-74.10000000000002,39.97500000000002],[-74.10000000000002,39.99732590000002]]]}},{"type":"Feature","properties":{},"geometry":{"type":"Polygon","coordinates":[[[-74.17500000000001,40.077148799999975],[-74.17500000000001,40.125],[-74.1007242,40.125],[-74.10000000000002,40.125],[-74.10000000000002,40.12498929999998],[-74.10000000000002,40.124780499999986],[-74.10000000000002,40.12455440000002],[-74.10000000000002,40.12360580000001],[-74.10000000000002,40.12272630000001],[-74.10000000000002,40.1222267],[-74.10000000000002,40.11998299999999],[-74.10000000000002,40.10341089999997],[-74.10000000000002,40.10309280000001],[-74.10000000000002,40.10204329999999],[-74.10000000000002,40.10186299999998],[-74.10000000000002,40.06094780000001],[-74.10000000000002,40.060326799999984],[-74.10000000000002,40.0594413],[-74.10000000000002,40.05874440000002],[-74.10000000000002,40.056197399999974],[-74.10000000000002,40.05589450000002],[-74.10000000000002,40.05558660000003],[-74.10000000000002,40.05519609999999],[-74.10000000000002,40.05514019999998],[-74.10000000000002,40.05314179999999],[-74.10000000000002,40.05000000000001],[-74.10243600000001,40.05000000000001],[-74.10729989999999,40.05000000000001],[-74.10822739999998,40.05000000000001],[-74.10833209999998,40.05000000000001],[-74.10851680000002,40.05000000000001],[-74.10873620000001,40.05000000000001],[-74.10900140000001,40.05000000000001],[-74.1094943,40.05000000000001],[-74.10986309999998,40.05000000000001],[-74.11004700000001,40.05000000000001],[-74.11216239999999,40.05000000000001],[-74.11228829999999,40.05000000000001],[-74.11342450000001,40.05000000000001],[-74.144743,40.05000000000001],[-74.14481410000002,40.05000000000001],[-74.17500000000001,40.05000000000001],[-74.17500000000001,40.077148799999975]]]}},{"type":"Feature","properties":{},"geometry":{"type":"Polygon","coordinates":[[[-74.0992349,40.05000000000001],[-74.10000000000002,40.05000000000001],[-74.10000000000002,40.05314179999999],[-74.10000000000002,40.05514019999998],[-74.10000000000002,40.05519609999999],[-74.10000000000002,40.05558660000003],[-74.10000000000002,40.05589450000002],[-74.10000000000002,40.056197399999974],[-74.10000000000002,40.05874440000002],[-74.10000000000002,40.0594413],[-74.10000000000002,40.060326799999984],[-74.10000000000002,40.06094780000001],[-74.10000000000002,40.10186299999998],[-74.10000000000002,40.10204329999999],[-74.10000000000002,40.10309280000001],[-74.10000000000002,40.10341089999997],[-74.10000000000002,40.11998299999999],[-74.10000000000002,40.1222267],[-74.10000000000002,40.12272630000001],[-74.10000000000002,40.12360580000001],[-74.10000000000002,40.12455440000002],[-74.10000000000002,40.124780499999986],[-74.10000000000002,40.12498929999998],[-74.10000000000002,40.125],[-74.09997909999998,40.125],[-74.09849009999999,40.125],[-74.09764200000001,40.125],[-74.0970484,40.125],[-74.09674819999998,40.125],[-74.0962824,40.125],[-74.09536100000003,40.125],[-74.09510610000001,40.125],[-74.02937689999999,40.125],[-74.02903500000002,40.125],[-74.0284815,40.125],[-74.02812180000001,40.125],[-74.02804700000002,40.125],[-74.027466,40.125],[-74.02671600000002,40.125],[-74.02499999999998,40.125],[-74.02499999999998,40.12178299999999],[-74.02499999999998,40.12137530000001],[-74.02499999999998,40.12032369999997],[-74.02499999999998,40.11964499999999],[-74.02499999999998,40.11874979999999],[-74.02499999999998,40.11794259999999],[-74.02499999999998,40.11596930000002],[-74.02499999999998,40.11473360000002],[-74.02499999999998,40.11415679999999],[-74.02499999999998,40.10802380000001],[-74.02499999999998,40.093689299999994],[-74.02499999999998,40.05000000000001],[-74.04112300000003,40.05000000000001],[-74.0414695,40.05000000000001],[-74.04316399999999,40.05000000000001],[-74.04342150000002,40.05000000000001],[-74.04407420000001,40.05000000000001],[-74.0451319,40.05000000000001],[-74.04539679999999,40.05000000000001],[-74.04618770000002,40.05000000000001],[-74.04651530000001,40.05000000000001],[-74.0492906,40.05000000000001],[-74.04995680000002,40.05000000000001],[-74.0504416,40.05000000000001],[-74.05099899999999,40.05000000000001],[-74.05581089999998,40.05000000000001],[-74.05594730000001,40.05000000000001],[-74.05599860000001,40.05000000000001],[-74.05716330000001,40.05000000000001],[-74.05995769999998,40.05000000000001],[-74.061577,40.05000000000001],[-74.06181900000001,40.05000000000001],[-74.06207999999998,40.05000000000001],[-74.06751960000003,40.05000000000001],[-74.06782679999998,40.05000000000001],[-74.07113240000001,40.05000000000001],[-74.07174659999998,40.05000000000001],[-74.07214379999999,40.05000000000001],[-74.07428449999998,40.05000000000001],[-74.07575489999999,40.05000000000001],[-74.0760108,40.05000000000001],[-74.07659860000001,40.05000000000001],[-74.0771067,40.05000000000001],[-74.07810510000002,40.05000000000001],[-74.07835119999999,40.05000000000001],[-74.07882660000001,40.05000000000001],[-74.07932640000001,40.05000000000001],[-74.080489,40.05000000000001],[-74.08056479999999,40.05000000000001],[-74.0815005,40.05000000000001],[-74.08155190000002,40.05000000000001],[-74.0831862,40.05000000000001],[-74.08855879999999,40.05000000000001],[-74.09220140000002,40.05000000000001],[-74.09539949999998,40.05000000000001],[-74.09558600000003,40.05000000000001],[-74.0958253,40.05000000000001],[-74.09666800000002,40.05000000000001],[-74.09796160000002,40.05000000000001],[-74.099106,40.05000000000001],[-74.0992349,40.05000000000001]]]}},{"type":"Feature","properties":{},"geometry":{"type":"Polygon","coordinates":[[[-73.97817620000001,40.05000000000001],[-73.97935000000001,40.05000000000001],[-73.97983060000001,40.05000000000001],[-74.0003178,40.05000000000001],[-74.01946290000001,40.05000000000001],[-74.02499999999998,40.05000000000001],[-74.02499999999998,40.093689299999994],[-74.02499999999998,40.10802380000001],[-74.02499999999998,40.11415679999999],[-74.02499999999998,40.11473360000002],[-74.02499999999998,40.11596930000002],[-74.02499999999998,40.11794259999999],[-74.02499999999998,40.11874979999999],[-74.02499999999998,40.11964499999999],[-74.02499999999998,40.12032369999997],[-74.02499999999998,40.12137530000001],[-74.02499999999998,40.12178299999999],[-74.02499999999998,40.125],[-74.02414770000001,40.125],[-74.0231789,40.125],[-74.0016372,40.125],[-73.9612014,40.125],[-73.9607221,40.125],[-73.95241149999998,40.125],[-73.9520956,40.125],[-73.94999999999999,40.125],[-73.94999999999999,40.10886629999999],[-73.94999999999999,40.10633760000002],[-73.94999999999999,40.09765199999998],[-73.94999999999999,40.09686149999999],[-73.94999999999999,40.0962098],[-73.94999999999999,40.095625299999995],[-73.94999999999999,40.086361099999976],[-73.94999999999999,40.076824199999976],[-73.94999999999999,40.072742500000004],[-73.94999999999999,40.063655100000005],[-73.94999999999999,40.05830980000002],[-73.94999999999999,40.05000000000001],[-73.96189129999999,40.05000000000001],[-73.97817620000001,40.05000000000001]]]}},{"type":"Feature","properties":{},"geometry":{"type":"Polygon","coordinates":[[[-74.09849009999999,40.125],[-74.09997909999998,40.125],[-74.10000000000002,40.125],[-74.10000000000002,40.12613529999999],[-74.10000000000002,40.128154300000006],[-74.10000000000002,40.12871059999998],[-74.10000000000002,40.13343600000002],[-74.10000000000002,40.175419499999975],[-74.10000000000002,40.19999999999999],[-74.06302490000002,40.19999999999999],[-74.05503800000002,40.19999999999999],[-74.0421407,40.19999999999999],[-74.04051750000002,40.19999999999999],[-74.02499999999998,40.19999999999999],[-74.02499999999998,40.18712340000002],[-74.02499999999998,40.18671130000001],[-74.02499999999998,40.18655949999999],[-74.02499999999998,40.18642],[-74.02499999999998,40.1861098],[-74.02499999999998,40.18534570000003],[-74.02499999999998,40.18522999999999],[-74.02499999999998,40.18515050000002],[-74.02499999999998,40.184611399999994],[-74.02499999999998,40.184559200000024],[-74.02499999999998,40.18452880000001],[-74.02499999999998,40.18437549999999],[-74.02499999999998,40.1389585],[-74.02499999999998,40.138329699999986],[-74.02499999999998,40.13803309999997],[-74.02499999999998,40.1378368],[-74.02499999999998,40.13744980000001],[-74.02499999999998,40.13661059999998],[-74.02499999999998,40.136489400000016],[-74.02499999999998,40.135864000000026],[-74.02499999999998,40.134807799999976],[-74.02499999999998,40.1339605],[-74.02499999999998,40.132959400000004],[-74.02499999999998,40.13261970000002],[-74.02499999999998,40.1311728],[-74.02499999999998,40.125],[-74.02671600000002,40.125],[-74.027466,40.125],[-74.02804700000002,40.125],[-74.02812180000001,40.125],[-74.0284815,40.125],[-74.02903500000002,40.125],[-74.02937689999999,40.125],[-74.09510610000001,40.125],[-74.09536100000003,40.125],[-74.0962824,40.125],[-74.09674819999998,40.125],[-74.0970484,40.125],[-74.09764200000001,40.125],[-74.09849009999999,40.125]]]}},{"type":"Feature","properties":{},"geometry":{"type":"Polygon","coordinates":[[[-74.02499999999998,40.1311728],[-74.02499999999998,40.13261970000002],[-74.02499999999998,40.132959400000004],[-74.02499999999998,40.1339605],[-74.02499999999998,40.134807799999976],[-74.02499999999998,40.135864000000026],[-74.02499999999998,40.136489400000016],[-74.02499999999998,40.13661059999998],[-74.02499999999998,40.13744980000001],[-74.02499999999998,40.1378368],[-74.02499999999998,40.13803309999997],[-74.02499999999998,40.138329699999986],[-74.02499999999998,40.1389585],[-74.02499999999998,40.18437549999999],[-74.02499999999998,40.18452880000001],[-74.02499999999998,40.184559200000024],[-74.02499999999998,40.184611399999994],[-74.02499999999998,40.18515050000002],[-74.02499999999998,40.18522999999999],[-74.02499999999998,40.18534570000003],[-74.02499999999998,40.1861098],[-74.02499999999998,40.18642],[-74.02499999999998,40.18655949999999],[-74.02499999999998,40.18671130000001],[-74.02499999999998,40.18712340000002],[-74.02499999999998,40.19999999999999],[-74.00608729999999,40.19999999999999],[-74.00586470000002,40.19999999999999],[-74.00529940000001,40.19999999999999],[-74.00491090000003,40.19999999999999],[-74.00487370000002,40.19999999999999],[-74.00461899999999,40.19999999999999],[-74.00460930000003,40.19999999999999],[-74.0040904,40.19999999999999],[-74.00386129999998,40.19999999999999],[-74.0023238,40.19999999999999],[-74.00119610000002,40.19999999999999],[-74.0010858,40.19999999999999],[-74.0009053,40.19999999999999],[-73.99830509999998,40.19999999999999],[-73.9889832,40.19999999999999],[-73.9790218,40.19999999999999],[-73.94999999999999,40.19999999999999],[-73.94999999999999,40.196819300000016],[-73.94999999999999,40.170302400000026],[-73.94999999999999,40.1622155],[-73.94999999999999,40.15897159999997],[-73.94999999999999,40.157598500000006],[-73.94999999999999,40.14776119999999],[-73.94999999999999,40.1410449],[-73.94999999999999,40.13865929999997],[-73.94999999999999,40.13473570000002],[-73.94999999999999,40.13343600000002],[-73.94999999999999,40.12744679999997],[-73.94999999999999,40.125],[-73.9520956,40.125],[-73.95241149999998,40.125],[-73.9607221,40.125],[-73.9612014,40.125],[-74.0016372,40.125],[-74.0231789,40.125],[-74.02414770000001,40.125],[-74.02499999999998,40.125],[-74.02499999999998,40.1311728]]]}},{"type":"Feature","properties":{},"geometry":{"type":"Polygon","coordinates":[[[-74.02499999999998,40.22671070000001],[-74.02499999999998,40.226219000000015],[-74.02499999999998,40.2095678],[-74.02499999999998,40.20728509999998],[-74.02499999999998,40.19999999999999],[-74.0361868,40.19999999999999],[-74.04032030000002,40.19999999999999],[-74.04051750000002,40.19999999999999],[-74.04068089999998,40.19999999999999],[-74.0421407,40.19999999999999],[-74.04232350000001,40.19999999999999],[-74.05503800000002,40.19999999999999],[-74.06302490000002,40.19999999999999],[-74.10000000000002,40.19999999999999],[-74.10000000000002,40.202839400000016],[-74.10000000000002,40.255],[-74.02499999999998,40.255],[-74.02499999999998,40.22671070000001]]]}},{"type":"Feature","properties":{},"geometry":{"type":"Polygon","coordinates":[[[-73.94999999999999,40.2547874],[-73.94999999999999,40.19999999999999],[-73.9790218,40.19999999999999],[-73.98279989999997,40.19999999999999],[-73.9889832,40.19999999999999],[-73.99821930000002,40.19999999999999],[-73.99830509999998,40.19999999999999],[-74.00103339999998,40.19999999999999],[-74.0010858,40.19999999999999],[-74.00119610000002,40.19999999999999],[-74.00161800000001,40.19999999999999],[-74.00375150000002,40.19999999999999],[-74.0040904,40.19999999999999],[-74.00461899999999,40.19999999999999],[-74.00483509999998,40.19999999999999],[-74.00491090000003,40.19999999999999],[-74.00511749999998,40.19999999999999],[-74.00529940000001,40.19999999999999],[-74.00586470000002,40.19999999999999],[-74.00608729999999,40.19999999999999],[-74.00764570000001,40.19999999999999],[-74.02499999999998,40.19999999999999],[-74.02499999999998,40.20728509999998],[-74.02499999999998,40.2095678],[-74.02499999999998,40.226219000000015],[-74.02499999999998,40.226447699999994],[-74.02499999999998,40.22671070000001],[-74.02499999999998,40.255],[-73.94999999999999,40.255],[-73.94999999999999,40.2547874]]]}}]}