{"type":"FeatureCollection","features":[{"type":"Feature","properties":{},"geometry":{"type":"Polygon","coordinates":[[[-80.55000000000001,27.899999999999977],[-80.52667789999998,27.899999999999977],[-80.52125849999999,27.899999999999977],[-80.5107827,27.899999999999977],[-80.50990489999998,27.899999999999977],[-80.50940350000002,27.899999999999977],[-80.5079624,27.899999999999977],[-80.50562760000003,27.899999999999977],[-80.502637,27.899999999999977],[-80.50213960000002,27.899999999999977],[-80.50169749999998,27.899999999999977],[-80.47500000000002,27.899999999999977],[-80.47500000000002,27.876797399999987],[-80.47500000000002,27.875094900000022],[-80.47500000000002,27.848698599999977],[-80.47500000000002,27.848411699999986],[-80.47500000000002,27.847909399999992],[-80.47500000000002,27.845],[-80.55000000000001,27.845],[-80.55000000000001,27.899999999999977]]]}},{"type":"Feature","properties":{},"geometry":{"type":"Polygon","coordinates":[[[-80.47500000000002,27.847909399999992],[-80.47500000000002,27.848411699999986],[-80.47500000000002,27.848698599999977],[-80.47500000000002,27.875094900000022],[-80.47500000000002,27.876797399999987],[-80.47500000000002,27.899999999999977],[-80.47453960000001,27.899999999999977],[-80.47427979999998,27.899999999999977],[-80.468953,27.899999999999977],[-80.46872280000002,27.899999999999977],[-80.46765499999998,27.899999999999977],[-80.4665612,27.899999999999977],[-80.46594119999997,27.899999999999977],[-80.46359319999999,27.899999999999977],[-80.4415477,27.899999999999977],[-80.40514109999998,27.899999999999977],[-80.40468049999998,27.899999999999977],[-80.39999999999998,27.899999999999977],[-80.39999999999998,27.891061999999977],[-80.39999999999998,27.89028780000001],[-80.39999999999998,27.845],[-80.47500000000002,27.845],[-80.47500000000002,27.847909399999992]]]}},{"type":"Feature","properties":{},"geometry":{"type":"Polygon","coordinates":[[[-80.52667789999998,27.899999999999977],[-80.55000000000001,27.899999999999977],[-80.55000000000001,27.958282600000018],[-80.55000000000001,27.964973499999985],[-80.55000000000001,27.965494999999976],[-80.55000000000001,27.975000000000023],[-80.5470464,27.975000000000023],[-80.54337170000002,27.975000000000023],[-80.54094300000003,27.975000000000023],[-80.53656590000003,27.975000000000023],[-80.53636699999998,27.975000000000023],[-80.53615439999999,27.975000000000023],[-80.532646,27.975000000000023],[-80.53254220000002,27.975000000000023],[-80.51951789999998,27.975000000000023],[-80.51782200000002,27.975000000000023],[-80.51116400000001,27.975000000000023],[-80.51060080000002,27.975000000000023],[-80.50679389999999,27.975000000000023],[-80.50442900000002,27.975000000000023],[-80.4784917,27.975000000000023],[-80.47500000000002,27.975000000000023],[-80.47500000000002,27.96791159999998],[-80.47500000000002,27.937880800000016],[-80.47500000000002,27.922229800000025],[-80.47500000000002,27.918258999999978],[-80.47500000000002,27.917538700000023],[-80.47500000000002,27.915140699999995],[-80.47500000000002,27.913833599999975],[-80.47500000000002,27.912212899999986],[-80.47500000000002,27.910519000000022],[-80.47500000000002,27.909960300000023],[-80.47500000000002,27.904960800000026],[-80.47500000000002,27.904514800000015],[-80.47500000000002,27.903315099999986],[-80.47500000000002,27.90313229999998],[-80.47500000000002,27.90136339999998],[-80.47500000000002,27.901239900000007],[-80.47500000000002,27.899999999999977],[-80.50169749999998,27.899999999999977],[-80.50213960000002,27.899999999999977],[-80.502637,27.899999999999977],[-80.50562760000003,27.899999999999977],[-80.5079624,27.899999999999977],[-80.50940350000002,27.899999999999977],[-80.50990489999998,27.899999999999977],[-80.5107827,27.899999999999977],[-80.52125849999999,27.899999999999977],[-80.52667789999998,27.899999999999977]]]}},{"type":"Feature","properties":{},"geometry":{"type":"Polygon","coordinates":[[[-80.558244,27.975000000000023],[-80.625,27.975000000000023],[-80.625,28.05000000000001],[-80.5952312,28.05000000000001],[-80.59012890000002,28.05000000000001],[-80.58941859999999,28.05000000000001],[-80.58752270000002,28.05000000000001],[-80.58053100000001,28.05000000000001],[-80.57371439999997,28.05000000000001],[-80.57347019999997,28.05000000000001],[-80.57329420000002,28.05000000000001],[-80.56165470000002,28.05000000000001],[-80.56155150000001,28.05000000000001],[-80.56009820000003,28.05000000000001],[-80.5561682,28.05000000000001],[-80.55000000000001,28.05000000000001],[-80.55000000000001,28.036762099999976],[-80.55000000000001,28.02645339999998],[-80.55000000000001,28.008562900000015],[-80.55000000000001,28.00830480000002],[-80.55000000000001,28.007781799999975],[-80.55000000000001,28.004761400000007],[-80.55000000000001,28.002146900000014],[-80.55000000000001,28.0014142],[-80.55000000000001,28.00104779999998],[-80.55000000000001,27.991592400000002],[-80.55000000000001,27.98246260000002],[-80.55000000000001,27.981611999999984],[-80.55000000000001,27.980344000000002],[-80.55000000000001,27.975000000000023],[-80.558244,27.975000000000023]]]}},{"type":"Feature","properties":{},"geometry":{"type":"Polygon","coordinates":[[[-80.55000000000001,27.980344000000002],[-80.55000000000001,27.981611999999984],[-80.55000000000001,27.98246260000002],[-80.55000000000001,27.991592400000002],[-80.55000000000001,28.00104779999998],[-80.55000000000001,28.0014142],[-80.55000000000001,28.002146900000014],[-80.55000000000001,28.004761400000007],[-80.55000000000001,28.007781799999975],[-80.55000000000001,28.00830480000002],[-80.55000000000001,28.008562900000015],[-80.55000000000001,28.02645339999998],[-80.55000000000001,28.036762099999976],[-80.55000000000001,28.05000000000001],[-80.54819029999999,28.05000000000001],[-80.54778729999998,28.05000000000001],[-80.54466739999998,28.05000000000001],[-80.54395010000002,28.05000000000001],[-80.54021719999997,28.05000000000001],[-80.5154794,28.05000000000001],[-80.50151519999997,28.05000000000001],[-80.4867183,28.05000000000001],[-80.48628000000002,28.05000000000001],[-80.47500000000002,28.05000000000001],[-80.47500000000002,28.02730650000001],[-80.47500000000002,28.02645799999999],[-80.47500000000002,27.975000000000023],[-80.4784917,27.975000000000023],[-80.50442900000002,27.975000000000023],[-80.50679389999999,27.975000000000023],[-80.51060080000002,27.975000000000023],[-80.51116400000001,27.975000000000023],[-80.51782200000002,27.975000000000023],[-80.51951789999998,27.975000000000023],[-80.53254220000002,27.975000000000023],[-80.532646,27.975000000000023],[-80.53615439999999,27.975000000000023],[-80.53636699999998,27.975000000000023],[-80.53656590000003,27.975000000000023],[-80.54094300000003,27.975000000000023],[-80.54337170000002,27.975000000000023],[-80.5470464,27.975000000000023],[-80.55000000000001,27.975000000000023],[-80.55000000000001,27.980344000000002]]]}},{"type":"Feature","properties":{},"geometry":{"type":"Polygon","coordinates":[[[-80.5952312,28.05000000000001],[-80.625,28.05000000000001],[-80.625,28.06031949999999],[-80.625,28.084463400000004],[-80.625,28.104477799999984],[-80.625,28.110274199999992],[-80.625,28.124718799999982],[-80.625,28.125],[-80.62479710000002,28.125],[-80.62429300000002,28.125],[-80.6236437,28.125],[-80.62180319999999,28.125],[-80.61377590000001,28.125],[-80.61356990000002,28.125],[-80.61336940000001,28.125],[-80.59478610000002,28.125],[-80.59124409999998,28.125],[-80.57679730000001,28.125],[-80.57598289999999,28.125],[-80.57526200000001,28.125],[-80.57290999999998,28.125],[-80.57152839999998,28.125],[-80.56764670000001,28.125],[-80.55248920000002,28.125],[-80.55000000000001,28.125],[-80.55000000000001,28.11995569999999],[-80.55000000000001,28.07292530000001],[-80.55000000000001,28.064344600000027],[-80.55000000000001,28.057980199999975],[-80.55000000000001,28.05505069999998],[-80.55000000000001,28.053906100000006],[-80.55000000000001,28.053534000000013],[-80.55000000000001,28.05000000000001],[-80.5561682,28.05000000000001],[-80.56009820000003,28.05000000000001],[-80.56155150000001,28.05000000000001],[-80.56165470000002,28.05000000000001],[-80.57329420000002,28.05000000000001],[-80.57347019999997,28.05000000000001],[-80.57371439999997,28.05000000000001],[-80.58053100000001,28.05000000000001],[-80.58752270000002,28.05000000000001],[-80.58941859999999,28.05000000000001],[-80.59012890000002,28.05000000000001],[-80.5952312,28.05000000000001]]]}},{"type":"Feature","properties":{},"geometry":{"type":"Polygon","coordinates":[[[-80.63915589999999,28.125],[-80.64079290000001,28.125],[-80.64418769999997,28.125],[-80.64667600000001,28.125],[-80.6679684,28.125],[-80.69999999999999,28.125],[-80.69999999999999,28.19999999999999],[-80.67791599999998,28.19999999999999],[-80.6597428,28.19999999999999],[-80.6536605,28.19999999999999],[-80.6471482,28.19999999999999],[-80.64264809999997,28.19999999999999],[-80.64174229999998,28.19999999999999],[-80.6374318,28.19999999999999],[-80.6359003,28.19999999999999],[-80.63388930000002,28.19999999999999],[-80.63329049999999,28.19999999999999],[-80.628307,28.19999999999999],[-80.62780049999998,28.19999999999999],[-80.625,28.19999999999999],[-80.625,28.193513499999995],[-80.625,28.191461600000025],[-80.625,28.1858613],[-80.625,28.179509999999993],[-80.625,28.178320100000008],[-80.625,28.1770535],[-80.625,28.149151099999983],[-80.625,28.13438769999999],[-80.625,28.13340579999999],[-80.625,28.132179699999995],[-80.625,28.1312863],[-80.625,28.126127999999994],[-80.625,28.12582470000001],[-80.625,28.125478600000008],[-80.625,28.125169299999982],[-80.625,28.125140499999986],[-80.625,28.125],[-80.62618420000001,28.125],[-80.62668289999999,28.125],[-80.62718530000001,28.125],[-80.62842069999999,28.125],[-80.62851640000002,28.125],[-80.62878920000003,28.125],[-80.6319906,28.125],[-80.63226639999999,28.125],[-80.63226730000002,28.125],[-80.63240510000003,28.125],[-80.63331920000002,28.125],[-80.63430740000001,28.125],[-80.63464499999998,28.125],[-80.6373231,28.125],[-80.63905799999998,28.125],[-80.63915589999999,28.125]]]}},{"type":"Feature","properties":{},"geometry":{"type":"Polygon","coordinates":[[[-80.625,28.125140499999986],[-80.625,28.125169299999982],[-80.625,28.125478600000008],[-80.625,28.12582470000001],[-80.625,28.126127999999994],[-80.625,28.1312863],[-80.625,28.132179699999995],[-80.625,28.13340579999999],[-80.625,28.13438769999999],[-80.625,28.149151099999983],[-80.625,28.1770535],[-80.625,28.178320100000008],[-80.625,28.179509999999993],[-80.625,28.1858613],[-80.625,28.191461600000025],[-80.625,28.193513499999995],[-80.625,28.19999999999999],[-80.61600010000001,28.19999999999999],[-80.61457159999998,28.19999999999999],[-80.61428649999999,28.19999999999999],[-80.61294859999998,28.19999999999999],[-80.6123991,28.19999999999999],[-80.61227029999998,28.19999999999999],[-80.61062559999999,28.19999999999999],[-80.6092918,28.19999999999999],[-80.6078445,28.19999999999999],[-80.60738839999999,28.19999999999999],[-80.59472490000002,28.19999999999999],[-80.5944629,28.19999999999999],[-80.5934638,28.19999999999999],[-80.59332010000003,28.19999999999999],[-80.59227900000002,28.19999999999999],[-80.59039109999998,28.19999999999999],[-80.5895069,28.19999999999999],[-80.58588500000002,28.19999999999999],[-80.55000000000001,28.19999999999999],[-80.55000000000001,28.183333300000015],[-80.55000000000001,28.125],[-80.55248920000002,28.125],[-80.56764670000001,28.125],[-80.57152839999998,28.125],[-80.57290999999998,28.125],[-80.57526200000001,28.125],[-80.57598289999999,28.125],[-80.57679730000001,28.125],[-80.59124409999998,28.125],[-80.59478610000002,28.125],[-80.61336940000001,28.125],[-80.61356990000002,28.125],[-80.61377590000001,28.125],[-80.62180319999999,28.125],[-80.6236437,28.125],[-80.62429300000002,28.125],[-80.62479710000002,28.125],[-80.625,28.125],[-80.625,28.125140499999986]]]}},{"type":"Feature","properties":{},"geometry":{"type":"Polygon","coordinates":[[[-80.67791599999998,28.19999999999999],[-80.69999999999999,28.19999999999999],[-80.69999999999999,28.259670500000027],[-80.69999999999999,28.274999999999977],[-80.6880122,28.274999999999977],[-80.68594430000002,28.274999999999977],[-80.68314400000003,28.274999999999977],[-80.67471089999998,28.274999999999977],[-80.67310350000002,28.274999999999977],[-80.66504730000003,28.274999999999977],[-80.66497820000001,28.274999999999977],[-80.65168510000001,28.274999999999977],[-80.64680229999999,28.274999999999977],[-80.625,28.274999999999977],[-80.625,28.262937599999987],[-80.625,28.2398326],[-80.625,28.237911499999996],[-80.625,28.21675829999998],[-80.625,28.211426000000017],[-80.625,28.210585200000025],[-80.625,28.210015499999997],[-80.625,28.209425099999976],[-80.625,28.208560499999976],[-80.625,28.208041200000025],[-80.625,28.20322679999998],[-80.625,28.19999999999999],[-80.62780049999998,28.19999999999999],[-80.628307,28.19999999999999],[-80.63329049999999,28.19999999999999],[-80.63388930000002,28.19999999999999],[-80.6359003,28.19999999999999],[-80.6374318,28.19999999999999],[-80.64174229999998,28.19999999999999],[-80.64264809999997,28.19999999999999],[-80.6471482,28.19999999999999],[-80.6536605,28.19999999999999],[-80.6597428,28.19999999999999],[-80.67791599999998,28.19999999999999]]]}},{"type":"Feature","properties":{},"geometry":{"type":"Polygon","coordinates":[[[-80.625,28.208041200000025],[-80.625,28.208560499999976],[-80.625,28.209425099999976],[-80.625,28.210015499999997],[-80.625,28.210585200000025],[-80.625,28.211426000000017],[-80.625,28.211426200000005],[-80.625,28.21675829999998],[-80.625,28.237911499999996],[-80.625,28.2398326],[-80.625,28.262937599999987],[-80.625,28.274999999999977],[-80.61490029999999,28.274999999999977],[-80.61024470000001,28.274999999999977],[-80.608204,28.274999999999977],[-80.60618349999999,28.274999999999977],[-80.60546119999998,28.274999999999977],[-80.60503019999999,28.274999999999977],[-80.60196830000001,28.274999999999977],[-80.59991810000002,28.274999999999977],[-80.5953925,28.274999999999977],[-80.56582739999999,28.274999999999977],[-80.55000000000001,28.274999999999977],[-80.55000000000001,28.2711276],[-80.55000000000001,28.264164100000016],[-80.55000000000001,28.19999999999999],[-80.58588500000002,28.19999999999999],[-80.5895069,28.19999999999999],[-80.59039109999998,28.19999999999999],[-80.59227900000002,28.19999999999999],[-80.59332010000003,28.19999999999999],[-80.5934638,28.19999999999999],[-80.5944629,28.19999999999999],[-80.59472490000002,28.19999999999999],[-80.60738839999999,28.19999999999999],[-80.6078445,28.19999999999999],[-80.6092918,28.19999999999999],[-80.61062559999999,28.19999999999999],[-80.61227029999998,28.19999999999999],[-80.6123991,28.19999999999999],[-80.61294859999998,28.19999999999999],[-80.61428649999999,28.19999999999999],[-80.61457159999998,28.19999999999999],[-80.61600010000001,28.19999999999999],[-80.625,28.19999999999999],[-80.625,28.20322679999998],[-80.625,28.208041200000025]]]}},{"type":"Feature","properties":{},"geometry":{"type":"Polygon","coordinates":[[[-80.69999999999999,28.301733300000024],[-80.69999999999999,28.301024900000016],[-80.69999999999999,28.274999999999977],[-80.70567340000002,28.274999999999977],[-80.77499999999998,28.274999999999977],[-80.77499999999998,28.305],[-80.69999999999999,28.305],[-80.69999999999999,28.301733300000024]]]}},{"type":"Feature","properties":{},"geometry":{"type":"Polygon","coordinates":[[[-80.625,28.304921200000024],[-80.625,28.300087299999973],[-80.625,28.299519799999985],[-80.625,28.29824830000001],[-80.625,28.297476899999992],[-80.625,28.29499900000002],[-80.625,28.286205499999994],[-80.625,28.274999999999977],[-80.64680229999999,28.274999999999977],[-80.65168510000001,28.274999999999977],[-80.66497820000001,28.274999999999977],[-80.67310350000002,28.274999999999977],[-80.67471089999998,28.274999999999977],[-80.68314400000003,28.274999999999977],[-80.68594430000002,28.274999999999977],[-80.6880122,28.274999999999977],[-80.69999999999999,28.274999999999977],[-80.69999999999999,28.301024900000016],[-80.69999999999999,28.301733300000024],[-80.69999999999999,28.305],[-80.625,28.305],[-80.625,28.304921200000024]]]}},{"type":"Feature","properties":{},"geometry":{"type":"Polygon","coordinates":[[[-80.55000000000001,28.304177100000004],[-80.55000000000001,28.302538000000027],[-80.55000000000001,28.29499900000002],[-80.55000000000001,28.289818700000012],[-80.55000000000001,28.274999999999977],[-80.56582739999999,28.274999999999977],[-80.5953925,28.274999999999977],[-80.59991810000002,28.274999999999977],[-80.60196830000001,28.274999999999977],[-80.60503019999999,28.274999999999977],[-80.60546119999998,28.274999999999977],[-80.60618349999999,28.274999999999977],[-80.60626209999998,28.274999999999977],[-80.608204,28.274999999999977],[-80.61024470000001,28.274999999999977],[-80.61490029999999,28.274999999999977],[-80.625,28.274999999999977],[-80.625,28.286205499999994],[-80.625,28.29499900000002],[-80.625,28.296829000000002],[-80.625,28.297476899999992],[-80.625,28.29824830000001],[-80.625,28.299519799999985],[-80.625,28.299536199999977],[-80.625,28.300087299999973],[-80.625,28.304921200000024],[-80.625,28.305],[-80.55000000000001,28.305],[-80.55000000000001,28.304177100000004]]]}},{"type":"Feature","properties":{},"geometry":{"type":"Polygon","coordinates":[[[-80.47500000000002,28.29664120000001],[-80.47500000000002,28.29499900000002],[-80.47500000000002,28.285361599999987],[-80.47500000000002,28.274999999999977],[-80.51475640000001,28.274999999999977],[-80.51666669999997,28.274999999999977],[-80.5199786,28.274999999999977],[-80.5466376,28.274999999999977],[-80.5484907,28.274999999999977],[-80.54890060000002,28.274999999999977],[-80.55000000000001,28.274999999999977],[-80.55000000000001,28.289818700000012],[-80.55000000000001,28.29499900000002],[-80.55000000000001,28.302538000000027],[-80.55000000000001,28.304177100000004],[-80.55000000000001,28.305],[-80.47500000000002,28.305],[-80.47500000000002,28.29664120000001]]]}},{"type":"Feature","properties":{},"geometry":{"type":"Polygon","coordinates":[[[-80.39999999999998,28.298966199999995],[-80.39999999999998,28.29499900000002],[-80.39999999999998,28.28667999999999],[-80.39999999999998,28.286517800000013],[-80.39999999999998,28.283341899999982],[-80.39999999999998,28.282958899999983],[-80.39999999999998,28.274999999999977],[-80.4070213,28.274999999999977],[-80.4075896,28.274999999999977],[-80.4103341,28.274999999999977],[-80.41215549999998,28.274999999999977],[-80.41292179999999,28.274999999999977],[-80.43249350000002,28.274999999999977],[-80.4335203,28.274999999999977],[-80.44411109999999,28.274999999999977],[-80.47500000000002,28.274999999999977],[-80.47500000000002,28.285361599999987],[-80.47500000000002,28.29499900000002],[-80.47500000000002,28.29664120000001],[-80.47500000000002,28.305],[-80.39999999999998,28.305],[-80.39999999999998,28.298966199999995]]]}},{"type":"Feature","properties":{},"geometry":{"type":"Polygon","coordinates":[[[-80.32499999999999,28.274999999999977],[-80.34096069999998,28.274999999999977],[-80.34455559999998,28.274999999999977],[-80.3599304,28.274999999999977],[-80.37478529999998,28.274999999999977],[-80.37561629999999,28.274999999999977],[-80.37578580000002,28.274999999999977],[-80.37696030000001,28.274999999999977],[-80.3769729,28.274999999999977],[-80.37738510000003,28.274999999999977],[-80.38372170000002,28.274999999999977],[-80.38420489999999,28.274999999999977],[-80.39999999999998,28.274999999999977],[-80.39999999999998,28.282958899999983],[-80.39999999999998,28.283341899999982],[-80.39999999999998,28.286517800000013],[-80.39999999999998,28.28667999999999],[-80.39999999999998,28.29499900000002],[-80.39999999999998,28.298966199999995],[-80.39999999999998,28.299205099999995],[-80.39999999999998,28.305],[-80.32499999999999,28.305],[-80.32499999999999,28.274999999999977]]]}}]}