{"type":"FeatureCollection","features":[{"type":"Feature","geometry":{"type":"LineString","coordinates":[[-91.20093359999919,30.5066053999999],[-91.20095299999957,30.506873199999973],[-91.20000000000073,30.50691639999968],[-91.20000000000073,30.506657399999312],[-91.20093359999919,30.5066053999999]]},"properties":{"k":"b","n":"Baton Rouge Highway - Mile Marker 233.9","c":"fixed bridge","v":32.6,"cc":null,"co":null,"s":"h"}},{"type":"Feature","geometry":{"type":"LineString","coordinates":[[-91.19450099999995,30.50720309999997],[-91.1944824000002,30.506957100000363],[-91.19700659999944,30.50682450000022],[-91.19702320000033,30.507065699999657],[-91.19450099999995,30.50720309999997]]},"properties":{"k":"b","n":"Baton Rouge Highway - Mile Marker 233.9","c":"fixed bridge","v":32.6,"cc":null,"co":null,"s":"h"}},{"type":"Feature","geometry":{"type":"LineString","coordinates":[[-91.19725560000006,30.50705190000008],[-91.19723630000044,30.50681120000081],[-91.19904909999968,30.50670809999974],[-91.19906889999947,30.50695590000032],[-91.19725560000006,30.50705190000008]]},"properties":{"k":"b","n":"Baton Rouge Highway - Mile Marker 233.9","c":"fixed bridge","v":32.9,"cc":null,"co":null,"s":"h"}},{"type":"Feature","geometry":{"type":"LineString","coordinates":[[-91.20000000000073,30.506657399999312],[-91.20000000000073,30.50691639999968],[-91.19931349999933,30.506947500000024],[-91.19929369999954,30.50669679999919],[-91.20000000000073,30.506657399999312]]},"properties":{"k":"b","n":"Baton Rouge Highway - Mile Marker 233.9","c":"fixed bridge","v":32.6,"cc":null,"co":null,"s":"h"}},{"type":"Feature","geometry":{"type":"LineString","coordinates":[[-91.2011321000009,30.50659420000011],[-91.20113909999964,30.50686549999955],[-91.20095299999957,30.506873199999973],[-91.20093359999919,30.5066053999999],[-91.2011321000009,30.50659420000011]]},"properties":{"k":"b","n":"Baton Rouge Highway - Mile Marker 233.9","c":"fixed bridge","v":null,"cc":null,"co":null,"s":"h"}},{"type":"Feature","geometry":{"type":"LineString","coordinates":[[-91.19929369999954,30.50669679999919],[-91.19931349999933,30.506947500000024],[-91.19906889999947,30.50695590000032],[-91.19904909999968,30.50670809999974],[-91.19929369999954,30.50669679999919]]},"properties":{"k":"b","n":"Baton Rouge Highway - Mile Marker 233.9","c":"fixed bridge","v":null,"cc":null,"co":null,"s":"h"}},{"type":"Feature","geometry":{"type":"LineString","coordinates":[[-91.1944824000002,30.506957100000363],[-91.19450099999995,30.50720309999997],[-91.19431059999988,30.507212900000013],[-91.19428089999928,30.506971599999815],[-91.1944824000002,30.506957100000363]]},"properties":{"k":"b","n":"Baton Rouge Highway - Mile Marker 233.9","c":"fixed bridge","v":null,"cc":null,"co":null,"s":"h"}},{"type":"Feature","geometry":{"type":"LineString","coordinates":[[-91.19723630000044,30.50681120000081],[-91.19725560000006,30.50705190000008],[-91.19702320000033,30.507065699999657],[-91.19700659999944,30.50682450000022],[-91.19723630000044,30.50681120000081]]},"properties":{"k":"b","n":"Baton Rouge Highway - Mile Marker 233.9","c":"fixed bridge","v":null,"cc":null,"co":null,"s":"h"}}]}