{"type":"FeatureCollection","features":[{"type":"Feature","geometry":{"type":"LineString","coordinates":[[-74.57116979999955,42.909262999999555],[-74.57107109999924,42.91001060000053],[-74.57085709999956,42.91000709999935],[-74.57096529999944,42.90927700000066],[-74.57116979999955,42.909262999999555]]},"properties":{"k":"b","n":"E-24","c":"fixed bridge","v":7.9,"cc":null,"co":null,"s":"h"}},{"type":"Feature","geometry":{"type":"LineString","coordinates":[[-74.61820160000025,42.9332947999992],[-74.61829439999929,42.933382499999425],[-74.6173691999993,42.93367450000005],[-74.61730239999997,42.93358210000042],[-74.61820160000025,42.9332947999992]]},"properties":{"k":"b","n":"E-25","c":"fixed bridge","v":7.0,"cc":null,"co":null,"s":"h"}},{"type":"Feature","geometry":{"type":"LineString","coordinates":[[-74.57702419999998,42.90914720000001],[-74.57714220000003,42.90990099999999]]},"properties":{"k":"c","n":null,"c":"power line","v":6.0,"cc":null,"co":null,"s":"h"}},{"type":"Feature","geometry":{"type":"LineString","coordinates":[[-74.62215579999997,42.938051099999996],[-74.6212635,42.93838520000003]]},"properties":{"k":"c","n":null,"c":"power line","v":6.0,"cc":null,"co":null,"s":"h"}},{"type":"Feature","geometry":{"type":"LineString","coordinates":[[-74.51338380000016,42.893326100000195],[-74.51332390000061,42.89365419999922],[-74.51301670000066,42.893653499999346],[-74.51308869999957,42.89334509999935],[-74.51338380000016,42.893326100000195]]},"properties":{"k":"b","n":null,"c":"fixed bridge","v":null,"cc":null,"co":null,"s":"h"}},{"type":"Feature","geometry":{"type":"LineString","coordinates":[[-74.51405890000024,42.89126439999927],[-74.51402310000049,42.89138889999958],[-74.51383499999974,42.8913864999995],[-74.51384719999987,42.89126840000063],[-74.51405890000024,42.89126439999927]]},"properties":{"k":"b","n":null,"c":"fixed bridge","v":null,"cc":null,"co":null,"s":"h"}},{"type":"Feature","geometry":{"type":"LineString","coordinates":[[-74.51447310000003,42.890576100000544],[-74.51437520000036,42.8906975000009],[-74.5141652000002,42.89063820000047],[-74.51424989999941,42.89052500000071],[-74.51447310000003,42.890576100000544]]},"properties":{"k":"b","n":null,"c":"fixed bridge","v":null,"cc":null,"co":null,"s":"h"}},{"type":"Feature","geometry":{"type":"LineString","coordinates":[[-74.51466400000027,42.89033940000081],[-74.51459409999916,42.890425999999934],[-74.51433370000086,42.89042789999985],[-74.51447729999927,42.89034549999997],[-74.51466400000027,42.89033940000081]]},"properties":{"k":"b","n":null,"c":"fixed bridge","v":null,"cc":null,"co":null,"s":"h"}},{"type":"Feature","geometry":{"type":"LineString","coordinates":[[-74.5156322999992,42.88917070000025],[-74.51577130000078,42.88923380000051],[-74.51567760000034,42.88934159999917],[-74.51552459999948,42.88925949999975],[-74.5156322999992,42.88917070000025]]},"properties":{"k":"b","n":null,"c":"fixed bridge","v":null,"cc":null,"co":null,"s":"h"}},{"type":"Feature","geometry":{"type":"LineString","coordinates":[[-74.63425599999937,42.96594489999916],[-74.63439990000006,42.96612490000007],[-74.63421070000004,42.96622899999966],[-74.63406489999943,42.96604640000078],[-74.63425599999937,42.96594489999916]]},"properties":{"k":"b","n":null,"c":"fixed bridge","v":null,"cc":null,"co":null,"s":"h"}},{"type":"Feature","geometry":{"type":"LineString","coordinates":[[-74.6328754999995,42.92924479999965],[-74.63310119999915,42.92932859999928],[-74.63281070000085,42.9294716000004],[-74.63244599999962,42.929392500000176],[-74.6328754999995,42.92924479999965]]},"properties":{"k":"b","n":null,"c":"fixed bridge","v":null,"cc":null,"co":null,"s":"h"}},{"type":"Feature","geometry":{"type":"LineString","coordinates":[[-74.62566750000042,42.92934620000051],[-74.62565849999919,42.92947289999938],[-74.62547860000086,42.92953139999918],[-74.6255072999993,42.929383299999245],[-74.62566750000042,42.92934620000051]]},"properties":{"k":"b","n":null,"c":"fixed bridge","v":null,"cc":null,"co":null,"s":"h"}},{"type":"Feature","geometry":{"type":"LineString","coordinates":[[-74.62851369999953,42.96796800000084],[-74.62863629999993,42.9681741000004],[-74.62843369999973,42.96815520000018],[-74.62832060000073,42.96794410000075],[-74.62851369999953,42.96796800000084]]},"properties":{"k":"b","n":null,"c":"fixed bridge","v":null,"cc":null,"co":null,"s":"h"}},{"type":"Feature","geometry":{"type":"LineString","coordinates":[[-74.62772059999952,42.967757500000516],[-74.62772369999948,42.967933100000664],[-74.6275999999998,42.96788379999998],[-74.62759729999925,42.96771110000009],[-74.62772059999952,42.967757500000516]]},"properties":{"k":"b","n":null,"c":"fixed bridge","v":null,"cc":null,"co":null,"s":"h"}},{"type":"Feature","geometry":{"type":"LineString","coordinates":[[-74.57143170000018,42.90494749999925],[-74.57167079999999,42.905038400000194],[-74.5715739999996,42.90512780000063],[-74.57134149999911,42.905036300000575],[-74.57143170000018,42.90494749999925]]},"properties":{"k":"b","n":null,"c":"fixed bridge","v":null,"cc":null,"co":null,"s":"h"}},{"type":"Feature","geometry":{"type":"LineString","coordinates":[[-74.57680769999934,42.9076943],[-74.57746760000009,42.908821799999714],[-74.57733299999927,42.90884410000035],[-74.57671859999937,42.90773090000039],[-74.57680769999934,42.9076943]]},"properties":{"k":"b","n":null,"c":"fixed bridge","v":null,"cc":null,"co":null,"s":"h"}},{"type":"Feature","geometry":{"type":"LineString","coordinates":[[-74.61859639999966,42.93188949999967],[-74.61874390000048,42.932126300000164],[-74.61836770000082,42.93227710000065],[-74.6182675,42.932072400000834],[-74.61859639999966,42.93188949999967]]},"properties":{"k":"b","n":null,"c":"fixed bridge","v":null,"cc":null,"co":null,"s":"h"}},{"type":"Feature","geometry":{"type":"LineString","coordinates":[[-74.62192370000048,42.93035450000025],[-74.62211120000029,42.93052130000069],[-74.62196570000015,42.9305762999993],[-74.62176200000067,42.9304073000003],[-74.62192370000048,42.93035450000025]]},"properties":{"k":"b","n":null,"c":"fixed bridge","v":null,"cc":null,"co":null,"s":"h"}},{"type":"Feature","geometry":{"type":"LineString","coordinates":[[-74.56932530000086,42.90808610000022],[-74.5695840999997,42.908110399999714],[-74.56949229999918,42.90841530000034],[-74.56920340000033,42.90839330000017],[-74.56932530000086,42.90808610000022]]},"properties":{"k":"b","n":null,"c":"fixed bridge","v":null,"cc":null,"co":null,"s":"h"}},{"type":"Feature","geometry":{"type":"LineString","coordinates":[[-74.56938939999964,42.907677299999705],[-74.56969860000027,42.90773049999916],[-74.5696609000006,42.90785549999964],[-74.56937570000082,42.90780239999913],[-74.56938939999964,42.907677299999705]]},"properties":{"k":"b","n":null,"c":"fixed bridge","v":null,"cc":null,"co":null,"s":"h"}},{"type":"Feature","geometry":{"type":"LineString","coordinates":[[-74.56955559999915,42.90708070000073],[-74.56981350000024,42.907109600000695],[-74.56979850000062,42.907179600000745],[-74.56953649999923,42.90713590000087],[-74.56955559999915,42.90708070000073]]},"properties":{"k":"b","n":null,"c":"fixed bridge","v":null,"cc":null,"co":null,"s":"h"}},{"type":"Feature","geometry":{"type":"LineString","coordinates":[[-74.57059149999986,42.90573930000028],[-74.57086200000049,42.90578500000083],[-74.5707442999992,42.90589370000089],[-74.57047179999972,42.9058344999994],[-74.57059149999986,42.90573930000028]]},"properties":{"k":"b","n":null,"c":"fixed bridge","v":null,"cc":null,"co":null,"s":"h"}},{"type":"Feature","geometry":{"type":"LineString","coordinates":[[-74.5737050000007,42.90269339999941],[-74.57381910000004,42.90276660000018],[-74.57369839999956,42.90284520000023],[-74.57361040000069,42.90278799999942],[-74.5737050000007,42.90269339999941]]},"properties":{"k":"b","n":null,"c":"fixed bridge","v":null,"cc":null,"co":null,"s":"h"}},{"type":"Feature","geometry":{"type":"LineString","coordinates":[[-74.62195199999951,42.93875509999998],[-74.6220202000004,42.9388512000005],[-74.62057880000066,42.93937829999959],[-74.62052190000031,42.93928159999996],[-74.62195199999951,42.93875509999998]]},"properties":{"k":"b","n":null,"c":"fixed bridge","v":null,"cc":null,"co":null,"s":"h"}},{"type":"Feature","geometry":{"type":"LineString","coordinates":[[-74.5712008999999,42.905472099999315],[-74.57111029999942,42.9055558],[-74.57082260000061,42.90554669999983],[-74.57089579999956,42.905474799999865],[-74.5712008999999,42.905472099999315]]},"properties":{"k":"b","n":null,"c":"fixed bridge","v":null,"cc":null,"co":null,"s":"h"}},{"type":"Feature","geometry":{"type":"LineString","coordinates":[[-74.6193108,42.931549700000005],[-74.61943359999998,42.93172629999998]]},"properties":{"k":"b","n":null,"c":"footbridge","v":null,"cc":null,"co":null,"s":"h"}},{"type":"Feature","geometry":{"type":"LineString","coordinates":[[-74.5703269,42.90596119999998],[-74.57047490000002,42.906105000000025]]},"properties":{"k":"b","n":null,"c":"fixed bridge","v":null,"cc":null,"co":null,"s":"h"}},{"type":"Feature","geometry":{"type":"LineString","coordinates":[[-74.5700023,42.90664220000002],[-74.5699017,42.90638419999999]]},"properties":{"k":"b","n":null,"c":"fixed bridge","v":null,"cc":null,"co":null,"s":"h"}},{"type":"Feature","geometry":{"type":"LineString","coordinates":[[-74.56972639999998,42.90661299999999],[-74.5699866,42.906666400000006]]},"properties":{"k":"b","n":null,"c":"fixed bridge","v":null,"cc":null,"co":null,"s":"h"}},{"type":"Feature","geometry":{"type":"LineString","coordinates":[[-74.62615160000001,42.929121099999975],[-74.62584600000002,42.9296051]]},"properties":{"k":"c","n":null,"c":" ","v":null,"cc":null,"co":null,"s":"h"}},{"type":"Feature","geometry":{"type":"LineString","coordinates":[[-74.63283990000002,42.92916760000003],[-74.63216419999998,42.92938170000002]]},"properties":{"k":"c","n":null,"c":" ","v":null,"cc":null,"co":null,"s":"h"}},{"type":"Feature","geometry":{"type":"LineString","coordinates":[[-74.6254035,42.929756399999974],[-74.6253092,42.929182500000024]]},"properties":{"k":"c","n":null,"c":" ","v":null,"cc":null,"co":null,"s":"h"}},{"type":"Feature","geometry":{"type":"LineString","coordinates":[[-74.61684780000002,42.931464800000015],[-74.61580279999998,42.93184550000001]]},"properties":{"k":"c","n":null,"c":"power line","v":null,"cc":null,"co":null,"s":"h"}},{"type":"Feature","geometry":{"type":"LineString","coordinates":[[-74.61825850000002,42.933196599999974],[-74.61718780000001,42.933553500000016]]},"properties":{"k":"c","n":null,"c":" ","v":null,"cc":null,"co":null,"s":"h"}},{"type":"Feature","geometry":{"type":"LineString","coordinates":[[-74.6185946,42.931554500000004],[-74.61905150000001,42.93234210000003]]},"properties":{"k":"c","n":null,"c":" ","v":null,"cc":null,"co":null,"s":"h"}},{"type":"Feature","geometry":{"type":"LineString","coordinates":[[-74.61934409999998,42.93132370000001],[-74.61964870000003,42.931823399999985]]},"properties":{"k":"c","n":null,"c":" ","v":null,"cc":null,"co":null,"s":"h"}},{"type":"Feature","geometry":{"type":"LineString","coordinates":[[-74.62185570000003,42.9302045],[-74.62225539999997,42.93058289999999]]},"properties":{"k":"c","n":null,"c":" ","v":null,"cc":null,"co":null,"s":"h"}},{"type":"Feature","geometry":{"type":"LineString","coordinates":[[-74.58674500000001,42.90845899999999],[-74.58695560000001,42.91124289999999]]},"properties":{"k":"c","n":null,"c":"power line","v":null,"cc":null,"co":null,"s":"h"}}]}