{"type":"FeatureCollection","features":[{"type":"Feature","properties":{},"geometry":{"type":"Polygon","coordinates":[[[-74.75386379999998,39.14999999999998],[-74.77499999999998,39.14999999999998],[-74.77499999999998,39.155541200000016],[-74.77499999999998,39.22500000000002],[-74.69999999999999,39.22500000000002],[-74.69999999999999,39.200716399999976],[-74.69999999999999,39.19726220000001],[-74.69999999999999,39.192630099999974],[-74.69999999999999,39.19203920000001],[-74.69999999999999,39.18953449999998],[-74.69999999999999,39.18617339999997],[-74.69999999999999,39.18533830000001],[-74.69999999999999,39.18522159999998],[-74.69999999999999,39.18463939999998],[-74.69999999999999,39.184210500000006],[-74.69999999999999,39.184038199999975],[-74.69999999999999,39.183242199999995],[-74.69999999999999,39.182941099999994],[-74.69999999999999,39.18164949999999],[-74.69999999999999,39.18111470000002],[-74.69999999999999,39.1771177],[-74.69999999999999,39.173255100000006],[-74.69999999999999,39.1712043],[-74.69999999999999,39.170764899999995],[-74.69999999999999,39.17038150000002],[-74.69999999999999,39.168413699999974],[-74.69999999999999,39.16753189999997],[-74.69999999999999,39.167024200000014],[-74.69999999999999,39.166742399999976],[-74.69999999999999,39.16635600000001],[-74.69999999999999,39.1615989],[-74.69999999999999,39.16138110000003],[-74.69999999999999,39.16008369999997],[-74.69999999999999,39.1595499],[-74.69999999999999,39.15891420000003],[-74.69999999999999,39.158327799999995],[-74.69999999999999,39.15830570000003],[-74.69999999999999,39.1570289],[-74.69999999999999,39.15690569999998],[-74.69999999999999,39.156717300000025],[-74.69999999999999,39.15642969999999],[-74.69999999999999,39.155709],[-74.69999999999999,39.15504679999998],[-74.69999999999999,39.15429080000001],[-74.69999999999999,39.1539477],[-74.69999999999999,39.153143899999975],[-74.69999999999999,39.152694699999984],[-74.69999999999999,39.15029679999998],[-74.69999999999999,39.14999999999998],[-74.70030730000002,39.14999999999998],[-74.70703839999999,39.14999999999998],[-74.70725729999998,39.14999999999998],[-74.7074356,39.14999999999998],[-74.70808950000003,39.14999999999998],[-74.70860449999998,39.14999999999998],[-74.71088359999999,39.14999999999998],[-74.711637,39.14999999999998],[-74.71197760000001,39.14999999999998],[-74.71244089999999,39.14999999999998],[-74.7126237,39.14999999999998],[-74.71357230000001,39.14999999999998],[-74.72310090000002,39.14999999999998],[-74.72361690000002,39.14999999999998],[-74.72453389999998,39.14999999999998],[-74.73254179999998,39.14999999999998],[-74.73302969999997,39.14999999999998],[-74.73389250000002,39.14999999999998],[-74.74380930000001,39.14999999999998],[-74.74792880000001,39.14999999999998],[-74.75079010000002,39.14999999999998],[-74.75120179999999,39.14999999999998],[-74.75386379999998,39.14999999999998]]]}},{"type":"Feature","properties":{},"geometry":{"type":"Polygon","coordinates":[[[-74.69999999999999,39.15029679999998],[-74.69999999999999,39.152694699999984],[-74.69999999999999,39.153143899999975],[-74.69999999999999,39.1539477],[-74.69999999999999,39.15429080000001],[-74.69999999999999,39.15504679999998],[-74.69999999999999,39.155709],[-74.69999999999999,39.15642969999999],[-74.69999999999999,39.156717300000025],[-74.69999999999999,39.15690569999998],[-74.69999999999999,39.1570289],[-74.69999999999999,39.15830570000003],[-74.69999999999999,39.158327799999995],[-74.69999999999999,39.15891420000003],[-74.69999999999999,39.1595499],[-74.69999999999999,39.16008369999997],[-74.69999999999999,39.16138110000003],[-74.69999999999999,39.1615989],[-74.69999999999999,39.16635600000001],[-74.69999999999999,39.166742399999976],[-74.69999999999999,39.167024200000014],[-74.69999999999999,39.16753189999997],[-74.69999999999999,39.168413699999974],[-74.69999999999999,39.17038150000002],[-74.69999999999999,39.170764899999995],[-74.69999999999999,39.1712043],[-74.69999999999999,39.173255100000006],[-74.69999999999999,39.1771177],[-74.69999999999999,39.18111470000002],[-74.69999999999999,39.18164949999999],[-74.69999999999999,39.182941099999994],[-74.69999999999999,39.183242199999995],[-74.69999999999999,39.184038199999975],[-74.69999999999999,39.184210500000006],[-74.69999999999999,39.18463939999998],[-74.69999999999999,39.18522159999998],[-74.69999999999999,39.18533830000001],[-74.69999999999999,39.18617339999997],[-74.69999999999999,39.18953449999998],[-74.69999999999999,39.19203920000001],[-74.69999999999999,39.192630099999974],[-74.69999999999999,39.19726220000001],[-74.69999999999999,39.200716399999976],[-74.69999999999999,39.22500000000002],[-74.67626810000002,39.22500000000002],[-74.6750288,39.22500000000002],[-74.66816360000001,39.22500000000002],[-74.66786639999998,39.22500000000002],[-74.66583659999998,39.22500000000002],[-74.66365029999997,39.22500000000002],[-74.6632955,39.22500000000002],[-74.66232559999997,39.22500000000002],[-74.65524440000002,39.22500000000002],[-74.65502249999997,39.22500000000002],[-74.65453209999998,39.22500000000002],[-74.65415230000002,39.22500000000002],[-74.65407490000001,39.22500000000002],[-74.65393160000002,39.22500000000002],[-74.65221960000002,39.22500000000002],[-74.64932219999997,39.22500000000002],[-74.64907490000002,39.22500000000002],[-74.6406043,39.22500000000002],[-74.6321888,39.22500000000002],[-74.63165190000001,39.22500000000002],[-74.62651169999998,39.22500000000002],[-74.6259895,39.22500000000002],[-74.625,39.22500000000002],[-74.625,39.22204690000001],[-74.625,39.22160680000002],[-74.625,39.22102810000001],[-74.625,39.22042219999997],[-74.625,39.2039724],[-74.625,39.20226919999999],[-74.625,39.14999999999998],[-74.65474510000001,39.14999999999998],[-74.65782130000002,39.14999999999998],[-74.65993220000001,39.14999999999998],[-74.66536159999998,39.14999999999998],[-74.67675279999997,39.14999999999998],[-74.67930940000002,39.14999999999998],[-74.68295460000002,39.14999999999998],[-74.68651840000001,39.14999999999998],[-74.6882397,39.14999999999998],[-74.6893624,39.14999999999998],[-74.69154400000002,39.14999999999998],[-74.69191239999998,39.14999999999998],[-74.6929207,39.14999999999998],[-74.69999999999999,39.14999999999998],[-74.69999999999999,39.15029679999998]]]}},{"type":"Feature","properties":{},"geometry":{"type":"Polygon","coordinates":[[[-74.61751959999998,39.14999999999998],[-74.61807679999998,39.14999999999998],[-74.625,39.14999999999998],[-74.625,39.20226919999999],[-74.625,39.2039724],[-74.625,39.22042219999997],[-74.625,39.22102810000001],[-74.625,39.22160680000002],[-74.625,39.22204690000001],[-74.625,39.22500000000002],[-74.62264599999997,39.22500000000002],[-74.6223286,39.22500000000002],[-74.61140970000002,39.22500000000002],[-74.60780720000002,39.22500000000002],[-74.59915489999997,39.22500000000002],[-74.55021629999999,39.22500000000002],[-74.55000000000001,39.22500000000002],[-74.55000000000001,39.22466029999998],[-74.55000000000001,39.21612329999999],[-74.55000000000001,39.20770470000002],[-74.55000000000001,39.183032200000014],[-74.55000000000001,39.173232600000006],[-74.55000000000001,39.15415009999998],[-74.55000000000001,39.14999999999998],[-74.55094680000002,39.14999999999998],[-74.59286989999998,39.14999999999998],[-74.60933340000003,39.14999999999998],[-74.61751959999998,39.14999999999998]]]}},{"type":"Feature","properties":{},"geometry":{"type":"Polygon","coordinates":[[[-74.72066899999999,39.30000000000001],[-74.7011933,39.30000000000001],[-74.69999999999999,39.30000000000001],[-74.69999999999999,39.2997967],[-74.69999999999999,39.299331300000006],[-74.69999999999999,39.297606099999996],[-74.69999999999999,39.291947100000016],[-74.69999999999999,39.288979299999994],[-74.69999999999999,39.26441829999999],[-74.69999999999999,39.25883859999999],[-74.69999999999999,39.255516],[-74.69999999999999,39.22500000000002],[-74.77499999999998,39.22500000000002],[-74.77499999999998,39.30000000000001],[-74.74766890000001,39.30000000000001],[-74.72066899999999,39.30000000000001]]]}},{"type":"Feature","properties":{},"geometry":{"type":"Polygon","coordinates":[[[-74.67626810000002,39.22500000000002],[-74.69999999999999,39.22500000000002],[-74.69999999999999,39.255516],[-74.69999999999999,39.25883859999999],[-74.69999999999999,39.26441829999999],[-74.69999999999999,39.288979299999994],[-74.69999999999999,39.291947100000016],[-74.69999999999999,39.297606099999996],[-74.69999999999999,39.299331300000006],[-74.69999999999999,39.2997967],[-74.69999999999999,39.30000000000001],[-74.69075279999998,39.30000000000001],[-74.68664969999998,39.30000000000001],[-74.68606219999998,39.30000000000001],[-74.68578350000001,39.30000000000001],[-74.68404570000001,39.30000000000001],[-74.68375939999999,39.30000000000001],[-74.6816933,39.30000000000001],[-74.68121960000002,39.30000000000001],[-74.68079619999997,39.30000000000001],[-74.68040500000001,39.30000000000001],[-74.677411,39.30000000000001],[-74.67640669999997,39.30000000000001],[-74.67632429999998,39.30000000000001],[-74.67591950000002,39.30000000000001],[-74.66988120000002,39.30000000000001],[-74.6695353,39.30000000000001],[-74.6481377,39.30000000000001],[-74.6466481,39.30000000000001],[-74.64612840000001,39.30000000000001],[-74.6457135,39.30000000000001],[-74.6454607,39.30000000000001],[-74.64118409999998,39.30000000000001],[-74.64099349999998,39.30000000000001],[-74.63551539999997,39.30000000000001],[-74.63549899999998,39.30000000000001],[-74.63175790000003,39.30000000000001],[-74.62939060000002,39.30000000000001],[-74.62512529999998,39.30000000000001],[-74.625,39.30000000000001],[-74.625,39.29900509999999],[-74.625,39.29893870000001],[-74.625,39.295913900000016],[-74.625,39.295563000000016],[-74.625,39.29505610000001],[-74.625,39.29376810000002],[-74.625,39.29356439999998],[-74.625,39.291522199999974],[-74.625,39.291462000000024],[-74.625,39.290100499999994],[-74.625,39.28945599999997],[-74.625,39.288384699999995],[-74.625,39.288171999999975],[-74.625,39.28692289999998],[-74.625,39.28360809999998],[-74.625,39.278914499999985],[-74.625,39.27455839999999],[-74.625,39.27258819999997],[-74.625,39.26044289999999],[-74.625,39.25798150000003],[-74.625,39.257261700000015],[-74.625,39.25514700000002],[-74.625,39.253999299999975],[-74.625,39.253272200000026],[-74.625,39.251176999999984],[-74.625,39.24883870000002],[-74.625,39.2484632],[-74.625,39.24085029999998],[-74.625,39.23761489999998],[-74.625,39.234446400000024],[-74.625,39.232996300000025],[-74.625,39.232461899999976],[-74.625,39.227854200000024],[-74.625,39.22614090000002],[-74.625,39.22500000000002],[-74.6259895,39.22500000000002],[-74.62651169999998,39.22500000000002],[-74.63165190000001,39.22500000000002],[-74.6321888,39.22500000000002],[-74.6406043,39.22500000000002],[-74.64907490000002,39.22500000000002],[-74.64932219999997,39.22500000000002],[-74.65221960000002,39.22500000000002],[-74.65393160000002,39.22500000000002],[-74.65407490000001,39.22500000000002],[-74.65415230000002,39.22500000000002],[-74.65453209999998,39.22500000000002],[-74.65502249999997,39.22500000000002],[-74.65524440000002,39.22500000000002],[-74.66232559999997,39.22500000000002],[-74.6632955,39.22500000000002],[-74.66365029999997,39.22500000000002],[-74.66583659999998,39.22500000000002],[-74.66786639999998,39.22500000000002],[-74.66816360000001,39.22500000000002],[-74.6750288,39.22500000000002],[-74.67626810000002,39.22500000000002]]]}},{"type":"Feature","properties":{},"geometry":{"type":"Polygon","coordinates":[[[-74.62264599999997,39.22500000000002],[-74.625,39.22500000000002],[-74.625,39.22614090000002],[-74.625,39.227854200000024],[-74.625,39.232461899999976],[-74.625,39.232996300000025],[-74.625,39.234446400000024],[-74.625,39.23761489999998],[-74.625,39.24085029999998],[-74.625,39.2484632],[-74.625,39.24883870000002],[-74.625,39.251176999999984],[-74.625,39.253272200000026],[-74.625,39.253999299999975],[-74.625,39.25514700000002],[-74.625,39.257261700000015],[-74.625,39.25798150000003],[-74.625,39.26044289999999],[-74.625,39.27258819999997],[-74.625,39.27455839999999],[-74.625,39.278914499999985],[-74.625,39.28360809999998],[-74.625,39.28692289999998],[-74.625,39.288171999999975],[-74.625,39.288384699999995],[-74.625,39.28945599999997],[-74.625,39.290100499999994],[-74.625,39.291462000000024],[-74.625,39.291522199999974],[-74.625,39.29356439999998],[-74.625,39.29376810000002],[-74.625,39.29505610000001],[-74.625,39.295563000000016],[-74.625,39.295913900000016],[-74.625,39.29893870000001],[-74.625,39.29900509999999],[-74.625,39.30000000000001],[-74.62446670000003,39.30000000000001],[-74.6236634,39.30000000000001],[-74.62316809999999,39.30000000000001],[-74.62230929999998,39.30000000000001],[-74.62110910000001,39.30000000000001],[-74.62024689999998,39.30000000000001],[-74.61356030000002,39.30000000000001],[-74.61179010000001,39.30000000000001],[-74.610839,39.30000000000001],[-74.60992420000002,39.30000000000001],[-74.60846220000002,39.30000000000001],[-74.60604439999997,39.30000000000001],[-74.60507430000001,39.30000000000001],[-74.59851629999997,39.30000000000001],[-74.59424159999998,39.30000000000001],[-74.5918987,39.30000000000001],[-74.59113280000003,39.30000000000001],[-74.58069640000002,39.30000000000001],[-74.58019890000003,39.30000000000001],[-74.57985259999998,39.30000000000001],[-74.57742139999999,39.30000000000001],[-74.575043,39.30000000000001],[-74.57481940000002,39.30000000000001],[-74.57383770000001,39.30000000000001],[-74.5724892,39.30000000000001],[-74.57142270000003,39.30000000000001],[-74.57092010000002,39.30000000000001],[-74.56942900000001,39.30000000000001],[-74.5688824,39.30000000000001],[-74.56664089999998,39.30000000000001],[-74.56265380000002,39.30000000000001],[-74.56100520000001,39.30000000000001],[-74.5596524,39.30000000000001],[-74.55964230000001,39.30000000000001],[-74.558989,39.30000000000001],[-74.55860410000003,39.30000000000001],[-74.55824639999997,39.30000000000001],[-74.55715120000002,39.30000000000001],[-74.5570174,39.30000000000001],[-74.55699340000001,39.30000000000001],[-74.55685,39.30000000000001],[-74.55670650000002,39.30000000000001],[-74.555451,39.30000000000001],[-74.5554406,39.30000000000001],[-74.55460749999997,39.30000000000001],[-74.55445359999999,39.30000000000001],[-74.55391600000002,39.30000000000001],[-74.55170140000001,39.30000000000001],[-74.5506226,39.30000000000001],[-74.55000000000001,39.30000000000001],[-74.55000000000001,39.299835900000005],[-74.55000000000001,39.297624299999995],[-74.55000000000001,39.29696610000002],[-74.55000000000001,39.29581150000001],[-74.55000000000001,39.29497020000002],[-74.55000000000001,39.29452140000001],[-74.55000000000001,39.29439309999998],[-74.55000000000001,39.29401580000001],[-74.55000000000001,39.292591300000026],[-74.55000000000001,39.29240900000002],[-74.55000000000001,39.2910316],[-74.55000000000001,39.28111819999998],[-74.55000000000001,39.2705229],[-74.55000000000001,39.26886760000002],[-74.55000000000001,39.26592699999998],[-74.55000000000001,39.26536920000001],[-74.55000000000001,39.258693300000004],[-74.55000000000001,39.229545900000005],[-74.55000000000001,39.22516510000003],[-74.55000000000001,39.22500000000002],[-74.55021629999999,39.22500000000002],[-74.59915489999997,39.22500000000002],[-74.60780720000002,39.22500000000002],[-74.61140970000002,39.22500000000002],[-74.6223286,39.22500000000002],[-74.62264599999997,39.22500000000002]]]}},{"type":"Feature","properties":{},"geometry":{"type":"Polygon","coordinates":[[[-74.54955489999998,39.22500000000002],[-74.55000000000001,39.22500000000002],[-74.55000000000001,39.22516510000003],[-74.55000000000001,39.229545900000005],[-74.55000000000001,39.258693300000004],[-74.55000000000001,39.26536920000001],[-74.55000000000001,39.26592699999998],[-74.55000000000001,39.26886760000002],[-74.55000000000001,39.2705229],[-74.55000000000001,39.28111819999998],[-74.55000000000001,39.2910316],[-74.55000000000001,39.29240900000002],[-74.55000000000001,39.292591300000026],[-74.55000000000001,39.29401580000001],[-74.55000000000001,39.29439309999998],[-74.55000000000001,39.29452140000001],[-74.55000000000001,39.29497020000002],[-74.55000000000001,39.29581150000001],[-74.55000000000001,39.29696610000002],[-74.55000000000001,39.297624299999995],[-74.55000000000001,39.299835900000005],[-74.55000000000001,39.30000000000001],[-74.54965290000001,39.30000000000001],[-74.54663690000001,39.30000000000001],[-74.54626230000002,39.30000000000001],[-74.54595940000002,39.30000000000001],[-74.5456739,39.30000000000001],[-74.54432889999998,39.30000000000001],[-74.54232059999998,39.30000000000001],[-74.5419779,39.30000000000001],[-74.5417693,39.30000000000001],[-74.54157650000002,39.30000000000001],[-74.5411087,39.30000000000001],[-74.54010269999998,39.30000000000001],[-74.53979930000003,39.30000000000001],[-74.53802130000003,39.30000000000001],[-74.53677540000001,39.30000000000001],[-74.53585399999997,39.30000000000001],[-74.53214689999999,39.30000000000001],[-74.52734629999998,39.30000000000001],[-74.5269614,39.30000000000001],[-74.5210798,39.30000000000001],[-74.49003900000002,39.30000000000001],[-74.48141279999999,39.30000000000001],[-74.47500000000002,39.30000000000001],[-74.47500000000002,39.292765799999984],[-74.47500000000002,39.27783010000002],[-74.47500000000002,39.27739889999998],[-74.47500000000002,39.25315949999998],[-74.47500000000002,39.227541599999995],[-74.47500000000002,39.22500000000002],[-74.53720820000001,39.22500000000002],[-74.54203480000001,39.22500000000002],[-74.54955489999998,39.22500000000002]]]}},{"type":"Feature","properties":{},"geometry":{"type":"Polygon","coordinates":[[[-74.47500000000002,39.22500000000002],[-74.47500000000002,39.227541599999995],[-74.47500000000002,39.25315949999998],[-74.47500000000002,39.27739889999998],[-74.47500000000002,39.27783010000002],[-74.47500000000002,39.292765799999984],[-74.47500000000002,39.30000000000001],[-74.4684029,39.30000000000001],[-74.42925969999999,39.30000000000001],[-74.4283474,39.30000000000001],[-74.40913699999999,39.30000000000001],[-74.40903580000003,39.30000000000001],[-74.39999999999998,39.30000000000001],[-74.39999999999998,39.26769780000001],[-74.39999999999998,39.26694259999999],[-74.39999999999998,39.23782890000001],[-74.39999999999998,39.22500000000002],[-74.4142544,39.22500000000002],[-74.42794270000002,39.22500000000002],[-74.47500000000002,39.22500000000002]]]}},{"type":"Feature","properties":{},"geometry":{"type":"Polygon","coordinates":[[[-74.74766890000001,39.30000000000001],[-74.77499999999998,39.30000000000001],[-74.77499999999998,39.31171660000001],[-74.77499999999998,39.375],[-74.73060279999999,39.375],[-74.72716150000002,39.375],[-74.72659770000001,39.375],[-74.72303119999998,39.375],[-74.72279400000002,39.375],[-74.7217235,39.375],[-74.71883020000001,39.375],[-74.71826140000002,39.375],[-74.71692089999999,39.375],[-74.69999999999999,39.375],[-74.69999999999999,39.36050340000003],[-74.69999999999999,39.36005160000002],[-74.69999999999999,39.35924690000002],[-74.69999999999999,39.35740279999999],[-74.69999999999999,39.35438049999999],[-74.69999999999999,39.35402499999998],[-74.69999999999999,39.34893440000002],[-74.69999999999999,39.34323549999999],[-74.69999999999999,39.34280819999998],[-74.69999999999999,39.33603160000001],[-74.69999999999999,39.33370919999999],[-74.69999999999999,39.331193299999995],[-74.69999999999999,39.32612],[-74.69999999999999,39.32590040000002],[-74.69999999999999,39.32393710000002],[-74.69999999999999,39.32363559999999],[-74.69999999999999,39.32245879999999],[-74.69999999999999,39.32216599999998],[-74.69999999999999,39.316027899999995],[-74.69999999999999,39.31547690000002],[-74.69999999999999,39.3133115],[-74.69999999999999,39.31275040000003],[-74.69999999999999,39.305118400000026],[-74.69999999999999,39.304922999999974],[-74.69999999999999,39.30000000000001],[-74.7011933,39.30000000000001],[-74.72066899999999,39.30000000000001],[-74.74766890000001,39.30000000000001]]]}},{"type":"Feature","properties":{},"geometry":{"type":"Polygon","coordinates":[[[-74.69999999999999,39.304922999999974],[-74.69999999999999,39.305118400000026],[-74.69999999999999,39.31275040000003],[-74.69999999999999,39.3133115],[-74.69999999999999,39.31547690000002],[-74.69999999999999,39.316027899999995],[-74.69999999999999,39.32216599999998],[-74.69999999999999,39.32245879999999],[-74.69999999999999,39.32363559999999],[-74.69999999999999,39.32393710000002],[-74.69999999999999,39.32590040000002],[-74.69999999999999,39.32612],[-74.69999999999999,39.331193299999995],[-74.69999999999999,39.33370919999999],[-74.69999999999999,39.33603160000001],[-74.69999999999999,39.34280819999998],[-74.69999999999999,39.34323549999999],[-74.69999999999999,39.34893440000002],[-74.69999999999999,39.35402499999998],[-74.69999999999999,39.35438049999999],[-74.69999999999999,39.35740279999999],[-74.69999999999999,39.35924690000002],[-74.69999999999999,39.36005160000002],[-74.69999999999999,39.36050340000003],[-74.69999999999999,39.375],[-74.6752305,39.375],[-74.625,39.375],[-74.625,39.37322560000001],[-74.625,39.33057869999999],[-74.625,39.325613499999974],[-74.625,39.32308949999998],[-74.625,39.32276239999999],[-74.625,39.32124090000002],[-74.625,39.3196815],[-74.625,39.31915120000002],[-74.625,39.318424600000014],[-74.625,39.31822829999999],[-74.625,39.31767589999998],[-74.625,39.31728559999999],[-74.625,39.31528609999998],[-74.625,39.31276730000002],[-74.625,39.311407799999984],[-74.625,39.310090600000024],[-74.625,39.3072626],[-74.625,39.30264570000003],[-74.625,39.30226649999997],[-74.625,39.300250800000015],[-74.625,39.30000000000001],[-74.62512529999998,39.30000000000001],[-74.62939060000002,39.30000000000001],[-74.63175790000003,39.30000000000001],[-74.63549899999998,39.30000000000001],[-74.63551539999997,39.30000000000001],[-74.64099349999998,39.30000000000001],[-74.64118409999998,39.30000000000001],[-74.6454607,39.30000000000001],[-74.6457135,39.30000000000001],[-74.64612840000001,39.30000000000001],[-74.6466481,39.30000000000001],[-74.6481377,39.30000000000001],[-74.6695353,39.30000000000001],[-74.66988120000002,39.30000000000001],[-74.67591950000002,39.30000000000001],[-74.67632429999998,39.30000000000001],[-74.67640669999997,39.30000000000001],[-74.677411,39.30000000000001],[-74.68040500000001,39.30000000000001],[-74.68079619999997,39.30000000000001],[-74.68121960000002,39.30000000000001],[-74.6816933,39.30000000000001],[-74.68375939999999,39.30000000000001],[-74.68404570000001,39.30000000000001],[-74.68578350000001,39.30000000000001],[-74.68606219999998,39.30000000000001],[-74.68664969999998,39.30000000000001],[-74.69075279999998,39.30000000000001],[-74.69999999999999,39.30000000000001],[-74.69999999999999,39.304922999999974]]]}},{"type":"Feature","properties":{},"geometry":{"type":"Polygon","coordinates":[[[-74.62446670000003,39.30000000000001],[-74.625,39.30000000000001],[-74.625,39.300250800000015],[-74.625,39.30226649999997],[-74.625,39.30264570000003],[-74.625,39.3072626],[-74.625,39.310090600000024],[-74.625,39.311407799999984],[-74.625,39.31276730000002],[-74.625,39.31528609999998],[-74.625,39.31728559999999],[-74.625,39.31767589999998],[-74.625,39.31822829999999],[-74.625,39.318424600000014],[-74.625,39.31915120000002],[-74.625,39.3196815],[-74.625,39.32124090000002],[-74.625,39.32276239999999],[-74.625,39.32308949999998],[-74.625,39.325613499999974],[-74.625,39.33057869999999],[-74.625,39.37322560000001],[-74.625,39.375],[-74.62197420000001,39.375],[-74.55000000000001,39.375],[-74.55000000000001,39.374448599999994],[-74.55000000000001,39.363971900000024],[-74.55000000000001,39.35865080000002],[-74.55000000000001,39.35818019999999],[-74.55000000000001,39.35564679999999],[-74.55000000000001,39.35563079999997],[-74.55000000000001,39.3554623],[-74.55000000000001,39.3552138],[-74.55000000000001,39.35476410000001],[-74.55000000000001,39.35466819999999],[-74.55000000000001,39.35448730000002],[-74.55000000000001,39.354271900000015],[-74.55000000000001,39.35352080000001],[-74.55000000000001,39.35339010000001],[-74.55000000000001,39.35316119999999],[-74.55000000000001,39.35302359999997],[-74.55000000000001,39.35157889999999],[-74.55000000000001,39.35130809999998],[-74.55000000000001,39.34667990000003],[-74.55000000000001,39.345382400000005],[-74.55000000000001,39.34309159999998],[-74.55000000000001,39.34162859999998],[-74.55000000000001,39.33710259999998],[-74.55000000000001,39.33569130000001],[-74.55000000000001,39.33565170000003],[-74.55000000000001,39.3297541],[-74.55000000000001,39.32790699999998],[-74.55000000000001,39.32749940000002],[-74.55000000000001,39.32672580000002],[-74.55000000000001,39.32487279999998],[-74.55000000000001,39.3246704],[-74.55000000000001,39.324209800000006],[-74.55000000000001,39.32184169999999],[-74.55000000000001,39.321808499999975],[-74.55000000000001,39.321327999999994],[-74.55000000000001,39.321314599999994],[-74.55000000000001,39.320194500000014],[-74.55000000000001,39.32010079999998],[-74.55000000000001,39.31972880000001],[-74.55000000000001,39.31956539999999],[-74.55000000000001,39.31926290000001],[-74.55000000000001,39.31884209999998],[-74.55000000000001,39.3185656],[-74.55000000000001,39.31214929999999],[-74.55000000000001,39.310687299999984],[-74.55000000000001,39.31024009999999],[-74.55000000000001,39.30817539999998],[-74.55000000000001,39.307642499999986],[-74.55000000000001,39.30565919999998],[-74.55000000000001,39.30522209999998],[-74.55000000000001,39.304848600000014],[-74.55000000000001,39.30447830000003],[-74.55000000000001,39.30082909999999],[-74.55000000000001,39.30048790000001],[-74.55000000000001,39.300273300000015],[-74.55000000000001,39.30015400000002],[-74.55000000000001,39.30000000000001],[-74.5506226,39.30000000000001],[-74.55170140000001,39.30000000000001],[-74.55391600000002,39.30000000000001],[-74.55445359999999,39.30000000000001],[-74.55460749999997,39.30000000000001],[-74.5554406,39.30000000000001],[-74.555451,39.30000000000001],[-74.55670650000002,39.30000000000001],[-74.55685,39.30000000000001],[-74.55699340000001,39.30000000000001],[-74.5570174,39.30000000000001],[-74.55715120000002,39.30000000000001],[-74.55824639999997,39.30000000000001],[-74.55860410000003,39.30000000000001],[-74.558989,39.30000000000001],[-74.55964230000001,39.30000000000001],[-74.5596524,39.30000000000001],[-74.56100520000001,39.30000000000001],[-74.56265380000002,39.30000000000001],[-74.56664089999998,39.30000000000001],[-74.5688824,39.30000000000001],[-74.56942900000001,39.30000000000001],[-74.57092010000002,39.30000000000001],[-74.57142270000003,39.30000000000001],[-74.5724892,39.30000000000001],[-74.57383770000001,39.30000000000001],[-74.57481940000002,39.30000000000001],[-74.575043,39.30000000000001],[-74.57742139999999,39.30000000000001],[-74.57985259999998,39.30000000000001],[-74.58019890000003,39.30000000000001],[-74.58069640000002,39.30000000000001],[-74.59113280000003,39.30000000000001],[-74.5918987,39.30000000000001],[-74.59424159999998,39.30000000000001],[-74.59851629999997,39.30000000000001],[-74.60507430000001,39.30000000000001],[-74.60604439999997,39.30000000000001],[-74.60846220000002,39.30000000000001],[-74.60992420000002,39.30000000000001],[-74.610839,39.30000000000001],[-74.61179010000001,39.30000000000001],[-74.61356030000002,39.30000000000001],[-74.62024689999998,39.30000000000001],[-74.62110910000001,39.30000000000001],[-74.62230929999998,39.30000000000001],[-74.62316809999999,39.30000000000001],[-74.6236634,39.30000000000001],[-74.62446670000003,39.30000000000001]]]}},{"type":"Feature","properties":{},"geometry":{"type":"Polygon","coordinates":[[[-74.54965290000001,39.30000000000001],[-74.55000000000001,39.30000000000001],[-74.55000000000001,39.30015400000002],[-74.55000000000001,39.300273300000015],[-74.55000000000001,39.30048790000001],[-74.55000000000001,39.30082909999999],[-74.55000000000001,39.30447830000003],[-74.55000000000001,39.304848600000014],[-74.55000000000001,39.30522209999998],[-74.55000000000001,39.30565919999998],[-74.55000000000001,39.307642499999986],[-74.55000000000001,39.30817539999998],[-74.55000000000001,39.31024009999999],[-74.55000000000001,39.310687299999984],[-74.55000000000001,39.31214929999999],[-74.55000000000001,39.3185656],[-74.55000000000001,39.31884209999998],[-74.55000000000001,39.31926290000001],[-74.55000000000001,39.31956539999999],[-74.55000000000001,39.31972880000001],[-74.55000000000001,39.32010079999998],[-74.55000000000001,39.320194500000014],[-74.55000000000001,39.321327999999994],[-74.55000000000001,39.32184169999999],[-74.55000000000001,39.324209800000006],[-74.55000000000001,39.3246704],[-74.55000000000001,39.32487279999998],[-74.55000000000001,39.32672580000002],[-74.55000000000001,39.32749940000002],[-74.55000000000001,39.32790699999998],[-74.55000000000001,39.3297541],[-74.55000000000001,39.33565170000003],[-74.55000000000001,39.33569130000001],[-74.55000000000001,39.33710259999998],[-74.55000000000001,39.34162859999998],[-74.55000000000001,39.34309159999998],[-74.55000000000001,39.345382400000005],[-74.55000000000001,39.34667990000003],[-74.55000000000001,39.35130809999998],[-74.55000000000001,39.35157889999999],[-74.55000000000001,39.35302359999997],[-74.55000000000001,39.35316119999999],[-74.55000000000001,39.35339010000001],[-74.55000000000001,39.35352080000001],[-74.55000000000001,39.354271900000015],[-74.55000000000001,39.35448730000002],[-74.55000000000001,39.35466819999999],[-74.55000000000001,39.35476410000001],[-74.55000000000001,39.3552138],[-74.55000000000001,39.3554623],[-74.55000000000001,39.35563079999997],[-74.55000000000001,39.35564679999999],[-74.55000000000001,39.35818019999999],[-74.55000000000001,39.35865080000002],[-74.55000000000001,39.363971900000024],[-74.55000000000001,39.374448599999994],[-74.55000000000001,39.375],[-74.54123800000002,39.375],[-74.5316239,39.375],[-74.5303323,39.375],[-74.52493809999999,39.375],[-74.52141920000003,39.375],[-74.4981199,39.375],[-74.49777410000002,39.375],[-74.49668409999998,39.375],[-74.49534349999999,39.375],[-74.4915593,39.375],[-74.49088490000003,39.375],[-74.4874972,39.375],[-74.4866773,39.375],[-74.4837736,39.375],[-74.48338719999998,39.375],[-74.47910300000001,39.375],[-74.47785490000001,39.375],[-74.47500000000002,39.375],[-74.47500000000002,39.373731899999996],[-74.47500000000002,39.373294699999974],[-74.47500000000002,39.37055509999999],[-74.47500000000002,39.37027419999998],[-74.47500000000002,39.369859700000006],[-74.47500000000002,39.36929909999998],[-74.47500000000002,39.36357320000002],[-74.47500000000002,39.35972229999999],[-74.47500000000002,39.35940690000001],[-74.47500000000002,39.35694130000002],[-74.47500000000002,39.35658769999998],[-74.47500000000002,39.3542089],[-74.47500000000002,39.3520997],[-74.47500000000002,39.34713959999999],[-74.47500000000002,39.3469417],[-74.47500000000002,39.34549709999999],[-74.47500000000002,39.344805199999996],[-74.47500000000002,39.3436686],[-74.47500000000002,39.34349880000002],[-74.47500000000002,39.34322070000002],[-74.47500000000002,39.342923299999995],[-74.47500000000002,39.33829270000001],[-74.47500000000002,39.33687149999997],[-74.47500000000002,39.33631489999999],[-74.47500000000002,39.335840399999995],[-74.47500000000002,39.33496109999999],[-74.47500000000002,39.33317870000002],[-74.47500000000002,39.330715],[-74.47500000000002,39.32935900000001],[-74.47500000000002,39.305287799999974],[-74.47500000000002,39.30329310000002],[-74.47500000000002,39.30000000000001],[-74.48141279999999,39.30000000000001],[-74.49003900000002,39.30000000000001],[-74.5210798,39.30000000000001],[-74.5269614,39.30000000000001],[-74.52734629999998,39.30000000000001],[-74.53214689999999,39.30000000000001],[-74.53585399999997,39.30000000000001],[-74.53677540000001,39.30000000000001],[-74.53802130000003,39.30000000000001],[-74.53979930000003,39.30000000000001],[-74.54010269999998,39.30000000000001],[-74.5411087,39.30000000000001],[-74.54157650000002,39.30000000000001],[-74.5417693,39.30000000000001],[-74.5419779,39.30000000000001],[-74.54232059999998,39.30000000000001],[-74.54432889999998,39.30000000000001],[-74.5456739,39.30000000000001],[-74.54595940000002,39.30000000000001],[-74.54626230000002,39.30000000000001],[-74.54663690000001,39.30000000000001],[-74.54965290000001,39.30000000000001]]]}},{"type":"Feature","properties":{},"geometry":{"type":"Polygon","coordinates":[[[-74.4283474,39.30000000000001],[-74.42925969999999,39.30000000000001],[-74.4684029,39.30000000000001],[-74.47500000000002,39.30000000000001],[-74.47500000000002,39.30329310000002],[-74.47500000000002,39.305287799999974],[-74.47500000000002,39.32935900000001],[-74.47500000000002,39.330715],[-74.47500000000002,39.33317870000002],[-74.47500000000002,39.33496109999999],[-74.47500000000002,39.335840399999995],[-74.47500000000002,39.33631489999999],[-74.47500000000002,39.33687149999997],[-74.47500000000002,39.33829270000001],[-74.47500000000002,39.342923299999995],[-74.47500000000002,39.34322070000002],[-74.47500000000002,39.34349880000002],[-74.47500000000002,39.3436686],[-74.47500000000002,39.344805199999996],[-74.47500000000002,39.34549709999999],[-74.47500000000002,39.3469417],[-74.47500000000002,39.34713959999999],[-74.47500000000002,39.3520997],[-74.47500000000002,39.3542089],[-74.47500000000002,39.35658769999998],[-74.47500000000002,39.35694130000002],[-74.47500000000002,39.35940690000001],[-74.47500000000002,39.35972229999999],[-74.47500000000002,39.36357320000002],[-74.47500000000002,39.36929909999998],[-74.47500000000002,39.369859700000006],[-74.47500000000002,39.37027419999998],[-74.47500000000002,39.37055509999999],[-74.47500000000002,39.373294699999974],[-74.47500000000002,39.373731899999996],[-74.47500000000002,39.375],[-74.47374450000001,39.375],[-74.47253990000002,39.375],[-74.4720044,39.375],[-74.47008440000002,39.375],[-74.46996330000002,39.375],[-74.46859360000002,39.375],[-74.4657757,39.375],[-74.46433439999998,39.375],[-74.46417179999997,39.375],[-74.4609438,39.375],[-74.45979979999998,39.375],[-74.45959490000001,39.375],[-74.45950679999999,39.375],[-74.45775329999998,39.375],[-74.455941,39.375],[-74.45519489999998,39.375],[-74.45139690000002,39.375],[-74.45098480000001,39.375],[-74.44469720000001,39.375],[-74.4439547,39.375],[-74.44385679999999,39.375],[-74.4436528,39.375],[-74.44358299999999,39.375],[-74.44349110000002,39.375],[-74.44207030000001,39.375],[-74.44164180000001,39.375],[-74.43765100000002,39.375],[-74.4288487,39.375],[-74.42814320000002,39.375],[-74.4279474,39.375],[-74.42613060000002,39.375],[-74.42564900000002,39.375],[-74.42564499999997,39.375],[-74.42548590000001,39.375],[-74.42479500000002,39.375],[-74.42358030000003,39.375],[-74.42337559999999,39.375],[-74.42298269999998,39.375],[-74.42227739999998,39.375],[-74.42196539999998,39.375],[-74.4214144,39.375],[-74.42127349999998,39.375],[-74.4212546,39.375],[-74.42069800000002,39.375],[-74.41576379999998,39.375],[-74.4151994,39.375],[-74.41507999999999,39.375],[-74.41502759999997,39.375],[-74.4147231,39.375],[-74.41463909999999,39.375],[-74.41438820000002,39.375],[-74.41423020000002,39.375],[-74.41141340000001,39.375],[-74.41033900000002,39.375],[-74.40945420000003,39.375],[-74.40871349999998,39.375],[-74.40844390000001,39.375],[-74.40841920000003,39.375],[-74.40690749999999,39.375],[-74.40649330000002,39.375],[-74.4025206,39.375],[-74.40122869999999,39.375],[-74.39999999999998,39.375],[-74.39999999999998,39.37400100000002],[-74.39999999999998,39.37354069999998],[-74.39999999999998,39.372487999999976],[-74.39999999999998,39.368891099999985],[-74.39999999999998,39.36734769999998],[-74.39999999999998,39.364151600000014],[-74.39999999999998,39.36294379999998],[-74.39999999999998,39.35267329999999],[-74.39999999999998,39.350510499999984],[-74.39999999999998,39.34798460000002],[-74.39999999999998,39.345102499999996],[-74.39999999999998,39.34382849999997],[-74.39999999999998,39.33858350000003],[-74.39999999999998,39.33434030000001],[-74.39999999999998,39.32050859999998],[-74.39999999999998,39.317607699999996],[-74.39999999999998,39.31007579999999],[-74.39999999999998,39.30961789999998],[-74.39999999999998,39.30923610000002],[-74.39999999999998,39.30000000000001],[-74.40903580000003,39.30000000000001],[-74.40913699999999,39.30000000000001],[-74.4283474,39.30000000000001]]]}},{"type":"Feature","properties":{},"geometry":{"type":"Polygon","coordinates":[[[-74.39999999999998,39.30923610000002],[-74.39999999999998,39.30961789999998],[-74.39999999999998,39.31007579999999],[-74.39999999999998,39.317607699999996],[-74.39999999999998,39.32050859999998],[-74.39999999999998,39.33434030000001],[-74.39999999999998,39.33858350000003],[-74.39999999999998,39.34382849999997],[-74.39999999999998,39.345102499999996],[-74.39999999999998,39.34798460000002],[-74.39999999999998,39.350510499999984],[-74.39999999999998,39.35267329999999],[-74.39999999999998,39.36294379999998],[-74.39999999999998,39.364151600000014],[-74.39999999999998,39.36734769999998],[-74.39999999999998,39.368891099999985],[-74.39999999999998,39.372487999999976],[-74.39999999999998,39.37354069999998],[-74.39999999999998,39.37400100000002],[-74.39999999999998,39.375],[-74.39805560000002,39.375],[-74.3968443,39.375],[-74.3936759,39.375],[-74.37030859999999,39.375],[-74.34915260000002,39.375],[-74.3469652,39.375],[-74.34400140000002,39.375],[-74.341948,39.375],[-74.34106459999998,39.375],[-74.34092620000001,39.375],[-74.34048669999999,39.375],[-74.33606040000001,39.375],[-74.33150060000003,39.375],[-74.32499999999999,39.375],[-74.32499999999999,39.36380300000002],[-74.32499999999999,39.363315],[-74.32499999999999,39.31214640000002],[-74.32499999999999,39.30000000000001],[-74.33808069999998,39.30000000000001],[-74.39999999999998,39.30000000000001],[-74.39999999999998,39.30923610000002]]]}},{"type":"Feature","properties":{},"geometry":{"type":"Polygon","coordinates":[[[-74.73060279999999,39.375],[-74.73860339999999,39.375],[-74.77499999999998,39.375],[-74.77499999999998,39.44999999999999],[-74.7318909,39.44999999999999],[-74.72849989999997,39.44999999999999],[-74.72815279999998,39.44999999999999],[-74.72217940000002,39.44999999999999],[-74.7221743,39.44999999999999],[-74.72162850000001,39.44999999999999],[-74.72130820000001,39.44999999999999],[-74.71278569999998,39.44999999999999],[-74.69999999999999,39.44999999999999],[-74.69999999999999,39.42446619999998],[-74.69999999999999,39.375],[-74.71692089999999,39.375],[-74.71826140000002,39.375],[-74.71883020000001,39.375],[-74.7217235,39.375],[-74.72279400000002,39.375],[-74.72303119999998,39.375],[-74.72659770000001,39.375],[-74.72716150000002,39.375],[-74.73060279999999,39.375]]]}},{"type":"Feature","properties":{},"geometry":{"type":"Polygon","coordinates":[[[-74.5303323,39.375],[-74.5316239,39.375],[-74.54123800000002,39.375],[-74.55000000000001,39.375],[-74.55000000000001,39.44999999999999],[-74.48135930000001,39.44999999999999],[-74.47500000000002,39.44999999999999],[-74.47500000000002,39.435774700000024],[-74.47500000000002,39.420014700000024],[-74.47500000000002,39.41720600000002],[-74.47500000000002,39.41681219999998],[-74.47500000000002,39.416625899999985],[-74.47500000000002,39.414141099999995],[-74.47500000000002,39.4135928],[-74.47500000000002,39.41157720000001],[-74.47500000000002,39.408085700000015],[-74.47500000000002,39.40315170000002],[-74.47500000000002,39.39714070000002],[-74.47500000000002,39.39470779999999],[-74.47500000000002,39.39062689999997],[-74.47500000000002,39.390221800000006],[-74.47500000000002,39.388081899999975],[-74.47500000000002,39.38712909999998],[-74.47500000000002,39.38444470000002],[-74.47500000000002,39.384155899999996],[-74.47500000000002,39.38376310000001],[-74.47500000000002,39.38332559999998],[-74.47500000000002,39.382944699999996],[-74.47500000000002,39.38264090000001],[-74.47500000000002,39.3770533],[-74.47500000000002,39.37630410000003],[-74.47500000000002,39.376002200000016],[-74.47500000000002,39.375],[-74.47785490000001,39.375],[-74.47910300000001,39.375],[-74.48338719999998,39.375],[-74.4837736,39.375],[-74.4866773,39.375],[-74.4874972,39.375],[-74.49088490000003,39.375],[-74.4915593,39.375],[-74.49534349999999,39.375],[-74.49668409999998,39.375],[-74.49777410000002,39.375],[-74.4981199,39.375],[-74.52141920000003,39.375],[-74.52493809999999,39.375],[-74.5303323,39.375]]]}},{"type":"Feature","properties":{},"geometry":{"type":"Polygon","coordinates":[[[-74.4720044,39.375],[-74.47253990000002,39.375],[-74.47374450000001,39.375],[-74.47500000000002,39.375],[-74.47500000000002,39.376002200000016],[-74.47500000000002,39.37630410000003],[-74.47500000000002,39.3770533],[-74.47500000000002,39.38264090000001],[-74.47500000000002,39.382944699999996],[-74.47500000000002,39.38332559999998],[-74.47500000000002,39.38376310000001],[-74.47500000000002,39.384155899999996],[-74.47500000000002,39.38444470000002],[-74.47500000000002,39.38712909999998],[-74.47500000000002,39.388081899999975],[-74.47500000000002,39.390221800000006],[-74.47500000000002,39.39062689999997],[-74.47500000000002,39.39470779999999],[-74.47500000000002,39.39714070000002],[-74.47500000000002,39.40315170000002],[-74.47500000000002,39.408085700000015],[-74.47500000000002,39.41157720000001],[-74.47500000000002,39.4135928],[-74.47500000000002,39.414141099999995],[-74.47500000000002,39.416625899999985],[-74.47500000000002,39.41681219999998],[-74.47500000000002,39.41720600000002],[-74.47500000000002,39.420014700000024],[-74.47500000000002,39.435774700000024],[-74.47500000000002,39.44999999999999],[-74.4643984,39.44999999999999],[-74.45829149999997,39.44999999999999],[-74.45811049999998,39.44999999999999],[-74.4504844,39.44999999999999],[-74.4503474,39.44999999999999],[-74.44803589999998,39.44999999999999],[-74.44463300000001,39.44999999999999],[-74.42560099999997,39.44999999999999],[-74.4247661,39.44999999999999],[-74.42468550000001,39.44999999999999],[-74.42453110000002,39.44999999999999],[-74.42400229999998,39.44999999999999],[-74.42368879999998,39.44999999999999],[-74.42190419999997,39.44999999999999],[-74.42175709999998,39.44999999999999],[-74.4212809,39.44999999999999],[-74.4207121,39.44999999999999],[-74.41247659999999,39.44999999999999],[-74.4123755,39.44999999999999],[-74.40737489999998,39.44999999999999],[-74.40686699999998,39.44999999999999],[-74.40569640000001,39.44999999999999],[-74.40559489999998,39.44999999999999],[-74.40495859999999,39.44999999999999],[-74.40491509999998,39.44999999999999],[-74.4048914,39.44999999999999],[-74.4038928,39.44999999999999],[-74.40369900000002,39.44999999999999],[-74.39999999999998,39.44999999999999],[-74.39999999999998,39.44551999999999],[-74.39999999999998,39.444757400000015],[-74.39999999999998,39.44439779999999],[-74.39999999999998,39.442055100000005],[-74.39999999999998,39.4417459],[-74.39999999999998,39.441532600000016],[-74.39999999999998,39.4397745],[-74.39999999999998,39.43782390000001],[-74.39999999999998,39.43758600000001],[-74.39999999999998,39.4372669],[-74.39999999999998,39.436353800000006],[-74.39999999999998,39.43602440000001],[-74.39999999999998,39.43484999999998],[-74.39999999999998,39.433494199999984],[-74.39999999999998,39.43306819999998],[-74.39999999999998,39.43119230000002],[-74.39999999999998,39.429086600000005],[-74.39999999999998,39.426029400000004],[-74.39999999999998,39.41788380000003],[-74.39999999999998,39.416988300000014],[-74.39999999999998,39.41372580000001],[-74.39999999999998,39.413073999999995],[-74.39999999999998,39.410647900000015],[-74.39999999999998,39.40975309999999],[-74.39999999999998,39.40914809999998],[-74.39999999999998,39.4084886],[-74.39999999999998,39.40588600000001],[-74.39999999999998,39.4058407],[-74.39999999999998,39.40564219999999],[-74.39999999999998,39.405621999999994],[-74.39999999999998,39.404670599999974],[-74.39999999999998,39.40415860000002],[-74.39999999999998,39.403683899999976],[-74.39999999999998,39.40323569999998],[-74.39999999999998,39.40311589999999],[-74.39999999999998,39.4028447],[-74.39999999999998,39.402680499999974],[-74.39999999999998,39.40267490000002],[-74.39999999999998,39.402423899999974],[-74.39999999999998,39.401804200000015],[-74.39999999999998,39.40161699999999],[-74.39999999999998,39.396576700000026],[-74.39999999999998,39.395994599999995],[-74.39999999999998,39.39530780000001],[-74.39999999999998,39.39513679999999],[-74.39999999999998,39.39489609999998],[-74.39999999999998,39.393940199999975],[-74.39999999999998,39.393762400000014],[-74.39999999999998,39.39078710000001],[-74.39999999999998,39.390348500000016],[-74.39999999999998,39.38268679999999],[-74.39999999999998,39.37662280000001],[-74.39999999999998,39.37581449999999],[-74.39999999999998,39.375],[-74.40122869999999,39.375],[-74.4025206,39.375],[-74.40649330000002,39.375],[-74.40690749999999,39.375],[-74.40841920000003,39.375],[-74.40844390000001,39.375],[-74.40871349999998,39.375],[-74.40945420000003,39.375],[-74.41033900000002,39.375],[-74.41141340000001,39.375],[-74.41423020000002,39.375],[-74.41438820000002,39.375],[-74.41463909999999,39.375],[-74.4147231,39.375],[-74.41502759999997,39.375],[-74.41507999999999,39.375],[-74.4151994,39.375],[-74.41576379999998,39.375],[-74.42069800000002,39.375],[-74.4212546,39.375],[-74.42127349999998,39.375],[-74.4214144,39.375],[-74.42196539999998,39.375],[-74.42227739999998,39.375],[-74.42298269999998,39.375],[-74.42337559999999,39.375],[-74.42358030000003,39.375],[-74.42479500000002,39.375],[-74.42548590000001,39.375],[-74.42564499999997,39.375],[-74.42564900000002,39.375],[-74.42613060000002,39.375],[-74.4279474,39.375],[-74.42814320000002,39.375],[-74.4288487,39.375],[-74.43765100000002,39.375],[-74.44164180000001,39.375],[-74.44207030000001,39.375],[-74.44349110000002,39.375],[-74.44358299999999,39.375],[-74.4436528,39.375],[-74.44385679999999,39.375],[-74.4439547,39.375],[-74.44469720000001,39.375],[-74.45098480000001,39.375],[-74.45139690000002,39.375],[-74.45519489999998,39.375],[-74.455941,39.375],[-74.45775329999998,39.375],[-74.45950679999999,39.375],[-74.45959490000001,39.375],[-74.45979979999998,39.375],[-74.4609438,39.375],[-74.46417179999997,39.375],[-74.46433439999998,39.375],[-74.4657757,39.375],[-74.46859360000002,39.375],[-74.46996330000002,39.375],[-74.47008440000002,39.375],[-74.4720044,39.375]]]}},{"type":"Feature","properties":{},"geometry":{"type":"Polygon","coordinates":[[[-74.39805560000002,39.375],[-74.39999999999998,39.375],[-74.39999999999998,39.37581449999999],[-74.39999999999998,39.37662280000001],[-74.39999999999998,39.38268679999999],[-74.39999999999998,39.390348500000016],[-74.39999999999998,39.39078710000001],[-74.39999999999998,39.393762400000014],[-74.39999999999998,39.393940199999975],[-74.39999999999998,39.39489609999998],[-74.39999999999998,39.39513679999999],[-74.39999999999998,39.39530780000001],[-74.39999999999998,39.395994599999995],[-74.39999999999998,39.396576700000026],[-74.39999999999998,39.40161699999999],[-74.39999999999998,39.401804200000015],[-74.39999999999998,39.402423899999974],[-74.39999999999998,39.40267490000002],[-74.39999999999998,39.402680499999974],[-74.39999999999998,39.4028447],[-74.39999999999998,39.40311589999999],[-74.39999999999998,39.40323569999998],[-74.39999999999998,39.403683899999976],[-74.39999999999998,39.40415860000002],[-74.39999999999998,39.404670599999974],[-74.39999999999998,39.405621999999994],[-74.39999999999998,39.40564219999999],[-74.39999999999998,39.4058407],[-74.39999999999998,39.40588600000001],[-74.39999999999998,39.4084886],[-74.39999999999998,39.40914809999998],[-74.39999999999998,39.40975309999999],[-74.39999999999998,39.410647900000015],[-74.39999999999998,39.413073999999995],[-74.39999999999998,39.41372580000001],[-74.39999999999998,39.416988300000014],[-74.39999999999998,39.41788380000003],[-74.39999999999998,39.426029400000004],[-74.39999999999998,39.429086600000005],[-74.39999999999998,39.43119230000002],[-74.39999999999998,39.43306819999998],[-74.39999999999998,39.433494199999984],[-74.39999999999998,39.43484999999998],[-74.39999999999998,39.43602440000001],[-74.39999999999998,39.436353800000006],[-74.39999999999998,39.4372669],[-74.39999999999998,39.43758600000001],[-74.39999999999998,39.43782390000001],[-74.39999999999998,39.4397745],[-74.39999999999998,39.441532600000016],[-74.39999999999998,39.4417459],[-74.39999999999998,39.442055100000005],[-74.39999999999998,39.44439779999999],[-74.39999999999998,39.444757400000015],[-74.39999999999998,39.44551999999999],[-74.39999999999998,39.44999999999999],[-74.39771350000001,39.44999999999999],[-74.3972521,39.44999999999999],[-74.3944002,39.44999999999999],[-74.39363350000002,39.44999999999999],[-74.39282509999998,39.44999999999999],[-74.39238440000003,39.44999999999999],[-74.3921398,39.44999999999999],[-74.39211410000001,39.44999999999999],[-74.39079939999999,39.44999999999999],[-74.39020520000003,39.44999999999999],[-74.3867057,39.44999999999999],[-74.38602020000002,39.44999999999999],[-74.3853613,39.44999999999999],[-74.38205119999998,39.44999999999999],[-74.38101920000003,39.44999999999999],[-74.3781123,39.44999999999999],[-74.37308739999997,39.44999999999999],[-74.36977610000002,39.44999999999999],[-74.36974120000002,39.44999999999999],[-74.36931399999997,39.44999999999999],[-74.36750669999998,39.44999999999999],[-74.36636979999997,39.44999999999999],[-74.36592339999999,39.44999999999999],[-74.36568770000002,39.44999999999999],[-74.35943209999999,39.44999999999999],[-74.35912969999998,39.44999999999999],[-74.35067709999998,39.44999999999999],[-74.34981160000001,39.44999999999999],[-74.34911110000002,39.44999999999999],[-74.34530860000001,39.44999999999999],[-74.3449635,39.44999999999999],[-74.33621,39.44999999999999],[-74.33523020000001,39.44999999999999],[-74.33396770000002,39.44999999999999],[-74.33357569999998,39.44999999999999],[-74.33237279999997,39.44999999999999],[-74.3315859,39.44999999999999],[-74.32950890000001,39.44999999999999],[-74.32499999999999,39.44999999999999],[-74.32499999999999,39.448121000000015],[-74.32499999999999,39.4466233],[-74.32499999999999,39.445651199999986],[-74.32499999999999,39.445377500000006],[-74.32499999999999,39.443174399999975],[-74.32499999999999,39.441081199999985],[-74.32499999999999,39.43966640000002],[-74.32499999999999,39.43919039999997],[-74.32499999999999,39.430622700000015],[-74.32499999999999,39.425491299999976],[-74.32499999999999,39.42436040000001],[-74.32499999999999,39.42128500000001],[-74.32499999999999,39.404679499999986],[-74.32499999999999,39.395926299999985],[-74.32499999999999,39.3926879],[-74.32499999999999,39.39253739999998],[-74.32499999999999,39.39145810000002],[-74.32499999999999,39.38561729999998],[-74.32499999999999,39.38511999999997],[-74.32499999999999,39.375],[-74.33150060000003,39.375],[-74.33606040000001,39.375],[-74.34048669999999,39.375],[-74.34092620000001,39.375],[-74.34106459999998,39.375],[-74.341948,39.375],[-74.34194810000002,39.375],[-74.34400140000002,39.375],[-74.3469652,39.375],[-74.34915260000002,39.375],[-74.37030859999999,39.375],[-74.3936759,39.375],[-74.3968443,39.375],[-74.39805560000002,39.375]]]}},{"type":"Feature","properties":{},"geometry":{"type":"Polygon","coordinates":[[[-74.3119264,39.375],[-74.31253349999997,39.375],[-74.32499999999999,39.375],[-74.32499999999999,39.38511999999997],[-74.32499999999999,39.38561729999998],[-74.32499999999999,39.39145810000002],[-74.32499999999999,39.39253739999998],[-74.32499999999999,39.3926879],[-74.32499999999999,39.395926299999985],[-74.32499999999999,39.404679499999986],[-74.32499999999999,39.42128500000001],[-74.32499999999999,39.42436040000001],[-74.32499999999999,39.425491299999976],[-74.32499999999999,39.430622700000015],[-74.32499999999999,39.43919039999997],[-74.32499999999999,39.43966640000002],[-74.32499999999999,39.441081199999985],[-74.32499999999999,39.443174399999975],[-74.32499999999999,39.445377500000006],[-74.32499999999999,39.445651199999986],[-74.32499999999999,39.4466233],[-74.32499999999999,39.448121000000015],[-74.32499999999999,39.44999999999999],[-74.32456639999998,39.44999999999999],[-74.32329959999998,39.44999999999999],[-74.32318470000001,39.44999999999999],[-74.31957670000003,39.44999999999999],[-74.31937920000001,39.44999999999999],[-74.3184847,39.44999999999999],[-74.316622,39.44999999999999],[-74.31157619999999,39.44999999999999],[-74.29803750000002,39.44999999999999],[-74.28397919999998,39.44999999999999],[-74.2759979,39.44999999999999],[-74.27316839999997,39.44999999999999],[-74.2729913,39.44999999999999],[-74.27297959999999,39.44999999999999],[-74.27291680000002,39.44999999999999],[-74.2508507,39.44999999999999],[-74.25033819999999,39.44999999999999],[-74.25,39.44999999999999],[-74.25,39.437948800000015],[-74.25,39.43532429999999],[-74.25,39.42783509999998],[-74.25,39.39280430000002],[-74.25,39.38788899999997],[-74.25,39.375],[-74.26334930000002,39.375],[-74.3119264,39.375]]]}},{"type":"Feature","properties":{},"geometry":{"type":"Polygon","coordinates":[[[-74.4643984,39.44999999999999],[-74.47500000000002,39.44999999999999],[-74.47500000000002,39.45699350000001],[-74.47500000000002,39.50844289999998],[-74.47500000000002,39.511616600000025],[-74.47500000000002,39.51330489999998],[-74.47500000000002,39.514243299999976],[-74.47500000000002,39.516783299999986],[-74.47500000000002,39.52499999999998],[-74.45289500000001,39.52499999999998],[-74.45019070000001,39.52499999999998],[-74.43998640000001,39.52499999999998],[-74.4377733,39.52499999999998],[-74.43470630000002,39.52499999999998],[-74.4342112,39.52499999999998],[-74.4245459,39.52499999999998],[-74.4242203,39.52499999999998],[-74.4113863,39.52499999999998],[-74.41097539999998,39.52499999999998],[-74.40782380000002,39.52499999999998],[-74.4011906,39.52499999999998],[-74.39999999999998,39.52499999999998],[-74.39999999999998,39.52462129999998],[-74.39999999999998,39.49759510000001],[-74.39999999999998,39.49663320000002],[-74.39999999999998,39.49346150000002],[-74.39999999999998,39.493058399999995],[-74.39999999999998,39.49245930000001],[-74.39999999999998,39.49196920000003],[-74.39999999999998,39.48965249999998],[-74.39999999999998,39.489321399999994],[-74.39999999999998,39.487822300000005],[-74.39999999999998,39.48745939999998],[-74.39999999999998,39.48386740000001],[-74.39999999999998,39.47611760000001],[-74.39999999999998,39.474508800000024],[-74.39999999999998,39.471102099999996],[-74.39999999999998,39.46446309999999],[-74.39999999999998,39.46437639999999],[-74.39999999999998,39.46253919999998],[-74.39999999999998,39.46166699999998],[-74.39999999999998,39.461150299999986],[-74.39999999999998,39.46110140000002],[-74.39999999999998,39.45981440000003],[-74.39999999999998,39.4582479],[-74.39999999999998,39.45297479999999],[-74.39999999999998,39.452893200000005],[-74.39999999999998,39.45157419999998],[-74.39999999999998,39.45088190000001],[-74.39999999999998,39.44999999999999],[-74.40369900000002,39.44999999999999],[-74.4038928,39.44999999999999],[-74.4048914,39.44999999999999],[-74.40495859999999,39.44999999999999],[-74.40559489999998,39.44999999999999],[-74.40569640000001,39.44999999999999],[-74.40686699999998,39.44999999999999],[-74.40737489999998,39.44999999999999],[-74.4123755,39.44999999999999],[-74.41247659999999,39.44999999999999],[-74.4207121,39.44999999999999],[-74.4212809,39.44999999999999],[-74.42175709999998,39.44999999999999],[-74.42190419999997,39.44999999999999],[-74.42368879999998,39.44999999999999],[-74.42400229999998,39.44999999999999],[-74.42453110000002,39.44999999999999],[-74.42468550000001,39.44999999999999],[-74.4247661,39.44999999999999],[-74.42560099999997,39.44999999999999],[-74.44463300000001,39.44999999999999],[-74.44803589999998,39.44999999999999],[-74.4503474,39.44999999999999],[-74.4504844,39.44999999999999],[-74.45811049999998,39.44999999999999],[-74.45829149999997,39.44999999999999],[-74.4643984,39.44999999999999]]]}},{"type":"Feature","properties":{},"geometry":{"type":"Polygon","coordinates":[[[-74.39771350000001,39.44999999999999],[-74.39999999999998,39.44999999999999],[-74.39999999999998,39.45088190000001],[-74.39999999999998,39.45157419999998],[-74.39999999999998,39.452893200000005],[-74.39999999999998,39.45297479999999],[-74.39999999999998,39.4582479],[-74.39999999999998,39.45981440000003],[-74.39999999999998,39.46110140000002],[-74.39999999999998,39.461150299999986],[-74.39999999999998,39.46166699999998],[-74.39999999999998,39.46253919999998],[-74.39999999999998,39.46437639999999],[-74.39999999999998,39.46446309999999],[-74.39999999999998,39.471102099999996],[-74.39999999999998,39.474508800000024],[-74.39999999999998,39.47611760000001],[-74.39999999999998,39.48386740000001],[-74.39999999999998,39.48745939999998],[-74.39999999999998,39.487822300000005],[-74.39999999999998,39.489321399999994],[-74.39999999999998,39.48965249999998],[-74.39999999999998,39.49196920000003],[-74.39999999999998,39.49245930000001],[-74.39999999999998,39.493058399999995],[-74.39999999999998,39.49346150000002],[-74.39999999999998,39.49663320000002],[-74.39999999999998,39.49759510000001],[-74.39999999999998,39.52462129999998],[-74.39999999999998,39.52499999999998],[-74.39928659999998,39.52499999999998],[-74.3977754,39.52499999999998],[-74.3760236,39.52499999999998],[-74.35939990000003,39.52499999999998],[-74.35842100000002,39.52499999999998],[-74.35802139999998,39.52499999999998],[-74.34995709999998,39.52499999999998],[-74.3488992,39.52499999999998],[-74.3462065,39.52499999999998],[-74.33887859999999,39.52499999999998],[-74.3382317,39.52499999999998],[-74.33705509999999,39.52499999999998],[-74.33534379999998,39.52499999999998],[-74.33440200000001,39.52499999999998],[-74.33344299999999,39.52499999999998],[-74.33325789999998,39.52499999999998],[-74.33186339999997,39.52499999999998],[-74.3315508,39.52499999999998],[-74.33042920000003,39.52499999999998],[-74.330243,39.52499999999998],[-74.32792949999998,39.52499999999998],[-74.32686690000003,39.52499999999998],[-74.32499999999999,39.52499999999998],[-74.32499999999999,39.522395500000016],[-74.32499999999999,39.5217485],[-74.32499999999999,39.51601690000001],[-74.32499999999999,39.51587039999998],[-74.32499999999999,39.514313000000016],[-74.32499999999999,39.5140849],[-74.32499999999999,39.50956200000002],[-74.32499999999999,39.50939890000001],[-74.32499999999999,39.509161199999994],[-74.32499999999999,39.50847970000001],[-74.32499999999999,39.50815069999999],[-74.32499999999999,39.50802390000001],[-74.32499999999999,39.507941500000015],[-74.32499999999999,39.507745899999975],[-74.32499999999999,39.50711289999998],[-74.32499999999999,39.506108299999994],[-74.32499999999999,39.50593140000001],[-74.32499999999999,39.50552579999999],[-74.32499999999999,39.505212400000005],[-74.32499999999999,39.504072399999984],[-74.32499999999999,39.503320599999995],[-74.32499999999999,39.502540899999985],[-74.32499999999999,39.50095219999997],[-74.32499999999999,39.500173099999984],[-74.32499999999999,39.49938470000001],[-74.32499999999999,39.499191499999995],[-74.32499999999999,39.499034600000016],[-74.32499999999999,39.498873300000014],[-74.32499999999999,39.49850709999998],[-74.32499999999999,39.49536599999999],[-74.32499999999999,39.49481800000001],[-74.32499999999999,39.49345520000003],[-74.32499999999999,39.49194210000002],[-74.32499999999999,39.49075749999997],[-74.32499999999999,39.49005149999999],[-74.32499999999999,39.48969030000001],[-74.32499999999999,39.48948419999999],[-74.32499999999999,39.48928000000001],[-74.32499999999999,39.488960599999984],[-74.32499999999999,39.48880919999999],[-74.32499999999999,39.488598000000025],[-74.32499999999999,39.48709259999998],[-74.32499999999999,39.486121200000014],[-74.32499999999999,39.48306580000002],[-74.32499999999999,39.48190690000001],[-74.32499999999999,39.481678699999975],[-74.32499999999999,39.47741100000002],[-74.32499999999999,39.4766745],[-74.32499999999999,39.470893699999976],[-74.32499999999999,39.467078800000024],[-74.32499999999999,39.463705300000015],[-74.32499999999999,39.46304789999999],[-74.32499999999999,39.46286429999998],[-74.32499999999999,39.45956439999998],[-74.32499999999999,39.4579167],[-74.32499999999999,39.45636919999998],[-74.32499999999999,39.456178299999976],[-74.32499999999999,39.451282400000025],[-74.32499999999999,39.45047970000002],[-74.32499999999999,39.45026339999998],[-74.32499999999999,39.44999999999999],[-74.32950890000001,39.44999999999999],[-74.3315859,39.44999999999999],[-74.33357569999998,39.44999999999999],[-74.33396770000002,39.44999999999999],[-74.33523020000001,39.44999999999999],[-74.33621,39.44999999999999],[-74.3449635,39.44999999999999],[-74.34530860000001,39.44999999999999],[-74.34911110000002,39.44999999999999],[-74.34981160000001,39.44999999999999],[-74.35067709999998,39.44999999999999],[-74.35912969999998,39.44999999999999],[-74.35943209999999,39.44999999999999],[-74.36568770000002,39.44999999999999],[-74.36592339999999,39.44999999999999],[-74.36636979999997,39.44999999999999],[-74.36750669999998,39.44999999999999],[-74.36931399999997,39.44999999999999],[-74.36974120000002,39.44999999999999],[-74.36977610000002,39.44999999999999],[-74.37308739999997,39.44999999999999],[-74.3781123,39.44999999999999],[-74.38101920000003,39.44999999999999],[-74.38205119999998,39.44999999999999],[-74.3853613,39.44999999999999],[-74.38602020000002,39.44999999999999],[-74.3867057,39.44999999999999],[-74.39020520000003,39.44999999999999],[-74.39079939999999,39.44999999999999],[-74.39211410000001,39.44999999999999],[-74.3921398,39.44999999999999],[-74.39238440000003,39.44999999999999],[-74.39282509999998,39.44999999999999],[-74.39363350000002,39.44999999999999],[-74.3944002,39.44999999999999],[-74.3972521,39.44999999999999],[-74.39771350000001,39.44999999999999]]]}},{"type":"Feature","properties":{},"geometry":{"type":"Polygon","coordinates":[[[-74.32456639999998,39.44999999999999],[-74.32499999999999,39.44999999999999],[-74.32499999999999,39.45026339999998],[-74.32499999999999,39.45047970000002],[-74.32499999999999,39.451282400000025],[-74.32499999999999,39.456178299999976],[-74.32499999999999,39.45636919999998],[-74.32499999999999,39.4579167],[-74.32499999999999,39.45956439999998],[-74.32499999999999,39.46286429999998],[-74.32499999999999,39.46304789999999],[-74.32499999999999,39.463705300000015],[-74.32499999999999,39.467078800000024],[-74.32499999999999,39.470893699999976],[-74.32499999999999,39.4766745],[-74.32499999999999,39.47741100000002],[-74.32499999999999,39.481678699999975],[-74.32499999999999,39.48190690000001],[-74.32499999999999,39.48306580000002],[-74.32499999999999,39.486121200000014],[-74.32499999999999,39.48709259999998],[-74.32499999999999,39.488598000000025],[-74.32499999999999,39.48880919999999],[-74.32499999999999,39.488960599999984],[-74.32499999999999,39.48928000000001],[-74.32499999999999,39.48948419999999],[-74.32499999999999,39.48969030000001],[-74.32499999999999,39.49005149999999],[-74.32499999999999,39.49075749999997],[-74.32499999999999,39.49194210000002],[-74.32499999999999,39.49345520000003],[-74.32499999999999,39.49481800000001],[-74.32499999999999,39.49536599999999],[-74.32499999999999,39.49850709999998],[-74.32499999999999,39.498873300000014],[-74.32499999999999,39.499034600000016],[-74.32499999999999,39.499191499999995],[-74.32499999999999,39.49938470000001],[-74.32499999999999,39.500173099999984],[-74.32499999999999,39.50095219999997],[-74.32499999999999,39.502540899999985],[-74.32499999999999,39.503320599999995],[-74.32499999999999,39.504072399999984],[-74.32499999999999,39.505212400000005],[-74.32499999999999,39.50552579999999],[-74.32499999999999,39.50593140000001],[-74.32499999999999,39.506108299999994],[-74.32499999999999,39.50711289999998],[-74.32499999999999,39.507745899999975],[-74.32499999999999,39.507941500000015],[-74.32499999999999,39.50802390000001],[-74.32499999999999,39.50815069999999],[-74.32499999999999,39.50847970000001],[-74.32499999999999,39.509161199999994],[-74.32499999999999,39.50939890000001],[-74.32499999999999,39.50956200000002],[-74.32499999999999,39.5140849],[-74.32499999999999,39.514313000000016],[-74.32499999999999,39.51587039999998],[-74.32499999999999,39.51601690000001],[-74.32499999999999,39.5217485],[-74.32499999999999,39.522395500000016],[-74.32499999999999,39.52499999999998],[-74.32435900000002,39.52499999999998],[-74.32295590000001,39.52499999999998],[-74.32094890000002,39.52499999999998],[-74.31997719999998,39.52499999999998],[-74.31570749999997,39.52499999999998],[-74.3140363,39.52499999999998],[-74.3110906,39.52499999999998],[-74.3099626,39.52499999999998],[-74.30585400000001,39.52499999999998],[-74.30563910000001,39.52499999999998],[-74.3051714,39.52499999999998],[-74.29811539999997,39.52499999999998],[-74.29778019999998,39.52499999999998],[-74.29737419999998,39.52499999999998],[-74.29642339999998,39.52499999999998],[-74.29630900000001,39.52499999999998],[-74.29442940000001,39.52499999999998],[-74.29371509999999,39.52499999999998],[-74.290413,39.52499999999998],[-74.2888858,39.52499999999998],[-74.28867250000002,39.52499999999998],[-74.28741280000003,39.52499999999998],[-74.286925,39.52499999999998],[-74.28613380000002,39.52499999999998],[-74.28391959999999,39.52499999999998],[-74.28386979999999,39.52499999999998],[-74.28059710000002,39.52499999999998],[-74.27982370000001,39.52499999999998],[-74.27967389999998,39.52499999999998],[-74.27878879999997,39.52499999999998],[-74.27744360000003,39.52499999999998],[-74.27629730000001,39.52499999999998],[-74.2722364,39.52499999999998],[-74.2720435,39.52499999999998],[-74.27095350000002,39.52499999999998],[-74.27029279999999,39.52499999999998],[-74.26777700000002,39.52499999999998],[-74.2620068,39.52499999999998],[-74.25,39.52499999999998],[-74.25,39.52355069999999],[-74.25,39.51160770000001],[-74.25,39.51104479999998],[-74.25,39.5043771],[-74.25,39.5030567],[-74.25,39.499840199999994],[-74.25,39.49160760000001],[-74.25,39.48600729999998],[-74.25,39.483652500000005],[-74.25,39.47520029999998],[-74.25,39.471905100000015],[-74.25,39.46848920000002],[-74.25,39.45817570000003],[-74.25,39.45163339999999],[-74.25,39.45065790000001],[-74.25,39.44999999999999],[-74.25033819999999,39.44999999999999],[-74.2508507,39.44999999999999],[-74.27291680000002,39.44999999999999],[-74.2729913,39.44999999999999],[-74.2759979,39.44999999999999],[-74.28397919999998,39.44999999999999],[-74.29803750000002,39.44999999999999],[-74.31157619999999,39.44999999999999],[-74.316622,39.44999999999999],[-74.3184847,39.44999999999999],[-74.31937920000001,39.44999999999999],[-74.31957670000003,39.44999999999999],[-74.32318470000001,39.44999999999999],[-74.32329959999998,39.44999999999999],[-74.32456639999998,39.44999999999999]]]}},{"type":"Feature","properties":{},"geometry":{"type":"Polygon","coordinates":[[[-74.55000000000001,39.575263699999994],[-74.55000000000001,39.581721000000016],[-74.55000000000001,39.587458500000025],[-74.55000000000001,39.59319199999999],[-74.55000000000001,39.60000000000002],[-74.48811490000003,39.60000000000002],[-74.48624569999998,39.60000000000002],[-74.47500000000002,39.60000000000002],[-74.47500000000002,39.585467300000005],[-74.47500000000002,39.58204860000001],[-74.47500000000002,39.57418969999998],[-74.47500000000002,39.57388329999998],[-74.47500000000002,39.57149800000002],[-74.47500000000002,39.56975510000001],[-74.47500000000002,39.564074300000016],[-74.47500000000002,39.5604022],[-74.47500000000002,39.55464979999999],[-74.47500000000002,39.55391259999999],[-74.47500000000002,39.55298160000001],[-74.47500000000002,39.552065700000014],[-74.47500000000002,39.55139939999998],[-74.47500000000002,39.55078900000001],[-74.47500000000002,39.54816820000002],[-74.47500000000002,39.54398520000001],[-74.47500000000002,39.538564199999996],[-74.47500000000002,39.5278366],[-74.47500000000002,39.52615209999999],[-74.47500000000002,39.52499999999998],[-74.47541189999998,39.52499999999998],[-74.4772676,39.52499999999998],[-74.55000000000001,39.52499999999998],[-74.55000000000001,39.575263699999994]]]}},{"type":"Feature","properties":{},"geometry":{"type":"Polygon","coordinates":[[[-74.45289500000001,39.52499999999998],[-74.47500000000002,39.52499999999998],[-74.47500000000002,39.52615209999999],[-74.47500000000002,39.5278366],[-74.47500000000002,39.538564199999996],[-74.47500000000002,39.54398520000001],[-74.47500000000002,39.54816820000002],[-74.47500000000002,39.55078900000001],[-74.47500000000002,39.55139939999998],[-74.47500000000002,39.552065700000014],[-74.47500000000002,39.55298160000001],[-74.47500000000002,39.55391259999999],[-74.47500000000002,39.55464979999999],[-74.47500000000002,39.5604022],[-74.47500000000002,39.564074300000016],[-74.47500000000002,39.56975510000001],[-74.47500000000002,39.57149800000002],[-74.47500000000002,39.57388329999998],[-74.47500000000002,39.57418969999998],[-74.47500000000002,39.58204860000001],[-74.47500000000002,39.585467300000005],[-74.47500000000002,39.60000000000002],[-74.46174159999998,39.60000000000002],[-74.45112890000001,39.60000000000002],[-74.41624999999999,39.60000000000002],[-74.39999999999998,39.60000000000002],[-74.39999999999998,39.58242919999998],[-74.39999999999998,39.574061700000016],[-74.39999999999998,39.57300479999998],[-74.39999999999998,39.57207319999998],[-74.39999999999998,39.5686316],[-74.39999999999998,39.567571699999974],[-74.39999999999998,39.56670100000002],[-74.39999999999998,39.5663892],[-74.39999999999998,39.56576960000001],[-74.39999999999998,39.56547690000002],[-74.39999999999998,39.562443099999996],[-74.39999999999998,39.56221909999999],[-74.39999999999998,39.55217879999998],[-74.39999999999998,39.5518606],[-74.39999999999998,39.55051980000002],[-74.39999999999998,39.546501999999975],[-74.39999999999998,39.546219699999995],[-74.39999999999998,39.54587320000002],[-74.39999999999998,39.5453718],[-74.39999999999998,39.54503149999999],[-74.39999999999998,39.538862600000016],[-74.39999999999998,39.5368522],[-74.39999999999998,39.534882400000015],[-74.39999999999998,39.533477600000026],[-74.39999999999998,39.52499999999998],[-74.4011906,39.52499999999998],[-74.40782380000002,39.52499999999998],[-74.41097539999998,39.52499999999998],[-74.4113863,39.52499999999998],[-74.4242203,39.52499999999998],[-74.4245459,39.52499999999998],[-74.4342112,39.52499999999998],[-74.43470630000002,39.52499999999998],[-74.4377733,39.52499999999998],[-74.43998640000001,39.52499999999998],[-74.45019070000001,39.52499999999998],[-74.45289500000001,39.52499999999998]]]}},{"type":"Feature","properties":{},"geometry":{"type":"Polygon","coordinates":[[[-74.39999999999998,39.533477600000026],[-74.39999999999998,39.534882400000015],[-74.39999999999998,39.5368522],[-74.39999999999998,39.538862600000016],[-74.39999999999998,39.54503149999999],[-74.39999999999998,39.5453718],[-74.39999999999998,39.54587320000002],[-74.39999999999998,39.546219699999995],[-74.39999999999998,39.546501999999975],[-74.39999999999998,39.55051980000002],[-74.39999999999998,39.5518606],[-74.39999999999998,39.55217879999998],[-74.39999999999998,39.56221909999999],[-74.39999999999998,39.562443099999996],[-74.39999999999998,39.56547690000002],[-74.39999999999998,39.56576960000001],[-74.39999999999998,39.5663892],[-74.39999999999998,39.56670100000002],[-74.39999999999998,39.567571699999974],[-74.39999999999998,39.5686316],[-74.39999999999998,39.57207319999998],[-74.39999999999998,39.57300479999998],[-74.39999999999998,39.574061700000016],[-74.39999999999998,39.58242919999998],[-74.39999999999998,39.60000000000002],[-74.34484179999998,39.60000000000002],[-74.3410503,39.60000000000002],[-74.34095330000002,39.60000000000002],[-74.3408867,39.60000000000002],[-74.34086580000002,39.60000000000002],[-74.3404544,39.60000000000002],[-74.33211619999997,39.60000000000002],[-74.32499999999999,39.60000000000002],[-74.32499999999999,39.597040600000014],[-74.32499999999999,39.59670879999999],[-74.32499999999999,39.59325899999999],[-74.32499999999999,39.59292770000002],[-74.32499999999999,39.584976600000005],[-74.32499999999999,39.5844247],[-74.32499999999999,39.58347470000001],[-74.32499999999999,39.5825122],[-74.32499999999999,39.58189110000001],[-74.32499999999999,39.577217099999984],[-74.32499999999999,39.575953700000014],[-74.32499999999999,39.575350800000024],[-74.32499999999999,39.570962899999984],[-74.32499999999999,39.56821309999998],[-74.32499999999999,39.553839400000015],[-74.32499999999999,39.539163599999995],[-74.32499999999999,39.53871550000002],[-74.32499999999999,39.533736499999975],[-74.32499999999999,39.53322750000001],[-74.32499999999999,39.53216379999998],[-74.32499999999999,39.52499999999998],[-74.32686690000003,39.52499999999998],[-74.32792949999998,39.52499999999998],[-74.330243,39.52499999999998],[-74.33042920000003,39.52499999999998],[-74.3315508,39.52499999999998],[-74.33186339999997,39.52499999999998],[-74.33325789999998,39.52499999999998],[-74.33344299999999,39.52499999999998],[-74.33440200000001,39.52499999999998],[-74.33534379999998,39.52499999999998],[-74.33705509999999,39.52499999999998],[-74.3382317,39.52499999999998],[-74.33887859999999,39.52499999999998],[-74.3462065,39.52499999999998],[-74.3488992,39.52499999999998],[-74.34995709999998,39.52499999999998],[-74.35802139999998,39.52499999999998],[-74.35842100000002,39.52499999999998],[-74.35939990000003,39.52499999999998],[-74.3760236,39.52499999999998],[-74.3977754,39.52499999999998],[-74.39928659999998,39.52499999999998],[-74.39999999999998,39.52499999999998],[-74.39999999999998,39.533477600000026]]]}},{"type":"Feature","properties":{},"geometry":{"type":"Polygon","coordinates":[[[-74.32435900000002,39.52499999999998],[-74.32499999999999,39.52499999999998],[-74.32499999999999,39.53216379999998],[-74.32499999999999,39.53322750000001],[-74.32499999999999,39.533736499999975],[-74.32499999999999,39.53871550000002],[-74.32499999999999,39.539163599999995],[-74.32499999999999,39.553839400000015],[-74.32499999999999,39.56821309999998],[-74.32499999999999,39.570962899999984],[-74.32499999999999,39.575350800000024],[-74.32499999999999,39.575953700000014],[-74.32499999999999,39.577217099999984],[-74.32499999999999,39.58189110000001],[-74.32499999999999,39.5825122],[-74.32499999999999,39.58347470000001],[-74.32499999999999,39.5844247],[-74.32499999999999,39.584976600000005],[-74.32499999999999,39.59292770000002],[-74.32499999999999,39.59325899999999],[-74.32499999999999,39.59670879999999],[-74.32499999999999,39.597040600000014],[-74.32499999999999,39.60000000000002],[-74.31833160000002,39.60000000000002],[-74.3166895,39.60000000000002],[-74.31546780000002,39.60000000000002],[-74.31511690000002,39.60000000000002],[-74.3145126,39.60000000000002],[-74.31414330000001,39.60000000000002],[-74.30759920000003,39.60000000000002],[-74.30565009999998,39.60000000000002],[-74.2838658,39.60000000000002],[-74.27494589999998,39.60000000000002],[-74.26997699999998,39.60000000000002],[-74.26516279999998,39.60000000000002],[-74.25922129999998,39.60000000000002],[-74.2526168,39.60000000000002],[-74.25,39.60000000000002],[-74.25,39.5919361],[-74.25,39.59178229999998],[-74.25,39.5880942],[-74.25,39.576308299999994],[-74.25,39.57168899999999],[-74.25,39.570288800000014],[-74.25,39.57024419999999],[-74.25,39.569752300000005],[-74.25,39.56935420000002],[-74.25,39.56877780000002],[-74.25,39.5659531],[-74.25,39.56565690000002],[-74.25,39.56535650000001],[-74.25,39.564366500000006],[-74.25,39.56389899999999],[-74.25,39.562667499999975],[-74.25,39.56239099999999],[-74.25,39.56183470000002],[-74.25,39.56112439999998],[-74.25,39.560773100000006],[-74.25,39.55941200000001],[-74.25,39.55715470000001],[-74.25,39.555843700000025],[-74.25,39.555707900000016],[-74.25,39.555521999999996],[-74.25,39.554949599999986],[-74.25,39.554946900000004],[-74.25,39.55482380000001],[-74.25,39.54716769999999],[-74.25,39.547138700000005],[-74.25,39.54687009999998],[-74.25,39.54665360000001],[-74.25,39.546111999999994],[-74.25,39.5459654],[-74.25,39.5457801],[-74.25,39.54318139999998],[-74.25,39.541108399999985],[-74.25,39.52499999999998],[-74.2620068,39.52499999999998],[-74.26777700000002,39.52499999999998],[-74.27029279999999,39.52499999999998],[-74.27095350000002,39.52499999999998],[-74.2720435,39.52499999999998],[-74.2722364,39.52499999999998],[-74.27629730000001,39.52499999999998],[-74.27744360000003,39.52499999999998],[-74.27878879999997,39.52499999999998],[-74.27967389999998,39.52499999999998],[-74.27982370000001,39.52499999999998],[-74.28059710000002,39.52499999999998],[-74.28386979999999,39.52499999999998],[-74.28391959999999,39.52499999999998],[-74.28613380000002,39.52499999999998],[-74.286925,39.52499999999998],[-74.28741280000003,39.52499999999998],[-74.28867250000002,39.52499999999998],[-74.2888858,39.52499999999998],[-74.290413,39.52499999999998],[-74.29371509999999,39.52499999999998],[-74.29442940000001,39.52499999999998],[-74.29630900000001,39.52499999999998],[-74.29642339999998,39.52499999999998],[-74.29737419999998,39.52499999999998],[-74.29778019999998,39.52499999999998],[-74.29811539999997,39.52499999999998],[-74.3051714,39.52499999999998],[-74.30563910000001,39.52499999999998],[-74.30585400000001,39.52499999999998],[-74.3099626,39.52499999999998],[-74.3110906,39.52499999999998],[-74.3140363,39.52499999999998],[-74.31570749999997,39.52499999999998],[-74.31997719999998,39.52499999999998],[-74.32094890000002,39.52499999999998],[-74.32295590000001,39.52499999999998],[-74.32435900000002,39.52499999999998]]]}}]}