{"type":"FeatureCollection","features":[{"type":"Feature","properties":{},"geometry":{"type":"Polygon","coordinates":[[[-81.5831498,30.291905299999996],[-81.5831498,30.29404740000001],[-81.5831498,30.29484500000001],[-81.5831498,30.295035900000016],[-81.5831498,30.295211300000005],[-81.5831498,30.295295699999997],[-81.5831498,30.296863700000017],[-81.5831498,30.30000000000001],[-81.59314210000002,30.30000000000001],[-81.59385429999998,30.30000000000001],[-81.59435289999999,30.30000000000001],[-81.59494189999998,30.30000000000001],[-81.60000000000002,30.30000000000001],[-81.60000000000002,30.29260340000002],[-81.5831498,30.291905299999996]]]}},{"type":"Feature","properties":{},"geometry":{"type":"Polygon","coordinates":[[[-81.41803149999998,30.225000000000023],[-81.42708349999998,30.225000000000023],[-81.44999999999999,30.225000000000023],[-81.44999999999999,30.149999999999977],[-81.39607869999998,30.149999999999977],[-81.39556290000002,30.149999999999977],[-81.39534049999997,30.149999999999977],[-81.39512969999998,30.149999999999977],[-81.39472110000003,30.149999999999977],[-81.375,30.149999999999977],[-81.375,30.22282150000001],[-81.375,30.223231399999975],[-81.375,30.224393099999986],[-81.375,30.225000000000023],[-81.37516269999998,30.225000000000023],[-81.37659359999998,30.225000000000023],[-81.37743890000002,30.225000000000023],[-81.40308490000001,30.225000000000023],[-81.40338129999998,30.225000000000023],[-81.40697010000002,30.225000000000023],[-81.40782059999998,30.225000000000023],[-81.41045020000001,30.225000000000023],[-81.41208239999997,30.225000000000023],[-81.41308190000001,30.225000000000023],[-81.41444460000002,30.225000000000023],[-81.41531909999998,30.225000000000023],[-81.41583079999998,30.225000000000023],[-81.41600899999997,30.225000000000023],[-81.41625640000001,30.225000000000023],[-81.41684579999998,30.225000000000023],[-81.41688149999999,30.225000000000023],[-81.41751149999999,30.225000000000023],[-81.41767570000002,30.225000000000023],[-81.41803149999998,30.225000000000023]]]}},{"type":"Feature","properties":{},"geometry":{"type":"Polygon","coordinates":[[[-81.43600229999998,30.30000000000001],[-81.44370370000001,30.30000000000001],[-81.44999999999999,30.30000000000001],[-81.44999999999999,30.225000000000023],[-81.42708349999998,30.225000000000023],[-81.41803149999998,30.225000000000023],[-81.41767570000002,30.225000000000023],[-81.41751149999999,30.225000000000023],[-81.41688149999999,30.225000000000023],[-81.41684579999998,30.225000000000023],[-81.41625640000001,30.225000000000023],[-81.41600899999997,30.225000000000023],[-81.41583079999998,30.225000000000023],[-81.41531909999998,30.225000000000023],[-81.41444460000002,30.225000000000023],[-81.41308190000001,30.225000000000023],[-81.41208239999997,30.225000000000023],[-81.41045020000001,30.225000000000023],[-81.40782059999998,30.225000000000023],[-81.40697010000002,30.225000000000023],[-81.40338129999998,30.225000000000023],[-81.40308490000001,30.225000000000023],[-81.40298460000002,30.225000000000023],[-81.3802063,30.225000000000023],[-81.37743890000002,30.225000000000023],[-81.37659359999998,30.225000000000023],[-81.37516269999998,30.225000000000023],[-81.375,30.225000000000023],[-81.375,30.225552300000004],[-81.375,30.228337399999987],[-81.375,30.229675999999984],[-81.375,30.232776399999977],[-81.375,30.234826800000008],[-81.375,30.238471100000027],[-81.375,30.24961380000002],[-81.375,30.250367100000005],[-81.375,30.260299999999972],[-81.375,30.266924000000017],[-81.375,30.285809200000017],[-81.375,30.29728829999999],[-81.375,30.30000000000001],[-81.3767876,30.30000000000001],[-81.38322319999997,30.30000000000001],[-81.384094,30.30000000000001],[-81.3865361,30.30000000000001],[-81.38720699999999,30.30000000000001],[-81.38780750000001,30.30000000000001],[-81.38970890000002,30.30000000000001],[-81.39073139999999,30.30000000000001],[-81.39095759999998,30.30000000000001],[-81.39334969999999,30.30000000000001],[-81.39696939999999,30.30000000000001],[-81.40254019999998,30.30000000000001],[-81.41532899999999,30.30000000000001],[-81.41618419999998,30.30000000000001],[-81.4227947,30.30000000000001],[-81.4228372,30.30000000000001],[-81.42384270000002,30.30000000000001],[-81.42400429999998,30.30000000000001],[-81.42424399999999,30.30000000000001],[-81.42505899999998,30.30000000000001],[-81.42654190000002,30.30000000000001],[-81.42745500000001,30.30000000000001],[-81.42764110000002,30.30000000000001],[-81.43050540000002,30.30000000000001],[-81.43344939999997,30.30000000000001],[-81.43408019999998,30.30000000000001],[-81.43437449999999,30.30000000000001],[-81.43600229999998,30.30000000000001]]]}},{"type":"Feature","properties":{},"geometry":{"type":"Polygon","coordinates":[[[-81.67459839999998,30.149999999999977],[-81.6743525,30.149999999999977],[-81.60000000000002,30.149999999999977],[-81.60000000000002,30.225000000000023],[-81.60672349999999,30.225000000000023],[-81.60695879999997,30.225000000000023],[-81.62214569999998,30.225000000000023],[-81.62400120000001,30.225000000000023],[-81.64234729999998,30.225000000000023],[-81.65690389999997,30.225000000000023],[-81.66356730000001,30.225000000000023],[-81.66459930000002,30.225000000000023],[-81.6661732,30.225000000000023],[-81.67500000000001,30.225000000000023],[-81.67500000000001,30.21929319999998],[-81.67500000000001,30.21869099999998],[-81.67500000000001,30.215969700000016],[-81.67500000000001,30.212319400000013],[-81.67500000000001,30.20916269999998],[-81.67500000000001,30.20417550000002],[-81.67500000000001,30.1940295],[-81.67500000000001,30.1935608],[-81.67500000000001,30.190680600000007],[-81.67500000000001,30.190487700000006],[-81.67500000000001,30.190333099999975],[-81.67500000000001,30.190140499999984],[-81.67500000000001,30.185079099999996],[-81.67500000000001,30.163942200000008],[-81.67500000000001,30.1602355],[-81.67500000000001,30.15408450000001],[-81.67500000000001,30.151576999999975],[-81.67500000000001,30.151201300000025],[-81.67500000000001,30.150842899999986],[-81.67500000000001,30.150520700000015],[-81.67500000000001,30.150161799999978],[-81.67500000000001,30.150116200000014],[-81.67500000000001,30.149999999999977],[-81.6747656,30.149999999999977],[-81.67459839999998,30.149999999999977]]]}},{"type":"Feature","properties":{},"geometry":{"type":"Polygon","coordinates":[[[-81.67500000000001,30.229855199999975],[-81.67500000000001,30.225000000000023],[-81.6661732,30.225000000000023],[-81.66459930000002,30.225000000000023],[-81.66356730000001,30.225000000000023],[-81.65690389999997,30.225000000000023],[-81.64234729999998,30.225000000000023],[-81.62400120000001,30.225000000000023],[-81.62214569999998,30.225000000000023],[-81.60695879999997,30.225000000000023],[-81.60672349999999,30.225000000000023],[-81.60000000000002,30.225000000000023],[-81.60000000000002,30.29260340000002],[-81.60000000000002,30.30000000000001],[-81.61364900000001,30.30000000000001],[-81.61388929999998,30.30000000000001],[-81.61454040000001,30.30000000000001],[-81.61476800000003,30.30000000000001],[-81.61494520000002,30.30000000000001],[-81.61599639999997,30.30000000000001],[-81.61629729999999,30.30000000000001],[-81.62197750000001,30.30000000000001],[-81.6460169,30.30000000000001],[-81.65719209999997,30.30000000000001],[-81.657242,30.30000000000001],[-81.66848549999997,30.30000000000001],[-81.6690026,30.30000000000001],[-81.67109260000001,30.30000000000001],[-81.6723169,30.30000000000001],[-81.67294429999998,30.30000000000001],[-81.67500000000001,30.30000000000001],[-81.67500000000001,30.26740810000001],[-81.67500000000001,30.259767699999998],[-81.67500000000001,30.24399820000002],[-81.67500000000001,30.243081200000006],[-81.67500000000001,30.24084290000002],[-81.67500000000001,30.240623200000016],[-81.67500000000001,30.229855199999975]]]}},{"type":"Feature","properties":{},"geometry":{"type":"Polygon","coordinates":[[[-81.6723169,30.30000000000001],[-81.67109260000001,30.30000000000001],[-81.6690026,30.30000000000001],[-81.66848549999997,30.30000000000001],[-81.657242,30.30000000000001],[-81.65719209999997,30.30000000000001],[-81.6460169,30.30000000000001],[-81.62197750000001,30.30000000000001],[-81.61629729999999,30.30000000000001],[-81.61599639999997,30.30000000000001],[-81.61494520000002,30.30000000000001],[-81.61476800000003,30.30000000000001],[-81.61454040000001,30.30000000000001],[-81.61388929999998,30.30000000000001],[-81.61364900000001,30.30000000000001],[-81.60000000000002,30.30000000000001],[-81.60000000000002,30.320398899999986],[-81.60000000000002,30.32044880000001],[-81.60000000000002,30.320695399999977],[-81.60000000000002,30.320808399999976],[-81.60000000000002,30.320832499999995],[-81.60000000000002,30.322156000000007],[-81.60000000000002,30.322327599999994],[-81.60000000000002,30.323047099999997],[-81.60000000000002,30.32324030000001],[-81.60000000000002,30.323242300000004],[-81.60000000000002,30.324455699999987],[-81.60000000000002,30.32460739999999],[-81.60000000000002,30.32472949999999],[-81.60000000000002,30.327163299999995],[-81.60000000000002,30.3369467],[-81.60000000000002,30.347714800000006],[-81.60000000000002,30.375],[-81.61645170000003,30.375],[-81.618335,30.375],[-81.6185269,30.375],[-81.61908089999997,30.375],[-81.61924570000002,30.375],[-81.619662,30.375],[-81.62018260000002,30.375],[-81.62140169999998,30.375],[-81.6257822,30.375],[-81.6273357,30.375],[-81.62753090000001,30.375],[-81.62764679999998,30.375],[-81.62765309999997,30.375],[-81.62828860000002,30.375],[-81.6289332,30.375],[-81.62958600000002,30.375],[-81.6302465,30.375],[-81.63056460000001,30.375],[-81.63094009999998,30.375],[-81.63121180000002,30.375],[-81.63144940000001,30.375],[-81.63179819999999,30.375],[-81.63309270000002,30.375],[-81.63326510000002,30.375],[-81.66328329999999,30.375],[-81.66647590000002,30.375],[-81.67500000000001,30.375],[-81.67500000000001,30.34185100000002],[-81.67500000000001,30.31585899999999],[-81.67500000000001,30.315731000000028],[-81.67500000000001,30.315590299999997],[-81.67500000000001,30.315145400000006],[-81.67500000000001,30.31486050000001],[-81.67500000000001,30.311475499999972],[-81.67500000000001,30.309663899999975],[-81.67500000000001,30.30930189999998],[-81.67500000000001,30.303644099999985],[-81.67500000000001,30.302570000000003],[-81.67500000000001,30.300280699999973],[-81.67500000000001,30.30000000000001],[-81.67294429999998,30.30000000000001],[-81.6723169,30.30000000000001]]]}},{"type":"Feature","properties":{},"geometry":{"type":"Polygon","coordinates":[[[-81.59435289999999,30.30000000000001],[-81.59385429999998,30.30000000000001],[-81.59314210000002,30.30000000000001],[-81.5831498,30.30000000000001],[-81.52499999999998,30.30000000000001],[-81.52499999999998,30.355058799999995],[-81.52499999999998,30.355583799999977],[-81.52499999999998,30.359266600000012],[-81.52499999999998,30.36253529999999],[-81.52499999999998,30.371408499999973],[-81.52499999999998,30.37272919999998],[-81.52499999999998,30.373464599999977],[-81.52499999999998,30.37430089999998],[-81.52499999999998,30.374454000000014],[-81.52499999999998,30.375],[-81.52548589999998,30.375],[-81.52578799999998,30.375],[-81.52613430000002,30.375],[-81.52671520000001,30.375],[-81.5270357,30.375],[-81.5282047,30.375],[-81.52884540000002,30.375],[-81.53021749999999,30.375],[-81.53556220000002,30.375],[-81.5358142,30.375],[-81.5363921,30.375],[-81.53698539999999,30.375],[-81.53727140000001,30.375],[-81.5376099,30.375],[-81.53826600000002,30.375],[-81.53842429999997,30.375],[-81.5385111,30.375],[-81.53852819999997,30.375],[-81.53970700000002,30.375],[-81.54030110000002,30.375],[-81.5430179,30.375],[-81.54428480000001,30.375],[-81.54450960000003,30.375],[-81.54928569999998,30.375],[-81.55267470000001,30.375],[-81.5530013,30.375],[-81.56625029999998,30.375],[-81.56891730000001,30.375],[-81.57022560000001,30.375],[-81.57041750000002,30.375],[-81.5713551,30.375],[-81.5715725,30.375],[-81.57194370000002,30.375],[-81.57300939999999,30.375],[-81.57331679999999,30.375],[-81.5735813,30.375],[-81.57531640000002,30.375],[-81.57564550000001,30.375],[-81.58045090000002,30.375],[-81.58119349999998,30.375],[-81.58238669999997,30.375],[-81.58258380000001,30.375],[-81.5829321,30.375],[-81.58296739999997,30.375],[-81.5829766,30.375],[-81.58343489999999,30.375],[-81.5982176,30.375],[-81.60000000000002,30.375],[-81.60000000000002,30.347714800000006],[-81.60000000000002,30.3369467],[-81.60000000000002,30.327163299999995],[-81.60000000000002,30.32472949999999],[-81.60000000000002,30.32460739999999],[-81.60000000000002,30.324455699999987],[-81.60000000000002,30.323242300000004],[-81.60000000000002,30.32324030000001],[-81.60000000000002,30.323047099999997],[-81.60000000000002,30.322327599999994],[-81.60000000000002,30.322156000000007],[-81.60000000000002,30.320832499999995],[-81.60000000000002,30.320808399999976],[-81.60000000000002,30.320695399999977],[-81.60000000000002,30.32044880000001],[-81.60000000000002,30.320398899999986],[-81.60000000000002,30.30000000000001],[-81.59494189999998,30.30000000000001],[-81.59435289999999,30.30000000000001]]]}},{"type":"Feature","properties":{},"geometry":{"type":"Polygon","coordinates":[[[-81.44999999999999,30.30000000000001],[-81.44999999999999,30.353075199999978],[-81.44999999999999,30.353355099999987],[-81.44999999999999,30.353373599999998],[-81.44999999999999,30.353590899999972],[-81.44999999999999,30.355058799999995],[-81.44999999999999,30.364673100000005],[-81.44999999999999,30.364877999999976],[-81.44999999999999,30.365149900000006],[-81.44999999999999,30.365362199999993],[-81.44999999999999,30.365924300000017],[-81.44999999999999,30.369102999999996],[-81.44999999999999,30.369363599999986],[-81.44999999999999,30.369417399999975],[-81.44999999999999,30.369964400000015],[-81.44999999999999,30.37041640000001],[-81.44999999999999,30.37062229999998],[-81.44999999999999,30.37143259999999],[-81.44999999999999,30.37175639999998],[-81.44999999999999,30.371852100000012],[-81.44999999999999,30.372625900000003],[-81.44999999999999,30.37420129999998],[-81.44999999999999,30.374337200000014],[-81.44999999999999,30.375],[-81.4511425,30.375],[-81.45124049999998,30.375],[-81.45134680000001,30.375],[-81.45152780000001,30.375],[-81.45170030000003,30.375],[-81.45184929999999,30.375],[-81.4521383,30.375],[-81.45234349999998,30.375],[-81.4526267,30.375],[-81.4528019,30.375],[-81.45325150000002,30.375],[-81.45415120000001,30.375],[-81.4549409,30.375],[-81.45603369999998,30.375],[-81.45611259999998,30.375],[-81.45634960000001,30.375],[-81.45660049999998,30.375],[-81.45869140000002,30.375],[-81.45872639999999,30.375],[-81.45999389999997,30.375],[-81.4600198,30.375],[-81.46026289999998,30.375],[-81.46064539999998,30.375],[-81.46090800000002,30.375],[-81.4627577,30.375],[-81.46347650000001,30.375],[-81.46410120000002,30.375],[-81.46767260000001,30.375],[-81.47070250000002,30.375],[-81.47096299999998,30.375],[-81.47522550000002,30.375],[-81.47548330000001,30.375],[-81.47845080000002,30.375],[-81.51723879999997,30.375],[-81.52016270000001,30.375],[-81.52499999999998,30.375],[-81.52499999999998,30.374454000000014],[-81.52499999999998,30.37430089999998],[-81.52499999999998,30.373464599999977],[-81.52499999999998,30.37272919999998],[-81.52499999999998,30.371408499999973],[-81.52499999999998,30.36253529999999],[-81.52499999999998,30.359266600000012],[-81.52499999999998,30.355583799999977],[-81.52499999999998,30.355058799999995],[-81.52499999999998,30.30000000000001],[-81.44999999999999,30.30000000000001]]]}},{"type":"Feature","properties":{},"geometry":{"type":"Polygon","coordinates":[[[-81.43600229999998,30.30000000000001],[-81.43437449999999,30.30000000000001],[-81.43408019999998,30.30000000000001],[-81.43344939999997,30.30000000000001],[-81.43050540000002,30.30000000000001],[-81.42745500000001,30.30000000000001],[-81.42654190000002,30.30000000000001],[-81.42505899999998,30.30000000000001],[-81.42424399999999,30.30000000000001],[-81.42400429999998,30.30000000000001],[-81.42384270000002,30.30000000000001],[-81.4227947,30.30000000000001],[-81.41532899999999,30.30000000000001],[-81.40254019999998,30.30000000000001],[-81.39073139999999,30.30000000000001],[-81.38970890000002,30.30000000000001],[-81.38780750000001,30.30000000000001],[-81.38720699999999,30.30000000000001],[-81.3865361,30.30000000000001],[-81.384094,30.30000000000001],[-81.38322319999997,30.30000000000001],[-81.3767876,30.30000000000001],[-81.375,30.30000000000001],[-81.375,30.304882099999986],[-81.375,30.305887400000017],[-81.375,30.307400700000017],[-81.375,30.313713699999994],[-81.375,30.34343369999999],[-81.375,30.347138900000004],[-81.375,30.356484899999998],[-81.375,30.367820999999992],[-81.375,30.375],[-81.3920602,30.375],[-81.39314150000001,30.375],[-81.3942141,30.375],[-81.3942432,30.375],[-81.3954056,30.375],[-81.39618239999999,30.375],[-81.39717910000002,30.375],[-81.410279,30.375],[-81.41618419999998,30.375],[-81.41704170000003,30.375],[-81.41736809999998,30.375],[-81.41751420000003,30.375],[-81.41905960000003,30.375],[-81.41954679999998,30.375],[-81.4200123,30.375],[-81.420703,30.375],[-81.42096609999999,30.375],[-81.42115030000002,30.375],[-81.4213694,30.375],[-81.42496849999998,30.375],[-81.4286315,30.375],[-81.43404900000002,30.375],[-81.43441410000003,30.375],[-81.43458479999998,30.375],[-81.43540059999998,30.375],[-81.43605880000001,30.375],[-81.44181909999998,30.375],[-81.44335999999998,30.375],[-81.44623159999998,30.375],[-81.44688079999997,30.375],[-81.44794960000002,30.375],[-81.4486564,30.375],[-81.44887240000003,30.375],[-81.44888659999998,30.375],[-81.44999999999999,30.375],[-81.44999999999999,30.374337200000014],[-81.44999999999999,30.37420129999998],[-81.44999999999999,30.372625900000003],[-81.44999999999999,30.371852100000012],[-81.44999999999999,30.37175639999998],[-81.44999999999999,30.37143259999999],[-81.44999999999999,30.37062229999998],[-81.44999999999999,30.37041640000001],[-81.44999999999999,30.369964400000015],[-81.44999999999999,30.369417399999975],[-81.44999999999999,30.369363599999986],[-81.44999999999999,30.369102999999996],[-81.44999999999999,30.365924300000017],[-81.44999999999999,30.365362199999993],[-81.44999999999999,30.365149900000006],[-81.44999999999999,30.364877999999976],[-81.44999999999999,30.364673100000005],[-81.44999999999999,30.353590899999972],[-81.44999999999999,30.353373599999998],[-81.44999999999999,30.353355099999987],[-81.44999999999999,30.353075199999978],[-81.44999999999999,30.30000000000001],[-81.44370370000001,30.30000000000001],[-81.43600229999998,30.30000000000001]]]}},{"type":"Feature","properties":{},"geometry":{"type":"Polygon","coordinates":[[[-81.30000000000001,30.30000000000001],[-81.30000000000001,30.300446000000022],[-81.30000000000001,30.309217400000023],[-81.30000000000001,30.312306200000023],[-81.30000000000001,30.314606000000026],[-81.30000000000001,30.314761499999975],[-81.30000000000001,30.32602220000001],[-81.30000000000001,30.328104800000006],[-81.30000000000001,30.34115730000002],[-81.30000000000001,30.34405989999999],[-81.30000000000001,30.345726000000013],[-81.30000000000001,30.35267479999999],[-81.30000000000001,30.354499299999986],[-81.30000000000001,30.358566699999983],[-81.30000000000001,30.366666699999996],[-81.30000000000001,30.374796100000026],[-81.30000000000001,30.375],[-81.30122870000002,30.375],[-81.32395389999999,30.375],[-81.32438869999999,30.375],[-81.35537929999998,30.375],[-81.35714289999999,30.375],[-81.35715169999997,30.375],[-81.35784749999999,30.375],[-81.36115080000002,30.375],[-81.3622201,30.375],[-81.3632356,30.375],[-81.36830659999998,30.375],[-81.375,30.375],[-81.375,30.367820999999992],[-81.375,30.356484899999998],[-81.375,30.347138900000004],[-81.375,30.34343369999999],[-81.375,30.313713699999994],[-81.375,30.307400700000017],[-81.375,30.305887400000017],[-81.375,30.304882099999986],[-81.375,30.30000000000001],[-81.33613580000002,30.30000000000001],[-81.331413,30.30000000000001],[-81.33098589999997,30.30000000000001],[-81.30925000000002,30.30000000000001],[-81.30000000000001,30.30000000000001]]]}},{"type":"Feature","properties":{},"geometry":{"type":"Polygon","coordinates":[[[-81.28353329999999,30.30000000000001],[-81.2455301,30.30000000000001],[-81.23471790000002,30.30000000000001],[-81.23092439999999,30.30000000000001],[-81.22500000000002,30.30000000000001],[-81.22500000000002,30.337301500000024],[-81.22500000000002,30.338672900000006],[-81.22500000000002,30.353477499999997],[-81.22500000000002,30.360389499999997],[-81.22500000000002,30.364014899999972],[-81.22500000000002,30.365390400000024],[-81.22500000000002,30.366766100000007],[-81.22500000000002,30.375],[-81.2442527,30.375],[-81.25573100000003,30.375],[-81.25974459999998,30.375],[-81.26375300000001,30.375],[-81.28333329999998,30.375],[-81.30000000000001,30.375],[-81.30000000000001,30.374796100000026],[-81.30000000000001,30.366666699999996],[-81.30000000000001,30.358566699999983],[-81.30000000000001,30.354499299999986],[-81.30000000000001,30.35267479999999],[-81.30000000000001,30.345726000000013],[-81.30000000000001,30.34405989999999],[-81.30000000000001,30.34115730000002],[-81.30000000000001,30.328104800000006],[-81.30000000000001,30.32602220000001],[-81.30000000000001,30.314761499999975],[-81.30000000000001,30.314606000000026],[-81.30000000000001,30.312306200000023],[-81.30000000000001,30.309217400000023],[-81.30000000000001,30.300446000000022],[-81.30000000000001,30.30000000000001],[-81.294015,30.30000000000001],[-81.28353329999999,30.30000000000001]]]}},{"type":"Feature","properties":{},"geometry":{"type":"Polygon","coordinates":[[[-81.66328329999999,30.375],[-81.63326510000002,30.375],[-81.63309270000002,30.375],[-81.63179819999999,30.375],[-81.63144940000001,30.375],[-81.63121180000002,30.375],[-81.63094009999998,30.375],[-81.63056460000001,30.375],[-81.6302465,30.375],[-81.62958600000002,30.375],[-81.6289332,30.375],[-81.62828860000002,30.375],[-81.62765309999997,30.375],[-81.62764679999998,30.375],[-81.62753090000001,30.375],[-81.6273357,30.375],[-81.6257822,30.375],[-81.62140169999998,30.375],[-81.62018260000002,30.375],[-81.619662,30.375],[-81.61924570000002,30.375],[-81.61908089999997,30.375],[-81.6185269,30.375],[-81.618335,30.375],[-81.61645170000003,30.375],[-81.60000000000002,30.375],[-81.60000000000002,30.376320799999974],[-81.60000000000002,30.3838346],[-81.60000000000002,30.38432499999999],[-81.60000000000002,30.385278400000004],[-81.60000000000002,30.398937699999976],[-81.60000000000002,30.399956299999985],[-81.60000000000002,30.401693599999987],[-81.60000000000002,30.4035796],[-81.60000000000002,30.404819499999974],[-81.60000000000002,30.40513470000002],[-81.60000000000002,30.405312200000026],[-81.60000000000002,30.406455400000027],[-81.60000000000002,30.4076728],[-81.60000000000002,30.408093399999984],[-81.60000000000002,30.408530900000017],[-81.60000000000002,30.408867199999975],[-81.60000000000002,30.408985299999983],[-81.60000000000002,30.409446800000012],[-81.60000000000002,30.41001490000002],[-81.60000000000002,30.41016300000001],[-81.60000000000002,30.410254699999996],[-81.60000000000002,30.410323600000027],[-81.60000000000002,30.41065149999997],[-81.60000000000002,30.4110776],[-81.60000000000002,30.414470600000016],[-81.60000000000002,30.41488800000002],[-81.60000000000002,30.41622380000001],[-81.60000000000002,30.416342799999995],[-81.60000000000002,30.41665899999998],[-81.60000000000002,30.416828099999975],[-81.60000000000002,30.432225399999993],[-81.60000000000002,30.448360400000013],[-81.60000000000002,30.44999999999999],[-81.6036722,30.44999999999999],[-81.64023959999997,30.44999999999999],[-81.6486281,30.44999999999999],[-81.66647590000002,30.44999999999999],[-81.66666700000002,30.44999999999999],[-81.67500000000001,30.44999999999999],[-81.67500000000001,30.424232500000016],[-81.67500000000001,30.42226720000002],[-81.67500000000001,30.421607999999992],[-81.67500000000001,30.41790450000002],[-81.67500000000001,30.417105600000014],[-81.67500000000001,30.41579730000001],[-81.67500000000001,30.4148692],[-81.67500000000001,30.414424199999985],[-81.67500000000001,30.4131261],[-81.67500000000001,30.412110700000028],[-81.67500000000001,30.410952099999975],[-81.67500000000001,30.408908199999985],[-81.67500000000001,30.405087999999978],[-81.67500000000001,30.404937899999993],[-81.67500000000001,30.404536500000006],[-81.67500000000001,30.402799500000015],[-81.67500000000001,30.402633100000003],[-81.67500000000001,30.385201100000018],[-81.67500000000001,30.375],[-81.66647590000002,30.375],[-81.66328329999999,30.375]]]}},{"type":"Feature","properties":{},"geometry":{"type":"Polygon","coordinates":[[[-81.58530330000002,30.375],[-81.58343489999999,30.375],[-81.5833414,30.375],[-81.5829766,30.375],[-81.58296739999997,30.375],[-81.5829321,30.375],[-81.58258380000001,30.375],[-81.58238669999997,30.375],[-81.58119349999998,30.375],[-81.58072010000001,30.375],[-81.58045090000002,30.375],[-81.5796307,30.375],[-81.57580300000001,30.375],[-81.57564550000001,30.375],[-81.57538349999999,30.375],[-81.57531640000002,30.375],[-81.5735813,30.375],[-81.57331679999999,30.375],[-81.57300939999999,30.375],[-81.57194370000002,30.375],[-81.5715725,30.375],[-81.5713551,30.375],[-81.57041750000002,30.375],[-81.57022560000001,30.375],[-81.56891730000001,30.375],[-81.56625029999998,30.375],[-81.5530013,30.375],[-81.55267470000001,30.375],[-81.54928569999998,30.375],[-81.54489059999997,30.375],[-81.54450960000003,30.375],[-81.5444837,30.375],[-81.54428480000001,30.375],[-81.5430179,30.375],[-81.5429365,30.375],[-81.54030110000002,30.375],[-81.53970700000002,30.375],[-81.53852819999997,30.375],[-81.5385111,30.375],[-81.53842429999997,30.375],[-81.53826600000002,30.375],[-81.5376099,30.375],[-81.53727140000001,30.375],[-81.53698539999999,30.375],[-81.5363921,30.375],[-81.5358142,30.375],[-81.53556220000002,30.375],[-81.53021749999999,30.375],[-81.52884540000002,30.375],[-81.5282047,30.375],[-81.5270357,30.375],[-81.52671520000001,30.375],[-81.52613430000002,30.375],[-81.52578799999998,30.375],[-81.52548589999998,30.375],[-81.52499999999998,30.375],[-81.52499999999998,30.377708799999994],[-81.52499999999998,30.377978400000018],[-81.52499999999998,30.379662699999983],[-81.52499999999998,30.380158900000026],[-81.52499999999998,30.381509900000026],[-81.52499999999998,30.381544799999972],[-81.52499999999998,30.38305170000001],[-81.52499999999998,30.384512799999982],[-81.52499999999998,30.386573399999975],[-81.52499999999998,30.388185799999974],[-81.52499999999998,30.388186399999995],[-81.52499999999998,30.388300700000002],[-81.52499999999998,30.388506800000016],[-81.52499999999998,30.388592800000026],[-81.52499999999998,30.3886751],[-81.52499999999998,30.388864599999977],[-81.52499999999998,30.389197299999978],[-81.52499999999998,30.38952999999998],[-81.52499999999998,30.38953909999998],[-81.52499999999998,30.389862600000015],[-81.52499999999998,30.390194599999973],[-81.52499999999998,30.390279799999973],[-81.52499999999998,30.390748700000017],[-81.52499999999998,30.390872399999978],[-81.52499999999998,30.39107869999998],[-81.52499999999998,30.391123600000014],[-81.52499999999998,30.391159200000004],[-81.52499999999998,30.391438300000004],[-81.52499999999998,30.391750899999977],[-81.52499999999998,30.391752399999973],[-81.52499999999998,30.397224300000005],[-81.52499999999998,30.398744000000022],[-81.52499999999998,30.399597500000027],[-81.52499999999998,30.399656499999992],[-81.52499999999998,30.400119500000017],[-81.52499999999998,30.400589799999977],[-81.52499999999998,30.400677599999995],[-81.52499999999998,30.40103099999999],[-81.52499999999998,30.4011883],[-81.52499999999998,30.401217599999995],[-81.52499999999998,30.401231999999993],[-81.52499999999998,30.401321800000005],[-81.52499999999998,30.40169129999998],[-81.52499999999998,30.40180859999998],[-81.52499999999998,30.409250900000018],[-81.52499999999998,30.40930229999998],[-81.52499999999998,30.409353099999976],[-81.52499999999998,30.40943470000002],[-81.52499999999998,30.409593900000004],[-81.52499999999998,30.409881600000006],[-81.52499999999998,30.41038739999999],[-81.52499999999998,30.410575600000016],[-81.52499999999998,30.411200000000008],[-81.52499999999998,30.411210400000016],[-81.52499999999998,30.411612600000012],[-81.52499999999998,30.411705799999993],[-81.52499999999998,30.411944199999994],[-81.52499999999998,30.412182799999982],[-81.52499999999998,30.412421499999994],[-81.52499999999998,30.412660099999982],[-81.52499999999998,30.41318960000001],[-81.52499999999998,30.41353650000002],[-81.52499999999998,30.413583800000026],[-81.52499999999998,30.41381469999999],[-81.52499999999998,30.413885900000025],[-81.52499999999998,30.413973499999997],[-81.52499999999998,30.416131699999994],[-81.52499999999998,30.417475200000013],[-81.52499999999998,30.417865300000017],[-81.52499999999998,30.41821440000001],[-81.52499999999998,30.418240200000014],[-81.52499999999998,30.418382899999983],[-81.52499999999998,30.419068100000004],[-81.52499999999998,30.419194500000003],[-81.52499999999998,30.4199433],[-81.52499999999998,30.420027199999993],[-81.52499999999998,30.420325600000012],[-81.52499999999998,30.4212541],[-81.52499999999998,30.421654400000023],[-81.52499999999998,30.422081400000025],[-81.52499999999998,30.4223619],[-81.52499999999998,30.422383000000025],[-81.52499999999998,30.422472700000014],[-81.52499999999998,30.422594100000026],[-81.52499999999998,30.42282560000001],[-81.52499999999998,30.423005199999977],[-81.52499999999998,30.423048800000004],[-81.52499999999998,30.423476800000003],[-81.52499999999998,30.424032399999987],[-81.52499999999998,30.42449019999998],[-81.52499999999998,30.426343999999972],[-81.52499999999998,30.426917000000003],[-81.52499999999998,30.42824680000001],[-81.52499999999998,30.4282915],[-81.52499999999998,30.428362600000014],[-81.52499999999998,30.428702799999996],[-81.52499999999998,30.428865700000017],[-81.52499999999998,30.429172800000003],[-81.52499999999998,30.430472800000018],[-81.52499999999998,30.43047999999999],[-81.52499999999998,30.430850399999997],[-81.52499999999998,30.43098709999998],[-81.52499999999998,30.431162299999983],[-81.52499999999998,30.431201499999986],[-81.52499999999998,30.432280900000023],[-81.52499999999998,30.432351600000004],[-81.52499999999998,30.4326092],[-81.52499999999998,30.43281350000001],[-81.52499999999998,30.433928700000024],[-81.52499999999998,30.434139300000027],[-81.52499999999998,30.434175600000003],[-81.52499999999998,30.434493099999997],[-81.52499999999998,30.434670200000028],[-81.52499999999998,30.43526700000001],[-81.52499999999998,30.43574560000002],[-81.52499999999998,30.435823099999993],[-81.52499999999998,30.44184530000001],[-81.52499999999998,30.442405000000008],[-81.52499999999998,30.44414690000002],[-81.52499999999998,30.445428300000003],[-81.52499999999998,30.445810199999983],[-81.52499999999998,30.44613720000001],[-81.52499999999998,30.44695680000001],[-81.52499999999998,30.4474103],[-81.52499999999998,30.447621500000025],[-81.52499999999998,30.447682199999974],[-81.52499999999998,30.44842110000002],[-81.52499999999998,30.44919870000001],[-81.52499999999998,30.449317000000008],[-81.52499999999998,30.449410100000023],[-81.52499999999998,30.449516500000016],[-81.52499999999998,30.449709999999982],[-81.52499999999998,30.449781599999994],[-81.52499999999998,30.449952499999995],[-81.52499999999998,30.449971500000004],[-81.52499999999998,30.44999999999999],[-81.52548919999998,30.44999999999999],[-81.52558649999997,30.44999999999999],[-81.52568430000002,30.44999999999999],[-81.5261218,30.44999999999999],[-81.52624659999998,30.44999999999999],[-81.52636749999999,30.44999999999999],[-81.52642630000003,30.44999999999999],[-81.52657190000002,30.44999999999999],[-81.52913960000001,30.44999999999999],[-81.5292531,30.44999999999999],[-81.52930989999999,30.44999999999999],[-81.52986720000001,30.44999999999999],[-81.52998100000002,30.44999999999999],[-81.52998359999998,30.44999999999999],[-81.53030619999998,30.44999999999999],[-81.5304276,30.44999999999999],[-81.53055699999999,30.44999999999999],[-81.53056279999998,30.44999999999999],[-81.53066000000001,30.44999999999999],[-81.53074709999999,30.44999999999999],[-81.5307927,30.44999999999999],[-81.53082239999998,30.44999999999999],[-81.53093039999999,30.44999999999999],[-81.53109619999998,30.44999999999999],[-81.53110500000003,30.44999999999999],[-81.5312189,30.44999999999999],[-81.53129569999999,30.44999999999999],[-81.531364,30.44999999999999],[-81.53142839999998,30.44999999999999],[-81.53160639999999,30.44999999999999],[-81.53165209999997,30.44999999999999],[-81.53166759999999,30.44999999999999],[-81.53197369999998,30.44999999999999],[-81.53200759999999,30.44999999999999],[-81.53231670000002,30.44999999999999],[-81.54167159999997,30.44999999999999],[-81.5821833,30.44999999999999],[-81.58269530000001,30.44999999999999],[-81.5827698,30.44999999999999],[-81.58287469999999,30.44999999999999],[-81.58297090000002,30.44999999999999],[-81.5833159,30.44999999999999],[-81.5833313,30.44999999999999],[-81.58344169999998,30.44999999999999],[-81.58355239999997,30.44999999999999],[-81.583753,30.44999999999999],[-81.58388910000002,30.44999999999999],[-81.58799219999997,30.44999999999999],[-81.58939450000003,30.44999999999999],[-81.59138330000002,30.44999999999999],[-81.59144070000002,30.44999999999999],[-81.59163619999998,30.44999999999999],[-81.5917771,30.44999999999999],[-81.59205070000002,30.44999999999999],[-81.5921267,30.44999999999999],[-81.5923416,30.44999999999999],[-81.5925095,30.44999999999999],[-81.5945678,30.44999999999999],[-81.59464100000002,30.44999999999999],[-81.59472790000001,30.44999999999999],[-81.59495609999999,30.44999999999999],[-81.5951976,30.44999999999999],[-81.596404,30.44999999999999],[-81.59647960000001,30.44999999999999],[-81.59660170000001,30.44999999999999],[-81.59672740000002,30.44999999999999],[-81.59719719999998,30.44999999999999],[-81.597239,30.44999999999999],[-81.59755999999999,30.44999999999999],[-81.59767419999997,30.44999999999999],[-81.60000000000002,30.44999999999999],[-81.60000000000002,30.448360400000013],[-81.60000000000002,30.432225399999993],[-81.60000000000002,30.41732189999999],[-81.60000000000002,30.416828099999975],[-81.60000000000002,30.416806399999984],[-81.60000000000002,30.41665899999998],[-81.60000000000002,30.416342799999995],[-81.60000000000002,30.41622380000001],[-81.60000000000002,30.41488800000002],[-81.60000000000002,30.414470600000016],[-81.60000000000002,30.412418300000013],[-81.60000000000002,30.4110776],[-81.60000000000002,30.41065149999997],[-81.60000000000002,30.410323600000027],[-81.60000000000002,30.410254699999996],[-81.60000000000002,30.41016300000001],[-81.60000000000002,30.410035100000016],[-81.60000000000002,30.41001490000002],[-81.60000000000002,30.409446800000012],[-81.60000000000002,30.408985299999983],[-81.60000000000002,30.408867199999975],[-81.60000000000002,30.408530900000017],[-81.60000000000002,30.408093399999984],[-81.60000000000002,30.4076728],[-81.60000000000002,30.406455400000027],[-81.60000000000002,30.405312200000026],[-81.60000000000002,30.40513470000002],[-81.60000000000002,30.404819499999974],[-81.60000000000002,30.4035796],[-81.60000000000002,30.401693599999987],[-81.60000000000002,30.399956299999985],[-81.60000000000002,30.398937699999976],[-81.60000000000002,30.385278400000004],[-81.60000000000002,30.38432499999999],[-81.60000000000002,30.384321399999976],[-81.60000000000002,30.384160899999983],[-81.60000000000002,30.3838346],[-81.60000000000002,30.38192650000002],[-81.60000000000002,30.376320799999974],[-81.60000000000002,30.375],[-81.5982176,30.375],[-81.59072329999998,30.375],[-81.58530330000002,30.375]]]}},{"type":"Feature","properties":{},"geometry":{"type":"Polygon","coordinates":[[[-81.51723879999997,30.375],[-81.47845080000002,30.375],[-81.47548330000001,30.375],[-81.47522550000002,30.375],[-81.47096299999998,30.375],[-81.47070250000002,30.375],[-81.46767260000001,30.375],[-81.46410120000002,30.375],[-81.46347650000001,30.375],[-81.4627577,30.375],[-81.46090800000002,30.375],[-81.46064539999998,30.375],[-81.46026289999998,30.375],[-81.4600198,30.375],[-81.45999389999997,30.375],[-81.45872639999999,30.375],[-81.45869140000002,30.375],[-81.45660049999998,30.375],[-81.45634960000001,30.375],[-81.45611259999998,30.375],[-81.45603369999998,30.375],[-81.4549409,30.375],[-81.45415120000001,30.375],[-81.45325150000002,30.375],[-81.4528019,30.375],[-81.4526267,30.375],[-81.45234349999998,30.375],[-81.4521383,30.375],[-81.45184929999999,30.375],[-81.45170030000003,30.375],[-81.45152780000001,30.375],[-81.45134680000001,30.375],[-81.45124049999998,30.375],[-81.4511425,30.375],[-81.44999999999999,30.375],[-81.44999999999999,30.375165600000003],[-81.44999999999999,30.376575300000013],[-81.44999999999999,30.376753699999995],[-81.44999999999999,30.377033799999992],[-81.44999999999999,30.37717950000001],[-81.44999999999999,30.37723699999998],[-81.44999999999999,30.377334500000018],[-81.44999999999999,30.377549699999975],[-81.44999999999999,30.377711999999974],[-81.44999999999999,30.377884999999992],[-81.44999999999999,30.378625],[-81.44999999999999,30.378712300000018],[-81.44999999999999,30.378797799999973],[-81.44999999999999,30.378847099999973],[-81.44999999999999,30.379102699999976],[-81.44999999999999,30.379715499999975],[-81.44999999999999,30.380007200000023],[-81.44999999999999,30.380283899999995],[-81.44999999999999,30.380852199999993],[-81.44999999999999,30.381364099999985],[-81.44999999999999,30.381420600000013],[-81.44999999999999,30.381988999999976],[-81.44999999999999,30.383224400000017],[-81.44999999999999,30.38400089999999],[-81.44999999999999,30.38402880000001],[-81.44999999999999,30.38405369999998],[-81.44999999999999,30.384055100000012],[-81.44999999999999,30.38416749999999],[-81.44999999999999,30.38782500000002],[-81.44999999999999,30.392207499999984],[-81.44999999999999,30.392990699999984],[-81.44999999999999,30.393331199999977],[-81.44999999999999,30.394217500000025],[-81.44999999999999,30.396250699999996],[-81.44999999999999,30.396932600000014],[-81.44999999999999,30.397184100000004],[-81.44999999999999,30.397506099999987],[-81.44999999999999,30.39813620000001],[-81.44999999999999,30.398174299999994],[-81.44999999999999,30.400413500000013],[-81.44999999999999,30.401046500000007],[-81.44999999999999,30.40251219999999],[-81.44999999999999,30.402663800000028],[-81.44999999999999,30.404206199999976],[-81.44999999999999,30.404612600000007],[-81.44999999999999,30.40471309999998],[-81.44999999999999,30.404900399999974],[-81.44999999999999,30.405150100000014],[-81.44999999999999,30.405934100000025],[-81.44999999999999,30.406087800000023],[-81.44999999999999,30.407188899999994],[-81.44999999999999,30.40774269999997],[-81.44999999999999,30.40813079999998],[-81.44999999999999,30.40955889999998],[-81.44999999999999,30.410121300000014],[-81.44999999999999,30.410305300000005],[-81.44999999999999,30.410885300000018],[-81.44999999999999,30.410953699999993],[-81.44999999999999,30.412005599999986],[-81.44999999999999,30.41223339999999],[-81.44999999999999,30.41374719999999],[-81.44999999999999,30.413794800000005],[-81.44999999999999,30.414189299999975],[-81.44999999999999,30.41432880000002],[-81.44999999999999,30.41511159999999],[-81.44999999999999,30.415207399999986],[-81.44999999999999,30.415591300000017],[-81.44999999999999,30.41573360000001],[-81.44999999999999,30.416999900000008],[-81.44999999999999,30.41737139999998],[-81.44999999999999,30.419285899999977],[-81.44999999999999,30.41931599999998],[-81.44999999999999,30.419558999999992],[-81.44999999999999,30.41961570000001],[-81.44999999999999,30.419684899999993],[-81.44999999999999,30.419932000000017],[-81.44999999999999,30.4221948],[-81.44999999999999,30.422366399999987],[-81.44999999999999,30.423204899999973],[-81.44999999999999,30.423508500000025],[-81.44999999999999,30.425402299999973],[-81.44999999999999,30.425492700000007],[-81.44999999999999,30.425623700000017],[-81.44999999999999,30.428033099999993],[-81.44999999999999,30.438889599999982],[-81.44999999999999,30.441822899999977],[-81.44999999999999,30.44196679999999],[-81.44999999999999,30.4421284],[-81.44999999999999,30.4427149],[-81.44999999999999,30.44391250000001],[-81.44999999999999,30.444168999999988],[-81.44999999999999,30.4448898],[-81.44999999999999,30.445102200000008],[-81.44999999999999,30.445220399999982],[-81.44999999999999,30.445328800000027],[-81.44999999999999,30.44574449999999],[-81.44999999999999,30.446210899999983],[-81.44999999999999,30.447011799999984],[-81.44999999999999,30.448661300000026],[-81.44999999999999,30.448872199999983],[-81.44999999999999,30.44999999999999],[-81.45752190000002,30.44999999999999],[-81.45788729999998,30.44999999999999],[-81.45835260000001,30.44999999999999],[-81.45895990000002,30.44999999999999],[-81.459788,30.44999999999999],[-81.46025370000001,30.44999999999999],[-81.46114139999997,30.44999999999999],[-81.46146920000001,30.44999999999999],[-81.4617609,30.44999999999999],[-81.46211340000002,30.44999999999999],[-81.46313450000002,30.44999999999999],[-81.46515520000003,30.44999999999999],[-81.4898119,30.44999999999999],[-81.49023419999997,30.44999999999999],[-81.49033359999999,30.44999999999999],[-81.49097239999998,30.44999999999999],[-81.4920606,30.44999999999999],[-81.49220839999998,30.44999999999999],[-81.4926213,30.44999999999999],[-81.4927816,30.44999999999999],[-81.49295360000002,30.44999999999999],[-81.49360789999997,30.44999999999999],[-81.49379640000001,30.44999999999999],[-81.4940995,30.44999999999999],[-81.49505640000001,30.44999999999999],[-81.49620959999999,30.44999999999999],[-81.49662289999998,30.44999999999999],[-81.51233359999998,30.44999999999999],[-81.51390559999999,30.44999999999999],[-81.51656969999999,30.44999999999999],[-81.51714240000001,30.44999999999999],[-81.51750190000001,30.44999999999999],[-81.51853340000002,30.44999999999999],[-81.52020270000003,30.44999999999999],[-81.52048719999999,30.44999999999999],[-81.52065590000001,30.44999999999999],[-81.52068489999999,30.44999999999999],[-81.52089310000002,30.44999999999999],[-81.5227868,30.44999999999999],[-81.52296360000003,30.44999999999999],[-81.52408100000002,30.44999999999999],[-81.52418410000001,30.44999999999999],[-81.52431480000001,30.44999999999999],[-81.52497620000003,30.44999999999999],[-81.52499999999998,30.44999999999999],[-81.52499999999998,30.449971500000004],[-81.52499999999998,30.449709999999982],[-81.52499999999998,30.449516500000016],[-81.52499999999998,30.449410100000023],[-81.52499999999998,30.449317000000008],[-81.52499999999998,30.44919870000001],[-81.52499999999998,30.44842110000002],[-81.52499999999998,30.447682199999974],[-81.52499999999998,30.447621500000025],[-81.52499999999998,30.4474103],[-81.52499999999998,30.44695680000001],[-81.52499999999998,30.44613720000001],[-81.52499999999998,30.445810199999983],[-81.52499999999998,30.445428300000003],[-81.52499999999998,30.44414690000002],[-81.52499999999998,30.442405000000008],[-81.52499999999998,30.44184530000001],[-81.52499999999998,30.435823099999993],[-81.52499999999998,30.43574560000002],[-81.52499999999998,30.43526700000001],[-81.52499999999998,30.434670200000028],[-81.52499999999998,30.434493099999997],[-81.52499999999998,30.434175600000003],[-81.52499999999998,30.434139300000027],[-81.52499999999998,30.433928700000024],[-81.52499999999998,30.43281350000001],[-81.52499999999998,30.4326092],[-81.52499999999998,30.432351600000004],[-81.52499999999998,30.431162299999983],[-81.52499999999998,30.43098709999998],[-81.52499999999998,30.430472800000018],[-81.52499999999998,30.429172800000003],[-81.52499999999998,30.428702799999996],[-81.52499999999998,30.428362600000014],[-81.52499999999998,30.42824680000001],[-81.52499999999998,30.426917000000003],[-81.52499999999998,30.426343999999972],[-81.52499999999998,30.42449019999998],[-81.52499999999998,30.424032399999987],[-81.52499999999998,30.423476800000003],[-81.52499999999998,30.423048800000004],[-81.52499999999998,30.423005199999977],[-81.52499999999998,30.42282560000001],[-81.52499999999998,30.422594100000026],[-81.52499999999998,30.422472700000014],[-81.52499999999998,30.4223619],[-81.52499999999998,30.421654400000023],[-81.52499999999998,30.4212541],[-81.52499999999998,30.420325600000012],[-81.52499999999998,30.420027199999993],[-81.52499999999998,30.419068100000004],[-81.52499999999998,30.418382899999983],[-81.52499999999998,30.417865300000017],[-81.52499999999998,30.417475200000013],[-81.52499999999998,30.416131699999994],[-81.52499999999998,30.413973499999997],[-81.52499999999998,30.41381469999999],[-81.52499999999998,30.41353650000002],[-81.52499999999998,30.41318960000001],[-81.52499999999998,30.412660099999982],[-81.52499999999998,30.412421499999994],[-81.52499999999998,30.412182799999982],[-81.52499999999998,30.411944199999994],[-81.52499999999998,30.411705799999993],[-81.52499999999998,30.411200000000008],[-81.52499999999998,30.410575600000016],[-81.52499999999998,30.409881600000006],[-81.52499999999998,30.409593900000004],[-81.52499999999998,30.40943470000002],[-81.52499999999998,30.409353099999976],[-81.52499999999998,30.409250900000018],[-81.52499999999998,30.40169129999998],[-81.52499999999998,30.401321800000005],[-81.52499999999998,30.401231999999993],[-81.52499999999998,30.401217599999995],[-81.52499999999998,30.4011883],[-81.52499999999998,30.40103099999999],[-81.52499999999998,30.400589799999977],[-81.52499999999998,30.400119500000017],[-81.52499999999998,30.399656499999992],[-81.52499999999998,30.391752399999973],[-81.52499999999998,30.391438300000004],[-81.52499999999998,30.391159200000004],[-81.52499999999998,30.391123600000014],[-81.52499999999998,30.39107869999998],[-81.52499999999998,30.390872399999978],[-81.52499999999998,30.390748700000017],[-81.52499999999998,30.390194599999973],[-81.52499999999998,30.389862600000015],[-81.52499999999998,30.38953909999998],[-81.52499999999998,30.38952999999998],[-81.52499999999998,30.389197299999978],[-81.52499999999998,30.388864599999977],[-81.52499999999998,30.3886751],[-81.52499999999998,30.388592800000026],[-81.52499999999998,30.388506800000016],[-81.52499999999998,30.388300700000002],[-81.52499999999998,30.388186399999995],[-81.52499999999998,30.38305170000001],[-81.52499999999998,30.381509900000026],[-81.52499999999998,30.377978400000018],[-81.52499999999998,30.377708799999994],[-81.52499999999998,30.375],[-81.52016270000001,30.375],[-81.51723879999997,30.375]]]}},{"type":"Feature","properties":{},"geometry":{"type":"Polygon","coordinates":[[[-81.44887240000003,30.375],[-81.4486564,30.375],[-81.44794960000002,30.375],[-81.44688079999997,30.375],[-81.44623159999998,30.375],[-81.44335999999998,30.375],[-81.44181909999998,30.375],[-81.43605880000001,30.375],[-81.43540059999998,30.375],[-81.43458479999998,30.375],[-81.43441410000003,30.375],[-81.43404900000002,30.375],[-81.4286315,30.375],[-81.42496849999998,30.375],[-81.4213694,30.375],[-81.42115030000002,30.375],[-81.42096609999999,30.375],[-81.420703,30.375],[-81.4200123,30.375],[-81.41954679999998,30.375],[-81.41905960000003,30.375],[-81.41751420000003,30.375],[-81.41736809999998,30.375],[-81.41704170000003,30.375],[-81.41618419999998,30.375],[-81.410279,30.375],[-81.39717910000002,30.375],[-81.39618239999999,30.375],[-81.3954056,30.375],[-81.3942432,30.375],[-81.3942141,30.375],[-81.39314150000001,30.375],[-81.3920602,30.375],[-81.375,30.375],[-81.375,30.381364099999985],[-81.375,30.389637300000004],[-81.375,30.392208600000004],[-81.375,30.392810899999972],[-81.375,30.393123100000025],[-81.375,30.393548899999985],[-81.375,30.3946229],[-81.375,30.39582250000001],[-81.375,30.396390399999973],[-81.375,30.396496300000024],[-81.375,30.397453600000006],[-81.375,30.39746409999998],[-81.375,30.398007300000017],[-81.375,30.398560999999972],[-81.375,30.3985811],[-81.375,30.399114699999984],[-81.375,30.39966850000002],[-81.375,30.399975700000027],[-81.375,30.4004276],[-81.375,30.400952700000005],[-81.375,30.402041600000018],[-81.375,30.404763899999978],[-81.375,30.408954100000017],[-81.375,30.42802499999999],[-81.375,30.43359989999999],[-81.375,30.43516360000001],[-81.375,30.43621250000001],[-81.375,30.43834880000003],[-81.375,30.44076480000001],[-81.375,30.44999999999999],[-81.3764754,30.44999999999999],[-81.38195230000002,30.44999999999999],[-81.40230810000003,30.44999999999999],[-81.40648060000001,30.44999999999999],[-81.40729829999998,30.44999999999999],[-81.40879130000002,30.44999999999999],[-81.40905930000002,30.44999999999999],[-81.4092569,30.44999999999999],[-81.41039310000002,30.44999999999999],[-81.41851889999998,30.44999999999999],[-81.41914250000002,30.44999999999999],[-81.41930969999999,30.44999999999999],[-81.4199122,30.44999999999999],[-81.42028010000001,30.44999999999999],[-81.42111670000003,30.44999999999999],[-81.42144689999998,30.44999999999999],[-81.42184700000001,30.44999999999999],[-81.42337709999998,30.44999999999999],[-81.42460060000002,30.44999999999999],[-81.42787729999998,30.44999999999999],[-81.42794429999998,30.44999999999999],[-81.43138349999998,30.44999999999999],[-81.43969859999999,30.44999999999999],[-81.44054540000002,30.44999999999999],[-81.4417128,30.44999999999999],[-81.4468589,30.44999999999999],[-81.44709060000002,30.44999999999999],[-81.44745640000002,30.44999999999999],[-81.4476565,30.44999999999999],[-81.44791459999999,30.44999999999999],[-81.4480565,30.44999999999999],[-81.44825600000001,30.44999999999999],[-81.44933429999998,30.44999999999999],[-81.44999999999999,30.44999999999999],[-81.44999999999999,30.448872199999983],[-81.44999999999999,30.448661300000026],[-81.44999999999999,30.447011799999984],[-81.44999999999999,30.446210899999983],[-81.44999999999999,30.44574449999999],[-81.44999999999999,30.445328800000027],[-81.44999999999999,30.445220399999982],[-81.44999999999999,30.445102200000008],[-81.44999999999999,30.4448898],[-81.44999999999999,30.444168999999988],[-81.44999999999999,30.44391250000001],[-81.44999999999999,30.4427149],[-81.44999999999999,30.4421284],[-81.44999999999999,30.44196679999999],[-81.44999999999999,30.441822899999977],[-81.44999999999999,30.438889599999982],[-81.44999999999999,30.428033099999993],[-81.44999999999999,30.425623700000017],[-81.44999999999999,30.425492700000007],[-81.44999999999999,30.425402299999973],[-81.44999999999999,30.423508500000025],[-81.44999999999999,30.423204899999973],[-81.44999999999999,30.422366399999987],[-81.44999999999999,30.4221948],[-81.44999999999999,30.419932000000017],[-81.44999999999999,30.419684899999993],[-81.44999999999999,30.41961570000001],[-81.44999999999999,30.419558999999992],[-81.44999999999999,30.41931599999998],[-81.44999999999999,30.419285899999977],[-81.44999999999999,30.41737139999998],[-81.44999999999999,30.416999900000008],[-81.44999999999999,30.41573360000001],[-81.44999999999999,30.415591300000017],[-81.44999999999999,30.415207399999986],[-81.44999999999999,30.41511159999999],[-81.44999999999999,30.41432880000002],[-81.44999999999999,30.414189299999975],[-81.44999999999999,30.413794800000005],[-81.44999999999999,30.41374719999999],[-81.44999999999999,30.41223339999999],[-81.44999999999999,30.412005599999986],[-81.44999999999999,30.410953699999993],[-81.44999999999999,30.410885300000018],[-81.44999999999999,30.410305300000005],[-81.44999999999999,30.410121300000014],[-81.44999999999999,30.40955889999998],[-81.44999999999999,30.40813079999998],[-81.44999999999999,30.40774269999997],[-81.44999999999999,30.407188899999994],[-81.44999999999999,30.406087800000023],[-81.44999999999999,30.405934100000025],[-81.44999999999999,30.405150100000014],[-81.44999999999999,30.404900399999974],[-81.44999999999999,30.40471309999998],[-81.44999999999999,30.404612600000007],[-81.44999999999999,30.404206199999976],[-81.44999999999999,30.402663800000028],[-81.44999999999999,30.40251219999999],[-81.44999999999999,30.401046500000007],[-81.44999999999999,30.400413500000013],[-81.44999999999999,30.398174299999994],[-81.44999999999999,30.39813620000001],[-81.44999999999999,30.397506099999987],[-81.44999999999999,30.397184100000004],[-81.44999999999999,30.396932600000014],[-81.44999999999999,30.396250699999996],[-81.44999999999999,30.394217500000025],[-81.44999999999999,30.393331199999977],[-81.44999999999999,30.392990699999984],[-81.44999999999999,30.392207499999984],[-81.44999999999999,30.38782500000002],[-81.44999999999999,30.38416749999999],[-81.44999999999999,30.384055100000012],[-81.44999999999999,30.38405369999998],[-81.44999999999999,30.38402880000001],[-81.44999999999999,30.38400089999999],[-81.44999999999999,30.383224400000017],[-81.44999999999999,30.381988999999976],[-81.44999999999999,30.381420600000013],[-81.44999999999999,30.381364099999985],[-81.44999999999999,30.380852199999993],[-81.44999999999999,30.380283899999995],[-81.44999999999999,30.380007200000023],[-81.44999999999999,30.379715499999975],[-81.44999999999999,30.379102699999976],[-81.44999999999999,30.378847099999973],[-81.44999999999999,30.378797799999973],[-81.44999999999999,30.378712300000018],[-81.44999999999999,30.378625],[-81.44999999999999,30.377884999999992],[-81.44999999999999,30.377711999999974],[-81.44999999999999,30.377549699999975],[-81.44999999999999,30.377334500000018],[-81.44999999999999,30.37723699999998],[-81.44999999999999,30.37717950000001],[-81.44999999999999,30.377033799999992],[-81.44999999999999,30.376753699999995],[-81.44999999999999,30.376575300000013],[-81.44999999999999,30.375165600000003],[-81.44999999999999,30.375],[-81.44888659999998,30.375],[-81.44887240000003,30.375]]]}},{"type":"Feature","properties":{},"geometry":{"type":"Polygon","coordinates":[[[-81.3632356,30.375],[-81.3622201,30.375],[-81.36115080000002,30.375],[-81.35784749999999,30.375],[-81.35715169999997,30.375],[-81.35714289999999,30.375],[-81.35537929999998,30.375],[-81.32438869999999,30.375],[-81.32395389999999,30.375],[-81.30122870000002,30.375],[-81.30000000000001,30.375],[-81.30000000000001,30.388240300000007],[-81.30000000000001,30.39002290000002],[-81.30000000000001,30.390382499999987],[-81.30000000000001,30.391519700000003],[-81.30000000000001,30.39594820000002],[-81.30000000000001,30.433333300000015],[-81.30000000000001,30.43646369999999],[-81.30000000000001,30.448795500000017],[-81.30000000000001,30.449141300000008],[-81.30000000000001,30.44999999999999],[-81.30132229999998,30.44999999999999],[-81.30521729999998,30.44999999999999],[-81.30917740000001,30.44999999999999],[-81.32143509999997,30.44999999999999],[-81.34864270000003,30.44999999999999],[-81.34906719999998,30.44999999999999],[-81.3581825,30.44999999999999],[-81.35986789999998,30.44999999999999],[-81.36249190000001,30.44999999999999],[-81.36420049999998,30.44999999999999],[-81.3747138,30.44999999999999],[-81.375,30.44999999999999],[-81.375,30.44076480000001],[-81.375,30.43834880000003],[-81.375,30.43621250000001],[-81.375,30.43516360000001],[-81.375,30.43359989999999],[-81.375,30.42802499999999],[-81.375,30.408954100000017],[-81.375,30.404763899999978],[-81.375,30.402041600000018],[-81.375,30.401700600000026],[-81.375,30.400952700000005],[-81.375,30.400633400000004],[-81.375,30.4004276],[-81.375,30.399975700000027],[-81.375,30.39967569999999],[-81.375,30.399668399999996],[-81.375,30.399634600000013],[-81.375,30.399148000000025],[-81.375,30.399114699999984],[-81.375,30.3985811],[-81.375,30.398560999999972],[-81.375,30.398007300000017],[-81.375,30.39746409999998],[-81.375,30.397453600000006],[-81.375,30.396496300000024],[-81.375,30.396390399999973],[-81.375,30.395833299999993],[-81.375,30.39582250000001],[-81.375,30.3946229],[-81.375,30.393548899999985],[-81.375,30.393123100000025],[-81.375,30.392810899999972],[-81.375,30.392208600000004],[-81.375,30.389637300000004],[-81.375,30.381364099999985],[-81.375,30.375],[-81.36830659999998,30.375],[-81.3632356,30.375]]]}},{"type":"Feature","properties":{},"geometry":{"type":"Polygon","coordinates":[[[-81.26375300000001,30.375],[-81.25974459999998,30.375],[-81.25573100000003,30.375],[-81.2442527,30.375],[-81.22500000000002,30.375],[-81.22500000000002,30.404363699999976],[-81.22500000000002,30.412946799999986],[-81.22500000000002,30.420672000000025],[-81.22500000000002,30.420944099999986],[-81.22500000000002,30.422925899999996],[-81.22500000000002,30.43146539999998],[-81.22500000000002,30.44865729999998],[-81.22500000000002,30.44999999999999],[-81.24849160000002,30.44999999999999],[-81.27921129999999,30.44999999999999],[-81.28495629999998,30.44999999999999],[-81.28599100000002,30.44999999999999],[-81.28998810000002,30.44999999999999],[-81.29413090000003,30.44999999999999],[-81.29854119999999,30.44999999999999],[-81.29920290000001,30.44999999999999],[-81.30000000000001,30.44999999999999],[-81.30000000000001,30.449141300000008],[-81.30000000000001,30.448795500000017],[-81.30000000000001,30.43646369999999],[-81.30000000000001,30.433333300000015],[-81.30000000000001,30.39594820000002],[-81.30000000000001,30.391519700000003],[-81.30000000000001,30.390382499999987],[-81.30000000000001,30.39002290000002],[-81.30000000000001,30.388240300000007],[-81.30000000000001,30.375],[-81.28333329999998,30.375],[-81.26375300000001,30.375]]]}},{"type":"Feature","properties":{},"geometry":{"type":"Polygon","coordinates":[[[-81.53200759999999,30.44999999999999],[-81.53197369999998,30.44999999999999],[-81.53166759999999,30.44999999999999],[-81.53165209999997,30.44999999999999],[-81.53160639999999,30.44999999999999],[-81.53142839999998,30.44999999999999],[-81.53129569999999,30.44999999999999],[-81.5312189,30.44999999999999],[-81.53110500000003,30.44999999999999],[-81.53093039999999,30.44999999999999],[-81.53082239999998,30.44999999999999],[-81.5307927,30.44999999999999],[-81.53066000000001,30.44999999999999],[-81.53056279999998,30.44999999999999],[-81.5304276,30.44999999999999],[-81.53030619999998,30.44999999999999],[-81.52998100000002,30.44999999999999],[-81.52986720000001,30.44999999999999],[-81.5292531,30.44999999999999],[-81.52913960000001,30.44999999999999],[-81.52657190000002,30.44999999999999],[-81.52642630000003,30.44999999999999],[-81.52636749999999,30.44999999999999],[-81.52624659999998,30.44999999999999],[-81.52568430000002,30.44999999999999],[-81.52548919999998,30.44999999999999],[-81.52499999999998,30.44999999999999],[-81.52499999999998,30.45013],[-81.52499999999998,30.450283899999988],[-81.52499999999998,30.450455999999974],[-81.52499999999998,30.45052800000002],[-81.52499999999998,30.450931700000012],[-81.52499999999998,30.451161800000023],[-81.52499999999998,30.451233000000002],[-81.525172,30.451233000000002],[-81.52520900000002,30.451233000000002],[-81.52544669999997,30.451233000000002],[-81.5258862,30.451233000000002],[-81.52607419999998,30.451233000000002],[-81.52634440000003,30.451233000000002],[-81.52728610000003,30.451233000000002],[-81.52774060000002,30.451233000000002],[-81.52804429999998,30.451233000000002],[-81.52836869999999,30.451233000000002],[-81.52875360000002,30.451233000000002],[-81.52939859999998,30.451233000000002],[-81.53167610000003,30.451233000000002],[-81.53200520000001,30.451233000000002],[-81.53237339999998,30.451233000000002],[-81.53256449999998,30.451233000000002],[-81.53419539999999,30.451233000000002],[-81.54167159999997,30.451233000000002],[-81.54167159999997,30.44999999999999],[-81.53231670000002,30.44999999999999],[-81.53200759999999,30.44999999999999]]]}},{"type":"Feature","properties":{},"geometry":{"type":"Polygon","coordinates":[[[-81.64023959999997,30.44999999999999],[-81.63979440000003,30.45082789999998],[-81.64674389999999,30.453608700000018],[-81.6486281,30.44999999999999],[-81.64023959999997,30.44999999999999]]]}},{"type":"Feature","properties":{},"geometry":{"type":"Polygon","coordinates":[[[-81.59785529999999,30.454411300000004],[-81.60494349999999,30.45758649999999],[-81.6082677,30.452051799999992],[-81.6036722,30.44999999999999],[-81.60000000000002,30.44999999999999],[-81.59755999999999,30.44999999999999],[-81.597239,30.44999999999999],[-81.59660170000001,30.44999999999999],[-81.596404,30.44999999999999],[-81.59495609999999,30.44999999999999],[-81.59472790000001,30.44999999999999],[-81.5945678,30.44999999999999],[-81.5923416,30.44999999999999],[-81.59205070000002,30.44999999999999],[-81.59163619999998,30.44999999999999],[-81.59138330000002,30.44999999999999],[-81.58939450000003,30.44999999999999],[-81.58799219999997,30.44999999999999],[-81.58987680000001,30.450842799999975],[-81.58996259999998,30.450881100000004],[-81.5970279,30.454040799999973],[-81.59739139999999,30.454203699999994],[-81.59761700000001,30.4543046],[-81.59785529999999,30.454411300000004]]]}},{"type":"Feature","properties":{},"geometry":{"type":"Polygon","coordinates":[[[-81.52431480000001,30.44999999999999],[-81.52418410000001,30.44999999999999],[-81.52408100000002,30.44999999999999],[-81.52296360000003,30.44999999999999],[-81.5227868,30.44999999999999],[-81.52089310000002,30.44999999999999],[-81.52068489999999,30.44999999999999],[-81.52065590000001,30.44999999999999],[-81.52048719999999,30.44999999999999],[-81.52020270000003,30.44999999999999],[-81.51853340000002,30.44999999999999],[-81.51750190000001,30.44999999999999],[-81.51714240000001,30.44999999999999],[-81.51656969999999,30.44999999999999],[-81.51390559999999,30.44999999999999],[-81.51233359999998,30.44999999999999],[-81.49662289999998,30.44999999999999],[-81.49620959999999,30.44999999999999],[-81.49505640000001,30.44999999999999],[-81.4940995,30.44999999999999],[-81.49379640000001,30.44999999999999],[-81.49360789999997,30.44999999999999],[-81.49295360000002,30.44999999999999],[-81.4927816,30.44999999999999],[-81.4926213,30.44999999999999],[-81.49220839999998,30.44999999999999],[-81.4920606,30.44999999999999],[-81.49097239999998,30.44999999999999],[-81.49033359999999,30.44999999999999],[-81.49023419999997,30.44999999999999],[-81.4898119,30.44999999999999],[-81.46515520000003,30.44999999999999],[-81.46313450000002,30.44999999999999],[-81.46211340000002,30.44999999999999],[-81.4617609,30.44999999999999],[-81.46146920000001,30.44999999999999],[-81.46114139999997,30.44999999999999],[-81.46025370000001,30.44999999999999],[-81.459788,30.44999999999999],[-81.45895990000002,30.44999999999999],[-81.45835260000001,30.44999999999999],[-81.45788729999998,30.44999999999999],[-81.45752190000002,30.44999999999999],[-81.44999999999999,30.44999999999999],[-81.44999999999999,30.451272099999983],[-81.44999999999999,30.45178279999999],[-81.44999999999999,30.4529938],[-81.44999999999999,30.454037700000015],[-81.44999999999999,30.454752199999973],[-81.44999999999999,30.454931499999986],[-81.44999999999999,30.455673100000013],[-81.44999999999999,30.456319399999984],[-81.44999999999999,30.459067100000027],[-81.44999999999999,30.459545100000014],[-81.44999999999999,30.460829199999978],[-81.44999999999999,30.460981500000003],[-81.44999999999999,30.46159829999999],[-81.44999999999999,30.46178930000002],[-81.44999999999999,30.461956999999984],[-81.44999999999999,30.462946999999986],[-81.44999999999999,30.463308400000017],[-81.44999999999999,30.463887899999975],[-81.44999999999999,30.464125200000012],[-81.44999999999999,30.464145400000007],[-81.44999999999999,30.465185099999985],[-81.44999999999999,30.466051300000004],[-81.44999999999999,30.466143999999986],[-81.44999999999999,30.466523699999982],[-81.44999999999999,30.466825400000005],[-81.44999999999999,30.466873899999996],[-81.44999999999999,30.467548299999976],[-81.44999999999999,30.475496899999996],[-81.44999999999999,30.475645499999985],[-81.44999999999999,30.475797999999998],[-81.44999999999999,30.47772550000002],[-81.44999999999999,30.47832410000001],[-81.44999999999999,30.47898429999998],[-81.44999999999999,30.48014119999999],[-81.44999999999999,30.48040370000001],[-81.44999999999999,30.480780400000015],[-81.44999999999999,30.491742199999976],[-81.44999999999999,30.500247],[-81.44999999999999,30.5032463],[-81.44999999999999,30.503912000000014],[-81.44999999999999,30.503917699999988],[-81.44999999999999,30.503974599999992],[-81.44999999999999,30.506363599999986],[-81.44999999999999,30.508020799999997],[-81.44999999999999,30.50859989999998],[-81.44999999999999,30.511174900000015],[-81.44999999999999,30.512100799999985],[-81.44999999999999,30.51234149999999],[-81.44999999999999,30.51788879999998],[-81.44999999999999,30.51816789999998],[-81.44999999999999,30.518372399999976],[-81.44999999999999,30.51838620000001],[-81.44999999999999,30.5196684],[-81.44999999999999,30.5196909],[-81.44999999999999,30.51976669999999],[-81.44999999999999,30.520659599999988],[-81.44999999999999,30.521127200000024],[-81.44999999999999,30.523736999999983],[-81.44999999999999,30.524999999999977],[-81.45459929999998,30.524999999999977],[-81.45461360000002,30.524999999999977],[-81.45749339999998,30.524999999999977],[-81.4581662,30.524999999999977],[-81.45874629999997,30.524999999999977],[-81.45909710000001,30.524999999999977],[-81.45945560000001,30.524999999999977],[-81.4602534,30.524999999999977],[-81.46106429999998,30.524999999999977],[-81.4646462,30.524999999999977],[-81.46563839999999,30.524999999999977],[-81.46691820000001,30.524999999999977],[-81.4671626,30.524999999999977],[-81.46755919999998,30.524999999999977],[-81.4680012,30.524999999999977],[-81.47105879999998,30.524999999999977],[-81.47109419999998,30.524999999999977],[-81.4932493,30.524999999999977],[-81.49356540000002,30.524999999999977],[-81.49450300000001,30.524999999999977],[-81.4946506,30.524999999999977],[-81.49544459999998,30.524999999999977],[-81.49565580000001,30.524999999999977],[-81.49612239999999,30.524999999999977],[-81.49795990000001,30.524999999999977],[-81.50128769999998,30.524999999999977],[-81.50275699999997,30.524999999999977],[-81.50319680000001,30.524999999999977],[-81.50381979999997,30.524999999999977],[-81.51010539999999,30.524999999999977],[-81.51041629999997,30.524999999999977],[-81.5154468,30.524999999999977],[-81.51556390000002,30.524999999999977],[-81.51899259999999,30.524999999999977],[-81.52245970000001,30.524999999999977],[-81.52499999999998,30.524999999999977],[-81.52499999999998,30.520484099999976],[-81.52499999999998,30.519878800000015],[-81.52499999999998,30.517822299999978],[-81.52499999999998,30.51299690000002],[-81.52499999999998,30.50500119999998],[-81.52499999999998,30.4940876],[-81.52499999999998,30.45221090000001],[-81.52499999999998,30.451233000000002],[-81.52499999999998,30.451161800000023],[-81.52499999999998,30.450931700000012],[-81.52499999999998,30.45052800000002],[-81.52499999999998,30.450455999999974],[-81.52499999999998,30.450283899999988],[-81.52499999999998,30.45013],[-81.52499999999998,30.44999999999999],[-81.52497620000003,30.44999999999999],[-81.52431480000001,30.44999999999999]]]}},{"type":"Feature","properties":{},"geometry":{"type":"Polygon","coordinates":[[[-81.44825600000001,30.44999999999999],[-81.4480565,30.44999999999999],[-81.44791459999999,30.44999999999999],[-81.4476565,30.44999999999999],[-81.44745640000002,30.44999999999999],[-81.44709060000002,30.44999999999999],[-81.4468589,30.44999999999999],[-81.4417128,30.44999999999999],[-81.44054540000002,30.44999999999999],[-81.43969859999999,30.44999999999999],[-81.43138349999998,30.44999999999999],[-81.42794429999998,30.44999999999999],[-81.42787729999998,30.44999999999999],[-81.42460060000002,30.44999999999999],[-81.42337709999998,30.44999999999999],[-81.42184700000001,30.44999999999999],[-81.42144689999998,30.44999999999999],[-81.42111670000003,30.44999999999999],[-81.42028010000001,30.44999999999999],[-81.4199122,30.44999999999999],[-81.41930969999999,30.44999999999999],[-81.41914250000002,30.44999999999999],[-81.41851889999998,30.44999999999999],[-81.41039310000002,30.44999999999999],[-81.4092569,30.44999999999999],[-81.40905930000002,30.44999999999999],[-81.40879130000002,30.44999999999999],[-81.40729829999998,30.44999999999999],[-81.40648060000001,30.44999999999999],[-81.40230810000003,30.44999999999999],[-81.38195230000002,30.44999999999999],[-81.3764754,30.44999999999999],[-81.375,30.44999999999999],[-81.375,30.460025099999996],[-81.375,30.478169400000013],[-81.375,30.50023140000002],[-81.375,30.500247],[-81.375,30.500771499999985],[-81.375,30.522997999999973],[-81.375,30.52344499999998],[-81.375,30.524999999999977],[-81.37565369999999,30.524999999999977],[-81.37605079999997,30.524999999999977],[-81.3880557,30.524999999999977],[-81.3946176,30.524999999999977],[-81.40785469999997,30.524999999999977],[-81.41618720000002,30.524999999999977],[-81.4208496,30.524999999999977],[-81.42659680000003,30.524999999999977],[-81.43147440000001,30.524999999999977],[-81.43533509999997,30.524999999999977],[-81.4360087,30.524999999999977],[-81.44502740000001,30.524999999999977],[-81.4473969,30.524999999999977],[-81.44743410000001,30.524999999999977],[-81.44819269999999,30.524999999999977],[-81.448309,30.524999999999977],[-81.44999999999999,30.524999999999977],[-81.44999999999999,30.523736999999983],[-81.44999999999999,30.521127200000024],[-81.44999999999999,30.520659599999988],[-81.44999999999999,30.51976669999999],[-81.44999999999999,30.5196909],[-81.44999999999999,30.5196684],[-81.44999999999999,30.51838620000001],[-81.44999999999999,30.518372399999976],[-81.44999999999999,30.51816789999998],[-81.44999999999999,30.51788879999998],[-81.44999999999999,30.51234149999999],[-81.44999999999999,30.512100799999985],[-81.44999999999999,30.511174900000015],[-81.44999999999999,30.50859989999998],[-81.44999999999999,30.508020799999997],[-81.44999999999999,30.506363599999986],[-81.44999999999999,30.503974599999992],[-81.44999999999999,30.503917699999988],[-81.44999999999999,30.503912000000014],[-81.44999999999999,30.5032463],[-81.44999999999999,30.500247],[-81.44999999999999,30.491742199999976],[-81.44999999999999,30.480780400000015],[-81.44999999999999,30.48040370000001],[-81.44999999999999,30.48014119999999],[-81.44999999999999,30.47898429999998],[-81.44999999999999,30.47832410000001],[-81.44999999999999,30.47772550000002],[-81.44999999999999,30.475797999999998],[-81.44999999999999,30.475645499999985],[-81.44999999999999,30.475496899999996],[-81.44999999999999,30.467548299999976],[-81.44999999999999,30.466873899999996],[-81.44999999999999,30.466825400000005],[-81.44999999999999,30.466523699999982],[-81.44999999999999,30.466143999999986],[-81.44999999999999,30.466051300000004],[-81.44999999999999,30.465185099999985],[-81.44999999999999,30.464145400000007],[-81.44999999999999,30.464125200000012],[-81.44999999999999,30.463887899999975],[-81.44999999999999,30.463308400000017],[-81.44999999999999,30.462946999999986],[-81.44999999999999,30.461956999999984],[-81.44999999999999,30.46178930000002],[-81.44999999999999,30.46159829999999],[-81.44999999999999,30.460981500000003],[-81.44999999999999,30.460829199999978],[-81.44999999999999,30.459545100000014],[-81.44999999999999,30.459067100000027],[-81.44999999999999,30.456319399999984],[-81.44999999999999,30.455673100000013],[-81.44999999999999,30.454931499999986],[-81.44999999999999,30.454752199999973],[-81.44999999999999,30.454037700000015],[-81.44999999999999,30.4529938],[-81.44999999999999,30.45178279999999],[-81.44999999999999,30.451272099999983],[-81.44999999999999,30.44999999999999],[-81.44933429999998,30.44999999999999],[-81.44825600000001,30.44999999999999]]]}},{"type":"Feature","properties":{},"geometry":{"type":"Polygon","coordinates":[[[-81.7129119,30.225000000000023],[-81.71033410000001,30.225000000000023],[-81.7049558,30.225000000000023],[-81.67500000000001,30.225000000000023],[-81.67500000000001,30.229855199999975],[-81.67500000000001,30.240623200000016],[-81.67500000000001,30.24084290000002],[-81.67500000000001,30.243081200000006],[-81.67500000000001,30.24399820000002],[-81.67500000000001,30.259767699999998],[-81.67500000000001,30.26740810000001],[-81.67500000000001,30.30000000000001],[-81.67927830000002,30.30000000000001],[-81.67967299999998,30.30000000000001],[-81.68336520000003,30.30000000000001],[-81.69259110000002,30.30000000000001],[-81.69288189999997,30.30000000000001],[-81.69429930000001,30.30000000000001],[-81.69637060000002,30.30000000000001],[-81.69672430000003,30.30000000000001],[-81.70788420000002,30.30000000000001],[-81.75,30.30000000000001],[-81.75,30.295656099999974],[-81.75,30.294150300000013],[-81.75,30.291703600000005],[-81.75,30.290884800000015],[-81.75,30.27212259999999],[-81.75,30.225000000000023],[-81.71440050000001,30.225000000000023],[-81.7129119,30.225000000000023]]]}},{"type":"Feature","properties":{},"geometry":{"type":"Polygon","coordinates":[[[-81.69637060000002,30.30000000000001],[-81.69429930000001,30.30000000000001],[-81.69288189999997,30.30000000000001],[-81.69259110000002,30.30000000000001],[-81.68336520000003,30.30000000000001],[-81.67967299999998,30.30000000000001],[-81.67927830000002,30.30000000000001],[-81.67500000000001,30.30000000000001],[-81.67500000000001,30.300280699999973],[-81.67500000000001,30.302570000000003],[-81.67500000000001,30.303644099999985],[-81.67500000000001,30.30930189999998],[-81.67500000000001,30.309663899999975],[-81.67500000000001,30.311475499999972],[-81.67500000000001,30.31486050000001],[-81.67500000000001,30.315145400000006],[-81.67500000000001,30.315590299999997],[-81.67500000000001,30.315731000000028],[-81.67500000000001,30.31585899999999],[-81.67500000000001,30.34185100000002],[-81.67500000000001,30.375],[-81.75,30.375],[-81.75,30.333574999999996],[-81.75,30.30000000000001],[-81.70788420000002,30.30000000000001],[-81.69672430000003,30.30000000000001],[-81.69637060000002,30.30000000000001]]]}},{"type":"Feature","properties":{},"geometry":{"type":"Polygon","coordinates":[[[-81.67500000000001,30.42226720000002],[-81.67500000000001,30.424232500000016],[-81.67500000000001,30.44999999999999],[-81.75,30.44999999999999],[-81.75,30.375],[-81.67500000000001,30.375],[-81.67500000000001,30.385201100000018],[-81.67500000000001,30.402633100000003],[-81.67500000000001,30.402799500000015],[-81.67500000000001,30.404536500000006],[-81.67500000000001,30.404937899999993],[-81.67500000000001,30.405087999999978],[-81.67500000000001,30.408908199999985],[-81.67500000000001,30.410952099999975],[-81.67500000000001,30.412110700000028],[-81.67500000000001,30.4131261],[-81.67500000000001,30.414424199999985],[-81.67500000000001,30.4148692],[-81.67500000000001,30.41579730000001],[-81.67500000000001,30.417105600000014],[-81.67500000000001,30.41790450000002],[-81.67500000000001,30.421607999999992],[-81.67500000000001,30.42226720000002]]]}},{"type":"Feature","properties":{},"geometry":{"type":"Polygon","coordinates":[[[-81.375,30.44999999999999],[-81.3747138,30.44999999999999],[-81.36420049999998,30.44999999999999],[-81.36249190000001,30.44999999999999],[-81.35986789999998,30.44999999999999],[-81.3581825,30.44999999999999],[-81.34906719999998,30.44999999999999],[-81.34864270000003,30.44999999999999],[-81.32143509999997,30.44999999999999],[-81.30917740000001,30.44999999999999],[-81.30521729999998,30.44999999999999],[-81.30132229999998,30.44999999999999],[-81.30000000000001,30.44999999999999],[-81.30000000000001,30.45738319999998],[-81.30000000000001,30.485688400000015],[-81.30000000000001,30.49542459999998],[-81.30000000000001,30.500247],[-81.30000000000001,30.51710220000001],[-81.30000000000001,30.52085820000002],[-81.30000000000001,30.521682399999975],[-81.30000000000001,30.524999999999977],[-81.30514099999999,30.524999999999977],[-81.30648489999999,30.524999999999977],[-81.3190098,30.524999999999977],[-81.36104089999998,30.524999999999977],[-81.375,30.524999999999977],[-81.375,30.52344499999998],[-81.375,30.522997999999973],[-81.375,30.500771499999985],[-81.375,30.500247],[-81.375,30.50023140000002],[-81.375,30.478169400000013],[-81.375,30.460025099999996],[-81.375,30.44999999999999]]]}},{"type":"Feature","properties":{},"geometry":{"type":"Polygon","coordinates":[[[-81.30000000000001,30.44999999999999],[-81.29920290000001,30.44999999999999],[-81.29854119999999,30.44999999999999],[-81.29413090000003,30.44999999999999],[-81.28998810000002,30.44999999999999],[-81.28599100000002,30.44999999999999],[-81.28495629999998,30.44999999999999],[-81.27921129999999,30.44999999999999],[-81.24849160000002,30.44999999999999],[-81.22500000000002,30.44999999999999],[-81.22500000000002,30.45140140000001],[-81.22500000000002,30.468760400000008],[-81.22500000000002,30.47030910000001],[-81.22500000000002,30.472281599999974],[-81.22500000000002,30.473191499999984],[-81.22500000000002,30.488633900000025],[-81.22500000000002,30.500247],[-81.22500000000002,30.503319799999986],[-81.22500000000002,30.50767910000002],[-81.22500000000002,30.524999999999977],[-81.26256719999998,30.524999999999977],[-81.27559989999997,30.524999999999977],[-81.28110400000003,30.524999999999977],[-81.2811931,30.524999999999977],[-81.28812499999998,30.524999999999977],[-81.30000000000001,30.524999999999977],[-81.30000000000001,30.521682399999975],[-81.30000000000001,30.52085820000002],[-81.30000000000001,30.51710220000001],[-81.30000000000001,30.500247],[-81.30000000000001,30.49542459999998],[-81.30000000000001,30.485688400000015],[-81.30000000000001,30.45738319999998],[-81.30000000000001,30.44999999999999]]]}},{"type":"Feature","properties":{},"geometry":{"type":"Polygon","coordinates":[[[-81.7302123,30.149999999999977],[-81.7262839,30.149999999999977],[-81.72568619999998,30.149999999999977],[-81.72505899999999,30.149999999999977],[-81.72280319999999,30.149999999999977],[-81.70644700000003,30.149999999999977],[-81.70456159999998,30.149999999999977],[-81.7033834,30.149999999999977],[-81.70324820000002,30.149999999999977],[-81.70101010000002,30.149999999999977],[-81.70059029999999,30.149999999999977],[-81.6990568,30.149999999999977],[-81.69814159999999,30.149999999999977],[-81.69763870000003,30.149999999999977],[-81.6947419,30.149999999999977],[-81.69404530000003,30.149999999999977],[-81.68037620000001,30.149999999999977],[-81.677888,30.149999999999977],[-81.67500000000001,30.149999999999977],[-81.67500000000001,30.150116200000014],[-81.67500000000001,30.150161799999978],[-81.67500000000001,30.150520700000015],[-81.67500000000001,30.150842899999986],[-81.67500000000001,30.151201300000025],[-81.67500000000001,30.151576999999975],[-81.67500000000001,30.15408450000001],[-81.67500000000001,30.1602355],[-81.67500000000001,30.163942200000008],[-81.67500000000001,30.185079099999996],[-81.67500000000001,30.190140499999984],[-81.67500000000001,30.190333099999975],[-81.67500000000001,30.190487700000006],[-81.67500000000001,30.190680600000007],[-81.67500000000001,30.1935608],[-81.67500000000001,30.1940295],[-81.67500000000001,30.20417550000002],[-81.67500000000001,30.20916269999998],[-81.67500000000001,30.212319400000013],[-81.67500000000001,30.215969700000016],[-81.67500000000001,30.21869099999998],[-81.67500000000001,30.21929319999998],[-81.67500000000001,30.225000000000023],[-81.7049558,30.225000000000023],[-81.71033410000001,30.225000000000023],[-81.7129119,30.225000000000023],[-81.71440050000001,30.225000000000023],[-81.75,30.225000000000023],[-81.75,30.188693999999998],[-81.75,30.149999999999977],[-81.7326792,30.149999999999977],[-81.7302123,30.149999999999977]]]}}]}