{"type":"FeatureCollection","features":[{"type":"Feature","properties":{},"geometry":{"type":"Polygon","coordinates":[[[-73.246827,44.43527899999998],[-73.2468015,44.43521850000002],[-73.24673710000002,44.43515739999998],[-73.2467957,44.43511419999999],[-73.24686630000002,44.435062000000016],[-73.24694349999999,44.43501889999999],[-73.24695439999999,44.435011799999984],[-73.24700039999999,44.434981900000025],[-73.24710060000001,44.43506789999998],[-73.24719490000001,44.43502269999999],[-73.24723929999999,44.43499409999998],[-73.24728399999998,44.43495890000003],[-73.2473779,44.434884899999986],[-73.24730190000002,44.4348286],[-73.2471597,44.434723399999996],[-73.24724939999999,44.434655899999996],[-73.24740559999998,44.43476989999999],[-73.24747939999997,44.434806200000025],[-73.24747969999999,44.43480599999998],[-73.24777469999998,44.43461769999999],[-73.24805270000002,44.43451670000002],[-73.24844109999998,44.4341632],[-73.24858490000003,44.43403239999998],[-73.2487223,44.43384520000001],[-73.24877240000001,44.43370040000002],[-73.2487893,44.433147899999994],[-73.248715,44.432927199999995],[-73.24835350000001,44.432549600000016],[-73.24822449999999,44.43262979999997],[-73.24816220000002,44.43257829999999],[-73.24815130000002,44.43256930000001],[-73.24827340000002,44.43249350000002],[-73.24814229999998,44.4323708],[-73.24781589999998,44.43217779999998],[-73.24782809999999,44.4321425],[-73.24770769999998,44.432052699999986],[-73.24724359999999,44.4318298],[-73.24654529999998,44.431801199999995],[-73.24636620000001,44.43177450000002],[-73.24624210000002,44.431714],[-73.246175,44.431561699999975],[-73.24614969999999,44.431504200000006],[-73.24615310000002,44.431350699999996],[-73.2461166,44.431265499999995],[-73.24614580000002,44.43119469999999],[-73.24635549999999,44.4310557],[-73.2464587,44.4309983],[-73.24716269999999,44.4306067],[-73.24732369999998,44.43044630000003],[-73.24754469999999,44.43022619999999],[-73.24819559999997,44.429524300000026],[-73.2482286,44.42943930000001],[-73.2481659,44.42936789999999],[-73.24823609999999,44.42936279999998],[-73.24850830000003,44.4290757],[-73.2487362,44.42863139999997],[-73.24879149999998,44.428523600000005],[-73.24883549999998,44.42849480000001],[-73.2488588,44.4284796],[-73.24921419999998,44.428247],[-73.2496643,44.42788760000002],[-73.2496663,44.42782119999998],[-73.25004080000002,44.42749809999998],[-73.25025499999998,44.42723269999999],[-73.25057939999999,44.42674219999998],[-73.2505969,44.42668140000001],[-73.25060719999999,44.42661129999999],[-73.25061590000001,44.4265618],[-73.2506421,44.42652859999998],[-73.25088060000002,44.42631030000001],[-73.25142599999998,44.425800100000004],[-73.25144749999998,44.425687100000005],[-73.25146380000001,44.42560470000001],[-73.2515138,44.42549330000003],[-73.2516473,44.4252472],[-73.25192149999998,44.42378150000002],[-73.25202259999998,44.423488099999986],[-73.25240250000002,44.422896200000025],[-73.25244789999999,44.4227922],[-73.25248169999998,44.42251950000002],[-73.25233960000003,44.4223662],[-73.25190220000002,44.422024299999975],[-73.25170500000002,44.4219817],[-73.25169160000002,44.42191500000001],[-73.25176110000001,44.42162539999998],[-73.2517613,44.42162459999997],[-73.25165750000002,44.42142089999999],[-73.25164369999999,44.421057099999985],[-73.25164280000001,44.421055799999976],[-73.25157569999999,44.42094780000002],[-73.25139059999998,44.42086010000003],[-73.25104199999998,44.4207725],[-73.2505428,44.42051240000001],[-73.25049159999998,44.420455600000025],[-73.2505142,44.42023510000001],[-73.25067890000003,44.41996979999999],[-73.25069159999998,44.419873199999984],[-73.25071930000001,44.41984609999997],[-73.25083330000001,44.41973439999998],[-73.25085339999998,44.4196321],[-73.25081660000001,44.41947829999998],[-73.25094899999999,44.41928999999999],[-73.25094919999998,44.41921719999999],[-73.2508795,44.419080399999984],[-73.25033910000002,44.41875929999998],[-73.24952689999998,44.41853090000001],[-73.24894460000002,44.41836719999998],[-73.2484354,44.418406800000014],[-73.24803029999998,44.41833789999998],[-73.24781510000003,44.418255199999976],[-73.24748979999998,44.41824860000003],[-73.24734059999997,44.418316800000014],[-73.24703879999998,44.41884950000002],[-73.24651920000002,44.419460800000024],[-73.24637810000002,44.41951999999998],[-73.24623279999997,44.419677999999976],[-73.24608640000002,44.41969999999998],[-73.24618889999999,44.419514600000014],[-73.24622149999999,44.41924690000002],[-73.24618520000001,44.41917840000002],[-73.24608970000003,44.41913090000003],[-73.2455435,44.41844450000002],[-73.24546720000001,44.41820180000002],[-73.24540660000002,44.41813139999999],[-73.24541219999998,44.41806630000002],[-73.2453648,44.417982499999994],[-73.24542689999998,44.41787069999998],[-73.24540139999999,44.4176607],[-73.24528379999998,44.41749629999998],[-73.24517659999998,44.41745259999999],[-73.24524730000002,44.41731420000002],[-73.24507670000003,44.416915200000005],[-73.2450642,44.41679429999999],[-73.24488550000001,44.41662020000001],[-73.2450129,44.416591900000014],[-73.24502419999999,44.416288899999984],[-73.24482519999998,44.4161163],[-73.24464549999999,44.41602710000001],[-73.24446840000002,44.415965700000015],[-73.24419890000001,44.41593829999999],[-73.24416289999999,44.415934600000014],[-73.24421530000001,44.41580329999999],[-73.24438350000003,44.41557829999999],[-73.24466059999997,44.4149501],[-73.24471319999998,44.414907400000004],[-73.2448627,44.41441759999998],[-73.24500210000002,44.41422440000002],[-73.24518239999998,44.41397439999997],[-73.2452611,44.41380079999999],[-73.24529330000001,44.413574600000004],[-73.24528780000003,44.41340020000001],[-73.24527440000003,44.41297450000002],[-73.2451929,44.412790599999994],[-73.2451438,44.41267979999998],[-73.2449843,44.41251890000001],[-73.2445224,44.41221460000003],[-73.24431099999998,44.41197360000001],[-73.2441981,44.41189889999998],[-73.24319730000002,44.41151830000001],[-73.24265259999999,44.4114017],[-73.24202930000001,44.411322900000016],[-73.24161709999998,44.41133500000001],[-73.24155660000002,44.411674300000016],[-73.2414053,44.41175509999999],[-73.24118270000002,44.41178480000002],[-73.24067439999999,44.4117473],[-73.24051680000002,44.411639200000025],[-73.24039900000002,44.411618499999975],[-73.24037779999998,44.41157370000002],[-73.24031009999999,44.41143039999997],[-73.24018569999998,44.4113246],[-73.24024359999999,44.411291800000015],[-73.24024070000002,44.41124689999998],[-73.24003529999999,44.4111628],[-73.2400078,44.41112909999998],[-73.23998160000002,44.411096799999996],[-73.23999850000001,44.41090150000002],[-73.23989340000003,44.41071720000002],[-73.2394746,44.4103743],[-73.23932020000001,44.41032710000002],[-73.2392221,44.410224700000015],[-73.2385342,44.41014469999999],[-73.2380938,44.410049500000014],[-73.23756100000003,44.410019999999975],[-73.23744249999999,44.41001349999999],[-73.23722070000002,44.4098851],[-73.23709439999999,44.409760000000006],[-73.23710929999999,44.409567400000014],[-73.23711320000001,44.40951690000003],[-73.23714489999998,44.40948259999999],[-73.2371966,44.40942669999998],[-73.23820560000001,44.40883359999998],[-73.23855989999998,44.40846620000002],[-73.23859900000002,44.4082899],[-73.23890449999999,44.40777270000001],[-73.2390608,44.407610999999974],[-73.23961120000001,44.407192699999996],[-73.23969549999998,44.4070347],[-73.23984259999997,44.40657420000002],[-73.23981800000001,44.40625210000002],[-73.23977000000002,44.406204100000025],[-73.23964699999999,44.40618330000001],[-73.23943539999999,44.40607269999998],[-73.2393222,44.40597630000002],[-73.23907910000003,44.4058847],[-73.23893329999999,44.405725700000005],[-73.2388616,44.40547070000002],[-73.23884020000003,44.40507530000002],[-73.23872840000001,44.404690200000005],[-73.23872820000003,44.40462600000001],[-73.23872720000003,44.40435020000001],[-73.23861959999999,44.404152099999976],[-73.23845119999999,44.40395819999998],[-73.23844059999999,44.403861800000016],[-73.23827640000002,44.40370810000002],[-73.2381221,44.403379400000006],[-73.23796440000001,44.403245200000015],[-73.23788289999999,44.403236900000024],[-73.23781300000002,44.403041099999996],[-73.23762249999999,44.40284589999999],[-73.23742340000001,44.402501700000016],[-73.23722780000003,44.40234909999998],[-73.2371334,44.4019859],[-73.23725409999997,44.4017389],[-73.237303,44.40147209999998],[-73.23724490000001,44.401205800000014],[-73.2370707,44.40114820000002],[-73.2370479,44.40111189999999],[-73.23710920000002,44.401080200000024],[-73.23703069999999,44.401002500000004],[-73.23705330000001,44.40089690000002],[-73.2366505,44.40078999999997],[-73.23654379999999,44.40084940000003],[-73.23646969999999,44.4008341],[-73.23645800000003,44.40071549999999],[-73.23639650000001,44.40066580000001],[-73.2351276,44.40052350000002],[-73.23499170000002,44.400533499999995],[-73.2348637,44.400614700000006],[-73.23463779999997,44.40075780000001],[-73.23457239999999,44.40070309999999],[-73.2345444,44.40052930000002],[-73.23457869999999,44.400418],[-73.23451499999999,44.40034129999998],[-73.23446310000003,44.40029199999998],[-73.23439869999999,44.40022040000002],[-73.23435560000001,44.400174400000026],[-73.23442219999998,44.40012890000003],[-73.2344534,44.39999999999998],[-73.23685660000001,44.39999999999998],[-73.23690160000001,44.39999999999998],[-73.27181460000003,44.39999999999998],[-73.2719525,44.39999999999998],[-73.27188740000003,44.400213099999974],[-73.2717553,44.40044510000001],[-73.27172610000002,44.40074229999999],[-73.2717518,44.400934800000016],[-73.27203029999998,44.4013238],[-73.27217889999997,44.40168219999998],[-73.2722637,44.402019800000005],[-73.2722407,44.402320799999984],[-73.2721358,44.4025115],[-73.27189570000002,44.40274649999998],[-73.27157590000002,44.403142],[-73.2713139,44.40355649999998],[-73.27113550000001,44.403932399999974],[-73.27109089999999,44.404145700000015],[-73.27098430000001,44.40436699999998],[-73.27065970000001,44.404666099999986],[-73.27063820000001,44.40473650000001],[-73.27068050000003,44.40496280000002],[-73.27028280000002,44.40526219999998],[-73.2702382,44.40532680000001],[-73.27023880000002,44.40546189999998],[-73.27016989999998,44.40552650000001],[-73.27005830000002,44.405436699999996],[-73.2699149,44.405080199999986],[-73.2696234,44.40466429999998],[-73.26925490000002,44.4044538],[-73.2687722,44.404073900000014],[-73.26839610000002,44.40391039999997],[-73.2674993,44.403788899999995],[-73.2669937,44.40384660000001],[-73.2662469,44.40402169999999],[-73.26537480000002,44.40447360000002],[-73.26485380000003,44.40505209999998],[-73.26468990000001,44.4052873],[-73.26461610000001,44.405476299999975],[-73.264522,44.40557940000002],[-73.26441340000002,44.4059087],[-73.26441349999999,44.4062194],[-73.26436360000002,44.40635420000001],[-73.26422769999999,44.40650449999998],[-73.26357990000002,44.406873099999984],[-73.26289930000002,44.40702399999998],[-73.26245849999998,44.407207099999994],[-73.2620296,44.40744169999999],[-73.26164269999998,44.407724400000006],[-73.26133099999998,44.408152099999995],[-73.26105469999999,44.408354900000006],[-73.260649,44.408579799999984],[-73.26003350000002,44.40908030000003],[-73.25990680000001,44.4094819],[-73.25986560000001,44.409794499999975],[-73.25973649999997,44.40998939999997],[-73.25965989999997,44.410220100000004],[-73.2596332,44.41034289999999],[-73.25970940000002,44.41051229999999],[-73.2596772,44.41058020000003],[-73.25947359999998,44.410719700000016],[-73.25890709999999,44.41137429999998],[-73.2583568,44.41149150000001],[-73.2580807,44.41168579999999],[-73.25775750000003,44.411831199999995],[-73.2577607,44.412293499999976],[-73.25755429999998,44.412769200000014],[-73.25756480000001,44.41298389999997],[-73.25734299999999,44.412973799999975],[-73.25721449999998,44.41300439999998],[-73.2567297,44.41328119999997],[-73.25653890000001,44.41331020000001],[-73.25643559999997,44.41338230000002],[-73.25629600000002,44.41338109999998],[-73.25589819999999,44.41399209999997],[-73.25563740000001,44.41458290000003],[-73.25554399999999,44.4149281],[-73.25552870000001,44.41526099999999],[-73.25552979999998,44.41547200000002],[-73.25553050000002,44.41560720000001],[-73.25560480000001,44.41614720000001],[-73.2557971,44.41663920000002],[-73.25609409999998,44.41686520000002],[-73.25638900000001,44.4170896],[-73.2569461,44.41736259999999],[-73.25706259999998,44.417365399999994],[-73.25746720000001,44.417250000000024],[-73.25774389999998,44.4172519],[-73.25836989999999,44.41743939999998],[-73.25849570000003,44.41759189999999],[-73.25846430000001,44.41819670000001],[-73.25827939999999,44.41855190000001],[-73.25802149999998,44.41880149999997],[-73.2578825,44.41922260000001],[-73.25812989999997,44.41955539999998],[-73.25819610000002,44.419644300000016],[-73.25806269999998,44.41980189999998],[-73.25795319999997,44.419931399999996],[-73.25765039999999,44.420566199999996],[-73.25773779999997,44.4209376],[-73.25803450000001,44.421566900000016],[-73.25815360000001,44.42194540000003],[-73.25823270000001,44.422385899999995],[-73.25834070000002,44.42254509999998],[-73.25835919999997,44.42263070000001],[-73.25830630000002,44.42280599999998],[-73.2583821,44.422969799999976],[-73.25830350000001,44.42328980000002],[-73.25812009999999,44.423706400000015],[-73.2580787,44.42413010000001],[-73.25792439999998,44.42437480000001],[-73.25753639999999,44.4246354],[-73.25667329999999,44.42489610000001],[-73.25644829999999,44.42490650000002],[-73.2562911,44.425010799999995],[-73.255964,44.42550449999999],[-73.25588579999999,44.425699399999985],[-73.2559693,44.426321900000005],[-73.25611909999998,44.42641570000001],[-73.2561,44.42645440000001],[-73.2560383,44.42657889999998],[-73.25604870000001,44.42669940000002],[-73.25619499999999,44.42720539999999],[-73.2564132,44.42768960000001],[-73.25660499999998,44.427785400000005],[-73.25666790000002,44.4277462],[-73.25668230000002,44.4278496],[-73.2567472,44.427914199999975],[-73.25696010000001,44.428107899999986],[-73.2572935,44.42831380000001],[-73.25751930000001,44.42853630000002],[-73.25767339999999,44.42862509999998],[-73.25781769999998,44.42882830000002],[-73.25779849999998,44.428888700000016],[-73.2577192,44.428925100000015],[-73.25762750000001,44.42890160000002],[-73.25755040000001,44.42880709999997],[-73.2572652,44.4290977],[-73.25734670000003,44.42913629999998],[-73.25719129999999,44.42929240000001],[-73.2570844,44.429308400000025],[-73.25672639999999,44.42957710000002],[-73.25661869999999,44.42955940000002],[-73.256258,44.42983379999998],[-73.25623050000002,44.42985040000002],[-73.25609589999999,44.4299317],[-73.25603089999998,44.42993519999999],[-73.25589400000001,44.43033550000001],[-73.25574599999999,44.4304889],[-73.255743,44.430558099999985],[-73.25563879999999,44.43058830000001],[-73.25563449999999,44.430626399999994],[-73.25531669999998,44.4306588],[-73.25424720000001,44.431133999999986],[-73.25333130000001,44.43166170000001],[-73.25264320000002,44.4321678],[-73.2523094,44.432547399999976],[-73.25194579999999,44.4330645],[-73.25156190000001,44.433498499999985],[-73.25117019999999,44.43428469999998],[-73.25112619999999,44.43446979999999],[-73.25112990000002,44.43475539999997],[-73.25119339999998,44.4348354],[-73.25153180000001,44.43526159999999],[-73.2519236,44.435472800000014],[-73.25232119999998,44.435587699999985],[-73.25237010000001,44.4356224],[-73.25263439999998,44.435809800000015],[-73.25335480000001,44.436600699999985],[-73.25357330000003,44.43693990000003],[-73.25353899999999,44.437361099999976],[-73.25374929999998,44.43824380000001],[-73.25383190000002,44.438395000000014],[-73.25400489999998,44.438521700000024],[-73.2540343,44.43871539999998],[-73.25415909999998,44.438953500000025],[-73.25386709999998,44.43977530000001],[-73.25372119999997,44.439899500000024],[-73.2536695,44.44012759999998],[-73.25339459999998,44.440532700000006],[-73.25336440000001,44.44073100000003],[-73.2531861,44.4409536],[-73.25316559999999,44.441059199999984],[-73.2532516,44.441273000000024],[-73.25315790000002,44.441567599999985],[-73.2529366,44.44172880000002],[-73.25283350000001,44.44174179999999],[-73.25256289999999,44.441671799999995],[-73.25244099999998,44.441693199999975],[-73.25171110000002,44.44200189999998],[-73.25063649999998,44.442552999999975],[-73.25037809999998,44.44262220000002],[-73.25008159999999,44.4426431],[-73.25001120000002,44.442613300000005],[-73.24994889999999,44.442500499999994],[-73.24989820000002,44.44209919999997],[-73.24984649999999,44.441987299999994],[-73.2496319,44.4418149],[-73.24946160000002,44.44174880000003],[-73.24927430000002,44.44173669999998],[-73.2484958,44.4417646],[-73.24820870000002,44.44174270000002],[-73.247818,44.44158299999998],[-73.24771370000002,44.441487800000004],[-73.24761649999999,44.44138579999998],[-73.2475834,44.44117030000001],[-73.2474502,44.4409751],[-73.24738589999998,44.44029210000002],[-73.2472272,44.43981070000001],[-73.24694199999999,44.43940049999998],[-73.24659400000002,44.4390588],[-73.24590990000002,44.438569700000016],[-73.2458284,44.43842430000001],[-73.2457599,44.438100099999986],[-73.24565630000001,44.437848299999985],[-73.2456343,44.43768840000001],[-73.24569530000002,44.43712119999998],[-73.24573700000002,44.437025800000015],[-73.2460016,44.436796500000014],[-73.24605680000002,44.43668359999998],[-73.24610969999998,44.43649190000002],[-73.24610899999999,44.43631420000003],[-73.24620570000002,44.43598750000001],[-73.2461793,44.435858800000005],[-73.2460428,44.435721],[-73.24620909999999,44.4355989],[-73.24676299999999,44.435350700000015],[-73.24679850000001,44.43531089999999],[-73.246827,44.43527899999998]]]}},{"type":"Feature","properties":{},"geometry":{"type":"Polygon","coordinates":[[[-73.25882439999998,44.4292289],[-73.2593574,44.42916760000003],[-73.2594805,44.429204700000014],[-73.25958759999997,44.42929190000001],[-73.2597849,44.4293404],[-73.25983539999999,44.429383900000005],[-73.25981159999998,44.42960040000003],[-73.25982690000001,44.429642],[-73.259886,44.42981600000002],[-73.25996520000001,44.42991469999998],[-73.2600572,44.42990209999999],[-73.25999789999997,44.43007030000001],[-73.2600688,44.430181300000015],[-73.2599773,44.43017209999999],[-73.25980470000002,44.43038369999999],[-73.2597121,44.43037770000001],[-73.25955349999998,44.4304631],[-73.25940680000002,44.430238799999984],[-73.25929059999999,44.43014579999999],[-73.25908930000003,44.4301208],[-73.25879930000002,44.429978199999994],[-73.25863199999998,44.42959639999998],[-73.25857389999999,44.429586400000005],[-73.2584013,44.42955669999998],[-73.25833269999998,44.42947509999999],[-73.2583338,44.42924850000003],[-73.25830459999997,44.42919280000001],[-73.25857180000003,44.429140200000006],[-73.25882439999998,44.4292289]]]}},{"type":"Feature","properties":{},"geometry":{"type":"Polygon","coordinates":[[[-73.24805550000002,44.432642199999975],[-73.24810869999999,44.43269029999999],[-73.24807620000001,44.43270869999998],[-73.24801760000003,44.43274200000002],[-73.24798829999997,44.43271549999997],[-73.2479525,44.43268310000002],[-73.2480074,44.432651899999996],[-73.24804360000002,44.43263139999999],[-73.24805550000002,44.432642199999975]]]}},{"type":"Feature","properties":{},"geometry":{"type":"Polygon","coordinates":[[[-73.26033519999999,44.445675300000005],[-73.26032859999998,44.44584630000003],[-73.26003329999998,44.44589450000001],[-73.26001559999997,44.44580259999998],[-73.26005609999999,44.445670800000016],[-73.26014950000001,44.4456333],[-73.26033519999999,44.445675300000005]]]}},{"type":"Feature","properties":{},"geometry":{"type":"Polygon","coordinates":[[[-73.27499999999998,44.45025670000001],[-73.27499999999998,44.45032550000002],[-73.2748565,44.450262699999996],[-73.27452449999998,44.45021439999999],[-73.27449460000003,44.450151800000015],[-73.27444930000001,44.450057000000015],[-73.27420210000002,44.449906399999975],[-73.27403959999998,44.44988749999999],[-73.27391349999999,44.44981289999998],[-73.27389319999997,44.44971570000001],[-73.27406280000002,44.449667799999986],[-73.27467949999999,44.44965289999999],[-73.27499999999998,44.449600499999974],[-73.27499999999998,44.45025670000001]]]}},{"type":"Feature","properties":{},"geometry":{"type":"Polygon","coordinates":[[[-73.23335309999999,44.39999999999998],[-73.2333236,44.40002049999998],[-73.23325569999997,44.39999999999998],[-73.23335309999999,44.39999999999998]]]}},{"type":"Feature","properties":{},"geometry":{"type":"Polygon","coordinates":[[[-73.22961420000001,44.39999999999998],[-73.22853529999998,44.400141700000006],[-73.22743170000001,44.40035280000001],[-73.22533770000001,44.40091890000002],[-73.2248869,44.40114369999998],[-73.22459020000002,44.40134699999999],[-73.2245158,44.4014545],[-73.22384740000001,44.40181209999997],[-73.22374730000001,44.40207140000001],[-73.22362770000001,44.40276699999998],[-73.2234211,44.40332339999998],[-73.2232424,44.40380809999999],[-73.22319590000001,44.403888600000016],[-73.22315149999997,44.40396270000002],[-73.2231185,44.40405609999999],[-73.22308629999998,44.404121299999986],[-73.223049,44.404184799999996],[-73.22303360000001,44.4042341],[-73.2230209,44.404324599999995],[-73.22301529999999,44.404391499999974],[-73.2229764,44.40451760000002],[-73.2229719,44.404578000000015],[-73.22297479999997,44.40467239999998],[-73.22296399999999,44.404729299999985],[-73.2228652,44.4050173],[-73.22284020000001,44.40522179999999],[-73.22281720000001,44.4054696],[-73.22278160000002,44.40571019999999],[-73.22278990000001,44.40576470000002],[-73.2227967,44.4058344],[-73.22281240000001,44.4058766],[-73.22289560000002,44.4061423],[-73.22301320000003,44.406170599999996],[-73.22309109999998,44.40623690000001],[-73.223318,44.40621169999997],[-73.22337900000002,44.406278799999995],[-73.22327430000001,44.406671700000004],[-73.22326320000002,44.40671309999999],[-73.22340430000003,44.407011599999976],[-73.22330340000002,44.40754930000003],[-73.22300000000001,44.40752839999999],[-73.22301169999997,44.40764089999999],[-73.2230889,44.407706099999984],[-73.2229304,44.407941100000016],[-73.22291799999999,44.40806809999998],[-73.2230088,44.408287400000006],[-73.22303499999998,44.40850610000001],[-73.22295580000002,44.408646499999975],[-73.22286009999999,44.40881580000001],[-73.22287940000001,44.409060599999975],[-73.22288600000002,44.4091444],[-73.2228599,44.409479999999974],[-73.2228915,44.409592299999986],[-73.22289619999998,44.40960919999998],[-73.22279630000003,44.40970399999998],[-73.22280160000003,44.409849099999974],[-73.2226746,44.4101445],[-73.22265069999997,44.41019990000001],[-73.22259279999997,44.410396400000025],[-73.22256850000002,44.41050089999999],[-73.22270989999998,44.41060670000002],[-73.2227282,44.41062040000003],[-73.22257939999997,44.410670900000014],[-73.22247520000002,44.41080729999999],[-73.22252989999998,44.410906599999976],[-73.22255059999998,44.41094420000002],[-73.22242160000002,44.41107490000002],[-73.22241430000003,44.411123299999986],[-73.2224703,44.41119650000002],[-73.22258470000003,44.41123520000002],[-73.22239109999998,44.41133129999997],[-73.2222918,44.41142389999999],[-73.22229879999998,44.411519],[-73.22237890000002,44.4115946],[-73.22220529999998,44.41171600000001],[-73.2221829,44.41179970000002],[-73.2222984,44.41195210000001],[-73.22211779999998,44.41206440000002],[-73.22209779999997,44.412109699999974],[-73.22213249999999,44.41218550000002],[-73.22193629999998,44.41230109999998],[-73.2217147,44.41252229999998],[-73.2216818,44.412625400000024],[-73.22170790000001,44.412661300000025],[-73.22157950000002,44.412692900000025],[-73.221477,44.41278540000002],[-73.22106079999998,44.41335939999999],[-73.22092650000002,44.41354460000002],[-73.22071089999997,44.413672700000006],[-73.22056479999998,44.413732900000014],[-73.22048749999999,44.41376939999998],[-73.2204433,44.413792],[-73.22043050000002,44.41384620000002],[-73.2204271,44.413860399999976],[-73.22034530000002,44.41393310000001],[-73.22031609999999,44.41395899999998],[-73.21996960000001,44.414102300000025],[-73.2199506,44.41411019999998],[-73.2197625,44.41425600000002],[-73.219762,44.41425620000001],[-73.2191712,44.414488800000015],[-73.2187965,44.4147097],[-73.21866920000002,44.41487669999998],[-73.21868009999997,44.41503449999999],[-73.21855349999998,44.41518960000002],[-73.2186011,44.41525009999998],[-73.21859519999998,44.41526379999999],[-73.21852439999998,44.41542879999997],[-73.21851809999998,44.4154618],[-73.21846299999999,44.41574630000002],[-73.21843689999997,44.4158812],[-73.21842609999999,44.41593690000002],[-73.2184411,44.41607699999997],[-73.2184431,44.416094999999984],[-73.21840179999998,44.41621329999998],[-73.21839030000001,44.41624610000002],[-73.2184866,44.41632609999999],[-73.21836459999997,44.416537500000004],[-73.21856400000001,44.416618200000016],[-73.21839349999999,44.41674920000003],[-73.2183268,44.41688670000002],[-73.2182972,44.41702470000001],[-73.21824049999998,44.417288600000006],[-73.21816130000002,44.417657399999996],[-73.21811760000003,44.417861000000016],[-73.21819449999998,44.41827169999999],[-73.21842709999999,44.41832879999998],[-73.21826290000001,44.418439999999975],[-73.2181339,44.418638999999985],[-73.21813300000002,44.418775400000015],[-73.21825100000001,44.418913599999996],[-73.2182487,44.4189169],[-73.21816410000002,44.4190418],[-73.21814160000002,44.419205999999974],[-73.2182181,44.41934620000001],[-73.2183963,44.419392000000016],[-73.2183875,44.419399999999996],[-73.21827939999997,44.41949749999998],[-73.2182861,44.419660599999986],[-73.2185144,44.41972470000002],[-73.2183693,44.41983440000001],[-73.21825530000001,44.42008800000002],[-73.218342,44.42016899999999],[-73.21860520000001,44.42026659999999],[-73.21850219999999,44.42028620000002],[-73.2184418,44.420297800000014],[-73.21842880000003,44.42049930000002],[-73.2184239,44.42057510000001],[-73.2183627,44.420678699999996],[-73.21833279999998,44.42080609999999],[-73.2182793,44.4210339],[-73.21830019999999,44.421092499999986],[-73.21843089999999,44.421179499999994],[-73.21843150000001,44.421188400000005],[-73.218434,44.42122790000002],[-73.21834439999998,44.4213699],[-73.2183248,44.42138590000002],[-73.21817270000003,44.42151100000001],[-73.21809259999998,44.421706700000016],[-73.21811020000001,44.4217946],[-73.21821340000002,44.421864400000004],[-73.21817729999998,44.422066400000006],[-73.21820229999997,44.42213229999999],[-73.2184661,44.42223689999997],[-73.21843109999998,44.42236300000002],[-73.21843560000002,44.42260240000002],[-73.21833170000002,44.42306960000002],[-73.21814899999998,44.42346079999999],[-73.21783779999998,44.42393470000002],[-73.2175881,44.42431490000001],[-73.2174306,44.42475400000001],[-73.21724849999998,44.425102100000004],[-73.21713349999999,44.425491799999975],[-73.21711699999997,44.42561899999998],[-73.2171123,44.42569099999997],[-73.21717109999997,44.42578049999997],[-73.21741250000002,44.425857399999984],[-73.2173292,44.42589340000001],[-73.21731749999998,44.42599990000002],[-73.21746330000002,44.42626799999999],[-73.21748050000002,44.42651330000001],[-73.21754659999999,44.42662949999999],[-73.21759880000002,44.42664450000001],[-73.21778460000002,44.42669760000001],[-73.21798639999997,44.42664639999998],[-73.21806079999999,44.42666459999998],[-73.21839310000001,44.426823300000024],[-73.2184024,44.42682780000001],[-73.21854339999999,44.42697679999998],[-73.2186805,44.427036199999975],[-73.21879910000001,44.42704090000001],[-73.21877139999998,44.42724199999998],[-73.21881209999998,44.427254000000005],[-73.21891720000002,44.42728490000002],[-73.21897910000001,44.427381500000024],[-73.21933259999997,44.4277103],[-73.21919969999999,44.42778390000001],[-73.21916279999999,44.427852900000005],[-73.21912500000002,44.42799609999997],[-73.21909670000002,44.4281034],[-73.21918790000001,44.42816240000002],[-73.21910409999998,44.42820760000001],[-73.21907929999998,44.42826029999998],[-73.21907429999999,44.42859349999998],[-73.2191487,44.42879290000002],[-73.21931660000001,44.42924340000002],[-73.21933569999999,44.429294500000026],[-73.21936690000001,44.429634799999974],[-73.2195456,44.4298407],[-73.21967669999998,44.429857200000015],[-73.2195853,44.42989460000001],[-73.2195701,44.429937300000006],[-73.21968879999997,44.430090500000006],[-73.2197013,44.43010670000001],[-73.21977120000003,44.430328900000006],[-73.21988950000002,44.4304492],[-73.21988959999999,44.43045080000002],[-73.21991509999998,44.4307508],[-73.22004570000001,44.4308011],[-73.21995720000001,44.430852800000025],[-73.21992490000002,44.4309571],[-73.2199263,44.43097999999998],[-73.21995620000001,44.431478700000014],[-73.21991910000003,44.43152650000002],[-73.21967769999998,44.431837900000005],[-73.21959399999997,44.43194590000002],[-73.21956210000002,44.43209519999999],[-73.21964559999998,44.4323248],[-73.21964250000002,44.43232810000001],[-73.21947979999999,44.43250310000002],[-73.21942560000002,44.4326461],[-73.21926459999997,44.43317710000002],[-73.21926689999998,44.43341320000002],[-73.2192675,44.4334733],[-73.21904439999997,44.433886900000005],[-73.2189553,44.43425980000001],[-73.21909690000001,44.43467670000001],[-73.21953669999999,44.43523499999998],[-73.21960100000001,44.435390100000006],[-73.21963390000002,44.43551009999999],[-73.2195997,44.435967000000005],[-73.21964259999999,44.43623250000002],[-73.21976560000002,44.43629090000002],[-73.21984570000001,44.43639380000002],[-73.21983840000001,44.43650789999998],[-73.21983189999997,44.43660970000002],[-73.21986750000002,44.43686480000002],[-73.22021969999997,44.4384326],[-73.2205176,44.4385752],[-73.22058179999999,44.43869080000002],[-73.22074550000002,44.43898610000002],[-73.22076629999998,44.439023599999985],[-73.22088910000002,44.43911159999999],[-73.22097930000001,44.43924759999999],[-73.22107549999998,44.43926829999998],[-73.22096169999998,44.43930089999998],[-73.22092559999999,44.43935320000003],[-73.2209861,44.4396605],[-73.22097739999998,44.439884500000005],[-73.22102960000001,44.440030200000024],[-73.22104159999998,44.440370099999996],[-73.22099859999997,44.4404763],[-73.2210048,44.44066359999999],[-73.22095250000001,44.44088479999999],[-73.2209221,44.44145359999999],[-73.2210528,44.44172600000002],[-73.22135909999997,44.4419795],[-73.2214947,44.4420341],[-73.22213190000002,44.44229059999998],[-73.22317959999998,44.44254710000001],[-73.22410989999997,44.442679399999975],[-73.22437400000001,44.44262459999999],[-73.22478460000002,44.44264620000001],[-73.22498510000003,44.44265680000001],[-73.22579430000002,44.44255190000001],[-73.22601259999999,44.442477800000006],[-73.22650670000002,44.442539099999976],[-73.22755489999997,44.44256899999999],[-73.22770150000002,44.44252030000001],[-73.22789440000003,44.44251509999998],[-73.22800849999999,44.442442700000015],[-73.22818269999999,44.442592400000024],[-73.22874910000002,44.44265389999998],[-73.2298485,44.44275160000001],[-73.2303417,44.44269300000002],[-73.23055060000002,44.4427379],[-73.2306623,44.442702699999984],[-73.23087070000003,44.44274899999999],[-73.23130680000003,44.4427642],[-73.2316108,44.44286310000001],[-73.23178030000003,44.44291820000001],[-73.23181419999997,44.44297510000001],[-73.23184470000001,44.4430261],[-73.23236709999998,44.443284800000015],[-73.23247129999999,44.44337949999999],[-73.2331097,44.44353990000002],[-73.23316979999998,44.443555],[-73.23317839999999,44.443568700000014],[-73.233315,44.443787799999996],[-73.23338949999999,44.443798300000026],[-73.2334199,44.443850199999986],[-73.23354790000002,44.44409039999999],[-73.23352449999999,44.444325400000025],[-73.23347009999998,44.444436499999995],[-73.23328270000002,44.44468760000001],[-73.23251349999998,44.44537020000001],[-73.23206590000001,44.44571289999999],[-73.23180919999999,44.44609700000001],[-73.2315792,44.446813899999995],[-73.23137430000003,44.4470192],[-73.23138269999998,44.44737249999997],[-73.2312518,44.447962200000006],[-73.2312255,44.44848289999999],[-73.23091840000001,44.448551399999985],[-73.23090760000002,44.44860030000001],[-73.23088669999999,44.449016099999994],[-73.23095669999998,44.44904020000001],[-73.23090530000002,44.44916719999998],[-73.23099409999998,44.449133700000004],[-73.23102840000001,44.449244599999986],[-73.2309391,44.44927710000002],[-73.2310205,44.4493549],[-73.23098470000002,44.44960759999998],[-73.2309232,44.44980559999999],[-73.23071249999998,44.4498112],[-73.23069420000002,44.4498873],[-73.23077519999998,44.450070400000016],[-73.2309907,44.45024410000002],[-73.23101020000001,44.450254900000004],[-73.23119700000001,44.4503593],[-73.23142530000001,44.450382400000024],[-73.2318497,44.45025020000003],[-73.23196189999999,44.4501487],[-73.23202659999998,44.450146099999984],[-73.23206920000001,44.45008230000002],[-73.2321708,44.450075200000015],[-73.23223630000001,44.45012250000002],[-73.23233809999999,44.45013319999998],[-73.23235779999999,44.45009299999998],[-73.23240449999997,44.45016190000001],[-73.23244030000001,44.450214700000004],[-73.23243230000003,44.450259700000004],[-73.23242320000003,44.450311],[-73.23233670000002,44.45032650000002],[-73.23246310000002,44.45036529999999],[-73.23253160000002,44.450452799999994],[-73.23260349999998,44.45103289999997],[-73.23256980000002,44.45110870000002],[-73.23252120000001,44.451083400000016],[-73.23246929999999,44.45111059999999],[-73.23241960000001,44.45124440000001],[-73.2323356,44.4512254],[-73.23234719999999,44.45134839999997],[-73.232306,44.45142820000001],[-73.23215699999997,44.451492900000005],[-73.2321824,44.45152630000001],[-73.23233060000001,44.4515275],[-73.2323356,44.45166660000001],[-73.23223990000002,44.45171379999999],[-73.23229550000002,44.45181250000002],[-73.23211550000002,44.45185220000002],[-73.23197399999998,44.45195180000002],[-73.23196389999998,44.45195890000002],[-73.23192649999999,44.4521671],[-73.23196259999997,44.45230509999999],[-73.2319579,44.45257029999999],[-73.23189880000001,44.45280309999998],[-73.23177120000003,44.453027299999974],[-73.23149269999999,44.45309229999998],[-73.23144450000001,44.45313700000003],[-73.23154269999998,44.453177900000014],[-73.23180029999997,44.4531844],[-73.23180910000002,44.453334299999995],[-73.23168099999998,44.45372759999998],[-73.2315696,44.45358399999998],[-73.23149339999998,44.453566799999976],[-73.23142569999999,44.453634799999975],[-73.23140089999998,44.45389990000001],[-73.23130229999998,44.45404589999998],[-73.23106669999999,44.454037200000016],[-73.23072789999998,44.45417579999997],[-73.23041189999998,44.45421670000002],[-73.23039110000002,44.4542194],[-73.23024220000002,44.45404050000002],[-73.2301673,44.454008199999976],[-73.22996239999998,44.45403759999999],[-73.2299079,44.454112399999985],[-73.22995850000001,44.4542404],[-73.22989969999998,44.45429560000002],[-73.22989890000002,44.45437340000001],[-73.22979889999999,44.454478800000004],[-73.22976870000002,44.45456999999999],[-73.22979839999999,44.45468490000002],[-73.22968209999999,44.45475269999997],[-73.22949290000003,44.45470390000003],[-73.2295398,44.45449380000002],[-73.22945290000001,44.454338199999995],[-73.22927470000002,44.454245800000024],[-73.22910589999998,44.45426570000001],[-73.22890890000002,44.45458309999998],[-73.22825460000001,44.45520909999999],[-73.22786129999997,44.45566830000001],[-73.22778570000003,44.45573430000002],[-73.22760039999997,44.45577370000001],[-73.2273389,44.456085299999984],[-73.22715140000003,44.45618510000003],[-73.22698910000003,44.4562133],[-73.22683810000001,44.456346499999995],[-73.22651300000001,44.45642980000002],[-73.2262207,44.45665339999999],[-73.22578349999998,44.4566633],[-73.22554709999997,44.456518800000026],[-73.22534810000002,44.456558400000006],[-73.2252044,44.45665589999999],[-73.22517240000002,44.45667750000001],[-73.22492140000003,44.45692919999999],[-73.22480339999998,44.45699330000002],[-73.22473660000003,44.457029499999976],[-73.224649,44.45715050000001],[-73.2245709,44.45736549999998],[-73.22432839999999,44.45765080000001],[-73.22414320000001,44.45798020000001],[-73.22419430000002,44.45815190000002],[-73.2241037,44.45825669999999],[-73.22416750000002,44.45831420000002],[-73.22420119999998,44.458417999999995],[-73.22417669999999,44.45848590000003],[-73.22413069999999,44.45861339999999],[-73.223908,44.45891649999999],[-73.22358150000002,44.459107500000016],[-73.2231698,44.459405300000014],[-73.223005,44.45946550000002],[-73.2228437,44.45946900000001],[-73.2226986,44.45947749999999],[-73.22253810000001,44.45948750000002],[-73.22237360000003,44.45970369999998],[-73.22224879999999,44.46003289999999],[-73.22201519999999,44.46027179999999],[-73.2214424,44.461123499999985],[-73.2214224,44.46116699999999],[-73.2213499,44.461334299999976],[-73.22124869999999,44.46152649999999],[-73.2211418,44.461771],[-73.22104560000002,44.4619912],[-73.22093589999997,44.462205600000004],[-73.22082280000001,44.462466000000006],[-73.22079910000002,44.462559899999974],[-73.22057439999998,44.463309100000004],[-73.22071269999998,44.463543800000025],[-73.22090559999998,44.463527699999986],[-73.22091499999999,44.463563299999976],[-73.22082289999997,44.4636792],[-73.22047980000002,44.46394670000001],[-73.22038250000003,44.464092900000026],[-73.22026640000001,44.464392799999985],[-73.21997809999999,44.46444869999999],[-73.2194771,44.46500420000001],[-73.21936090000003,44.46521480000001],[-73.21938799999998,44.46528230000001],[-73.21950800000002,44.465229299999976],[-73.21962880000001,44.46508440000002],[-73.2196356,44.465011000000004],[-73.21972799999998,44.46496209999998],[-73.2199501,44.46461770000002],[-73.22003360000002,44.46456599999999],[-73.21944250000001,44.465470700000026],[-73.21947060000002,44.4655075],[-73.21940940000002,44.465609400000005],[-73.2193307,44.46592220000002],[-73.219267,44.46602009999998],[-73.21928200000002,44.46618599999999],[-73.21923709999999,44.466374099999996],[-73.21907490000001,44.46664820000001],[-73.21909979999998,44.46682609999999],[-73.2190271,44.46691770000001],[-73.21906719999998,44.466972999999996],[-73.21898900000002,44.467123300000026],[-73.21909740000001,44.46720529999999],[-73.21900790000001,44.46739869999999],[-73.2189545,44.46769130000001],[-73.2190713,44.46802170000001],[-73.21914670000001,44.468136300000026],[-73.2190364,44.468272300000024],[-73.219044,44.46857940000001],[-73.2191039,44.46860770000001],[-73.21914199999998,44.4685834],[-73.21915819999998,44.468408899999986],[-73.21920030000001,44.468377299999986],[-73.21921529999997,44.46858270000001],[-73.21914299999997,44.468697899999995],[-73.21892509999998,44.46871759999999],[-73.21884540000002,44.46872480000002],[-73.21874330000003,44.468734100000006],[-73.2187113,44.468736999999976],[-73.21868940000002,44.4687308],[-73.2185634,44.468695000000025],[-73.21822209999999,44.468681000000004],[-73.2181468,44.46863289999999],[-73.2181693,44.46842579999998],[-73.21812790000001,44.46707559999999],[-73.21793869999999,44.46551199999999],[-73.2179218,44.46545880000002],[-73.2177054,44.46532309999998],[-73.21769069999999,44.4653586],[-73.21765240000002,44.465736900000024],[-73.21771569999999,44.46693290000002],[-73.21769740000002,44.46744560000002],[-73.2177719,44.46764860000002],[-73.217803,44.467981399999985],[-73.21777409999999,44.46804550000002],[-73.21769840000002,44.4680103],[-73.21763800000002,44.468045399999994],[-73.2174407,44.46802220000001],[-73.21696800000001,44.46809730000001],[-73.21690030000002,44.46816239999998],[-73.21692619999999,44.46838489999999],[-73.2170552,44.46855679999999],[-73.2171449,44.46888280000002],[-73.21726519999999,44.46893219999998],[-73.21798919999998,44.46893990000001],[-73.2184972,44.46891449999998],[-73.21864119999998,44.46882640000001],[-73.21869129999999,44.468827999999974],[-73.21874380000003,44.468829700000015],[-73.21884590000002,44.46883300000002],[-73.21892759999997,44.4688357],[-73.21895719999998,44.468836599999975],[-73.21902419999998,44.46898590000001],[-73.21913030000002,44.46910129999998],[-73.21915419999999,44.469127300000025],[-73.21932129999999,44.469198800000015],[-73.21947469999998,44.4691957],[-73.21990829999999,44.46942790000003],[-73.2198914,44.47013720000001],[-73.21990039999997,44.470197799999994],[-73.21998129999997,44.470254899999986],[-73.21999490000002,44.4703298],[-73.2200795,44.47050200000001],[-73.22016000000002,44.470589399999994],[-73.22021869999998,44.47062770000002],[-73.22030860000001,44.470662000000004],[-73.22039849999999,44.47067019999997],[-73.22048560000002,44.47067579999998],[-73.22057410000002,44.470684199999994],[-73.2206511,44.47068860000002],[-73.22072509999998,44.470688300000006],[-73.22077760000002,44.4706736],[-73.2208382,44.47068680000001],[-73.22089620000003,44.47069770000002],[-73.22093999999998,44.47071729999999],[-73.221001,44.47074329999998],[-73.22111769999998,44.47079020000001],[-73.2211939,44.47079200000002],[-73.2212556,44.47076270000002],[-73.22128020000002,44.470776899999976],[-73.22129910000001,44.470787900000005],[-73.22122280000002,44.47087299999998],[-73.22115330000003,44.470945099999994],[-73.22108209999999,44.47101900000001],[-73.22099539999999,44.47109280000001],[-73.22093710000001,44.47114690000001],[-73.2208703,44.47121499999997],[-73.22084269999999,44.471273800000006],[-73.22083930000002,44.471280999999976],[-73.22083249999997,44.471293],[-73.2208283,44.47130040000002],[-73.22078779999998,44.471372299999985],[-73.22068910000002,44.47155650000002],[-73.22065420000001,44.471664499999974],[-73.22061339999999,44.47179779999999],[-73.22057389999998,44.4719412],[-73.2205634,44.472048599999994],[-73.22057109999997,44.472128199999986],[-73.22059710000002,44.47221050000002],[-73.22061280000003,44.47226810000001],[-73.22061719999999,44.47232200000002],[-73.22061380000002,44.47238540000001],[-73.2205975,44.47245320000002],[-73.22058040000002,44.47259359999998],[-73.22058220000002,44.47267099999999],[-73.2205937,44.47273689999997],[-73.22061930000001,44.472792200000015],[-73.22063630000002,44.47284769999999],[-73.22064569999998,44.472885099999985],[-73.22065859999998,44.472971900000005],[-73.22067559999999,44.473076100000014],[-73.22070150000002,44.4731754],[-73.2207315,44.47319759999999],[-73.22079000000002,44.47324090000001],[-73.22097860000002,44.473270300000024],[-73.22111890000002,44.47328879999998],[-73.22118949999998,44.47330629999999],[-73.22123440000001,44.473322499999995],[-73.2213165,44.473330799999985],[-73.2213673,44.473335399999996],[-73.22161590000002,44.473357899999996],[-73.22162789999999,44.47344320000002],[-73.2216343,44.47348840000001],[-73.22165799999999,44.4736355],[-73.22162700000001,44.47365580000002],[-73.22130190000001,44.47386829999999],[-73.22119400000003,44.473859300000015],[-73.22112090000002,44.473457800000006],[-73.22073940000001,44.4734828],[-73.2204044,44.47350469999998],[-73.2201225,44.47352310000002],[-73.2201326,44.47357929999998],[-73.2201437,44.473646299999984],[-73.22015019999998,44.47370910000001],[-73.22016230000003,44.4737844],[-73.22017290000002,44.47385379999997],[-73.22017899999997,44.47391210000001],[-73.2201301,44.47392079999997],[-73.22011400000002,44.473857599999974],[-73.22003990000002,44.47386319999998],[-73.22001749999998,44.473864900000024],[-73.21991129999998,44.47387040000001],[-73.21990570000003,44.473922000000016],[-73.21973250000002,44.47390410000003],[-73.2197516,44.47408200000001],[-73.21977299999998,44.4743469],[-73.22015119999998,44.47433210000003],[-73.22086080000003,44.474304200000006],[-73.22096140000002,44.47430029999998],[-73.22095589999998,44.47419769999999],[-73.2217875,44.474147800000026],[-73.22178980000001,44.474175600000024],[-73.22180049999997,44.47430159999999],[-73.2218082,44.4743934],[-73.22181699999999,44.47449790000002],[-73.22139679999998,44.47453410000003],[-73.22128450000002,44.47454379999999],[-73.22116419999998,44.47454549999998],[-73.2211825,44.47475300000002],[-73.22120999999999,44.47500000000002],[-73.22118640000002,44.47500000000002],[-73.22109999999998,44.47500000000002],[-73.22084530000001,44.47500000000002],[-73.22073369999998,44.47500000000002],[-73.2205042,44.47500000000002],[-73.22037210000002,44.47500000000002],[-73.21964029999998,44.47500000000002],[-73.219424,44.47500000000002],[-73.21073259999997,44.47500000000002],[-73.19999999999999,44.47500000000002],[-73.19999999999999,44.430747199999985],[-73.19999999999999,44.39999999999998],[-73.22947090000002,44.39999999999998],[-73.22961420000001,44.39999999999998]]]}},{"type":"Feature","properties":{},"geometry":{"type":"Polygon","coordinates":[[[-73.2427677,44.417502300000024],[-73.24271979999997,44.417543799999976],[-73.2427576,44.41766289999998],[-73.24282019999998,44.41769590000001],[-73.24281769999999,44.417748399999994],[-73.24272480000002,44.41780920000002],[-73.24247739999998,44.417858000000024],[-73.24247609999998,44.417715799999996],[-73.2425589,44.417679899999996],[-73.24268160000003,44.41746139999998],[-73.2427682,44.41743050000002],[-73.2427677,44.417502300000024]]]}},{"type":"Feature","properties":{},"geometry":{"type":"Polygon","coordinates":[[[-73.22167860000002,44.46350719999998],[-73.22166950000002,44.46346369999998],[-73.2216704,44.46341990000002],[-73.22168160000001,44.4633733],[-73.22171209999999,44.46334409999997],[-73.22175349999998,44.46331889999999],[-73.22180880000002,44.4633202],[-73.22184090000002,44.46338859999997],[-73.22181699999999,44.46345120000001],[-73.22180350000002,44.46352889999997],[-73.22178589999999,44.46359339999998],[-73.22176760000002,44.463641499999994],[-73.22172819999997,44.46367909999998],[-73.22170779999999,44.46378170000003],[-73.22165539999997,44.4638195],[-73.2216401,44.463753499999996],[-73.22164099999998,44.46370519999999],[-73.22167780000001,44.46364749999998],[-73.22169209999998,44.46357920000003],[-73.22167860000002,44.46350719999998]]]}},{"type":"Feature","properties":{},"geometry":{"type":"Polygon","coordinates":[[[-73.22072300000002,44.46449130000002],[-73.22079430000002,44.464524400000016],[-73.2208283,44.46456970000003],[-73.2207014,44.46455400000002],[-73.22064790000002,44.46453819999999],[-73.22058779999998,44.464493600000026],[-73.22066460000002,44.464480200000025],[-73.22072300000002,44.46449130000002]]]}},{"type":"Feature","properties":{},"geometry":{"type":"Polygon","coordinates":[[[-73.2257242,44.47000539999999],[-73.22622489999998,44.470853499999976],[-73.22623270000003,44.4708675],[-73.22635910000002,44.47109339999997],[-73.22642330000002,44.471153300000026],[-73.22641049999999,44.47119900000001],[-73.22628479999997,44.47129180000002],[-73.22600649999998,44.47164299999997],[-73.2258979,44.47175720000001],[-73.22573799999998,44.47199139999998],[-73.22531550000002,44.47257819999999],[-73.22526979999998,44.472652400000015],[-73.22544110000001,44.47336339999998],[-73.2256481,44.47416720000001],[-73.22556959999997,44.47490670000002],[-73.22556020000002,44.47500000000002],[-73.22547170000001,44.47500000000002],[-73.22551529999998,44.47465540000002],[-73.22556530000003,44.47422],[-73.2254982,44.47390730000001],[-73.2251784,44.4727067],[-73.22520409999998,44.47262810000001],[-73.22527259999998,44.47251110000002],[-73.22586230000002,44.47168160000001],[-73.22607210000001,44.47143890000001],[-73.226222,44.471237599999995],[-73.22626200000002,44.47114190000002],[-73.2261906,44.471017700000004],[-73.2261115,44.47087640000001],[-73.22594509999999,44.47057940000002],[-73.225639,44.4700302],[-73.22562529999999,44.47000550000001],[-73.22570239999999,44.46996840000003],[-73.2257242,44.47000539999999]]]}},{"type":"Feature","properties":{},"geometry":{"type":"Polygon","coordinates":[[[-73.24902450000002,44.48807069999998],[-73.24901519999997,44.488028499999984],[-73.24911429999997,44.488052700000026],[-73.24909450000001,44.48811210000002],[-73.24903269999999,44.4881077],[-73.24902450000002,44.48807069999998]]]}},{"type":"Feature","properties":{},"geometry":{"type":"Polygon","coordinates":[[[-73.22556020000002,44.47500000000002],[-73.22547680000002,44.475826100000006],[-73.22586369999999,44.47645720000003],[-73.2263577,44.4772524],[-73.22668750000003,44.4777335],[-73.22671600000001,44.477797699999996],[-73.22679169999998,44.4778948],[-73.22689589999999,44.477956199999994],[-73.2281266,44.47863719999998],[-73.22872760000001,44.47897130000001],[-73.22888610000001,44.479054099999985],[-73.22884900000003,44.47907980000002],[-73.22880040000001,44.4790984],[-73.22690119999999,44.47801559999999],[-73.2268616,44.478043300000024],[-73.22666179999999,44.47791480000001],[-73.22666750000002,44.47787340000002],[-73.22633200000001,44.47735519999998],[-73.22627060000002,44.47733520000003],[-73.22544820000002,44.475907500000005],[-73.2253968,44.47584899999998],[-73.22541819999998,44.4754221],[-73.22547170000001,44.47500000000002],[-73.22556020000002,44.47500000000002]]]}},{"type":"Feature","properties":{},"geometry":{"type":"Polygon","coordinates":[[[-73.22195900000003,44.548300299999994],[-73.2218909,44.5483514],[-73.22139019999997,44.548120600000004],[-73.2212447,44.54805879999998],[-73.22120510000002,44.54804250000001],[-73.2211729,44.548029299999996],[-73.22113030000003,44.54800779999999],[-73.2211072,44.54799839999998],[-73.22108209999999,44.54798820000002],[-73.22082740000002,44.54785500000003],[-73.22080620000003,44.5477894],[-73.2208392,44.54769479999999],[-73.22084489999997,44.54767859999998],[-73.2205583,44.54746669999997],[-73.22030539999997,44.54727969999999],[-73.22003799999999,44.54722029999999],[-73.21993980000002,44.54718980000001],[-73.21988700000003,44.54717340000002],[-73.2199066,44.54713720000001],[-73.21985369999999,44.54712280000001],[-73.21981649999998,44.54715700000003],[-73.2197794,44.54714100000001],[-73.21963040000003,44.547077],[-73.21964459999998,44.547025599999984],[-73.2195552,44.54704229999999],[-73.2193848,44.54687560000002],[-73.21933790000003,44.546680200000026],[-73.21916299999998,44.546546999999975],[-73.21872509999997,44.54642150000001],[-73.21871149999998,44.54641579999998],[-73.21840259999999,44.5462862],[-73.21707780000003,44.54594930000002],[-73.21639010000001,44.54577440000003],[-73.21608859999998,44.545697700000005],[-73.21453659999997,44.5455508],[-73.2131478,44.545490099999995],[-73.2112846,44.54561030000002],[-73.21066100000002,44.54568640000002],[-73.20869520000002,44.54604089999998],[-73.20681480000002,44.54651150000001],[-73.2054172,44.54698760000002],[-73.20464570000001,44.547165500000006],[-73.20351140000002,44.54752989999997],[-73.2026955,44.547840699999995],[-73.20153340000002,44.548313399999984],[-73.19999999999999,44.54901619999998],[-73.19999999999999,44.496024999999975],[-73.19999999999999,44.49009790000002],[-73.19999999999999,44.489393800000016],[-73.19999999999999,44.47500000000002],[-73.21073259999997,44.47500000000002],[-73.219424,44.47500000000002],[-73.21964029999998,44.47500000000002],[-73.22037210000002,44.47500000000002],[-73.2205042,44.47500000000002],[-73.22073369999998,44.47500000000002],[-73.22084530000001,44.47500000000002],[-73.22109999999998,44.47500000000002],[-73.22118640000002,44.47500000000002],[-73.22120999999999,44.47500000000002],[-73.22122250000001,44.475111500000025],[-73.22123429999999,44.47521069999999],[-73.22164409999999,44.475194499999986],[-73.22187209999998,44.47518550000001],[-73.2219245,44.47569149999998],[-73.22138000000001,44.475687300000004],[-73.22122100000001,44.475705800000014],[-73.22115710000003,44.47575280000001],[-73.2211471,44.47581100000002],[-73.22170340000002,44.47583400000002],[-73.22175650000003,44.4758769],[-73.22175340000001,44.476009799999986],[-73.22161030000001,44.47606760000002],[-73.22118560000001,44.47608229999997],[-73.22112429999999,44.476102000000026],[-73.22104680000001,44.4761269],[-73.22086239999999,44.476129300000025],[-73.22086489999998,44.47618419999998],[-73.22086139999999,44.47626170000001],[-73.2211006,44.476249300000006],[-73.22146709999998,44.47623440000001],[-73.22149530000002,44.47646040000001],[-73.2215329,44.47668540000001],[-73.22163389999997,44.47668870000001],[-73.2217857,44.476766399999974],[-73.22198880000002,44.47678509999997],[-73.22205880000001,44.47679690000001],[-73.22214050000002,44.47681039999998],[-73.22219419999999,44.47683569999998],[-73.22237639999997,44.476837699999976],[-73.2223798,44.47689079999998],[-73.22238440000001,44.47694139999999],[-73.22238900000002,44.47699260000002],[-73.22239080000003,44.47703760000002],[-73.2223697,44.477104999999995],[-73.22237639999997,44.47716919999999],[-73.22229920000001,44.47718379999998],[-73.22220499999997,44.4771892],[-73.22220650000003,44.47709070000002],[-73.2221434,44.47707150000002],[-73.22200779999997,44.47707150000002],[-73.22194150000001,44.47707070000001],[-73.2219068,44.477079],[-73.22177319999997,44.4771106],[-73.2216606,44.477137200000016],[-73.22155609999999,44.4772117],[-73.2214836,44.47737269999999],[-73.22149619999999,44.47747479999998],[-73.22152649999998,44.4775846],[-73.22157620000002,44.47776429999999],[-73.22157650000003,44.477844600000026],[-73.22161399999999,44.47787169999998],[-73.2216262,44.4779087],[-73.2216163,44.4779461],[-73.2215994,44.47798820000003],[-73.22162789999999,44.478105400000004],[-73.22161820000002,44.4781825],[-73.22161890000001,44.478285700000015],[-73.22161219999998,44.47843660000001],[-73.22160780000002,44.478568499999994],[-73.2216052,44.47865730000001],[-73.22161510000001,44.478713200000016],[-73.22164759999998,44.478783799999974],[-73.22171800000001,44.47888419999998],[-73.22182020000002,44.478949399999976],[-73.2223869,44.47891820000001],[-73.2224635,44.47896300000002],[-73.2227239,44.48005669999998],[-73.22274329999999,44.480091800000025],[-73.2227843,44.48016610000002],[-73.22279479999997,44.48018510000003],[-73.22285629999999,44.4802315],[-73.22287130000001,44.48024270000002],[-73.22292850000002,44.48024379999998],[-73.222985,44.48024370000002],[-73.22299329999998,44.48024650000002],[-73.22330419999997,44.48034960000001],[-73.22353939999999,44.48037640000001],[-73.22373010000001,44.48041380000001],[-73.2239257,44.480452300000024],[-73.22393499999998,44.480489999999975],[-73.22406130000002,44.48051650000002],[-73.2241626,44.48048560000001],[-73.2242665,44.480453899999986],[-73.22432370000001,44.48053850000002],[-73.22434909999998,44.48063380000002],[-73.2243517,44.48064729999999],[-73.2243618,44.48069989999999],[-73.22437939999998,44.48082240000002],[-73.22440119999999,44.48094900000001],[-73.22444410000003,44.4810205],[-73.22455330000003,44.4810238],[-73.22466530000003,44.4810286],[-73.2246978,44.481029999999976],[-73.22470229999999,44.481055500000025],[-73.22471469999999,44.481125599999984],[-73.22472720000002,44.481196599999976],[-73.2247319,44.48122360000002],[-73.22482280000003,44.48163529999999],[-73.22486249999997,44.481815400000016],[-73.22485010000003,44.48185189999998],[-73.22480280000002,44.4818765],[-73.22462610000002,44.481944699999985],[-73.22462050000001,44.481989399999975],[-73.22461299999998,44.48204879999997],[-73.22455780000001,44.48207639999998],[-73.22447440000002,44.482071099999985],[-73.22448459999998,44.48213909999998],[-73.2245729,44.482126600000015],[-73.2246207,44.48217169999998],[-73.22462530000001,44.4822489],[-73.2246328,44.48231550000003],[-73.22464430000002,44.48237690000002],[-73.22473489999999,44.48246],[-73.22482459999998,44.482550600000025],[-73.22491450000001,44.48264169999999],[-73.22492770000002,44.48268430000002],[-73.22493159999999,44.482819199999994],[-73.2249291,44.482922299999984],[-73.22493359999999,44.48294069999997],[-73.22494660000001,44.4829939],[-73.22498789999997,44.4830417],[-73.22514330000001,44.48314909999999],[-73.2252982,44.48325440000002],[-73.2254987,44.48337909999998],[-73.22562820000002,44.48345849999998],[-73.22607199999999,44.4837306],[-73.2262935,44.48385639999998],[-73.22637859999998,44.4839379],[-73.2264606,44.48393040000002],[-73.2265117,44.48392580000001],[-73.2269159,44.484222999999986],[-73.2272567,44.4844506],[-73.2273725,44.484507199999996],[-73.227417,44.48454850000002],[-73.22785140000002,44.48488689999999],[-73.22793660000002,44.48495329999997],[-73.22773560000002,44.4851956],[-73.22769,44.48530729999999],[-73.2274845,44.48544479999998],[-73.22770459999998,44.48563869999998],[-73.2277656,44.485712999999976],[-73.2278427,44.48579410000002],[-73.22786509999997,44.48585559999998],[-73.22794060000001,44.48595],[-73.22811940000003,44.48609060000001],[-73.22842459999998,44.48628960000002],[-73.22857110000001,44.48638260000001],[-73.22880620000001,44.48650959999998],[-73.228974,44.48655609999997],[-73.22903209999998,44.48654290000002],[-73.22918729999998,44.48646980000001],[-73.22935410000002,44.4863914],[-73.22944109999997,44.486350500000015],[-73.22960999999998,44.48627269999997],[-73.22963659999999,44.486258899999996],[-73.22977320000001,44.486187900000004],[-73.22985510000001,44.48615050000001],[-73.2299109,44.486134900000025],[-73.22997170000002,44.486133300000006],[-73.23002150000002,44.48615649999999],[-73.22997520000001,44.48620979999998],[-73.22992470000003,44.486248699999976],[-73.2297959,44.486320999999975],[-73.22971849999999,44.48635969999998],[-73.22960130000001,44.48640499999999],[-73.22953230000002,44.486434299999985],[-73.22934179999999,44.48654920000001],[-73.22927779999998,44.48658499999999],[-73.22922999999997,44.48662089999999],[-73.22922299999999,44.48669419999999],[-73.22922820000002,44.48676069999999],[-73.22925429999998,44.486823000000015],[-73.22925989999999,44.48683649999998],[-73.2293651,44.486926400000016],[-73.22950939999998,44.487038299999995],[-73.22964050000002,44.487154799999985],[-73.22973999999999,44.487208399999986],[-73.22996219999999,44.487343899999985],[-73.23016949999999,44.4874896],[-73.23034419999999,44.4875955],[-73.23041749999999,44.48764],[-73.2304196,44.487641499999995],[-73.23101550000001,44.488072199999976],[-73.23127779999999,44.48824059999998],[-73.2313504,44.48830179999999],[-73.23135810000002,44.48833930000001],[-73.2313337,44.48838380000001],[-73.23127099999999,44.4884447],[-73.2311752,44.488526200000024],[-73.2313211,44.4887334],[-73.23183060000002,44.48905050000002],[-73.2327487,44.489499799999976],[-73.23573420000002,44.49064090000002],[-73.23716200000001,44.49110669999999],[-73.23850900000002,44.49148789999998],[-73.24129950000003,44.49211020000001],[-73.2415446,44.49210770000002],[-73.24182209999998,44.49220459999998],[-73.24332820000001,44.49239460000001],[-73.24384880000002,44.4924077],[-73.24471749999998,44.49234439999998],[-73.24495999999999,44.49229980000001],[-73.24514570000002,44.4922004],[-73.2450551,44.49218880000001],[-73.24530620000002,44.492048599999976],[-73.2454141,44.49188880000003],[-73.2454098,44.49179190000001],[-73.24531580000001,44.49179600000002],[-73.24528409999999,44.49163770000001],[-73.24534949999997,44.491396099999974],[-73.24541019999998,44.49132320000001],[-73.2453554,44.49122419999998],[-73.24536419999998,44.49110889999997],[-73.24542600000001,44.49101969999998],[-73.2453643,44.490885100000014],[-73.24570290000003,44.49058020000001],[-73.24578819999999,44.49043870000003],[-73.24556130000002,44.490329599999995],[-73.24567250000001,44.49014740000001],[-73.2458388,44.489989700000024],[-73.24629390000001,44.48987979999998],[-73.2464855,44.48980399999999],[-73.24652229999998,44.489753699999994],[-73.24659050000002,44.489755100000025],[-73.24660560000001,44.489798500000006],[-73.24670320000001,44.48976620000002],[-73.24685979999998,44.48962519999998],[-73.24698169999999,44.48938070000003],[-73.24715789999999,44.48914610000003],[-73.2471974,44.488983700000006],[-73.2473061,44.4888603],[-73.24734210000003,44.48874009999997],[-73.2476891,44.48843470000003],[-73.24793499999998,44.488160100000016],[-73.2481904,44.4880847],[-73.24830429999997,44.487996899999985],[-73.24873480000002,44.488089100000025],[-73.24884409999999,44.488152000000014],[-73.24919740000001,44.48848349999997],[-73.24913679999997,44.48864040000001],[-73.24928490000002,44.48877620000002],[-73.24927600000001,44.48891120000002],[-73.2493811,44.48905070000001],[-73.24941569999999,44.48936839999999],[-73.24931709999998,44.48982289999998],[-73.24917140000002,44.490164600000014],[-73.24893409999999,44.49055090000002],[-73.24890590000001,44.49066809999999],[-73.24892699999998,44.49073779999998],[-73.24902420000001,44.49082850000002],[-73.24903339999997,44.49091609999999],[-73.24912069999999,44.49099030000002],[-73.24908529999999,44.49107299999997],[-73.24910139999997,44.49130769999999],[-73.24916589999998,44.4914005],[-73.2491253,44.49150659999998],[-73.24912710000001,44.49170220000002],[-73.24900609999997,44.49167130000001],[-73.24897140000002,44.49175020000001],[-73.24896360000002,44.49198990000002],[-73.24906090000002,44.49217299999998],[-73.24903139999998,44.492234199999984],[-73.24895479999998,44.4922651],[-73.24893409999999,44.49240329999998],[-73.24896430000001,44.492542300000025],[-73.24888010000001,44.49260220000002],[-73.2488669,44.492656599999975],[-73.24891300000002,44.4928089],[-73.24890679999999,44.49291790000001],[-73.2487102,44.493178899999975],[-73.24868959999998,44.49332290000001],[-73.2484761,44.493463599999984],[-73.24842460000002,44.4936012],[-73.2482794,44.493675499999995],[-73.24816399999997,44.49389439999999],[-73.24792289999999,44.494187899999986],[-73.24787170000002,44.49431499999997],[-73.24760859999998,44.49457799999999],[-73.24715830000002,44.494717200000025],[-73.2469355,44.49497229999997],[-73.24689130000002,44.49511580000001],[-73.2467891,44.49524029999998],[-73.24642060000002,44.49528400000003],[-73.24627850000002,44.4953615],[-73.24623459999998,44.4956244],[-73.2463894,44.49571900000001],[-73.24647549999997,44.495671000000016],[-73.2465957,44.495660199999975],[-73.24667140000003,44.495693200000005],[-73.2465841,44.49577310000001],[-73.24673360000003,44.49574469999999],[-73.24699820000001,44.495827099999985],[-73.24714239999997,44.495759899999996],[-73.2475121,44.49570210000002],[-73.24774830000001,44.49581119999999],[-73.24783919999999,44.495971199999985],[-73.24789340000001,44.496181999999976],[-73.24786929999999,44.496403799999996],[-73.24779940000002,44.4965881],[-73.24775460000001,44.496648300000004],[-73.2476024,44.49687499999999],[-73.24725239999998,44.497315000000015],[-73.24702680000001,44.497470299999975],[-73.24685620000002,44.49797760000001],[-73.24665670000002,44.4980961],[-73.246622,44.4982124],[-73.24730249999999,44.498949400000015],[-73.24815699999999,44.49956609999998],[-73.24831239999997,44.49960629999998],[-73.2489286,44.499954600000024],[-73.24976329999998,44.500338899999974],[-73.25217049999998,44.5011791],[-73.25246579999998,44.50123610000003],[-73.25266909999999,44.501340400000004],[-73.252905,44.50138529999998],[-73.25370529999998,44.50166439999998],[-73.25378999999998,44.501628100000005],[-73.25463020000001,44.5018465],[-73.25501589999999,44.50191050000001],[-73.2554973,44.50208459999999],[-73.25611659999998,44.50225419999998],[-73.25647950000001,44.5023276],[-73.25662399999999,44.50232080000001],[-73.25756050000001,44.50266240000002],[-73.2576358,44.50262090000001],[-73.2584114,44.50275210000001],[-73.25920889999998,44.502987099999984],[-73.25932230000001,44.50305209999999],[-73.2595617,44.50304699999998],[-73.2598716,44.50312980000001],[-73.2600061,44.5030903],[-73.26052329999999,44.503185099999996],[-73.26187850000002,44.50352800000002],[-73.26225199999999,44.50349019999999],[-73.26243540000002,44.50351749999999],[-73.26262689999999,44.50347720000002],[-73.26282459999999,44.50357500000001],[-73.26328139999998,44.503668600000026],[-73.26337949999999,44.503644099999974],[-73.26357250000001,44.50366919999999],[-73.26363900000001,44.50363570000002],[-73.2640548,44.50367490000002],[-73.26424689999999,44.50361170000002],[-73.2642798,44.50365649999998],[-73.2645607,44.50377329999998],[-73.26464140000002,44.50374019999998],[-73.26499319999999,44.50374849999997],[-73.2650691,44.50367410000001],[-73.26554979999997,44.503799800000024],[-73.26583319999997,44.50379859999998],[-73.26589680000001,44.50387919999997],[-73.26603560000001,44.50394879999999],[-73.26623999999998,44.503962899999976],[-73.26667550000002,44.50390870000001],[-73.26688660000002,44.50396970000003],[-73.26738879999999,44.50396260000002],[-73.26742760000002,44.504006600000025],[-73.26750379999999,44.5040161],[-73.267877,44.503984],[-73.2681202,44.50400589999998],[-73.26812869999998,44.5040558],[-73.26821180000002,44.5040707],[-73.26841719999999,44.504058799999996],[-73.26840349999998,44.503985899999975],[-73.26863170000001,44.50394619999997],[-73.26876720000001,44.50382939999997],[-73.26924359999998,44.50366589999999],[-73.2692394,44.503829199999984],[-73.26945180000001,44.50387949999998],[-73.26959319999997,44.50385970000002],[-73.26967780000001,44.50371819999998],[-73.26987009999999,44.50366029999998],[-73.270018,44.503675799999996],[-73.27019159999998,44.50367829999999],[-73.27020929999998,44.5035565],[-73.2702812,44.50336570000002],[-73.2706086,44.503298400000006],[-73.27085119999998,44.503171399999985],[-73.27105499999999,44.503011000000015],[-73.27146429999999,44.50285500000001],[-73.2719856,44.5022922],[-73.27184729999999,44.501887899999986],[-73.27178570000001,44.501815299999976],[-73.27164299999998,44.50180590000002],[-73.27178359999999,44.50174390000001],[-73.27190610000002,44.50155990000002],[-73.27191190000002,44.501498000000026],[-73.27187900000001,44.50137539999997],[-73.27157030000001,44.50112109999998],[-73.27158020000002,44.50109029999999],[-73.2716279,44.500942899999984],[-73.2715791,44.500578399999995],[-73.27163910000002,44.500382100000024],[-73.27194129999998,44.499926800000026],[-73.27207220000003,44.49963020000001],[-73.2721267,44.49935190000002],[-73.2721737,44.4993073],[-73.27221530000003,44.499267599999996],[-73.27243399999998,44.498763199999985],[-73.27253489999998,44.498715800000014],[-73.27269239999998,44.49848939999998],[-73.27292260000002,44.498307599999976],[-73.2730995,44.49803179999998],[-73.2732057,44.49794450000002],[-73.2734385,44.497569999999996],[-73.27358290000001,44.49745200000001],[-73.27375410000002,44.49719759999999],[-73.27397020000001,44.49709840000003],[-73.2740149,44.49723369999998],[-73.27398240000002,44.49747070000001],[-73.27394629999998,44.49759399999999],[-73.27373060000002,44.49795549999999],[-73.27366369999999,44.49821509999998],[-73.27365120000002,44.49846609999997],[-73.27370960000002,44.49908349999998],[-73.2736466,44.4993599],[-73.27336489999999,44.49982349999999],[-73.27307480000002,44.50011490000003],[-73.2729936,44.50024880000001],[-73.27294039999998,44.50054749999998],[-73.27276110000003,44.50065799999999],[-73.27266609999998,44.50079040000003],[-73.27256210000002,44.501059399999974],[-73.27260189999998,44.501261399999976],[-73.27267660000001,44.5013783],[-73.27289560000003,44.501543500000025],[-73.2733907,44.50205340000002],[-73.27368530000001,44.50220460000003],[-73.27378599999997,44.502214400000014],[-73.27381910000003,44.502178000000015],[-73.27384060000003,44.502259200000026],[-73.27406630000002,44.502410999999995],[-73.27418640000002,44.50240980000001],[-73.27415610000003,44.502461600000004],[-73.27429160000003,44.50257540000001],[-73.27464350000002,44.50268199999999],[-73.27487660000003,44.50299050000001],[-73.27499999999998,44.503084],[-73.27499999999998,44.50314800000001],[-73.27499999999998,44.50320540000001],[-73.27499999999998,44.507658100000015],[-73.27499999999998,44.507864299999994],[-73.27484479999998,44.50805329999997],[-73.27481260000002,44.50814279999997],[-73.2748469,44.508277599999985],[-73.27479690000001,44.50841650000001],[-73.27447640000003,44.508890699999995],[-73.27438619999998,44.50936330000002],[-73.27438460000002,44.50970189999998],[-73.27418590000002,44.510106399999984],[-73.27391030000001,44.510187099999996],[-73.2738306,44.510427600000014],[-73.2735816,44.510607100000016],[-73.27338709999998,44.510916899999984],[-73.27324229999999,44.51128030000001],[-73.27341489999998,44.51155590000002],[-73.27339009999997,44.511714299999994],[-73.27322830000003,44.51205479999999],[-73.27302580000003,44.512138300000004],[-73.27293880000002,44.512174200000004],[-73.27265010000002,44.5121762],[-73.27226080000003,44.51207290000002],[-73.27215790000002,44.512141799999995],[-73.27189279999999,44.51218060000002],[-73.27182599999998,44.512195099999985],[-73.27174780000001,44.51225069999998],[-73.27167800000001,44.51229910000001],[-73.27164110000001,44.51232479999999],[-73.27155119999998,44.51235730000002],[-73.2714762,44.512351000000024],[-73.27134710000001,44.51233730000001],[-73.2711066,44.512494600000025],[-73.27099329999999,44.51261950000003],[-73.270805,44.5128995],[-73.27062080000002,44.51331950000002],[-73.27056779999998,44.51348589999998],[-73.27054750000002,44.513893800000005],[-73.2705671,44.514234999999985],[-73.27070279999998,44.514497199999994],[-73.27068459999998,44.514623900000004],[-73.27060460000001,44.51471780000003],[-73.27049319999998,44.5147647],[-73.2695579,44.51503769999999],[-73.26943260000002,44.51510999999999],[-73.26930149999998,44.5152751],[-73.26925779999999,44.51537960000002],[-73.26913200000001,44.5156801],[-73.26900389999997,44.516461600000014],[-73.26899270000001,44.516645600000004],[-73.26905119999998,44.51684080000001],[-73.2691125,44.517328099999986],[-73.26909819999997,44.51764159999999],[-73.26917099999997,44.5180651],[-73.2691795,44.51862820000002],[-73.26931080000003,44.519233799999995],[-73.26929100000001,44.51941620000002],[-73.26934390000002,44.51967789999998],[-73.26958819999999,44.520518700000025],[-73.26985639999998,44.52116760000001],[-73.27049629999999,44.522288300000014],[-73.27052400000002,44.52237259999998],[-73.27057719999999,44.522534699999994],[-73.27064719999998,44.52263620000002],[-73.27065670000002,44.52270040000002],[-73.27086630000002,44.52297340000001],[-73.27094419999997,44.5231503],[-73.27107059999997,44.52323769999998],[-73.27117820000001,44.5234064],[-73.27157920000002,44.52371740000001],[-73.27186069999999,44.52379000000002],[-73.2719353,44.52391940000001],[-73.27202210000002,44.52396859999999],[-73.2720453,44.524150299999974],[-73.2721014,44.5241934],[-73.27216850000002,44.524192400000004],[-73.2722063,44.524242000000015],[-73.27216950000002,44.52454770000003],[-73.27223670000001,44.524696300000016],[-73.27220649999998,44.52482730000003],[-73.27222540000002,44.52499510000001],[-73.27232359999999,44.52524469999997],[-73.2723082,44.52531429999999],[-73.27241049999998,44.52546760000001],[-73.27247970000002,44.525656000000026],[-73.27266150000003,44.5258733],[-73.27283779999999,44.526087200000006],[-73.27291860000003,44.526276199999984],[-73.27304179999999,44.52642509999998],[-73.2732191,44.52655970000001],[-73.27331240000001,44.52668619999997],[-73.27333019999998,44.52672560000002],[-73.27335040000003,44.52677299999999],[-73.27338070000002,44.526831000000016],[-73.27339719999998,44.52689329999998],[-73.27339549999999,44.52696300000002],[-73.27339330000001,44.527163299999984],[-73.27338759999998,44.52732179999998],[-73.27326119999998,44.52741630000003],[-73.2732269,44.52760940000002],[-73.27339,44.528140699999994],[-73.273617,44.52844670000002],[-73.2735879,44.52875820000003],[-73.27365909999997,44.52895130000002],[-73.2734896,44.5294361],[-73.2734802,44.52955859999997],[-73.27355669999997,44.52963629999999],[-73.27361200000001,44.529673100000025],[-73.27364399999999,44.52970399999998],[-73.27354530000002,44.52973800000001],[-73.273462,44.529765],[-73.27342720000001,44.52980259999998],[-73.2733968,44.52987439999998],[-73.27324199999998,44.5302021],[-73.27315599999997,44.53036420000001],[-73.27311129999998,44.53039209999997],[-73.27307839999997,44.530387399999995],[-73.27301640000002,44.53037849999998],[-73.27292720000003,44.530365700000004],[-73.272602,44.53034919999999],[-73.27244739999998,44.5303169],[-73.27220940000001,44.53026699999998],[-73.2721444,44.53025339999999],[-73.27215799999999,44.5300671],[-73.27198299999998,44.5299119],[-73.27194350000002,44.529796799999986],[-73.27187859999998,44.5296075],[-73.2716891,44.52933639999998],[-73.27140480000003,44.52914850000002],[-73.27114230000001,44.52910170000001],[-73.271026,44.52911419999998],[-73.27075930000001,44.52922860000001],[-73.2706028,44.52920870000003],[-73.270533,44.52951789999997],[-73.27054099999998,44.529573400000004],[-73.27064080000002,44.52960630000001],[-73.27111969999999,44.5294212],[-73.27139840000001,44.52947169999999],[-73.2714393,44.529513699999995],[-73.27164699999997,44.52992019999999],[-73.2716302,44.5300067],[-73.27181819999998,44.5301202],[-73.27181180000002,44.53022320000002],[-73.27127209999998,44.5303121],[-73.2709486,44.530365399999994],[-73.27063959999998,44.530455200000006],[-73.270148,44.53070810000003],[-73.26973400000003,44.5310025],[-73.26956030000002,44.53120660000002],[-73.2692298,44.531752299999994],[-73.26918810000001,44.531959900000004],[-73.2693779,44.532663300000024],[-73.26956059999998,44.53294679999999],[-73.27011279999999,44.53348319999998],[-73.27132599999999,44.53445549999998],[-73.27228760000003,44.53516689999998],[-73.27364060000002,44.53623759999999],[-73.27384610000001,44.53652060000002],[-73.27397919999999,44.53685730000001],[-73.27401609999998,44.53701860000001],[-73.27399639999999,44.53729659999999],[-73.27387099999999,44.537663699999996],[-73.27366940000002,44.537956199999996],[-73.2730704,44.53845419999999],[-73.27255389999999,44.538752199999976],[-73.27110859999999,44.53927169999997],[-73.26895489999998,44.539518499999986],[-73.26692789999998,44.539528700000005],[-73.26593129999998,44.53943229999999],[-73.26511499999998,44.539274499999976],[-73.26483239999999,44.539188000000024],[-73.2644143,44.53899719999998],[-73.26413819999999,44.53877619999997],[-73.2639135,44.53853809999998],[-73.26363350000003,44.538124900000014],[-73.26335390000003,44.537403100000006],[-73.26331929999998,44.537159599999995],[-73.26331929999998,44.53661219999998],[-73.263419,44.53609849999998],[-73.263578,44.53567020000003],[-73.2637681,44.53529900000001],[-73.26431680000002,44.53438990000001],[-73.2646282,44.53395929999999],[-73.26504310000001,44.53309660000002],[-73.26596230000001,44.53149810000002],[-73.26609020000001,44.531385899999975],[-73.26639160000002,44.53096479999999],[-73.26640099999997,44.53090409999999],[-73.2664911,44.53086250000001],[-73.26680829999998,44.530569000000014],[-73.26727240000002,44.52988929999998],[-73.26738130000001,44.52921250000003],[-73.26749139999998,44.528886399999976],[-73.2675686,44.528464799999995],[-73.26765139999998,44.52765470000003],[-73.26771500000001,44.5274498],[-73.2676257,44.52741809999998],[-73.26745840000001,44.527505599999984],[-73.2674652,44.52743450000003],[-73.2675807,44.52734320000002],[-73.26758059999997,44.527218600000026],[-73.26742209999998,44.52720169999998],[-73.26743060000001,44.526777100000004],[-73.26728429999997,44.52636430000001],[-73.26707499999998,44.5259992],[-73.2666365,44.52550050000002],[-73.2665778,44.525389099999984],[-73.26645880000001,44.52527950000001],[-73.26636960000002,44.525269700000024],[-73.2660267,44.5248704],[-73.26589419999999,44.52479010000002],[-73.26575309999998,44.52475820000001],[-73.26570140000001,44.52463540000002],[-73.2653613,44.52440150000001],[-73.26444300000003,44.52392609999998],[-73.26389490000003,44.5235687],[-73.26275609999999,44.52316339999999],[-73.26216950000003,44.523012800000004],[-73.26154759999997,44.522910000000024],[-73.26011720000002,44.52276920000003],[-73.2587428,44.52289339999999],[-73.25743010000002,44.52316480000002],[-73.2569173,44.5233121],[-73.2567166,44.523548800000015],[-73.25682890000002,44.52377799999999],[-73.25663109999999,44.52397450000001],[-73.25655069999999,44.524109399999986],[-73.25630230000002,44.5243107],[-73.25608649999998,44.52442339999999],[-73.25564580000002,44.524520800000005],[-73.25555509999998,44.5245223],[-73.25533960000001,44.524525900000015],[-73.25489199999998,44.524533399999996],[-73.25529840000002,44.52532869999999],[-73.2553426,44.525324599999976],[-73.2555592,44.52530460000003],[-73.25581940000001,44.525280599999974],[-73.2564458,44.524985300000026],[-73.25671260000001,44.524969899999974],[-73.25714590000001,44.52459829999998],[-73.25723420000003,44.52458840000003],[-73.25726859999997,44.5245367],[-73.257296,44.52447369999999],[-73.2573155,44.52443099999999],[-73.25733000000002,44.5243926],[-73.2573428,44.52429799999999],[-73.25733969999999,44.52422619999999],[-73.25732520000003,44.524154099999976],[-73.25730579999998,44.524073699999974],[-73.25736669999998,44.52406079999997],[-73.2575023,44.5240455],[-73.2576924,44.5239646],[-73.25783330000002,44.52382319999998],[-73.2582023,44.5237573],[-73.2605307,44.52366949999998],[-73.26086570000001,44.5236936],[-73.2621873,44.52395150000001],[-73.26311700000002,44.52427119999999],[-73.2642889,44.52487919999999],[-73.26470599999999,44.52516079999998],[-73.26511199999999,44.52550059999999],[-73.26588700000002,44.52630740000001],[-73.26615079999999,44.5267642],[-73.26637199999999,44.5272392],[-73.26648669999997,44.52767189999997],[-73.26651809999998,44.528002500000014],[-73.2664823,44.52835759999999],[-73.2664021,44.5287591],[-73.26615939999999,44.52932240000001],[-73.26580580000001,44.529949999999985],[-73.26553660000002,44.5302044],[-73.26535230000002,44.530452500000024],[-73.26524649999999,44.53070630000002],[-73.26476309999998,44.53135379999998],[-73.26431250000002,44.531856000000005],[-73.26356700000002,44.53282569999999],[-73.26342319999998,44.533062900000004],[-73.26253300000002,44.53425229999999],[-73.26168619999999,44.53564299999999],[-73.2615252,44.536037799999974],[-73.26140229999999,44.53655839999999],[-73.2613541,44.53694789999997],[-73.26139330000001,44.537363400000004],[-73.26168439999998,44.53804580000002],[-73.26192459999999,44.53831580000002],[-73.2626573,44.5387925],[-73.2630901,44.53917849999999],[-73.2640462,44.539649],[-73.2643185,44.53978840000002],[-73.26446809999999,44.53986839999999],[-73.2647642,44.53990859999999],[-73.2655067,44.54018430000002],[-73.26608679999998,44.54034130000002],[-73.26745119999998,44.54047969999999],[-73.26801599999999,44.540470400000004],[-73.26833699999997,44.54044140000002],[-73.2688736,44.5403101],[-73.2701121,44.54032000000001],[-73.27115120000002,44.540238999999985],[-73.27207920000001,44.540062999999975],[-73.27284370000001,44.53983469999997],[-73.27319269999998,44.53968170000002],[-73.27375410000002,44.5393512],[-73.27398199999999,44.5391649],[-73.27400449999999,44.53907370000002],[-73.2740101,44.538988500000016],[-73.27413100000001,44.53885079999998],[-73.27423420000002,44.538664600000004],[-73.27438269999999,44.538489200000015],[-73.27450750000003,44.538286700000015],[-73.2745696,44.538108299999976],[-73.27461679999999,44.53798560000001],[-73.27468599999997,44.53787940000001],[-73.27480459999998,44.537713999999994],[-73.2748492,44.53768359999998],[-73.2749078,44.53750000000002],[-73.27492510000002,44.53736550000002],[-73.27491839999999,44.53710799999999],[-73.2749134,44.536915599999986],[-73.2748669,44.53677269999997],[-73.27476890000003,44.53665109999997],[-73.2745663,44.536473],[-73.27450140000002,44.53640660000002],[-73.2744343,44.53630070000003],[-73.27444229999998,44.53626170000001],[-73.27448579999998,44.53624259999998],[-73.2745344,44.536258799999985],[-73.27459549999998,44.53620430000001],[-73.27466579999998,44.53615209999998],[-73.27427139999998,44.535927000000015],[-73.27349349999997,44.535015999999985],[-73.27281540000001,44.534333600000025],[-73.27184399999999,44.5335642],[-73.2710404,44.533041200000014],[-73.27085,44.53283349999998],[-73.27079149999997,44.53270909999998],[-73.27063770000001,44.53238219999997],[-73.27065549999998,44.53194380000002],[-73.27084559999997,44.53161349999999],[-73.27119010000001,44.53123219999998],[-73.27143380000001,44.531058299999984],[-73.2715652,44.53101609999999],[-73.27174789999998,44.53095730000001],[-73.2721085,44.5309441],[-73.2730884,44.53099259999999],[-73.2732919,44.5309709],[-73.2733369,44.5309661],[-73.2734183,44.5309575],[-73.27385570000001,44.53104029999997],[-73.27415760000002,44.531054900000015],[-73.27499999999998,44.53129280000002],[-73.27499999999998,44.53144529999997],[-73.27499999999998,44.532364099999995],[-73.27499999999998,44.53333809999998],[-73.27499999999998,44.55000000000001],[-73.22488190000001,44.55000000000001],[-73.22451510000002,44.54977880000001],[-73.22435130000002,44.54968009999999],[-73.22417089999999,44.549571300000025],[-73.22372669999999,44.54930350000001],[-73.22353320000002,44.5491548],[-73.22346449999998,44.54910210000003],[-73.22297029999999,44.54883890000002],[-73.22195900000003,44.548300299999994]]]}},{"type":"Feature","properties":{},"geometry":{"type":"Polygon","coordinates":[[[-73.2225062,44.4769177],[-73.22249399999998,44.47691830000002],[-73.22243880000002,44.476920699999994],[-73.2224291,44.47680989999998],[-73.22246339999998,44.476808300000016],[-73.22279099999997,44.47679360000001],[-73.22279179999998,44.47680359999998],[-73.2228025,44.47692489999997],[-73.2228144,44.47706049999999],[-73.222825,44.47718149999997],[-73.222826,44.477193],[-73.22273869999998,44.477196900000024],[-73.222579,44.477204099999994],[-73.22252830000002,44.4772064],[-73.22247329999999,44.47720880000003],[-73.22246380000001,44.47709980000002],[-73.2225153,44.47709739999999],[-73.22252200000003,44.47709709999998],[-73.22250780000002,44.47693579999998],[-73.2225062,44.4769177]]]}}]}