{"type":"FeatureCollection","features":[{"type":"Feature","properties":{},"geometry":{"type":"Polygon","coordinates":[[[-74.55000000000001,42.82499999999999],[-74.55000000000001,42.89999999999998],[-74.54221960000001,42.89999999999998],[-74.54202989999999,42.89999999999998],[-74.540955,42.89999999999998],[-74.54072059999999,42.89999999999998],[-74.54053640000001,42.89999999999998],[-74.47500000000002,42.89999999999998],[-74.47500000000002,42.898362599999984],[-74.47500000000002,42.898256300000014],[-74.47500000000002,42.89735949999999],[-74.47500000000002,42.8968476],[-74.47500000000002,42.82499999999999],[-74.55000000000001,42.82499999999999]]]}},{"type":"Feature","properties":{},"geometry":{"type":"Polygon","coordinates":[[[-74.47500000000002,42.8968476],[-74.47500000000002,42.89735949999999],[-74.47500000000002,42.898256300000014],[-74.47500000000002,42.898362599999984],[-74.47500000000002,42.89999999999998],[-74.46539380000002,42.89999999999998],[-74.46490879999999,42.89999999999998],[-74.463368,42.89999999999998],[-74.4631382,42.89999999999998],[-74.4011997,42.89999999999998],[-74.39999999999998,42.89999999999998],[-74.39999999999998,42.89745820000002],[-74.39999999999998,42.82499999999999],[-74.47500000000002,42.82499999999999],[-74.47500000000002,42.8968476]]]}},{"type":"Feature","properties":{},"geometry":{"type":"Polygon","coordinates":[[[-74.55000000000001,42.905163000000016],[-74.55000000000001,42.905312700000025],[-74.55000000000001,42.90543739999998],[-74.55000000000001,42.90648049999999],[-74.55000000000001,42.90658960000002],[-74.55000000000001,42.97500000000002],[-74.47500000000002,42.97500000000002],[-74.47500000000002,42.89999999999998],[-74.54053640000001,42.89999999999998],[-74.54072059999999,42.89999999999998],[-74.540955,42.89999999999998],[-74.54202989999999,42.89999999999998],[-74.54221960000001,42.89999999999998],[-74.55000000000001,42.89999999999998],[-74.55000000000001,42.905163000000016]]]}},{"type":"Feature","properties":{},"geometry":{"type":"Polygon","coordinates":[[[-74.39999999999998,42.97500000000002],[-74.39999999999998,42.94364200000001],[-74.39999999999998,42.943443100000025],[-74.39999999999998,42.94254699999999],[-74.39999999999998,42.9422998],[-74.39999999999998,42.94215109999999],[-74.39999999999998,42.89999999999998],[-74.4011997,42.89999999999998],[-74.4631382,42.89999999999998],[-74.463368,42.89999999999998],[-74.46490879999999,42.89999999999998],[-74.46539380000002,42.89999999999998],[-74.47500000000002,42.89999999999998],[-74.47500000000002,42.97500000000002],[-74.43689940000002,42.97500000000002],[-74.39999999999998,42.97500000000002]]]}},{"type":"Feature","properties":{},"geometry":{"type":"Polygon","coordinates":[[[-74.39999999999998,42.94215109999999],[-74.39999999999998,42.9422998],[-74.39999999999998,42.94254699999999],[-74.39999999999998,42.943443100000025],[-74.39999999999998,42.94364200000001],[-74.39999999999998,42.97500000000002],[-74.32499999999999,42.97500000000002],[-74.32499999999999,42.93768510000001],[-74.32499999999999,42.937341100000026],[-74.32499999999999,42.93635840000002],[-74.32499999999999,42.936136999999974],[-74.32499999999999,42.89999999999998],[-74.39999999999998,42.89999999999998],[-74.39999999999998,42.94215109999999]]]}},{"type":"Feature","properties":{},"geometry":{"type":"Polygon","coordinates":[[[-74.32499999999999,42.89999999999998],[-74.32499999999999,42.936136999999974],[-74.32499999999999,42.93635840000002],[-74.32499999999999,42.937341100000026],[-74.32499999999999,42.93768510000001],[-74.32499999999999,42.97500000000002],[-74.25,42.97500000000002],[-74.25,42.95670580000001],[-74.25,42.955642599999976],[-74.25,42.953542200000015],[-74.25,42.953419800000006],[-74.25,42.95262029999998],[-74.25,42.95235020000001],[-74.25,42.89999999999998],[-74.32499999999999,42.89999999999998]]]}},{"type":"Feature","properties":{},"geometry":{"type":"Polygon","coordinates":[[[-74.25,42.95235020000001],[-74.25,42.95262029999998],[-74.25,42.953419800000006],[-74.25,42.953542200000015],[-74.25,42.955642599999976],[-74.25,42.95670580000001],[-74.25,42.97500000000002],[-74.17500000000001,42.97500000000002],[-74.17500000000001,42.95563709999999],[-74.17500000000001,42.934344099999976],[-74.17500000000001,42.93356799999998],[-74.17500000000001,42.93331810000001],[-74.17500000000001,42.932387300000016],[-74.17500000000001,42.932004199999994],[-74.17500000000001,42.92533550000002],[-74.17500000000001,42.92515040000001],[-74.17500000000001,42.92416079999998],[-74.17500000000001,42.92389600000001],[-74.17500000000001,42.92375850000002],[-74.17500000000001,42.92255920000002],[-74.17500000000001,42.89999999999998],[-74.25,42.89999999999998],[-74.25,42.95235020000001]]]}},{"type":"Feature","properties":{},"geometry":{"type":"Polygon","coordinates":[[[-74.17500000000001,42.89999999999998],[-74.17500000000001,42.92255920000002],[-74.17500000000001,42.92375850000002],[-74.17500000000001,42.92389600000001],[-74.17500000000001,42.92416079999998],[-74.17500000000001,42.92515040000001],[-74.17500000000001,42.92533550000002],[-74.17500000000001,42.932004199999994],[-74.17500000000001,42.932387300000016],[-74.17500000000001,42.93331810000001],[-74.17500000000001,42.93356799999998],[-74.17500000000001,42.934344099999976],[-74.17500000000001,42.95563709999999],[-74.17500000000001,42.97500000000002],[-74.14500000000001,42.97500000000002],[-74.14500000000001,42.89999999999998],[-74.17500000000001,42.89999999999998]]]}}]}