{"type":"FeatureCollection","features":[{"type":"Feature","properties":{},"geometry":{"type":"Polygon","coordinates":[[[-67.17025760000001,44.625],[-67.19999999999999,44.625],[-67.19999999999999,44.6332309],[-67.19999999999999,44.63843429999997],[-67.19999999999999,44.639025000000004],[-67.19999999999999,44.64135709999999],[-67.19999999999999,44.6422427],[-67.19999999999999,44.642639900000006],[-67.19999999999999,44.64321849999999],[-67.19999999999999,44.649778500000025],[-67.19999999999999,44.65005159999998],[-67.19999999999999,44.65061050000003],[-67.19999999999999,44.65104059999999],[-67.19999999999999,44.65233940000002],[-67.19999999999999,44.65456560000001],[-67.19999999999999,44.654918899999984],[-67.19999999999999,44.65507819999999],[-67.19999999999999,44.65519280000001],[-67.19999999999999,44.65523030000003],[-67.19999999999999,44.659175800000014],[-67.19999999999999,44.69999999999999],[-67.125,44.69999999999999],[-67.125,44.69956819999999],[-67.125,44.6994148],[-67.125,44.69637719999997],[-67.125,44.69578969999998],[-67.125,44.693194500000004],[-67.125,44.692466000000024],[-67.125,44.68826819999998],[-67.125,44.67090239999999],[-67.125,44.625],[-67.17025760000001,44.625]]]}},{"type":"Feature","properties":{},"geometry":{"type":"Polygon","coordinates":[[[-67.11876949999998,44.625],[-67.125,44.625],[-67.125,44.67090239999999],[-67.125,44.68826819999998],[-67.125,44.692466000000024],[-67.125,44.693194500000004],[-67.125,44.69578969999998],[-67.125,44.69637719999997],[-67.125,44.6994148],[-67.125,44.69956819999999],[-67.125,44.69999999999999],[-67.1239946,44.69999999999999],[-67.1231411,44.69999999999999],[-67.122524,44.69999999999999],[-67.11977089999999,44.69999999999999],[-67.1171852,44.69999999999999],[-67.11205969999997,44.69999999999999],[-67.09936729999998,44.69999999999999],[-67.05000000000001,44.69999999999999],[-67.05000000000001,44.68501930000002],[-67.05000000000001,44.68440020000003],[-67.05000000000001,44.625],[-67.11779569999999,44.625],[-67.11876949999998,44.625]]]}},{"type":"Feature","properties":{},"geometry":{"type":"Polygon","coordinates":[[[-67.1239946,44.69999999999999],[-67.125,44.69999999999999],[-67.125,44.71605099999999],[-67.125,44.71706870000003],[-67.125,44.75],[-67.125,44.77499999999998],[-67.0545985,44.77499999999998],[-67.0516548,44.77499999999998],[-67.05104469999998,44.77499999999998],[-67.05000000000001,44.77499999999998],[-67.05000000000001,44.77435759999997],[-67.05000000000001,44.77323680000001],[-67.05000000000001,44.77305089999999],[-67.05000000000001,44.76699960000002],[-67.05000000000001,44.766373999999985],[-67.05000000000001,44.764686400000016],[-67.05000000000001,44.76405999999997],[-67.05000000000001,44.76372220000002],[-67.05000000000001,44.7635727],[-67.05000000000001,44.76101640000002],[-67.05000000000001,44.760234500000024],[-67.05000000000001,44.7599237],[-67.05000000000001,44.75604040000002],[-67.05000000000001,44.75512149999997],[-67.05000000000001,44.75100789999999],[-67.05000000000001,44.75],[-67.05000000000001,44.74449299999998],[-67.05000000000001,44.69999999999999],[-67.09936729999998,44.69999999999999],[-67.11205969999997,44.69999999999999],[-67.1171852,44.69999999999999],[-67.11977089999999,44.69999999999999],[-67.122524,44.69999999999999],[-67.1231411,44.69999999999999],[-67.1239946,44.69999999999999]]]}},{"type":"Feature","properties":{},"geometry":{"type":"Polygon","coordinates":[[[-67.03477149999998,44.69999999999999],[-67.05000000000001,44.69999999999999],[-67.05000000000001,44.74449299999998],[-67.05000000000001,44.75],[-67.05000000000001,44.75100789999999],[-67.05000000000001,44.75512149999997],[-67.05000000000001,44.75604040000002],[-67.05000000000001,44.7599237],[-67.05000000000001,44.760234500000024],[-67.05000000000001,44.76101640000002],[-67.05000000000001,44.7635727],[-67.05000000000001,44.76372220000002],[-67.05000000000001,44.76405999999997],[-67.05000000000001,44.764686400000016],[-67.05000000000001,44.766373999999985],[-67.05000000000001,44.76699960000002],[-67.05000000000001,44.77305089999999],[-67.05000000000001,44.77323680000001],[-67.05000000000001,44.77435759999997],[-67.05000000000001,44.77499999999998],[-67.02003780000001,44.77499999999998],[-67.0195051,44.77499999999998],[-67.0193433,44.77499999999998],[-67.01751689999998,44.77499999999998],[-67.0163837,44.77499999999998],[-67.0155469,44.77499999999998],[-67.01481000000001,44.77499999999998],[-67.01373849999999,44.77499999999998],[-67.01269509999997,44.77499999999998],[-67.0098767,44.77499999999998],[-67.00144230000001,44.77499999999998],[-67.0,44.77499999999998],[-66.97500000000002,44.77499999999998],[-66.97500000000002,44.73235840000001],[-66.97500000000002,44.731888200000014],[-66.97500000000002,44.70365620000001],[-66.97500000000002,44.69999999999999],[-66.9803015,44.69999999999999],[-67.0,44.69999999999999],[-67.03384080000001,44.69999999999999],[-67.03477149999998,44.69999999999999]]]}},{"type":"Feature","properties":{},"geometry":{"type":"Polygon","coordinates":[[[-67.19999999999999,44.77499999999998],[-67.19999999999999,44.85000000000002],[-67.14958430000001,44.85000000000002],[-67.14845600000001,44.85000000000002],[-67.14815270000003,44.85000000000002],[-67.1473143,44.85000000000002],[-67.14714550000002,44.85000000000002],[-67.14703329999998,44.85000000000002],[-67.14675920000002,44.85000000000002],[-67.1464871,44.85000000000002],[-67.14444459999999,44.85000000000002],[-67.1433558,44.85000000000002],[-67.1420632,44.85000000000002],[-67.14141749999999,44.85000000000002],[-67.1410573,44.85000000000002],[-67.14016670000001,44.85000000000002],[-67.14010819999999,44.85000000000002],[-67.13540660000001,44.85000000000002],[-67.13524619999998,44.85000000000002],[-67.13437140000002,44.85000000000002],[-67.125,44.85000000000002],[-67.125,44.83900929999999],[-67.125,44.83607979999999],[-67.125,44.8356397],[-67.125,44.83497849999998],[-67.125,44.833971399999996],[-67.125,44.83179430000001],[-67.125,44.83148670000003],[-67.125,44.830951200000015],[-67.125,44.77499999999998],[-67.19999999999999,44.77499999999998]]]}},{"type":"Feature","properties":{},"geometry":{"type":"Polygon","coordinates":[[[-67.125,44.830951200000015],[-67.125,44.83148670000003],[-67.125,44.83179430000001],[-67.125,44.833971399999996],[-67.125,44.83499160000002],[-67.125,44.8356397],[-67.125,44.83607979999999],[-67.125,44.83900929999999],[-67.125,44.85000000000002],[-67.11842430000002,44.85000000000002],[-67.11565919999998,44.85000000000002],[-67.11436559999999,44.85000000000002],[-67.11421869999998,44.85000000000002],[-67.1131206,44.85000000000002],[-67.11284080000001,44.85000000000002],[-67.11252819999999,44.85000000000002],[-67.11016869999997,44.85000000000002],[-67.10113180000002,44.85000000000002],[-67.1001468,44.85000000000002],[-67.08846999999997,44.85000000000002],[-67.0879031,44.85000000000002],[-67.07509909999999,44.85000000000002],[-67.07482720000002,44.85000000000002],[-67.05000000000001,44.85000000000002],[-67.05000000000001,44.848119999999994],[-67.05000000000001,44.84667969999998],[-67.05000000000001,44.844325000000026],[-67.05000000000001,44.843516799999975],[-67.05000000000001,44.843342699999994],[-67.05000000000001,44.842746999999974],[-67.05000000000001,44.842193699999996],[-67.05000000000001,44.84199369999999],[-67.05000000000001,44.84052150000002],[-67.05000000000001,44.840316900000005],[-67.05000000000001,44.840175699999975],[-67.05000000000001,44.837802899999986],[-67.05000000000001,44.83609469999999],[-67.05000000000001,44.834558800000025],[-67.05000000000001,44.83263210000001],[-67.05000000000001,44.83125209999997],[-67.05000000000001,44.83076],[-67.05000000000001,44.82607380000002],[-67.05000000000001,44.81914819999997],[-67.05000000000001,44.80330750000002],[-67.05000000000001,44.77499999999998],[-67.05104469999998,44.77499999999998],[-67.0516548,44.77499999999998],[-67.0545985,44.77499999999998],[-67.125,44.77499999999998],[-67.125,44.830951200000015]]]}},{"type":"Feature","properties":{},"geometry":{"type":"Polygon","coordinates":[[[-67.05000000000001,44.83076],[-67.05000000000001,44.83125209999997],[-67.05000000000001,44.83263210000001],[-67.05000000000001,44.834558800000025],[-67.05000000000001,44.83609469999999],[-67.05000000000001,44.837802899999986],[-67.05000000000001,44.840175699999975],[-67.05000000000001,44.840316900000005],[-67.05000000000001,44.84052150000002],[-67.05000000000001,44.84199369999999],[-67.05000000000001,44.842193699999996],[-67.05000000000001,44.842746999999974],[-67.05000000000001,44.843342699999994],[-67.05000000000001,44.843516799999975],[-67.05000000000001,44.844325000000026],[-67.05000000000001,44.84667969999998],[-67.05000000000001,44.848119999999994],[-67.05000000000001,44.85000000000002],[-67.04957610000002,44.85000000000002],[-67.04708970000002,44.85000000000002],[-67.0468593,44.85000000000002],[-67.04668179999999,44.85000000000002],[-67.04401480000001,44.85000000000002],[-67.0432212,44.85000000000002],[-67.04297509999998,44.85000000000002],[-67.04264139999998,44.85000000000002],[-67.04190019999999,44.85000000000002],[-67.04157229999998,44.85000000000002],[-67.04143319999997,44.85000000000002],[-67.0409722,44.85000000000002],[-67.03894989999998,44.85000000000002],[-67.033996,44.85000000000002],[-67.0242758,44.85000000000002],[-67.02391990000001,44.85000000000002],[-67.01703700000002,44.85000000000002],[-67.0154379,44.85000000000002],[-67.01369870000002,44.85000000000002],[-67.00995210000002,44.85000000000002],[-67.00846469999999,44.85000000000002],[-67.00577449999997,44.85000000000002],[-67.00459560000002,44.85000000000002],[-66.99176030000001,44.85000000000002],[-66.97658960000001,44.85000000000002],[-66.97649419999999,44.85000000000002],[-66.976002,44.85000000000002],[-66.97507480000002,44.85000000000002],[-66.97500000000002,44.85000000000002],[-66.97500000000002,44.849781699999994],[-66.97500000000002,44.8481486],[-66.97500000000002,44.84787369999998],[-66.97500000000002,44.847827600000016],[-66.97500000000002,44.8426829],[-66.97500000000002,44.83935439999999],[-66.97500000000002,44.83898319999997],[-66.97500000000002,44.83619429999999],[-66.97500000000002,44.82986290000002],[-66.97500000000002,44.8277516],[-66.97500000000002,44.82680340000002],[-66.97500000000002,44.82632849999999],[-66.97500000000002,44.82481289999998],[-66.97500000000002,44.824607300000025],[-66.97500000000002,44.822264399999995],[-66.97500000000002,44.821515999999974],[-66.97500000000002,44.820386499999984],[-66.97500000000002,44.81848009999999],[-66.97500000000002,44.81828200000001],[-66.97500000000002,44.81325909999998],[-66.97500000000002,44.80730670000003],[-66.97500000000002,44.806831699999975],[-66.97500000000002,44.806541100000004],[-66.97500000000002,44.8063631],[-66.97500000000002,44.80573909999998],[-66.97500000000002,44.80330750000002],[-66.97500000000002,44.802975600000025],[-66.97500000000002,44.80071959999998],[-66.97500000000002,44.79899260000002],[-66.97500000000002,44.79604499999999],[-66.97500000000002,44.79500710000002],[-66.97500000000002,44.78972060000001],[-66.97500000000002,44.77499999999998],[-67.00144230000001,44.77499999999998],[-67.0098767,44.77499999999998],[-67.01269509999997,44.77499999999998],[-67.01373849999999,44.77499999999998],[-67.01481000000001,44.77499999999998],[-67.0155469,44.77499999999998],[-67.0163837,44.77499999999998],[-67.01751689999998,44.77499999999998],[-67.0193433,44.77499999999998],[-67.0195051,44.77499999999998],[-67.02003780000001,44.77499999999998],[-67.05000000000001,44.77499999999998],[-67.05000000000001,44.80330750000002],[-67.05000000000001,44.82607380000002],[-67.05000000000001,44.83076]]]}},{"type":"Feature","properties":{},"geometry":{"type":"Polygon","coordinates":[[[-66.97500000000002,44.78972060000001],[-66.97500000000002,44.79500710000002],[-66.97500000000002,44.79604499999999],[-66.97500000000002,44.79899260000002],[-66.97500000000002,44.80071959999998],[-66.97500000000002,44.802975600000025],[-66.97500000000002,44.80330750000002],[-66.97500000000002,44.80573909999998],[-66.97500000000002,44.8063631],[-66.97500000000002,44.806541100000004],[-66.97500000000002,44.806831699999975],[-66.97500000000002,44.80730670000003],[-66.97500000000002,44.81325909999998],[-66.97500000000002,44.81828200000001],[-66.97500000000002,44.81848009999999],[-66.97500000000002,44.820386499999984],[-66.97500000000002,44.821515999999974],[-66.97500000000002,44.822264399999995],[-66.97500000000002,44.824607300000025],[-66.97500000000002,44.82481289999998],[-66.97500000000002,44.82632849999999],[-66.97500000000002,44.82680340000002],[-66.97500000000002,44.8277516],[-66.97500000000002,44.82986290000002],[-66.97500000000002,44.83619429999999],[-66.97500000000002,44.83898319999997],[-66.97500000000002,44.83935439999999],[-66.97500000000002,44.8426829],[-66.97500000000002,44.847827600000016],[-66.97500000000002,44.84787369999998],[-66.97500000000002,44.8481486],[-66.97500000000002,44.849781699999994],[-66.97500000000002,44.85000000000002],[-66.9747845,44.85000000000002],[-66.97478330000001,44.85000000000002],[-66.97257230000002,44.85000000000002],[-66.97231249999999,44.85000000000002],[-66.97196869999999,44.85000000000002],[-66.9701561,44.85000000000002],[-66.96888589999998,44.85000000000002],[-66.96372880000001,44.85000000000002],[-66.95917359999999,44.85000000000002],[-66.92247070000002,44.85000000000002],[-66.9219157,44.85000000000002],[-66.92157379999998,44.85000000000002],[-66.92143320000002,44.85000000000002],[-66.91781709999998,44.85000000000002],[-66.91060729999998,44.85000000000002],[-66.90199619999999,44.85000000000002],[-66.89999999999998,44.85000000000002],[-66.89999999999998,44.81421590000002],[-66.89999999999998,44.803901499999995],[-66.89999999999998,44.803884700000026],[-66.89999999999998,44.80330750000002],[-66.89999999999998,44.781142999999986],[-66.89999999999998,44.77919029999998],[-66.89999999999998,44.77918940000001],[-66.89999999999998,44.77656409999997],[-66.89999999999998,44.77499999999998],[-66.90427160000002,44.77499999999998],[-66.90958039999998,44.77499999999998],[-66.91462510000002,44.77499999999998],[-66.97500000000002,44.77499999999998],[-66.97500000000002,44.78972060000001]]]}},{"type":"Feature","properties":{},"geometry":{"type":"Polygon","coordinates":[[[-67.14958430000001,44.85000000000002],[-67.19999999999999,44.85000000000002],[-67.19999999999999,44.8863733],[-67.19999999999999,44.8874199],[-67.19999999999999,44.8902018],[-67.19999999999999,44.89104470000001],[-67.19999999999999,44.906854399999986],[-67.19999999999999,44.9071227],[-67.19999999999999,44.90770859999998],[-67.19999999999999,44.91144150000002],[-67.19999999999999,44.91241680000002],[-67.19999999999999,44.913396999999975],[-67.19999999999999,44.91365760000002],[-67.19999999999999,44.91418809999999],[-67.19999999999999,44.91435990000002],[-67.19999999999999,44.91493600000001],[-67.19999999999999,44.915209300000015],[-67.19999999999999,44.92500000000001],[-67.1609747,44.92500000000001],[-67.1535194,44.92500000000001],[-67.1517662,44.92500000000001],[-67.15110010000001,44.92500000000001],[-67.1488582,44.92500000000001],[-67.14732459999999,44.92500000000001],[-67.14433000000002,44.92500000000001],[-67.13604709999998,44.92500000000001],[-67.13535109999998,44.92500000000001],[-67.13457890000001,44.92500000000001],[-67.13241699999998,44.92500000000001],[-67.125,44.92500000000001],[-67.125,44.92378930000001],[-67.125,44.923520800000006],[-67.125,44.92309469999998],[-67.125,44.923012400000005],[-67.125,44.92274029999999],[-67.125,44.92130350000002],[-67.125,44.91950400000002],[-67.125,44.91875040000002],[-67.125,44.917974300000026],[-67.125,44.91737790000002],[-67.125,44.91707709999997],[-67.125,44.91514719999998],[-67.125,44.90162320000002],[-67.125,44.90106960000003],[-67.125,44.90088370000001],[-67.125,44.896666700000026],[-67.125,44.896538599999985],[-67.125,44.89598050000001],[-67.125,44.894903],[-67.125,44.894769999999994],[-67.125,44.89458969999998],[-67.125,44.89444559999998],[-67.125,44.8926998],[-67.125,44.89198649999997],[-67.125,44.89174129999998],[-67.125,44.891567399999985],[-67.125,44.89075580000002],[-67.125,44.8898767],[-67.125,44.88931170000001],[-67.125,44.88841259999998],[-67.125,44.88824119999998],[-67.125,44.88804470000002],[-67.125,44.88768479999999],[-67.125,44.885269900000026],[-67.125,44.8851262],[-67.125,44.884922700000004],[-67.125,44.88471950000002],[-67.125,44.88460329999998],[-67.125,44.884588699999995],[-67.125,44.884489299999984],[-67.125,44.884319000000005],[-67.125,44.88035359999998],[-67.125,44.879857500000014],[-67.125,44.879776400000026],[-67.125,44.879493000000025],[-67.125,44.87919290000002],[-67.125,44.878927499999975],[-67.125,44.87877759999998],[-67.125,44.87776910000002],[-67.125,44.8773865],[-67.125,44.877169700000024],[-67.125,44.87662130000001],[-67.125,44.87601519999998],[-67.125,44.875],[-67.125,44.856183199999975],[-67.125,44.854685399999994],[-67.125,44.85000000000002],[-67.13437140000002,44.85000000000002],[-67.13524619999998,44.85000000000002],[-67.13540660000001,44.85000000000002],[-67.14010819999999,44.85000000000002],[-67.14016670000001,44.85000000000002],[-67.1410573,44.85000000000002],[-67.14141749999999,44.85000000000002],[-67.1420632,44.85000000000002],[-67.1433558,44.85000000000002],[-67.14444459999999,44.85000000000002],[-67.1464871,44.85000000000002],[-67.14675920000002,44.85000000000002],[-67.14703329999998,44.85000000000002],[-67.14714550000002,44.85000000000002],[-67.1473143,44.85000000000002],[-67.14815270000003,44.85000000000002],[-67.14845600000001,44.85000000000002],[-67.14958430000001,44.85000000000002]]]}},{"type":"Feature","properties":{},"geometry":{"type":"Polygon","coordinates":[[[-67.11842430000002,44.85000000000002],[-67.125,44.85000000000002],[-67.125,44.854685399999994],[-67.125,44.856183199999975],[-67.125,44.875],[-67.125,44.87601519999998],[-67.125,44.87662130000001],[-67.125,44.877169700000024],[-67.125,44.8773865],[-67.125,44.87776910000002],[-67.125,44.87877759999998],[-67.125,44.878927499999975],[-67.125,44.87919290000002],[-67.125,44.879493000000025],[-67.125,44.879776400000026],[-67.125,44.879857500000014],[-67.125,44.88035359999998],[-67.125,44.884319000000005],[-67.125,44.884489299999984],[-67.125,44.884588699999995],[-67.125,44.88460329999998],[-67.125,44.88471950000002],[-67.125,44.884922700000004],[-67.125,44.8851262],[-67.125,44.885269900000026],[-67.125,44.88768479999999],[-67.125,44.88804470000002],[-67.125,44.88824119999998],[-67.125,44.88841259999998],[-67.125,44.88931170000001],[-67.125,44.8898767],[-67.125,44.89075580000002],[-67.125,44.891567399999985],[-67.125,44.89174129999998],[-67.125,44.89198649999997],[-67.125,44.8926998],[-67.125,44.89444559999998],[-67.125,44.89458969999998],[-67.125,44.894769999999994],[-67.125,44.894903],[-67.125,44.89598050000001],[-67.125,44.896538599999985],[-67.125,44.896666700000026],[-67.125,44.90088370000001],[-67.125,44.90106960000003],[-67.125,44.90162320000002],[-67.125,44.91514719999998],[-67.125,44.91707709999997],[-67.125,44.91737790000002],[-67.125,44.917974300000026],[-67.125,44.91875040000002],[-67.125,44.91950400000002],[-67.125,44.92130350000002],[-67.125,44.92274029999999],[-67.125,44.923012400000005],[-67.125,44.92309469999998],[-67.125,44.923520800000006],[-67.125,44.92378930000001],[-67.125,44.92500000000001],[-67.1130665,44.92500000000001],[-67.11203019999999,44.92500000000001],[-67.10984400000001,44.92500000000001],[-67.10947140000002,44.92500000000001],[-67.10899369999998,44.92500000000001],[-67.10715959999999,44.92500000000001],[-67.09869850000001,44.92500000000001],[-67.09812340000002,44.92500000000001],[-67.09757630000001,44.92500000000001],[-67.0969538,44.92500000000001],[-67.09288040000001,44.92500000000001],[-67.07862169999999,44.92500000000001],[-67.07623539999997,44.92500000000001],[-67.07509649999997,44.92500000000001],[-67.07155979999999,44.92500000000001],[-67.06191000000001,44.92500000000001],[-67.05926740000001,44.92500000000001],[-67.05879720000001,44.92500000000001],[-67.05518569999998,44.92500000000001],[-67.05424579999999,44.92500000000001],[-67.05042689999999,44.92500000000001],[-67.05000000000001,44.92500000000001],[-67.05000000000001,44.92006650000002],[-67.05000000000001,44.91998430000001],[-67.05000000000001,44.919197999999994],[-67.05000000000001,44.91894550000001],[-67.05000000000001,44.91854540000003],[-67.05000000000001,44.918438700000024],[-67.05000000000001,44.9182538],[-67.05000000000001,44.91814959999999],[-67.05000000000001,44.91812820000001],[-67.05000000000001,44.91682650000001],[-67.05000000000001,44.91675190000001],[-67.05000000000001,44.9157017],[-67.05000000000001,44.915527699999984],[-67.05000000000001,44.914808600000015],[-67.05000000000001,44.9147883],[-67.05000000000001,44.91216379999997],[-67.05000000000001,44.91209859999998],[-67.05000000000001,44.91055469999998],[-67.05000000000001,44.909678799999995],[-67.05000000000001,44.909022400000026],[-67.05000000000001,44.908802700000024],[-67.05000000000001,44.9083157],[-67.05000000000001,44.90715039999998],[-67.05000000000001,44.90712129999997],[-67.05000000000001,44.90665050000001],[-67.05000000000001,44.90659169999998],[-67.05000000000001,44.905559700000026],[-67.05000000000001,44.90532409999997],[-67.05000000000001,44.9053002],[-67.05000000000001,44.905243600000006],[-67.05000000000001,44.905110200000024],[-67.05000000000001,44.90500300000002],[-67.05000000000001,44.90439950000001],[-67.05000000000001,44.90429039999998],[-67.05000000000001,44.903982600000006],[-67.05000000000001,44.903736200000026],[-67.05000000000001,44.90224610000001],[-67.05000000000001,44.89947330000001],[-67.05000000000001,44.89881509999998],[-67.05000000000001,44.895888300000024],[-67.05000000000001,44.8836718],[-67.05000000000001,44.8812059],[-67.05000000000001,44.88077340000001],[-67.05000000000001,44.88039070000002],[-67.05000000000001,44.8779035],[-67.05000000000001,44.87783289999999],[-67.05000000000001,44.86856110000002],[-67.05000000000001,44.86257280000001],[-67.05000000000001,44.86171949999999],[-67.05000000000001,44.861213099999986],[-67.05000000000001,44.85632509999999],[-67.05000000000001,44.855871200000024],[-67.05000000000001,44.8556198],[-67.05000000000001,44.8535751],[-67.05000000000001,44.8533693],[-67.05000000000001,44.85245500000002],[-67.05000000000001,44.850655200000006],[-67.05000000000001,44.85000000000002],[-67.07482720000002,44.85000000000002],[-67.07509909999999,44.85000000000002],[-67.0879031,44.85000000000002],[-67.08846999999997,44.85000000000002],[-67.1001468,44.85000000000002],[-67.10113180000002,44.85000000000002],[-67.11016869999997,44.85000000000002],[-67.11252819999999,44.85000000000002],[-67.11284080000001,44.85000000000002],[-67.1131206,44.85000000000002],[-67.11421869999998,44.85000000000002],[-67.11436559999999,44.85000000000002],[-67.11565919999998,44.85000000000002],[-67.11842430000002,44.85000000000002]]]}},{"type":"Feature","properties":{},"geometry":{"type":"Polygon","coordinates":[[[-67.04957610000002,44.85000000000002],[-67.05000000000001,44.85000000000002],[-67.05000000000001,44.850655200000006],[-67.05000000000001,44.85245500000002],[-67.05000000000001,44.8533693],[-67.05000000000001,44.8535751],[-67.05000000000001,44.8556198],[-67.05000000000001,44.855871200000024],[-67.05000000000001,44.85632509999999],[-67.05000000000001,44.861213099999986],[-67.05000000000001,44.86171949999999],[-67.05000000000001,44.86257280000001],[-67.05000000000001,44.86856110000002],[-67.05000000000001,44.87783289999999],[-67.05000000000001,44.8779035],[-67.05000000000001,44.88039070000002],[-67.05000000000001,44.88077340000001],[-67.05000000000001,44.8812059],[-67.05000000000001,44.8836718],[-67.05000000000001,44.902263600000026],[-67.05000000000001,44.90374220000001],[-67.05000000000001,44.9038736],[-67.05000000000001,44.90439950000001],[-67.05000000000001,44.90500300000002],[-67.05000000000001,44.905243600000006],[-67.05000000000001,44.9053002],[-67.05000000000001,44.90532409999997],[-67.05000000000001,44.90659169999998],[-67.05000000000001,44.90712129999997],[-67.05000000000001,44.9083157],[-67.05000000000001,44.909022400000026],[-67.05000000000001,44.91216379999997],[-67.05000000000001,44.914808600000015],[-67.05000000000001,44.9157017],[-67.05000000000001,44.91675190000001],[-67.05000000000001,44.91814959999999],[-67.05000000000001,44.918438700000024],[-67.05000000000001,44.91894550000001],[-67.05000000000001,44.919198800000004],[-67.05000000000001,44.91998430000001],[-67.05000000000001,44.92500000000001],[-67.04323310000001,44.92500000000001],[-67.04133189999999,44.92500000000001],[-67.03766580000001,44.92500000000001],[-67.0331069,44.92500000000001],[-67.03067879999998,44.92500000000001],[-67.02180829999998,44.92500000000001],[-67.0174432,44.92500000000001],[-67.01300309999999,44.92500000000001],[-67.0115184,44.92500000000001],[-67.01041190000001,44.92500000000001],[-67.00887,44.92500000000001],[-67.00718039999998,44.92500000000001],[-67.00614009999998,44.92500000000001],[-67.00590829999999,44.92500000000001],[-67.00425630000001,44.92500000000001],[-67.00360710000001,44.92500000000001],[-67.00248240000002,44.92500000000001],[-67.00193960000001,44.92500000000001],[-67.00114710000003,44.92500000000001],[-67.00050399999998,44.92500000000001],[-66.99788840000002,44.92500000000001],[-66.99416359999998,44.92500000000001],[-66.99157250000002,44.92500000000001],[-66.99157009999999,44.92500000000001],[-66.98851029999997,44.92500000000001],[-66.98743610000002,44.92500000000001],[-66.98682330000003,44.92500000000001],[-66.98634179999999,44.92500000000001],[-66.98586769999997,44.92500000000001],[-66.9855177,44.92500000000001],[-66.98489219999999,44.92500000000001],[-66.98481429999998,44.92500000000001],[-66.98417610000001,44.92500000000001],[-66.98409629999998,44.92500000000001],[-66.98381660000001,44.92500000000001],[-66.98355299999997,44.92500000000001],[-66.98313330000002,44.92500000000001],[-66.9829143,44.92500000000001],[-66.98191939999998,44.92500000000001],[-66.9815031,44.92500000000001],[-66.98026329999999,44.92500000000001],[-66.98011760000003,44.92500000000001],[-66.97915039999998,44.92500000000001],[-66.97834110000002,44.92500000000001],[-66.97748259999997,44.92500000000001],[-66.97680839999998,44.92500000000001],[-66.9766057,44.92500000000001],[-66.97630229999999,44.92500000000001],[-66.97627219999998,44.92500000000001],[-66.97624910000002,44.92500000000001],[-66.97570250000001,44.92500000000001],[-66.97500000000002,44.92500000000001],[-66.97500000000002,44.92364900000001],[-66.97500000000002,44.9234773],[-66.97500000000002,44.92327990000001],[-66.97500000000002,44.92321750000002],[-66.97500000000002,44.92303879999997],[-66.97500000000002,44.923013200000014],[-66.97500000000002,44.92250469999999],[-66.97500000000002,44.92226629999999],[-66.97500000000002,44.921989999999994],[-66.97500000000002,44.921795900000006],[-66.97500000000002,44.921356300000014],[-66.97500000000002,44.92078479999998],[-66.97500000000002,44.92041640000002],[-66.97500000000002,44.920192799999995],[-66.97500000000002,44.91865539999998],[-66.97500000000002,44.9172777],[-66.97500000000002,44.91536960000002],[-66.97500000000002,44.91441020000002],[-66.97500000000002,44.91440849999998],[-66.97500000000002,44.91314369999998],[-66.97500000000002,44.91287990000001],[-66.97500000000002,44.90335049999999],[-66.97500000000002,44.89671010000001],[-66.97500000000002,44.89536220000002],[-66.97500000000002,44.895299799999975],[-66.97500000000002,44.88999230000002],[-66.97500000000002,44.888610099999994],[-66.97500000000002,44.88859009999999],[-66.97500000000002,44.877549699999975],[-66.97500000000002,44.87685099999999],[-66.97500000000002,44.875450899999976],[-66.97500000000002,44.87492639999999],[-66.97500000000002,44.874160200000006],[-66.97500000000002,44.873092499999984],[-66.97500000000002,44.87252649999999],[-66.97500000000002,44.87162169999999],[-66.97500000000002,44.87126009999997],[-66.97500000000002,44.8598356],[-66.97500000000002,44.85926139999998],[-66.97500000000002,44.856612299999995],[-66.97500000000002,44.85573440000002],[-66.97500000000002,44.85516919999998],[-66.97500000000002,44.85383300000001],[-66.97500000000002,44.8513332],[-66.97500000000002,44.85133139999999],[-66.97500000000002,44.85000000000002],[-66.97507480000002,44.85000000000002],[-66.976002,44.85000000000002],[-66.97649419999999,44.85000000000002],[-66.97658960000001,44.85000000000002],[-66.99176030000001,44.85000000000002],[-67.00459560000002,44.85000000000002],[-67.00577449999997,44.85000000000002],[-67.00846469999999,44.85000000000002],[-67.00995210000002,44.85000000000002],[-67.01369870000002,44.85000000000002],[-67.0154379,44.85000000000002],[-67.01703700000002,44.85000000000002],[-67.02391990000001,44.85000000000002],[-67.0242758,44.85000000000002],[-67.033996,44.85000000000002],[-67.03894989999998,44.85000000000002],[-67.0409722,44.85000000000002],[-67.04143319999997,44.85000000000002],[-67.04157229999998,44.85000000000002],[-67.04190019999999,44.85000000000002],[-67.04264139999998,44.85000000000002],[-67.04297509999998,44.85000000000002],[-67.0432212,44.85000000000002],[-67.04401480000001,44.85000000000002],[-67.04668179999999,44.85000000000002],[-67.0468593,44.85000000000002],[-67.04708970000002,44.85000000000002],[-67.04957610000002,44.85000000000002]]]}},{"type":"Feature","properties":{},"geometry":{"type":"Polygon","coordinates":[[[-66.97500000000002,44.85133139999999],[-66.97500000000002,44.8513332],[-66.97500000000002,44.85383300000001],[-66.97500000000002,44.85516919999998],[-66.97500000000002,44.85573440000002],[-66.97500000000002,44.856612299999995],[-66.97500000000002,44.85926139999998],[-66.97500000000002,44.8598356],[-66.97500000000002,44.87126009999997],[-66.97500000000002,44.87162169999999],[-66.97500000000002,44.87252649999999],[-66.97500000000002,44.873092499999984],[-66.97500000000002,44.874160200000006],[-66.97500000000002,44.87492639999999],[-66.97500000000002,44.875450899999976],[-66.97500000000002,44.87685099999999],[-66.97500000000002,44.877549699999975],[-66.97500000000002,44.88859009999999],[-66.97500000000002,44.888610099999994],[-66.97500000000002,44.88999230000002],[-66.97500000000002,44.895299799999975],[-66.97500000000002,44.89536220000002],[-66.97500000000002,44.89671010000001],[-66.97500000000002,44.90335049999999],[-66.97500000000002,44.91287990000001],[-66.97500000000002,44.91314369999998],[-66.97500000000002,44.91440849999998],[-66.97500000000002,44.91441020000002],[-66.97500000000002,44.91536960000002],[-66.97500000000002,44.9172777],[-66.97500000000002,44.91865539999998],[-66.97500000000002,44.920192799999995],[-66.97500000000002,44.92041640000002],[-66.97500000000002,44.92078479999998],[-66.97500000000002,44.921356300000014],[-66.97500000000002,44.921795900000006],[-66.97500000000002,44.921989999999994],[-66.97500000000002,44.92226629999999],[-66.97500000000002,44.92250469999999],[-66.97500000000002,44.923013200000014],[-66.97500000000002,44.92303879999997],[-66.97500000000002,44.92321750000002],[-66.97500000000002,44.92327990000001],[-66.97500000000002,44.9234773],[-66.97500000000002,44.92364900000001],[-66.97500000000002,44.92500000000001],[-66.969269,44.92500000000001],[-66.96871540000001,44.92500000000001],[-66.96821519999997,44.92500000000001],[-66.96707320000002,44.92500000000001],[-66.96501940000002,44.92500000000001],[-66.96396449999997,44.92500000000001],[-66.96160420000001,44.92500000000001],[-66.95603729999999,44.92500000000001],[-66.9520283,44.92500000000001],[-66.95043149999998,44.92500000000001],[-66.94967550000001,44.92500000000001],[-66.9448236,44.92500000000001],[-66.94113429999999,44.92500000000001],[-66.9397783,44.92500000000001],[-66.9393169,44.92500000000001],[-66.93883779999999,44.92500000000001],[-66.93866059999999,44.92500000000001],[-66.93858410000001,44.92500000000001],[-66.9381189,44.92500000000001],[-66.93707110000003,44.92500000000001],[-66.93315410000002,44.92500000000001],[-66.89999999999998,44.92500000000001],[-66.89999999999998,44.90280869999998],[-66.89999999999998,44.90167680000002],[-66.89999999999998,44.90161690000002],[-66.89999999999998,44.90151070000002],[-66.89999999999998,44.901465599999995],[-66.89999999999998,44.90011340000001],[-66.89999999999998,44.89988979999998],[-66.89999999999998,44.899628500000006],[-66.89999999999998,44.899282200000016],[-66.89999999999998,44.89820309999999],[-66.89999999999998,44.89526219999999],[-66.89999999999998,44.89474280000002],[-66.89999999999998,44.89466090000002],[-66.89999999999998,44.894409199999984],[-66.89999999999998,44.89272110000002],[-66.89999999999998,44.89184080000001],[-66.89999999999998,44.88764880000002],[-66.89999999999998,44.88707260000001],[-66.89999999999998,44.88574870000002],[-66.89999999999998,44.85364729999998],[-66.89999999999998,44.85000000000002],[-66.90199619999999,44.85000000000002],[-66.91060729999998,44.85000000000002],[-66.91781709999998,44.85000000000002],[-66.92143320000002,44.85000000000002],[-66.92157379999998,44.85000000000002],[-66.9219157,44.85000000000002],[-66.92247070000002,44.85000000000002],[-66.95917359999999,44.85000000000002],[-66.96372880000001,44.85000000000002],[-66.96888589999998,44.85000000000002],[-66.9701561,44.85000000000002],[-66.97196869999999,44.85000000000002],[-66.97231249999999,44.85000000000002],[-66.97257230000002,44.85000000000002],[-66.97478330000001,44.85000000000002],[-66.9747845,44.85000000000002],[-66.97500000000002,44.85000000000002],[-66.97500000000002,44.85133139999999]]]}},{"type":"Feature","properties":{},"geometry":{"type":"Polygon","coordinates":[[[-67.125,44.94602839999999],[-67.125,44.941825300000005],[-67.125,44.941485],[-67.125,44.939141800000016],[-67.125,44.93842619999998],[-67.125,44.938118599999996],[-67.125,44.93675230000002],[-67.125,44.93637610000002],[-67.125,44.92500000000001],[-67.13241699999998,44.92500000000001],[-67.13457890000001,44.92500000000001],[-67.13535109999998,44.92500000000001],[-67.13604709999998,44.92500000000001],[-67.14433000000002,44.92500000000001],[-67.14732459999999,44.92500000000001],[-67.1488582,44.92500000000001],[-67.15110010000001,44.92500000000001],[-67.1517662,44.92500000000001],[-67.1535194,44.92500000000001],[-67.1609747,44.92500000000001],[-67.19999999999999,44.92500000000001],[-67.19999999999999,45.0],[-67.125,45.0],[-67.125,44.946256800000015],[-67.125,44.94602839999999]]]}},{"type":"Feature","properties":{},"geometry":{"type":"Polygon","coordinates":[[[-67.1130665,44.92500000000001],[-67.125,44.92500000000001],[-67.125,44.93637610000002],[-67.125,44.93675230000002],[-67.125,44.938118599999996],[-67.125,44.93842619999998],[-67.125,44.939141800000016],[-67.125,44.941485],[-67.125,44.941825300000005],[-67.125,44.94602839999999],[-67.125,44.946256800000015],[-67.125,45.0],[-67.06673699999999,45.0],[-67.065653,45.0],[-67.06541379999999,45.0],[-67.06476170000002,45.0],[-67.06410540000002,45.0],[-67.0635241,45.0],[-67.062251,45.0],[-67.0584356,45.0],[-67.05000000000001,45.0],[-67.05000000000001,44.989537900000016],[-67.05000000000001,44.9893725],[-67.05000000000001,44.985145699999975],[-67.05000000000001,44.984708599999976],[-67.05000000000001,44.982309199999975],[-67.05000000000001,44.982148499999994],[-67.05000000000001,44.981037000000015],[-67.05000000000001,44.98081020000001],[-67.05000000000001,44.98012799999998],[-67.05000000000001,44.9799615],[-67.05000000000001,44.97990379999999],[-67.05000000000001,44.979889000000014],[-67.05000000000001,44.97962799999999],[-67.05000000000001,44.97905320000001],[-67.05000000000001,44.97704440000001],[-67.05000000000001,44.97697010000002],[-67.05000000000001,44.9766252],[-67.05000000000001,44.976401899999985],[-67.05000000000001,44.97631849999999],[-67.05000000000001,44.9762604],[-67.05000000000001,44.97530560000001],[-67.05000000000001,44.975222900000006],[-67.05000000000001,44.9741186],[-67.05000000000001,44.97385830000002],[-67.05000000000001,44.97329960000002],[-67.05000000000001,44.97326420000002],[-67.05000000000001,44.97299429999998],[-67.05000000000001,44.97287979999999],[-67.05000000000001,44.97101129999999],[-67.05000000000001,44.97070789999998],[-67.05000000000001,44.969612299999994],[-67.05000000000001,44.9695547],[-67.05000000000001,44.968514500000026],[-67.05000000000001,44.968505900000025],[-67.05000000000001,44.96814219999999],[-67.05000000000001,44.96804370000001],[-67.05000000000001,44.967882599999996],[-67.05000000000001,44.96785080000001],[-67.05000000000001,44.96622289999999],[-67.05000000000001,44.96615989999998],[-67.05000000000001,44.96575259999997],[-67.05000000000001,44.96527859999998],[-67.05000000000001,44.9651624],[-67.05000000000001,44.962944100000016],[-67.05000000000001,44.958815200000004],[-67.05000000000001,44.95776719999998],[-67.05000000000001,44.95522679999999],[-67.05000000000001,44.9548451],[-67.05000000000001,44.9547068],[-67.05000000000001,44.953664300000014],[-67.05000000000001,44.95364599999999],[-67.05000000000001,44.95267899999999],[-67.05000000000001,44.952592100000004],[-67.05000000000001,44.94924099999997],[-67.05000000000001,44.94924020000002],[-67.05000000000001,44.94873389999998],[-67.05000000000001,44.94542030000002],[-67.05000000000001,44.94419149999999],[-67.05000000000001,44.944046000000014],[-67.05000000000001,44.94350350000002],[-67.05000000000001,44.94326480000001],[-67.05000000000001,44.9426909],[-67.05000000000001,44.94156370000002],[-67.05000000000001,44.94055129999998],[-67.05000000000001,44.9401805],[-67.05000000000001,44.93916150000001],[-67.05000000000001,44.93911589999999],[-67.05000000000001,44.938699499999984],[-67.05000000000001,44.93742040000001],[-67.05000000000001,44.9373703],[-67.05000000000001,44.936796300000026],[-67.05000000000001,44.93677919999999],[-67.05000000000001,44.93661559999998],[-67.05000000000001,44.93641889999998],[-67.05000000000001,44.936372800000015],[-67.05000000000001,44.93612159999998],[-67.05000000000001,44.936071700000014],[-67.05000000000001,44.93584929999997],[-67.05000000000001,44.93534770000002],[-67.05000000000001,44.93504439999998],[-67.05000000000001,44.934946000000025],[-67.05000000000001,44.934889199999986],[-67.05000000000001,44.93437829999999],[-67.05000000000001,44.934263199999975],[-67.05000000000001,44.9337888],[-67.05000000000001,44.93374779999999],[-67.05000000000001,44.93311990000001],[-67.05000000000001,44.9328165],[-67.05000000000001,44.93233529999998],[-67.05000000000001,44.932302100000015],[-67.05000000000001,44.93092519999999],[-67.05000000000001,44.93090719999998],[-67.05000000000001,44.92882109999999],[-67.05000000000001,44.92869330000002],[-67.05000000000001,44.92773319999998],[-67.05000000000001,44.927724599999976],[-67.05000000000001,44.92717970000001],[-67.05000000000001,44.92562700000002],[-67.05000000000001,44.92545940000002],[-67.05000000000001,44.92500000000001],[-67.05042689999999,44.92500000000001],[-67.05424579999999,44.92500000000001],[-67.05518569999998,44.92500000000001],[-67.05879720000001,44.92500000000001],[-67.05926740000001,44.92500000000001],[-67.06191000000001,44.92500000000001],[-67.07155979999999,44.92500000000001],[-67.07509649999997,44.92500000000001],[-67.07623539999997,44.92500000000001],[-67.07862169999999,44.92500000000001],[-67.09288040000001,44.92500000000001],[-67.0969538,44.92500000000001],[-67.09757630000001,44.92500000000001],[-67.09812340000002,44.92500000000001],[-67.09869850000001,44.92500000000001],[-67.10715959999999,44.92500000000001],[-67.10899369999998,44.92500000000001],[-67.10947140000002,44.92500000000001],[-67.10984400000001,44.92500000000001],[-67.11203019999999,44.92500000000001],[-67.1130665,44.92500000000001]]]}},{"type":"Feature","properties":{},"geometry":{"type":"Polygon","coordinates":[[[-67.05000000000001,44.92562700000002],[-67.05000000000001,44.92717970000001],[-67.05000000000001,44.927724599999976],[-67.05000000000001,44.92869330000002],[-67.05000000000001,44.93092519999999],[-67.05000000000001,44.93233529999998],[-67.05000000000001,44.9328165],[-67.05000000000001,44.93374779999999],[-67.05000000000001,44.934263199999975],[-67.05000000000001,44.93437829999999],[-67.05000000000001,44.934889199999986],[-67.05000000000001,44.93504439999998],[-67.05000000000001,44.93534770000002],[-67.05000000000001,44.93584929999997],[-67.05000000000001,44.93612159999998],[-67.05000000000001,44.93661559999998],[-67.05000000000001,44.93677919999999],[-67.05000000000001,44.93747259999998],[-67.05000000000001,44.93899690000001],[-67.05000000000001,44.93916150000001],[-67.05000000000001,44.9401805],[-67.05000000000001,44.94350350000002],[-67.05000000000001,44.944046000000014],[-67.05000000000001,44.9455145],[-67.05000000000001,44.94856759999999],[-67.05000000000001,44.948633099999995],[-67.05000000000001,44.94924099999997],[-67.05000000000001,44.952592100000004],[-67.05000000000001,44.953664300000014],[-67.05000000000001,44.9548451],[-67.05000000000001,44.95523459999998],[-67.05000000000001,44.95766739999999],[-67.05000000000001,44.95882769999997],[-67.05000000000001,44.96527320000001],[-67.05000000000001,44.96575259999997],[-67.05000000000001,44.96615989999998],[-67.05000000000001,44.967882599999996],[-67.05000000000001,44.96804370000001],[-67.05000000000001,44.968505900000025],[-67.05000000000001,44.9695547],[-67.05000000000001,44.96959650000002],[-67.05000000000001,44.97299429999998],[-67.05000000000001,44.97325810000001],[-67.05000000000001,44.97329960000002],[-67.05000000000001,44.9741186],[-67.05000000000001,44.975222900000006],[-67.05000000000001,44.97631849999999],[-67.05000000000001,44.9766252],[-67.05000000000001,44.97697010000002],[-67.05000000000001,44.97962799999999],[-67.05000000000001,44.979889000000014],[-67.05000000000001,44.97993550000001],[-67.05000000000001,44.98012799999998],[-67.05000000000001,44.98081020000001],[-67.05000000000001,44.982148499999994],[-67.05000000000001,44.984708599999976],[-67.05000000000001,44.9893725],[-67.05000000000001,45.0],[-67.04951820000002,45.0],[-67.04947870000001,45.0],[-67.04941409999998,45.0],[-67.04827599999999,45.0],[-67.03582069999999,45.0],[-67.00151749999998,45.0],[-66.99775069999998,45.0],[-66.9965977,45.0],[-66.99612300000001,45.0],[-66.99583419999999,45.0],[-66.99495109999998,45.0],[-66.99217909999999,45.0],[-66.97500000000002,45.0],[-66.97500000000002,44.992836599999976],[-66.97500000000002,44.94436639999998],[-66.97500000000002,44.94387979999999],[-66.97500000000002,44.94342039999998],[-66.97500000000002,44.94318099999998],[-66.97500000000002,44.94302320000003],[-66.97500000000002,44.942607899999985],[-66.97500000000002,44.9422591],[-66.97500000000002,44.94067339999998],[-66.97500000000002,44.936979099999974],[-66.97500000000002,44.934548800000016],[-66.97500000000002,44.93323650000002],[-66.97500000000002,44.931046400000014],[-66.97500000000002,44.92941510000003],[-66.97500000000002,44.92846559999998],[-66.97500000000002,44.92828270000001],[-66.97500000000002,44.92759649999999],[-66.97500000000002,44.92710579999999],[-66.97500000000002,44.92640720000003],[-66.97500000000002,44.926264300000014],[-66.97500000000002,44.92588260000002],[-66.97500000000002,44.925466400000005],[-66.97500000000002,44.92500000000001],[-66.97570250000001,44.92500000000001],[-66.97624910000002,44.92500000000001],[-66.97627219999998,44.92500000000001],[-66.97630229999999,44.92500000000001],[-66.9766057,44.92500000000001],[-66.97680839999998,44.92500000000001],[-66.97748259999997,44.92500000000001],[-66.97834110000002,44.92500000000001],[-66.97915039999998,44.92500000000001],[-66.98011760000003,44.92500000000001],[-66.98026329999999,44.92500000000001],[-66.9815031,44.92500000000001],[-66.98191939999998,44.92500000000001],[-66.9829143,44.92500000000001],[-66.98313330000002,44.92500000000001],[-66.98355299999997,44.92500000000001],[-66.98381660000001,44.92500000000001],[-66.98409629999998,44.92500000000001],[-66.98417610000001,44.92500000000001],[-66.98481429999998,44.92500000000001],[-66.98489219999999,44.92500000000001],[-66.9855177,44.92500000000001],[-66.98586769999997,44.92500000000001],[-66.98634179999999,44.92500000000001],[-66.98682330000003,44.92500000000001],[-66.98743610000002,44.92500000000001],[-66.98851029999997,44.92500000000001],[-66.99157009999999,44.92500000000001],[-66.99157250000002,44.92500000000001],[-66.99416359999998,44.92500000000001],[-66.99788840000002,44.92500000000001],[-67.00050399999998,44.92500000000001],[-67.00114710000003,44.92500000000001],[-67.00193960000001,44.92500000000001],[-67.00248240000002,44.92500000000001],[-67.00360710000001,44.92500000000001],[-67.00425630000001,44.92500000000001],[-67.00590829999999,44.92500000000001],[-67.00614009999998,44.92500000000001],[-67.00718039999998,44.92500000000001],[-67.00887,44.92500000000001],[-67.01041190000001,44.92500000000001],[-67.0115184,44.92500000000001],[-67.01300309999999,44.92500000000001],[-67.0174432,44.92500000000001],[-67.02180829999998,44.92500000000001],[-67.03067879999998,44.92500000000001],[-67.0331069,44.92500000000001],[-67.03766580000001,44.92500000000001],[-67.04133189999999,44.92500000000001],[-67.04323310000001,44.92500000000001],[-67.05000000000001,44.92500000000001],[-67.05000000000001,44.92562700000002]]]}},{"type":"Feature","properties":{},"geometry":{"type":"Polygon","coordinates":[[[-66.97500000000002,44.925466400000005],[-66.97500000000002,44.92588260000002],[-66.97500000000002,44.926264300000014],[-66.97500000000002,44.92640720000003],[-66.97500000000002,44.92710579999999],[-66.97500000000002,44.92759649999999],[-66.97500000000002,44.92828270000001],[-66.97500000000002,44.92846559999998],[-66.97500000000002,44.92941510000003],[-66.97500000000002,44.931046400000014],[-66.97500000000002,44.93323650000002],[-66.97500000000002,44.934548800000016],[-66.97500000000002,44.936979099999974],[-66.97500000000002,44.94067339999998],[-66.97500000000002,44.9422591],[-66.97500000000002,44.942607899999985],[-66.97500000000002,44.94302320000003],[-66.97500000000002,44.94318099999998],[-66.97500000000002,44.94342039999998],[-66.97500000000002,44.94387979999999],[-66.97500000000002,44.94436639999998],[-66.97500000000002,44.992836599999976],[-66.97500000000002,45.0],[-66.94690320000001,45.0],[-66.94631559999999,45.0],[-66.94578680000001,45.0],[-66.94541950000001,45.0],[-66.94505470000001,45.0],[-66.94183939999999,45.0],[-66.94127839999999,45.0],[-66.94100029999998,45.0],[-66.94081590000002,45.0],[-66.9402225,45.0],[-66.93840239999997,45.0],[-66.93795419999998,45.0],[-66.93610640000003,45.0],[-66.93565849999999,45.0],[-66.93506070000001,45.0],[-66.93468510000002,45.0],[-66.92697600000002,45.0],[-66.92674260000001,45.0],[-66.9263426,45.0],[-66.92615169999999,45.0],[-66.92593310000001,45.0],[-66.9247461,45.0],[-66.92427079999999,45.0],[-66.92372210000002,45.0],[-66.92209889999998,45.0],[-66.92136390000002,45.0],[-66.92088940000002,45.0],[-66.9178053,45.0],[-66.91706010000001,45.0],[-66.9167711,45.0],[-66.91663590000002,45.0],[-66.91635339999999,45.0],[-66.91606869999998,45.0],[-66.91211320000002,45.0],[-66.91142009999999,45.0],[-66.91126880000002,45.0],[-66.91115459999997,45.0],[-66.91102000000001,45.0],[-66.91035629999999,45.0],[-66.90992440000002,45.0],[-66.9097299,45.0],[-66.90893679999999,45.0],[-66.90686549999998,45.0],[-66.90604009999998,45.0],[-66.90572939999998,45.0],[-66.9053748,45.0],[-66.90502889999999,45.0],[-66.90342609999999,45.0],[-66.90258890000001,45.0],[-66.90128479999998,45.0],[-66.89999999999998,45.0],[-66.89999999999998,44.9995313],[-66.89999999999998,44.99883540000002],[-66.89999999999998,44.99324419999999],[-66.89999999999998,44.992646200000024],[-66.89999999999998,44.99090610000002],[-66.89999999999998,44.99047619999999],[-66.89999999999998,44.989553899999976],[-66.89999999999998,44.98907869999999],[-66.89999999999998,44.9878104],[-66.89999999999998,44.987368600000025],[-66.89999999999998,44.98704670000001],[-66.89999999999998,44.986860200000024],[-66.89999999999998,44.986524299999985],[-66.89999999999998,44.9824509],[-66.89999999999998,44.98234880000001],[-66.89999999999998,44.98165929999999],[-66.89999999999998,44.98147110000002],[-66.89999999999998,44.98116140000002],[-66.89999999999998,44.980724599999974],[-66.89999999999998,44.97998389999998],[-66.89999999999998,44.97826070000002],[-66.89999999999998,44.973821499999985],[-66.89999999999998,44.96799069999997],[-66.89999999999998,44.964786600000025],[-66.89999999999998,44.96182620000002],[-66.89999999999998,44.960747000000026],[-66.89999999999998,44.95978919999999],[-66.89999999999998,44.95946620000001],[-66.89999999999998,44.959179500000005],[-66.89999999999998,44.95815279999999],[-66.89999999999998,44.95756940000001],[-66.89999999999998,44.95750140000001],[-66.89999999999998,44.95682160000001],[-66.89999999999998,44.95674150000002],[-66.89999999999998,44.956622100000004],[-66.89999999999998,44.956329900000014],[-66.89999999999998,44.954829200000006],[-66.89999999999998,44.954378399999996],[-66.89999999999998,44.954167299999995],[-66.89999999999998,44.9539504],[-66.89999999999998,44.9538417],[-66.89999999999998,44.95349629999998],[-66.89999999999998,44.94932699999998],[-66.89999999999998,44.94855769999998],[-66.89999999999998,44.948119599999984],[-66.89999999999998,44.947637499999985],[-66.89999999999998,44.9470771],[-66.89999999999998,44.94382539999998],[-66.89999999999998,44.94265439999998],[-66.89999999999998,44.937326900000016],[-66.89999999999998,44.93711769999999],[-66.89999999999998,44.936884899999995],[-66.89999999999998,44.9364875],[-66.89999999999998,44.93622399999998],[-66.89999999999998,44.935927900000024],[-66.89999999999998,44.93428019999999],[-66.89999999999998,44.93408979999998],[-66.89999999999998,44.93406470000002],[-66.89999999999998,44.932626500000026],[-66.89999999999998,44.92500000000001],[-66.93315410000002,44.92500000000001],[-66.93707110000003,44.92500000000001],[-66.9381189,44.92500000000001],[-66.93858410000001,44.92500000000001],[-66.93866059999999,44.92500000000001],[-66.93883779999999,44.92500000000001],[-66.9393169,44.92500000000001],[-66.9397783,44.92500000000001],[-66.94113429999999,44.92500000000001],[-66.9448236,44.92500000000001],[-66.94967550000001,44.92500000000001],[-66.95043149999998,44.92500000000001],[-66.9520283,44.92500000000001],[-66.95603729999999,44.92500000000001],[-66.96160420000001,44.92500000000001],[-66.96396449999997,44.92500000000001],[-66.96501940000002,44.92500000000001],[-66.96707320000002,44.92500000000001],[-66.96821519999997,44.92500000000001],[-66.96871540000001,44.92500000000001],[-66.969269,44.92500000000001],[-66.97500000000002,44.92500000000001],[-66.97500000000002,44.925466400000005]]]}}]}