{"type":"FeatureCollection","features":[{"type":"Feature","properties":{},"geometry":{"type":"Polygon","coordinates":[[[-74.19306440000003,42.933545700000025],[-74.19333469999998,42.93355389999999],[-74.1933315,42.9337342],[-74.19333089999998,42.93376710000001],[-74.19301489999998,42.93376710000001],[-74.19302249999998,42.93354440000002],[-74.19306440000003,42.933545700000025]]]}},{"type":"Feature","properties":{},"geometry":{"type":"Polygon","coordinates":[[[-74.17500000000001,42.93356799999998],[-74.17500000000001,42.93331810000001],[-74.17500000000001,42.932387300000016],[-74.17500000000001,42.932004199999994],[-74.17500000000001,42.92533550000002],[-74.17567350000002,42.925525900000025],[-74.17599159999997,42.92560159999999],[-74.17643249999998,42.92570380000001],[-74.17659120000002,42.92574059999998],[-74.1770138,42.925858600000026],[-74.17733550000003,42.92596709999998],[-74.17771049999999,42.92612509999998],[-74.178135,42.92635539999998],[-74.17864889999998,42.92662569999999],[-74.17911909999998,42.92687319999999],[-74.17918459999999,42.926906299999985],[-74.17962740000002,42.92713020000002],[-74.18021750000003,42.92745000000002],[-74.18070669999997,42.92768219999999],[-74.18121109999998,42.92789920000001],[-74.18151710000001,42.9279593],[-74.18169649999999,42.92804899999999],[-74.18205160000002,42.92823550000003],[-74.18208170000003,42.9282996],[-74.18234439999998,42.92847849999998],[-74.18272510000003,42.92867269999999],[-74.18299539999998,42.92887639999998],[-74.1832905,42.92914669999999],[-74.18356269999998,42.92929520000001],[-74.18401189999997,42.929575],[-74.18448969999997,42.92991569999998],[-74.18493130000002,42.930285000000026],[-74.18545669999997,42.93069430000003],[-74.18595549999998,42.931057899999985],[-74.18645229999998,42.93145759999999],[-74.18698339999997,42.93179070000002],[-74.18773909999999,42.932289500000024],[-74.18836920000001,42.93273679999999],[-74.18848450000002,42.93280440000001],[-74.18909059999999,42.93315940000002],[-74.18941430000001,42.93332120000002],[-74.18965789999999,42.933359300000006],[-74.18979200000001,42.93333740000003],[-74.1906224,42.93360940000002],[-74.19111830000003,42.93376790000002],[-74.1912269,42.933804699999996],[-74.19174650000002,42.933980599999984],[-74.1918521,42.93404909999998],[-74.191982,42.93414339999998],[-74.19218619999998,42.9342661],[-74.192476,42.934408899999994],[-74.1927101,42.934603100000004],[-74.1929371,42.93478299999998],[-74.1930006,42.93485340000001],[-74.193176,42.93504810000002],[-74.193197,42.93507140000003],[-74.193354,42.93511849999999],[-74.19354959999998,42.93533689999998],[-74.1935896,42.93541110000001],[-74.19358169999998,42.935481400000015],[-74.19356249999998,42.93565239999998],[-74.1935325,42.935746600000016],[-74.19357539999999,42.93579999999997],[-74.1936695,42.93576380000002],[-74.19385369999998,42.93577090000002],[-74.19404220000001,42.935885600000006],[-74.19415550000002,42.9359546],[-74.19418209999998,42.93597080000001],[-74.19429769999999,42.9360964],[-74.19429489999999,42.936142099999984],[-74.19458900000001,42.93631490000001],[-74.19476309999999,42.936571800000024],[-74.19495439999997,42.936700299999984],[-74.19516859999999,42.936891600000024],[-74.1955327,42.937192900000014],[-74.19596239999998,42.93756259999998],[-74.19620470000001,42.937777100000005],[-74.19634639999998,42.937902399999984],[-74.19654969999999,42.93807859999998],[-74.1968718,42.93835790000003],[-74.19734010000002,42.938766199999975],[-74.19779369999998,42.939150900000016],[-74.19786690000001,42.939212999999995],[-74.19833089999997,42.93960279999999],[-74.198665,42.939862600000026],[-74.19910140000002,42.940121499999975],[-74.1995114,42.94038849999998],[-74.19961560000002,42.940456299999994],[-74.19970610000001,42.94051719999999],[-74.19982349999998,42.94059629999998],[-74.20004990000001,42.94074869999997],[-74.20011549999998,42.940788999999995],[-74.20038729999999,42.94095600000003],[-74.20112490000002,42.941439],[-74.20147939999998,42.94164840000002],[-74.2020339,42.94195300000001],[-74.20274289999998,42.94243599999999],[-74.20299419999998,42.942612699999984],[-74.20350439999999,42.942971399999976],[-74.2041087,42.943402100000014],[-74.20480120000002,42.9438447],[-74.20539359999998,42.944282499999986],[-74.2059385,42.94460609999999],[-74.20640209999999,42.944884],[-74.20679039999999,42.945118200000024],[-74.2068875,42.94514479999998],[-74.20700549999998,42.945135300000004],[-74.2071426,42.94509529999999],[-74.20725870000001,42.945118200000024],[-74.20781069999998,42.94537509999998],[-74.20788750000003,42.9454111],[-74.20840079999999,42.945651199999986],[-74.208753,42.94582250000002],[-74.20919839999999,42.94610799999998],[-74.2096424,42.946390699999995],[-74.2098532,42.946524899999986],[-74.2099043,42.94655740000002],[-74.21023179999997,42.94676559999999],[-74.21032910000002,42.946827600000006],[-74.21058579999999,42.94699159999999],[-74.2111362,42.94734340000002],[-74.21148840000001,42.94757379999999],[-74.21170969999997,42.94778600000001],[-74.2120112,42.94809329999998],[-74.21215940000002,42.9482443],[-74.2124354,42.94852850000001],[-74.21255710000003,42.94867479999999],[-74.21262339999998,42.94883920000001],[-74.2128161,42.94903199999999],[-74.2132254,42.949346100000014],[-74.21366849999998,42.94967589999999],[-74.21410680000002,42.94997990000002],[-74.21445510000001,42.95028980000001],[-74.2147349,42.95049820000003],[-74.2150949,42.9506657],[-74.21535949999998,42.950856999999985],[-74.2155598,42.95105160000003],[-74.21573110000003,42.95114319999999],[-74.21598399999999,42.951304100000016],[-74.2160791,42.95136459999998],[-74.21610709999999,42.95138229999998],[-74.21641920000002,42.95155460000001],[-74.216701,42.951713600000005],[-74.21701409999997,42.95190009999999],[-74.21721589999999,42.95198290000002],[-74.21747570000002,42.952141900000015],[-74.21770659999999,42.95228300000002],[-74.21816630000001,42.95243149999999],[-74.21857169999998,42.95263560000001],[-74.21898570000002,42.952906900000016],[-74.21938449999999,42.95325639999999],[-74.21975700000002,42.95349709999999],[-74.21981160000001,42.95353239999997],[-74.22033269999997,42.953808400000014],[-74.2208157,42.953996399999994],[-74.22140819999998,42.95414390000002],[-74.22195069999998,42.95446279999999],[-74.22232910000002,42.954672200000005],[-74.22278110000002,42.95501239999999],[-74.22356989999997,42.955275900000004],[-74.2240696,42.955413899999996],[-74.22462300000001,42.95554290000001],[-74.2247739,42.955578100000025],[-74.22536179999997,42.95570379999998],[-74.22582219999998,42.95576920000002],[-74.22648370000002,42.9558346],[-74.22731770000001,42.955885799999976],[-74.22789829999999,42.955891699999995],[-74.22837659999999,42.95592740000001],[-74.22849580000002,42.95593109999999],[-74.22895240000003,42.955945299999996],[-74.22906189999998,42.95592620000002],[-74.2291285,42.95585249999999],[-74.22918440000001,42.95572759999999],[-74.22923800000001,42.955700200000024],[-74.22976619999997,42.95563240000001],[-74.2305169,42.955514600000015],[-74.23122009999997,42.9554028],[-74.2316495,42.95533139999998],[-74.23205639999998,42.95524449999999],[-74.23215040000002,42.95524569999998],[-74.23225509999997,42.95529690000001],[-74.2324193,42.955455099999995],[-74.23262870000002,42.95557650000001],[-74.23282019999999,42.95569310000002],[-74.23294520000002,42.95574420000003],[-74.2330546,42.95577400000002],[-74.23315930000001,42.95585249999999],[-74.2332581,42.955883400000005],[-74.2333413,42.955864399999996],[-74.23335680000002,42.95583640000001],[-74.23337229999998,42.95580849999999],[-74.2333592,42.95570729999997],[-74.23326279999998,42.955608600000005],[-74.23304030000003,42.95545040000002],[-74.23303440000001,42.95540510000001],[-74.23322000000002,42.9553813],[-74.23326159999999,42.95534570000001],[-74.2332581,42.95528619999999],[-74.23310220000002,42.955269499999986],[-74.23304439999998,42.9552405],[-74.23305149999999,42.95504920000002],[-74.23327999999998,42.9549093],[-74.23375679999998,42.954762200000005],[-74.23427220000002,42.954706499999986],[-74.23521590000001,42.95463369999999],[-74.23617239999999,42.95469370000001],[-74.2370305,42.95490360000002],[-74.23761150000001,42.95502349999998],[-74.23796700000003,42.955237599999975],[-74.2381954,42.955327599999976],[-74.23848809999998,42.95535899999999],[-74.2390906,42.95534759999998],[-74.23965170000002,42.95546460000003],[-74.24000999999998,42.95557739999998],[-74.24028129999999,42.95563019999997],[-74.24032269999998,42.95568730000002],[-74.24025269999998,42.95602280000003],[-74.24019420000002,42.95612849999998],[-74.24010850000002,42.956305499999985],[-74.2401185,42.95636409999997],[-74.24016990000001,42.95638409999998],[-74.2402156,42.95636409999997],[-74.24025840000002,42.95623840000002],[-74.24039979999998,42.95604279999998],[-74.2404583,42.95584439999999],[-74.24051830000002,42.955704500000024],[-74.24065530000001,42.9556973],[-74.2407124,42.955760199999986],[-74.24067530000002,42.95591150000001],[-74.24080099999998,42.9559486],[-74.24108360000002,42.955868699999996],[-74.24137919999998,42.95593150000002],[-74.24164259999998,42.955962899999975],[-74.24190599999997,42.955994299999986],[-74.24224149999998,42.95609569999999],[-74.24264690000001,42.956201299999975],[-74.24300240000002,42.956262700000025],[-74.2435992,42.95636830000001],[-74.24420450000002,42.95652819999998],[-74.24491690000002,42.95664959999999],[-74.2455137,42.9567624],[-74.24667870000002,42.95683380000003],[-74.24772660000002,42.95686089999998],[-74.24847419999998,42.95684469999998],[-74.24892349999999,42.95680379999999],[-74.24955069999999,42.95677330000001],[-74.24969249999998,42.95670480000001],[-74.25,42.95670580000001],[-74.25,42.97500000000002],[-74.17500000000001,42.97500000000002],[-74.17500000000001,42.95563709999999],[-74.17500000000001,42.934344099999976],[-74.17500000000001,42.93356799999998]]]}},{"type":"Feature","properties":{},"geometry":{"type":"Polygon","coordinates":[[[-74.21173169999997,42.94564730000002],[-74.21048400000001,42.94670100000002],[-74.21085640000001,42.946923500000025],[-74.21079809999998,42.94698060000002],[-74.21068009999999,42.94690200000002],[-74.21042010000002,42.94672859999997],[-74.21032300000002,42.946663899999976],[-74.2102845,42.946638199999995],[-74.2102448,42.94661180000003],[-74.20990330000001,42.94640029999999],[-74.2097349,42.94629600000002],[-74.20963210000002,42.94622989999999],[-74.20965949999999,42.946169199999986],[-74.21036020000003,42.94663320000001],[-74.2103995,42.94655349999999],[-74.21159799999998,42.945550500000024],[-74.21179380000001,42.94538669999997],[-74.2116651,42.94532779999997],[-74.21142980000002,42.94517000000002],[-74.2111195,42.94496190000001],[-74.2108682,42.94482290000002],[-74.21082180000002,42.944723599999975],[-74.21072349999997,42.944647799999984],[-74.21024419999998,42.94426970000001],[-74.21012009999998,42.944171900000015],[-74.20958710000002,42.9437188],[-74.2090751,42.94325250000003],[-74.20850589999998,42.942856500000005],[-74.20799950000003,42.94260329999997],[-74.2074513,42.9422093],[-74.20683650000001,42.941965700000026],[-74.2061569,42.941577300000006],[-74.2060669,42.94153069999999],[-74.20545829999998,42.94121560000002],[-74.20476539999999,42.94088629999999],[-74.20421249999998,42.94063410000001],[-74.20393919999998,42.940509399999996],[-74.20341760000002,42.94026009999999],[-74.20273809999998,42.940006900000014],[-74.20251919999998,42.9398698],[-74.20242630000001,42.939835000000016],[-74.20210800000001,42.9397156],[-74.20165880000002,42.939529100000016],[-74.20153950000002,42.939470700000015],[-74.20082689999998,42.93912169999999],[-74.2006346,42.93902650000001],[-74.200174,42.93887430000001],[-74.19976279999997,42.93865920000002],[-74.19965409999998,42.938582499999995],[-74.19939849999997,42.93840239999997],[-74.19924689999999,42.938295600000004],[-74.19857309999998,42.93777590000002],[-74.19826469999998,42.93751320000001],[-74.1979715,42.93722009999999],[-74.19795820000002,42.937005],[-74.19784399999998,42.93686789999998],[-74.19787639999998,42.93678410000001],[-74.1980001,42.93672320000002],[-74.19826660000001,42.936643300000014],[-74.1987158,42.93646239999998],[-74.19885290000002,42.936421199999984],[-74.19866869999998,42.93626990000001],[-74.19854049999998,42.936312199999975],[-74.19837890000002,42.93636550000002],[-74.19801339999998,42.9364769],[-74.19770499999998,42.9365411],[-74.19752519999997,42.936538299999995],[-74.19737520000001,42.93651110000002],[-74.19723820000002,42.936465399999975],[-74.19700979999999,42.936345500000016],[-74.1967257,42.936158499999976],[-74.19636589999999,42.93593579999998],[-74.196009,42.935734500000024],[-74.19576510000002,42.93559779999998],[-74.1955964,42.93550320000003],[-74.19549760000001,42.93543920000002],[-74.19534720000001,42.935341900000026],[-74.19524109999998,42.93527319999998],[-74.1950981,42.9351805],[-74.1950281,42.93499639999999],[-74.1948054,42.93484219999999],[-74.19464909999999,42.93467750000002],[-74.19459269999999,42.934618],[-74.19447559999998,42.93440390000001],[-74.19432569999998,42.93417260000001],[-74.19423030000002,42.93406950000002],[-74.19418300000001,42.934018400000014],[-74.19402980000001,42.93388759999999],[-74.19382180000002,42.93371000000002],[-74.1934506,42.933387400000015],[-74.1931955,42.93316279999999],[-74.19313929999998,42.9331133],[-74.19278100000002,42.93273210000001],[-74.19241690000001,42.93231709999998],[-74.1923516,42.932236999999986],[-74.19216949999998,42.93201349999998],[-74.19193389999998,42.93171510000002],[-74.19170930000001,42.9312668],[-74.1914875,42.9310327],[-74.19140950000002,42.930950300000006],[-74.19108110000002,42.930629099999976],[-74.1905529,42.93021270000003],[-74.19006510000003,42.92990099999997],[-74.18948449999999,42.929589299999975],[-74.18941280000001,42.92955740000002],[-74.1888801,42.929320399999995],[-74.18818529999999,42.929011100000025],[-74.18758789999998,42.92876159999997],[-74.18734769999998,42.92866129999999],[-74.1866685,42.92839789999999],[-74.18653160000002,42.92834479999999],[-74.18561549999998,42.92799980000001],[-74.18531569999999,42.92776420000001],[-74.18500160000002,42.9276524],[-74.18459230000002,42.9275763],[-74.1843996,42.92745009999999],[-74.1842282,42.92723599999999],[-74.1839713,42.927024200000005],[-74.18387849999999,42.92684809999997],[-74.1838047,42.926555500000006],[-74.18364530000002,42.926415099999986],[-74.18327920000002,42.92616939999999],[-74.18312420000001,42.926065300000005],[-74.18246269999997,42.9256441],[-74.18171080000002,42.92518489999998],[-74.18158190000003,42.92511999999999],[-74.18098270000002,42.924818500000015],[-74.1808954,42.92477930000001],[-74.1802831,42.92450439999999],[-74.17935510000001,42.924164099999985],[-74.178539,42.92386429999999],[-74.17763480000002,42.92353589999999],[-74.1768662,42.92327419999998],[-74.17660230000001,42.92317680000002],[-74.17608569999999,42.92298629999999],[-74.17500000000001,42.92255920000002],[-74.17500000000001,42.89999999999998],[-74.25,42.89999999999998],[-74.25,42.95235020000001],[-74.24894569999998,42.95236249999999],[-74.24883849999998,42.95236399999999],[-74.2480167,42.95237580000003],[-74.2471716,42.95245190000003],[-74.24612839999998,42.95268420000002],[-74.24563920000003,42.9527774],[-74.24493489999998,42.95287450000001],[-74.24411079999999,42.952950199999975],[-74.2439602,42.95296400000001],[-74.24270960000001,42.953051500000015],[-74.24129720000002,42.95310860000001],[-74.24124330000001,42.9531116],[-74.24060429999997,42.95314669999999],[-74.23983709999999,42.953160000000025],[-74.23945629999997,42.953201200000024],[-74.23929079999999,42.95321910000001],[-74.23888529999999,42.95323810000002],[-74.23835700000001,42.953220499999986],[-74.2378536,42.95320379999998],[-74.23747150000003,42.95319119999999],[-74.23727869999999,42.953184799999974],[-74.23670379999999,42.95316580000002],[-74.2356436,42.95305530000002],[-74.23508959999998,42.953011600000025],[-74.23381230000001,42.9528631],[-74.23256090000001,42.95271009999999],[-74.2314331,42.95262680000002],[-74.23041999999998,42.95257029999999],[-74.22941980000002,42.95257029999999],[-74.22835620000001,42.952560800000015],[-74.22749920000001,42.95254649999998],[-74.22634520000003,42.9525079],[-74.22581580000002,42.95245130000001],[-74.22463490000001,42.9522015],[-74.2244349,42.95215689999998],[-74.22352849999999,42.95195460000002],[-74.22272249999997,42.95177910000001],[-74.2218421,42.951585799999975],[-74.22119070000002,42.95145200000002],[-74.22037870000003,42.951211],[-74.21911160000002,42.95063399999998],[-74.21848999999997,42.950217599999974],[-74.21775530000002,42.949798199999975],[-74.21684820000002,42.94913500000001],[-74.21575660000002,42.948320000000024],[-74.21468579999998,42.947552599999995],[-74.21441579999998,42.947371799999985],[-74.21425199999999,42.947245899999984],[-74.21385379999998,42.946939799999996],[-74.21374709999998,42.946857799999975],[-74.21296669999998,42.94629149999997],[-74.21233130000002,42.94576569999998],[-74.21195369999998,42.94545979999998],[-74.21173169999997,42.94564730000002]]]}},{"type":"Feature","properties":{},"geometry":{"type":"Polygon","coordinates":[[[-74.17768799999999,42.92425850000001],[-74.17825529999999,42.92445839999999],[-74.1787845,42.924643100000026],[-74.17957059999998,42.92486769999999],[-74.18030540000001,42.92511510000003],[-74.18113729999999,42.9255263],[-74.1814076,42.925747100000024],[-74.18166070000001,42.92601739999998],[-74.18187010000003,42.926245900000026],[-74.1819577,42.926314400000024],[-74.18194629999999,42.9263962],[-74.18174829999998,42.92636199999998],[-74.18104970000002,42.926118299999985],[-74.18024450000001,42.92584419999997],[-74.18006939999998,42.925745199999994],[-74.17944119999999,42.9252922],[-74.1790643,42.925120900000024],[-74.1786988,42.92502569999999],[-74.1784247,42.92488100000003],[-74.1781449,42.924713499999996],[-74.17765559999998,42.92453840000002],[-74.1774881,42.9243118],[-74.17751859999998,42.92422240000002],[-74.17768799999999,42.92425850000001]]]}},{"type":"Feature","properties":{},"geometry":{"type":"Polygon","coordinates":[[[-74.18627729999997,42.92900470000001],[-74.18671510000001,42.92914990000003],[-74.18711480000002,42.92936040000001],[-74.18757529999999,42.92958650000003],[-74.18801660000003,42.92980060000002],[-74.18845570000002,42.93005640000001],[-74.1888887,42.930341999999996],[-74.18910640000001,42.93062040000001],[-74.18923969999997,42.930808300000024],[-74.1894408,42.930993899999976],[-74.18946340000002,42.93120929999998],[-74.18939669999997,42.931303300000025],[-74.18928849999998,42.931292600000006],[-74.18916469999999,42.93125450000002],[-74.18880539999998,42.93125090000001],[-74.1881856,42.93111529999999],[-74.18801189999999,42.931145000000015],[-74.1878418,42.93108319999999],[-74.1876871,42.93095349999999],[-74.18750979999999,42.93075240000002],[-74.18733020000002,42.930642999999975],[-74.1871731,42.93060009999999],[-74.1870434,42.9304788],[-74.18697209999999,42.93032649999998],[-74.18657710000002,42.929992200000015],[-74.18622970000001,42.929698299999984],[-74.18583819999998,42.929391399999986],[-74.18558130000002,42.929135599999995],[-74.1854123,42.92892619999998],[-74.18546939999999,42.92888690000001],[-74.18581449999999,42.9288846],[-74.18627729999997,42.92900470000001]]]}},{"type":"Feature","properties":{},"geometry":{"type":"Polygon","coordinates":[[[-74.18996479999998,42.930422899999996],[-74.19016349999998,42.93060969999999],[-74.19031819999998,42.930695300000025],[-74.19054419999998,42.93089279999998],[-74.19069180000002,42.93106060000002],[-74.1907215,42.93112960000002],[-74.1906727,42.93115690000002],[-74.19029799999998,42.93100820000001],[-74.1901469,42.93091420000002],[-74.18987440000001,42.93060969999999],[-74.18981489999999,42.930495399999984],[-74.18981609999997,42.93043239999997],[-74.1898875,42.93041099999999],[-74.18996479999998,42.930422899999996]]]}},{"type":"Feature","properties":{},"geometry":{"type":"Polygon","coordinates":[[[-74.14578920000002,42.91956959999999],[-74.1465354,42.9196857],[-74.1469409,42.919747900000004],[-74.147156,42.91978089999998],[-74.14760899999999,42.9198475],[-74.1481187,42.9199261],[-74.1487578,42.92002930000001],[-74.14936030000001,42.920040700000015],[-74.14987430000002,42.920012199999974],[-74.15050389999999,42.91997359999999],[-74.15096499999999,42.9199251],[-74.15107640000002,42.91989799999999],[-74.15132419999998,42.9198088],[-74.15143330000001,42.91976949999997],[-74.15154749999999,42.91971810000001],[-74.15160459999998,42.91970809999998],[-74.15212000000002,42.91974809999999],[-74.15221000000003,42.91973089999999],[-74.15233849999998,42.919698100000005],[-74.15241270000001,42.91970950000001],[-74.15241839999999,42.91976949999997],[-74.15232700000001,42.919798000000014],[-74.15228280000002,42.91983370000003],[-74.15226280000002,42.919883700000014],[-74.15226139999999,42.91992370000003],[-74.1522928,42.91995220000001],[-74.15235560000002,42.91999929999997],[-74.15245700000003,42.92012779999999],[-74.15250409999999,42.9201635],[-74.15260110000003,42.92016640000003],[-74.15261770000001,42.92010010000001],[-74.15260110000003,42.920005],[-74.15257400000002,42.91985510000001],[-74.15258119999999,42.9197509],[-74.15255969999998,42.919693800000005],[-74.15251549999999,42.91965240000002],[-74.15246409999997,42.91963099999998],[-74.15218279999999,42.919623899999976],[-74.15210000000002,42.919599600000026],[-74.15211290000002,42.919529599999976],[-74.15214900000001,42.91949920000002],[-74.15298660000002,42.91918980000003],[-74.15316209999997,42.919124599999975],[-74.15358149999997,42.91896860000003],[-74.15409699999998,42.9187847],[-74.15432859999999,42.91870210000002],[-74.15476690000003,42.918546400000025],[-74.1551134,42.91846650000002],[-74.15555690000002,42.918415100000004],[-74.1560766,42.91842839999998],[-74.15679610000001,42.91853689999999],[-74.15722060000002,42.918607399999985],[-74.15777270000001,42.91877299999999],[-74.1582828,42.91892519999999],[-74.15890150000001,42.91908710000001],[-74.15960769999998,42.9192774],[-74.16025869999999,42.919462099999976],[-74.1606471,42.919608600000004],[-74.16123110000001,42.919854199999975],[-74.16192969999997,42.920198700000014],[-74.16205719999999,42.9202755],[-74.16224570000003,42.92038910000002],[-74.16229320000002,42.920444299999986],[-74.16237130000002,42.920727899999974],[-74.1623846,42.9208764],[-74.16245120000002,42.92093540000002],[-74.16258649999997,42.92092100000002],[-74.1627368,42.92115430000001],[-74.1628738,42.92132179999999],[-74.16300139999998,42.92139420000001],[-74.1631327,42.92140749999999],[-74.16325069999999,42.92142460000002],[-74.16337829999998,42.92148750000001],[-74.16356669999999,42.921620700000005],[-74.16371140000001,42.921776799999975],[-74.16377039999998,42.921809199999984],[-74.1638332,42.921801500000015],[-74.16388649999999,42.9217673],[-74.16390940000002,42.92170829999998],[-74.1638941,42.921639700000014],[-74.16381799999999,42.9215274],[-74.16374380000002,42.921436099999994],[-74.1636752,42.9213828],[-74.16357240000002,42.921331399999985],[-74.16326980000002,42.92120190000003],[-74.1631089,42.92109909999999],[-74.16293569999999,42.92090689999998],[-74.16290709999998,42.92085359999999],[-74.16290520000001,42.92079269999999],[-74.16291669999998,42.92072409999997],[-74.1629509,42.920678399999986],[-74.16300610000002,42.92065939999998],[-74.16307280000001,42.92066699999998],[-74.16337729999998,42.92076220000001],[-74.1637086,42.920895400000006],[-74.1640797,42.92107629999998],[-74.16446050000002,42.92121709999998],[-74.16533420000002,42.92156929999999],[-74.16627460000001,42.92197859999999],[-74.16667619999998,42.92211750000001],[-74.16739960000001,42.922371199999986],[-74.167618,42.9224883],[-74.1681006,42.92270669999999],[-74.16827899999998,42.92278379999999],[-74.16841770000002,42.92282540000002],[-74.16852010000002,42.922897999999975],[-74.16854860000001,42.92294800000002],[-74.16856760000002,42.923057400000005],[-74.16873179999999,42.923313199999996],[-74.16880279999998,42.923330799999974],[-74.16882659999999,42.92328620000001],[-74.16881169999999,42.923197000000016],[-74.16875520000002,42.92310179999998],[-74.16876409999998,42.923054200000024],[-74.16880570000001,42.923015599999985],[-74.16888899999998,42.922994700000004],[-74.16897230000001,42.92300069999999],[-74.16960289999997,42.92322669999999],[-74.17028399999998,42.92350479999999],[-74.17052089999999,42.923601599999984],[-74.17096509999999,42.92378289999999],[-74.1715481,42.92396439999999],[-74.17216380000002,42.924187399999994],[-74.1726218,42.9243391],[-74.17307690000001,42.924520599999994],[-74.17379670000003,42.92488639999999],[-74.17411240000001,42.9250232],[-74.17415360000001,42.92504109999999],[-74.17448669999999,42.92518380000001],[-74.17500000000001,42.92533550000002],[-74.17500000000001,42.932004199999994],[-74.17500000000001,42.932387300000016],[-74.17500000000001,42.93331810000001],[-74.17500000000001,42.93356799999998],[-74.17500000000001,42.934344099999976],[-74.17500000000001,42.95563709999999],[-74.17500000000001,42.97500000000002],[-74.14500000000001,42.97500000000002],[-74.14500000000001,42.919444317690974],[-74.14578920000002,42.91956959999999]]]}},{"type":"Feature","properties":{},"geometry":{"type":"Polygon","coordinates":[[[-74.17500000000001,42.89999999999998],[-74.17500000000001,42.92255920000002],[-74.1742011,42.92223630000001],[-74.17342380000002,42.92192990000001],[-74.17334090000003,42.92189719999999],[-74.17304460000003,42.921808],[-74.1727012,42.921661400000005],[-74.17222329999998,42.92146530000002],[-74.17169510000002,42.9212273],[-74.17117159999998,42.92097030000002],[-74.17070999999999,42.92072760000002],[-74.17032920000003,42.92054200000001],[-74.17005319999998,42.920394499999986],[-74.16972959999998,42.92020889999998],[-74.16862550000002,42.919723499999975],[-74.16806400000002,42.91952359999999],[-74.167688,42.9193808],[-74.1673121,42.91923809999997],[-74.1671336,42.91915239999997],[-74.1670373,42.91912389999999],[-74.1669445,42.91911320000003],[-74.16683740000002,42.919120299999975],[-74.1663805,42.9192309],[-74.1662806,42.91924519999998],[-74.1660415,42.91919519999999],[-74.16453530000001,42.91902750000003],[-74.16390710000002,42.918949],[-74.1629719,42.91870979999999],[-74.16192969999997,42.91832790000001],[-74.16116950000003,42.91803169999997],[-74.16040129999999,42.917823699999985],[-74.1593924,42.917580999999984],[-74.15807899999999,42.91700989999998],[-74.15801590000001,42.91696409999997],[-74.1579951,42.91688970000001],[-74.15800109999998,42.916717199999994],[-74.15803970000002,42.91664880000002],[-74.15809619999999,42.916604199999995],[-74.1581736,42.91658039999999],[-74.15841749999998,42.91655960000003],[-74.15847100000002,42.91653580000002],[-74.15849179999998,42.91648520000001],[-74.15848929999999,42.91644120000001],[-74.15845130000002,42.916405],[-74.15835420000002,42.91638979999999],[-74.15770889999999,42.916342199999974],[-74.15673880000003,42.9163863],[-74.15554309999999,42.916503999999975],[-74.15465080000001,42.91663249999999],[-74.1545544,42.91665569999998],[-74.1544687,42.91669860000002],[-74.15417609999997,42.91691270000001],[-74.1540761,42.916937700000005],[-74.15399050000002,42.91692699999999],[-74.15390839999998,42.916869899999995],[-74.15374320000001,42.916717800000015],[-74.15370130000002,42.91669869999998],[-74.15365939999998,42.916679699999975],[-74.15359089999998,42.91673109999999],[-74.15347860000003,42.917113700000016],[-74.153391,42.91718989999998],[-74.15333759999999,42.9171963],[-74.15320059999999,42.91721269999999],[-74.15305219999999,42.91720129999999],[-74.15290750000003,42.917144199999996],[-74.15269430000001,42.917130799999995],[-74.15247349999999,42.917140399999994],[-74.15232880000002,42.91719180000001],[-74.15221079999998,42.91725839999998],[-74.15212889999998,42.91735360000001],[-74.1520433,42.91744679999999],[-74.15187959999997,42.9175611],[-74.151792,42.91760670000002],[-74.1517311,42.91761439999999],[-74.1515407,42.91758579999998],[-74.15143219999999,42.917589599999985],[-74.15100580000001,42.917700000000025],[-74.15054750000002,42.9177919],[-74.15024060000002,42.91786560000003],[-74.14950060000001,42.91806789999998],[-74.14900799999998,42.91819400000003],[-74.14854880000001,42.918267800000024],[-74.14811809999998,42.91833200000002],[-74.14792540000002,42.9183534],[-74.1477731,42.91838910000001],[-74.14732959999998,42.91848709999999],[-74.14727670000002,42.918478600000014],[-74.14716299999998,42.91840050000002],[-74.1470716,42.918392900000015],[-74.1468984,42.91838339999998],[-74.14672990000003,42.918382399999985],[-74.14663000000002,42.91839670000002],[-74.14651579999997,42.91841959999999],[-74.146413,42.91841670000002],[-74.1461941,42.918354799999975],[-74.1458657,42.91837859999998],[-74.14565820000001,42.918343400000026],[-74.1453108,42.918261599999994],[-74.14500000000001,42.9181834513857],[-74.14500000000001,42.89999999999998],[-74.17500000000001,42.89999999999998]]]}},{"type":"Feature","properties":{},"geometry":{"type":"Polygon","coordinates":[[[-74.173137,42.922785999999974],[-74.17355170000002,42.92292709999998],[-74.1738765,42.92304130000002],[-74.17414059999999,42.92313760000002],[-74.17447609999999,42.923254199999974],[-74.1747461,42.92336469999998],[-74.17477120000001,42.92343269999998],[-74.17470220000001,42.92346600000002],[-74.17455230000002,42.923415999999975],[-74.1740883,42.923247100000026],[-74.17367430000002,42.923087699999996],[-74.173472,42.92303770000001],[-74.1732245,42.922921099999996],[-74.1729795,42.922861599999976],[-74.1728771,42.92279980000001],[-74.1728771,42.922723099999985],[-74.17295899999999,42.92271649999998],[-74.173137,42.922785999999974]]]}},{"type":"Feature","properties":{},"geometry":{"type":"Polygon","coordinates":[[[-74.17167849999998,42.922301000000004],[-74.17196030000002,42.9223829],[-74.17208779999999,42.922426599999994],[-74.17232000000001,42.92263600000001],[-74.17233340000001,42.922674099999995],[-74.17230669999998,42.922710300000006],[-74.1722325,42.922733100000016],[-74.17217349999999,42.92271790000001],[-74.17205919999998,42.92264940000001],[-74.17189359999998,42.92257890000002],[-74.17166709999998,42.92245329999997],[-74.17153389999999,42.922367099999974],[-74.1714882,42.92229500000002],[-74.1715719,42.92227439999999],[-74.17167849999998,42.922301000000004]]]}},{"type":"Feature","properties":{},"geometry":{"type":"Polygon","coordinates":[[[-74.49186750000001,42.896750999999995],[-74.49190320000002,42.89680950000002],[-74.49171469999999,42.8969237],[-74.49171760000002,42.896980799999994],[-74.49189089999999,42.89704979999999],[-74.4920788,42.8970736],[-74.492143,42.89718499999998],[-74.49211020000001,42.89736060000001],[-74.4919289,42.897850300000016],[-74.4919931,42.8978831],[-74.49218730000001,42.89746050000002],[-74.49242320000002,42.8973704],[-74.49258700000001,42.89718640000001],[-74.49274409999998,42.89722920000003],[-74.49277260000002,42.89719070000001],[-74.49257269999998,42.89705930000002],[-74.4926322,42.89684349999999],[-74.4924327,42.89667689999999],[-74.4924178,42.89661860000001],[-74.4926987,42.89661330000001],[-74.49322949999998,42.896524699999986],[-74.49347690000002,42.8965556],[-74.49428360000002,42.89650089999998],[-74.49468089999999,42.89641519999998],[-74.49479280000003,42.89647000000002],[-74.49627759999998,42.896277199999986],[-74.49658679999999,42.89634430000001],[-74.4971008,42.89638230000003],[-74.4974775,42.89634749999999],[-74.49798120000003,42.8962277],[-74.49964440000002,42.896106299999985],[-74.4998271,42.89607860000001],[-74.5004606,42.895982600000025],[-74.50186919999999,42.895844599999975],[-74.50237850000002,42.89575180000003],[-74.50294250000002,42.89579459999999],[-74.50361099999998,42.89578749999998],[-74.5044676,42.89585169999998],[-74.50476270000001,42.89588500000002],[-74.50529089999998,42.89602070000001],[-74.50595240000001,42.89605640000002],[-74.50610230000001,42.89596119999999],[-74.50646160000002,42.89602780000001],[-74.5066329,42.89612540000002],[-74.50665429999998,42.896230100000025],[-74.50709690000002,42.89624199999997],[-74.50748879999998,42.896168699999976],[-74.50857189999999,42.89604109999999],[-74.5097978,42.89591359999997],[-74.51121030000002,42.8958432],[-74.5121373,42.89578599999999],[-74.5132357,42.895730800000024],[-74.51378199999999,42.89569660000001],[-74.51414920000002,42.895584299999996],[-74.5158505,42.89521209999998],[-74.51732809999999,42.89501080000002],[-74.51835890000001,42.8950337],[-74.51900039999998,42.895124099999975],[-74.51973900000002,42.895257300000026],[-74.52052379999998,42.89549069999998],[-74.52120660000003,42.89564949999999],[-74.52229740000001,42.89587599999999],[-74.52308740000001,42.895976899999994],[-74.52380119999998,42.896003500000006],[-74.52445030000001,42.89597309999999],[-74.52502329999999,42.89603210000001],[-74.52541159999998,42.89595589999999],[-74.5262045,42.8959332],[-74.52701250000001,42.89585890000001],[-74.5280682,42.89588680000003],[-74.53073970000003,42.89588170000002],[-74.53298590000003,42.89626240000001],[-74.53480189999999,42.89681830000001],[-74.53600310000002,42.89723700000002],[-74.53670549999998,42.897549200000014],[-74.53752780000002,42.89794139999998],[-74.53788429999997,42.898129600000004],[-74.53799190000001,42.898186399999986],[-74.53949990000001,42.89898260000001],[-74.53983690000001,42.89921479999998],[-74.54004329999998,42.89939750000002],[-74.54016810000002,42.899508000000026],[-74.54037249999999,42.89973809999998],[-74.54053640000001,42.89999999999998],[-74.47500000000002,42.89999999999998],[-74.47500000000002,42.898362599999984],[-74.4758276,42.89837540000002],[-74.47665510000002,42.89838279999998],[-74.4789394,42.89819010000002],[-74.47931620000003,42.89814799999999],[-74.47976169999998,42.89809819999999],[-74.48155880000002,42.8978975],[-74.482508,42.89779149999998],[-74.48307249999999,42.897728400000005],[-74.48321850000002,42.897707000000025],[-74.48438069999997,42.89753669999999],[-74.48495179999998,42.89747990000001],[-74.48696389999998,42.89727970000001],[-74.48729209999999,42.89723889999999],[-74.48756639999999,42.8972048],[-74.48871480000003,42.89706210000003],[-74.49012850000003,42.896886499999994],[-74.49107079999999,42.896799499999986],[-74.49170900000001,42.896692400000006],[-74.49186750000001,42.896750999999995]]]}},{"type":"Feature","properties":{},"geometry":{"type":"Polygon","coordinates":[[[-74.53373099999999,42.895503099999985],[-74.5333268,42.89542419999998],[-74.53251019999999,42.89517999999998],[-74.5312983,42.89486729999999],[-74.53029700000002,42.89465790000003],[-74.5296174,42.894652199999996],[-74.52948420000001,42.894469500000014],[-74.52923099999998,42.894578000000024],[-74.52876079999999,42.89460459999998],[-74.527988,42.894648399999994],[-74.52717130000002,42.89461890000001],[-74.52635470000001,42.89458939999997],[-74.52459579999999,42.894717000000014],[-74.52383129999998,42.89468649999998],[-74.52364019999999,42.894678899999974],[-74.5228826,42.894631300000015],[-74.52235460000003,42.894567800000004],[-74.52224059999998,42.89455400000003],[-74.52154589999998,42.89447039999999],[-74.5211903,42.89442759999997],[-74.52081340000001,42.894361],[-74.52044569999998,42.89425499999999],[-74.51992840000003,42.89406760000003],[-74.51948470000002,42.8940374],[-74.51879939999998,42.89405449999998],[-74.51809700000001,42.893915600000014],[-74.51740219999999,42.89385650000003],[-74.5170741,42.8937937],[-74.51690539999998,42.89376140000002],[-74.51467059999999,42.89440289999999],[-74.51400100000001,42.89455830000003],[-74.5135798,42.894656],[-74.51351319999998,42.89464650000002],[-74.51349420000003,42.8945837],[-74.51361409999998,42.8941954],[-74.51333240000002,42.893690900000024],[-74.51332389999999,42.893654200000014],[-74.51301669999998,42.89365350000003],[-74.51300120000002,42.893720099999996],[-74.51298780000002,42.89386669999999],[-74.51302779999997,42.89400180000001],[-74.5129536,42.89433120000001],[-74.5128603,42.8945253],[-74.51265469999998,42.89466809999999],[-74.5123863,42.89475190000002],[-74.51195610000002,42.89481469999998],[-74.5114466,42.8949657],[-74.51130130000001,42.89500880000003],[-74.51093959999997,42.89506019999999],[-74.50946049999999,42.895161099999996],[-74.50930679999999,42.89514750000001],[-74.50922450000002,42.895140200000014],[-74.50903410000001,42.89498600000002],[-74.50876,42.89506590000002],[-74.50855439999998,42.89508310000002],[-74.50821560000003,42.89507739999999],[-74.50802340000001,42.895125699999994],[-74.50783869999998,42.89514969999999],[-74.50677159999998,42.895140500000025],[-74.50570859999999,42.895090700000026],[-74.5055006,42.89503760000002],[-74.5053241,42.8949346],[-74.5051661,42.894765199999995],[-74.50510129999998,42.894658600000014],[-74.50509629999999,42.89457199999998],[-74.50509369999997,42.8945291],[-74.50477009999997,42.89440159999998],[-74.50431900000001,42.89451389999999],[-74.50425999999999,42.89450249999999],[-74.50426759999999,42.89434640000002],[-74.50423139999998,42.89427979999999],[-74.50398009999998,42.89434640000002],[-74.50352140000001,42.89456719999998],[-74.50314830000002,42.8946871],[-74.5027048,42.89474419999999],[-74.50250490000002,42.89474230000002],[-74.5022917,42.89469279999997],[-74.50121430000002,42.89481280000001],[-74.5006242,42.89483940000002],[-74.4997409,42.89495929999998],[-74.49885949999998,42.89491939999999],[-74.497251,42.894963099999984],[-74.49525679999999,42.894889999999975],[-74.49421330000001,42.89496320000001],[-74.49284310000002,42.895106999999996],[-74.4853316,42.89602830000001],[-74.483409,42.89621679999999],[-74.48114559999999,42.89629480000002],[-74.47995780000002,42.89629480000002],[-74.47856630000001,42.89621299999999],[-74.478117,42.89626440000001],[-74.47738609999999,42.89642049999998],[-74.476676,42.8966451],[-74.47556600000001,42.89679890000002],[-74.47500000000002,42.8968476],[-74.47500000000002,42.82499999999999],[-74.55000000000001,42.82499999999999],[-74.55000000000001,42.89999999999998],[-74.54221960000001,42.89999999999998],[-74.5420972,42.899607300000014],[-74.54227459999998,42.899565800000005],[-74.54228030000002,42.89948399999997],[-74.5422403,42.899417400000004],[-74.5420671,42.8993241],[-74.54182530000003,42.89909180000001],[-74.54172820000002,42.89894909999998],[-74.54125549999998,42.89870610000003],[-74.54041669999998,42.89827509999998],[-74.53994269999998,42.898031600000024],[-74.53979620000001,42.89796260000003],[-74.53868999999997,42.8974422],[-74.5380308,42.897132],[-74.53743730000002,42.89685279999998],[-74.53719319999999,42.896752400000025],[-74.53635539999999,42.8964077],[-74.53580399999998,42.896180800000025],[-74.5352613,42.895990600000005],[-74.53455639999999,42.89569890000001],[-74.5339975,42.89551069999999],[-74.53395369999998,42.895449799999994],[-74.53373099999999,42.895503099999985]]]}},{"type":"Feature","properties":{},"geometry":{"type":"Polygon","coordinates":[[[-74.47500000000002,42.898362599999984],[-74.47500000000002,42.89999999999998],[-74.46539380000002,42.89999999999998],[-74.4655937,42.899856899999975],[-74.4660149,42.899622799999975],[-74.46636180000002,42.899459999999976],[-74.46674009999998,42.899287300000026],[-74.46731690000001,42.89907310000001],[-74.4677681,42.898950300000024],[-74.46824199999998,42.89882899999998],[-74.46859660000001,42.89878850000002],[-74.4690544,42.89872860000003],[-74.46930279999998,42.89868949999999],[-74.4699091,42.898609599999986],[-74.47025930000001,42.89858290000001],[-74.47050209999998,42.89857439999997],[-74.47068480000002,42.8986496],[-74.4708685,42.898681899999985],[-74.47114929999998,42.89867429999998],[-74.47142530000002,42.8985715],[-74.4716052,42.89851349999998],[-74.47200299999997,42.898444900000015],[-74.47228280000002,42.89839540000003],[-74.4726693,42.8983288],[-74.47304709999997,42.898314500000026],[-74.47347830000001,42.8983126],[-74.47404080000001,42.89833549999997],[-74.47443959999998,42.89835549999998],[-74.47468609999999,42.89836380000003],[-74.47500000000002,42.898362599999984]]]}},{"type":"Feature","properties":{},"geometry":{"type":"Polygon","coordinates":[[[-74.47500000000002,42.8968476],[-74.4745517,42.896893999999975],[-74.47424840000002,42.89694079999998],[-74.4737002,42.8970635],[-74.47335470000002,42.89710919999999],[-74.4728864,42.8971492],[-74.47203409999997,42.89716349999998],[-74.47170999999997,42.897156300000006],[-74.47165999999999,42.8970607],[-74.4716343,42.896916499999975],[-74.47152440000002,42.89680229999999],[-74.47135309999999,42.896563800000024],[-74.47122030000003,42.896510999999975],[-74.47114319999997,42.89634969999997],[-74.47109749999998,42.8961084],[-74.4709762,42.89609410000003],[-74.47089190000003,42.896142699999984],[-74.47093899999999,42.89643819999998],[-74.4708819,42.896649500000024],[-74.47062069999998,42.89681940000003],[-74.47036370000001,42.89692789999998],[-74.47020520000001,42.897030700000016],[-74.4701895,42.8971535],[-74.47011099999997,42.8972177],[-74.46988970000001,42.8972991],[-74.46945570000003,42.897469],[-74.46927579999999,42.89751610000002],[-74.46879899999999,42.897561800000005],[-74.46842199999998,42.89763749999997],[-74.4680166,42.89773309999998],[-74.4676068,42.897803099999976],[-74.46702720000002,42.89792299999999],[-74.46670169999999,42.89800580000002],[-74.46646759999999,42.898075800000015],[-74.4661863,42.898184300000025],[-74.46581939999999,42.898332700000026],[-74.46545529999997,42.898491200000024],[-74.46520120000002,42.89860399999998],[-74.4649842,42.89870819999999],[-74.4647458,42.89885670000001],[-74.46438740000002,42.89908939999998],[-74.46405049999998,42.899312099999975],[-74.46369069999997,42.89956769999998],[-74.46343230000002,42.899753299999986],[-74.46326390000002,42.89989179999998],[-74.4631382,42.89999999999998],[-74.4011997,42.89999999999998],[-74.39999999999998,42.89999999999998],[-74.39999999999998,42.89745820000002],[-74.39999999999998,42.82499999999999],[-74.47500000000002,42.82499999999999],[-74.47500000000002,42.8968476]]]}},{"type":"Feature","properties":{},"geometry":{"type":"Polygon","coordinates":[[[-74.54231600000003,42.90253519999999],[-74.5423874,42.90258219999998],[-74.5424802,42.90270770000001],[-74.54267049999999,42.9028457],[-74.54298940000001,42.90311220000001],[-74.5432892,42.903354999999976],[-74.5437508,42.90376420000001],[-74.54428139999999,42.904209200000025],[-74.54468350000002,42.904463799999974],[-74.54524029999999,42.90485640000003],[-74.5455877,42.90507769999999],[-74.5459209,42.9052633],[-74.54634199999998,42.90543220000001],[-74.54668229999999,42.905584499999975],[-74.5471106,42.90576060000001],[-74.54739369999999,42.90586999999999],[-74.54787920000001,42.90600330000001],[-74.54837170000002,42.90611749999999],[-74.5488785,42.906238900000005],[-74.54914739999998,42.906315000000006],[-74.5495914,42.906458199999975],[-74.55000000000001,42.90658960000002],[-74.55000000000001,42.97500000000002],[-74.47500000000002,42.97500000000002],[-74.47500000000002,42.89999999999998],[-74.54053640000001,42.89999999999998],[-74.54064629999999,42.900180499999976],[-74.5407677,42.90038279999999],[-74.54079860000002,42.90069779999999],[-74.54086289999998,42.90095910000002],[-74.54100419999997,42.90118749999999],[-74.54112129999999,42.901334599999984],[-74.5412897,42.90150299999999],[-74.54157600000002,42.90181009999998],[-74.541808,42.902074200000015],[-74.54183180000001,42.90223959999997],[-74.54194000000001,42.902375199999994],[-74.54210419999998,42.90251919999997],[-74.54231600000003,42.90253519999999]]]}},{"type":"Feature","properties":{},"geometry":{"type":"Polygon","coordinates":[[[-74.55000000000001,42.905163000000016],[-74.54981220000002,42.905078300000014],[-74.54964849999999,42.90507259999998],[-74.5495229,42.905099199999995],[-74.549304,42.90514300000001],[-74.54903560000002,42.9051068],[-74.5487291,42.90504779999998],[-74.5484854,42.90498309999998],[-74.54802669999998,42.90484409999999],[-74.54759840000003,42.90471659999997],[-74.5474175,42.9046252],[-74.54728999999998,42.904471],[-74.5471111,42.904400599999974],[-74.54689029999997,42.90437780000002],[-74.54658569999998,42.90427310000001],[-74.5460933,42.904060800000025],[-74.54537979999998,42.903506400000026],[-74.54493430000002,42.9031971],[-74.54488479999998,42.903121],[-74.54500289999999,42.90306390000001],[-74.5451913,42.903082900000015],[-74.54532460000001,42.90306579999998],[-74.54539499999998,42.902974400000005],[-74.54529600000001,42.902677400000016],[-74.54514560000001,42.902529000000015],[-74.54471160000003,42.90239759999997],[-74.54429090000002,42.90225099999998],[-74.54387789999998,42.90207400000003],[-74.54369509999998,42.90196739999999],[-74.54346099999998,42.90181510000002],[-74.54324780000002,42.90164379999999],[-74.5430308,42.901407800000015],[-74.54275860000001,42.90105940000001],[-74.5424921,42.90068059999999],[-74.54235690000002,42.90034559999998],[-74.54221960000001,42.89999999999998],[-74.55000000000001,42.89999999999998],[-74.55000000000001,42.905163000000016]]]}},{"type":"Feature","properties":{},"geometry":{"type":"Polygon","coordinates":[[[-74.44612169999999,42.91751900000003],[-74.44623330000002,42.91745989999998],[-74.44626590000001,42.91749900000002],[-74.44613829999997,42.91756859999998],[-74.44599740000001,42.917645400000026],[-74.44502060000002,42.91817789999999],[-74.4449798,42.9181236],[-74.4451148,42.91805210000001],[-74.44612169999999,42.91751900000003]]]}},{"type":"Feature","properties":{},"geometry":{"type":"Polygon","coordinates":[[[-74.4011997,42.89999999999998],[-74.4631382,42.89999999999998],[-74.46264839999998,42.90046050000001],[-74.46237980000001,42.90061589999999],[-74.46212960000003,42.900731699999994],[-74.46187559999998,42.900822300000016],[-74.46139679999999,42.90103629999999],[-74.4611382,42.90120949999999],[-74.46081379999998,42.90145030000002],[-74.46027600000002,42.90207370000002],[-74.4599963,42.90244059999998],[-74.45977399999998,42.90279229999999],[-74.45954160000002,42.90317859999999],[-74.45918940000001,42.90383559999998],[-74.45859100000001,42.904983200000004],[-74.458213,42.905685800000015],[-74.45821539999997,42.905868999999996],[-74.4583394,42.90610029999999],[-74.45841289999998,42.906190200000026],[-74.45846640000002,42.906361600000025],[-74.45850100000001,42.906559000000016],[-74.4586104,42.90711820000001],[-74.45856279999998,42.90720859999999],[-74.45847950000001,42.90726810000001],[-74.45825350000001,42.90727290000001],[-74.45779370000002,42.90709479999998],[-74.45716579999998,42.90679970000002],[-74.45708719999999,42.906906400000025],[-74.45820730000003,42.907383700000025],[-74.45862849999997,42.9077264],[-74.45867850000002,42.90781559999999],[-74.45868919999998,42.90817249999998],[-74.45860679999998,42.908569],[-74.45852780000001,42.9088357],[-74.45830319999999,42.90922189999998],[-74.45803819999998,42.90961090000002],[-74.4569123,42.9106903],[-74.4557567,42.91145829999999],[-74.45494150000002,42.91190879999999],[-74.45429039999999,42.912263800000005],[-74.45350960000002,42.91266189999999],[-74.45343100000002,42.9127489],[-74.45198479999999,42.91346850000002],[-74.45140379999998,42.91380529999998],[-74.4497174,42.91494210000002],[-74.44925690000002,42.91527070000001],[-74.44775320000002,42.91626819999999],[-74.4474414,42.91648470000001],[-74.44708220000001,42.9167607],[-74.4469962,42.91685339999998],[-74.44691799999998,42.916937700000005],[-74.44603110000003,42.917414199999996],[-74.44569969999998,42.9175922],[-74.44501980000001,42.91794759999999],[-74.4440184,42.91847109999998],[-74.4434751,42.9186742],[-74.44299330000001,42.91883660000002],[-74.44293970000001,42.91883769999998],[-74.44289909999998,42.91880939999999],[-74.44204389999999,42.91903359999998],[-74.44159209999998,42.91912079999997],[-74.44125580000002,42.919167800000025],[-74.4405673,42.919417599999974],[-74.44032750000002,42.919504399999994],[-74.4400766,42.9195775],[-74.43960679999998,42.91970170000002],[-74.4388745,42.92002009999999],[-74.437748,42.920589699999994],[-74.436912,42.92091590000001],[-74.43642670000003,42.92112689999999],[-74.43557220000002,42.92151489999998],[-74.43453149999999,42.92201189999997],[-74.43332420000002,42.92261309999998],[-74.43273829999998,42.92288689999998],[-74.43207640000003,42.92314240000002],[-74.43124599999999,42.923471000000006],[-74.4305675,42.92376300000001],[-74.42992959999998,42.924047299999984],[-74.42955840000002,42.9242127],[-74.428741,42.924511300000006],[-74.42856089999998,42.92459869999999],[-74.42793699999999,42.92489699999999],[-74.4262367,42.926046299999996],[-74.4256537,42.92659099999997],[-74.42499029999999,42.9272684],[-74.42489749999999,42.927321199999994],[-74.42474049999998,42.9273369],[-74.42458340000002,42.927302699999984],[-74.4241151,42.92690440000001],[-74.4240423,42.926910299999975],[-74.42400079999999,42.926946499999985],[-74.42403949999999,42.92698999999999],[-74.42431499999998,42.92724129999999],[-74.4246091,42.927429700000005],[-74.42464480000001,42.92747689999999],[-74.4246377,42.9275796],[-74.42442069999998,42.9277424],[-74.42428389999998,42.9278812],[-74.4241897,42.92801029999998],[-74.42367109999998,42.92841060000001],[-74.42278420000002,42.92893579999998],[-74.4223447,42.92922820000001],[-74.42148630000003,42.92972259999999],[-74.42099109999998,42.92997359999998],[-74.419555,42.9307015],[-74.41884970000001,42.93107149999997],[-74.41846679999998,42.931296599999996],[-74.41809669999998,42.93152520000001],[-74.417214,42.932124699999974],[-74.41619859999997,42.9326777],[-74.41578070000003,42.933021],[-74.41405559999998,42.93415970000001],[-74.41279500000002,42.935074799999995],[-74.41190699999999,42.93562020000002],[-74.40991680000002,42.93664810000001],[-74.4086825,42.937340000000006],[-74.4078695,42.937850200000014],[-74.40705860000003,42.938212799999974],[-74.40613059999998,42.9386854],[-74.40581079999998,42.93880389999998],[-74.40488850000003,42.939380700000015],[-74.40459129999999,42.939514299999985],[-74.40427679999999,42.93963969999999],[-74.40353190000002,42.940130099999976],[-74.40233610000001,42.94086329999999],[-74.40156610000003,42.94126180000001],[-74.40111810000002,42.941472999999974],[-74.4006316,42.94172040000001],[-74.40024410000001,42.942009299999995],[-74.39999999999998,42.94215109999999],[-74.39999999999998,42.89999999999998],[-74.4011997,42.89999999999998]]]}},{"type":"Feature","properties":{},"geometry":{"type":"Polygon","coordinates":[[[-74.40464739999999,42.941022499999974],[-74.40483929999999,42.94101749999999],[-74.40498029999998,42.94106199999999],[-74.40506649999998,42.94106390000002],[-74.40510339999997,42.94103180000002],[-74.40504390000001,42.94086279999999],[-74.40494840000002,42.94086349999998],[-74.4048881,42.94083310000002],[-74.40489880000001,42.940780700000005],[-74.40566130000002,42.940389900000014],[-74.4061504,42.94016449999998],[-74.40839299999999,42.93932569999998],[-74.4085374,42.939326600000015],[-74.40859460000001,42.939354700000024],[-74.40865710000003,42.93935190000002],[-74.40887909999998,42.93916309999997],[-74.40998350000001,42.93858519999998],[-74.41081889999998,42.93811099999999],[-74.41264030000002,42.93699029999999],[-74.41357269999997,42.936375699999985],[-74.41410480000002,42.935976400000015],[-74.41468909999998,42.93559590000001],[-74.41543150000001,42.93504819999998],[-74.41582640000001,42.934732199999985],[-74.41622180000002,42.93449709999999],[-74.41693880000003,42.9340373],[-74.41720040000001,42.93392720000003],[-74.41736709999998,42.93382200000002],[-74.41747779999997,42.93368989999999],[-74.41800369999999,42.933316400000024],[-74.41891659999999,42.93274880000001],[-74.42157479999997,42.9310418],[-74.42202830000002,42.9307513],[-74.4223374,42.93059119999998],[-74.42272439999999,42.93035850000001],[-74.42314149999999,42.930055700000025],[-74.42350240000002,42.92983800000002],[-74.42386370000003,42.929563900000005],[-74.42413629999999,42.92939689999997],[-74.42469490000002,42.92897879999998],[-74.42537809999999,42.92844910000002],[-74.42613549999999,42.92777480000001],[-74.42683629999999,42.92716610000002],[-74.4276567,42.92657980000001],[-74.4283744,42.926119099999994],[-74.42871079999998,42.92593549999998],[-74.43022860000002,42.92520710000002],[-74.43127349999997,42.92468769999999],[-74.4333636,42.92376630000001],[-74.43416880000001,42.923376099999984],[-74.43444720000002,42.92323729999998],[-74.4358565,42.92249399999997],[-74.4361088,42.92236279999997],[-74.43629320000002,42.92224160000001],[-74.4383909,42.92130689999999],[-74.43870470000002,42.92116010000001],[-74.43924120000003,42.92095380000001],[-74.44015940000003,42.920572100000015],[-74.44120199999998,42.92018569999999],[-74.44164790000002,42.92005230000001],[-74.4421638,42.91987160000002],[-74.44236749999999,42.91992490000001],[-74.4430365,42.91986559999998],[-74.44342210000002,42.9198849],[-74.44357070000001,42.91983950000002],[-74.44372090000002,42.919745999999975],[-74.44376849999998,42.919768799999986],[-74.4437514,42.91984500000001],[-74.44369499999999,42.919926499999974],[-74.4437441,42.919970999999975],[-74.44382089999999,42.91992540000001],[-74.4438783,42.919856100000004],[-74.44397409999999,42.919805],[-74.44418730000001,42.91977830000002],[-74.4443536,42.91965529999999],[-74.44444879999998,42.919567400000005],[-74.44450169999999,42.91947570000002],[-74.4445743,42.91941809999997],[-74.44537129999998,42.91920349999998],[-74.44592720000003,42.91898459999999],[-74.44608399999998,42.91887609999998],[-74.44628319999998,42.91877950000003],[-74.44667629999998,42.91852920000002],[-74.44681589999999,42.91846939999999],[-74.44599740000001,42.917645400000026],[-74.44613829999997,42.91756859999998],[-74.44677250000001,42.91821399999998],[-74.44696199999998,42.91840689999998],[-74.4473815,42.9182174],[-74.44819430000001,42.91778340000002],[-74.44880999999998,42.91737069999999],[-74.44920359999998,42.91713970000001],[-74.449681,42.916810699999985],[-74.4502675,42.916283299999975],[-74.45057379999997,42.9159712],[-74.45105919999997,42.91561330000002],[-74.4524065,42.91486179999998],[-74.4540687,42.91394009999999],[-74.45427810000001,42.9138868],[-74.45441520000003,42.9138107],[-74.45453889999999,42.9136451],[-74.45474639999998,42.9134985],[-74.455622,42.91292549999997],[-74.45622359999999,42.91262660000001],[-74.45688430000001,42.9121083],[-74.45721229999998,42.91183050000001],[-74.4575542,42.91153589999999],[-74.458032,42.911098100000004],[-74.45890379999997,42.910142500000006],[-74.45946350000003,42.90945909999999],[-74.4597071,42.90910500000001],[-74.4600193,42.90845780000001],[-74.46023630000002,42.90815329999998],[-74.46045900000001,42.90769069999999],[-74.46047420000002,42.90758599999998],[-74.46039539999998,42.907219699999985],[-74.46036759999998,42.906748400000026],[-74.46038099999998,42.906049800000005],[-74.46062840000002,42.90486390000001],[-74.46113450000001,42.904001600000015],[-74.4615536,42.903399999999976],[-74.46170009999997,42.903076399999975],[-74.46203279999997,42.902673900000025],[-74.46232830000002,42.902355],[-74.4626945,42.90215860000001],[-74.46299269999997,42.90196479999997],[-74.4633829,42.90165830000001],[-74.46381689999998,42.90141269999998],[-74.46405190000002,42.90119770000001],[-74.46446980000002,42.90087399999999],[-74.46459090000002,42.90072559999999],[-74.4646811,42.90054090000001],[-74.46505769999999,42.90021890000003],[-74.46539380000002,42.89999999999998],[-74.47500000000002,42.89999999999998],[-74.47500000000002,42.97500000000002],[-74.43689940000002,42.97500000000002],[-74.39999999999998,42.97500000000002],[-74.39999999999998,42.94364200000001],[-74.4005373,42.943350099999975],[-74.40137299999998,42.94282559999999],[-74.40174990000003,42.942620999999974],[-74.40244089999999,42.94218840000002],[-74.40299820000001,42.94188860000003],[-74.40343719999998,42.941622800000005],[-74.40376930000002,42.941392500000006],[-74.40413849999999,42.94119119999999],[-74.40440619999998,42.94106149999999],[-74.40464739999999,42.941022499999974]]]}},{"type":"Feature","properties":{},"geometry":{"type":"Polygon","coordinates":[[[-74.3784263,42.94995160000002],[-74.37875459999998,42.94994919999999],[-74.37875459999998,42.9500625],[-74.37875459999998,42.95019669999999],[-74.3784263,42.95019430000002],[-74.3784263,42.95006330000001],[-74.3784263,42.94995160000002]]]}},{"type":"Feature","properties":{},"geometry":{"type":"Polygon","coordinates":[[[-74.35899920000003,42.949119499999995],[-74.35848679999998,42.94916469999998],[-74.3579681,42.94935620000001],[-74.35698059999999,42.949402599999985],[-74.3565011,42.94946090000002],[-74.35596930000003,42.949444200000016],[-74.3554815,42.949381200000005],[-74.35536359999998,42.949371499999984],[-74.35526140000002,42.9494062],[-74.35520200000002,42.9493693],[-74.35490929999997,42.949349100000006],[-74.35398950000001,42.94908809999998],[-74.35334719999997,42.94888750000001],[-74.3524314,42.94855799999999],[-74.35164450000002,42.9483156],[-74.35110320000001,42.94805389999999],[-74.34994510000001,42.94738589999997],[-74.34903250000002,42.946889699999986],[-74.3467872,42.94586190000001],[-74.34430680000003,42.94454080000003],[-74.34395080000002,42.94430089999997],[-74.34380579999998,42.9440889],[-74.34371140000002,42.94410399999998],[-74.34364360000001,42.94415320000002],[-74.34356029999998,42.9441377],[-74.34134390000003,42.943053899999995],[-74.34000900000001,42.942491099999984],[-74.33911069999999,42.94201170000002],[-74.33855749999998,42.94176779999998],[-74.33643260000002,42.94088260000001],[-74.3346707,42.940167599999995],[-74.3333351,42.93967409999999],[-74.332674,42.93948590000002],[-74.33199919999998,42.93922120000002],[-74.331256,42.938923699999975],[-74.3309463,42.93877980000002],[-74.33021309999998,42.9384407],[-74.32970699999998,42.93822269999998],[-74.32879700000001,42.93778689999999],[-74.32696249999998,42.93700919999998],[-74.32602279999998,42.936575800000014],[-74.32499999999999,42.936136999999974],[-74.32499999999999,42.89999999999998],[-74.39999999999998,42.89999999999998],[-74.39999999999998,42.94215109999999],[-74.39969009999999,42.94230429999999],[-74.3991997,42.94256819999998],[-74.3988061,42.94273720000001],[-74.39819670000003,42.94298650000002],[-74.39722699999999,42.943368599999985],[-74.39625189999998,42.94374629999999],[-74.39542319999998,42.94408809999999],[-74.39473079999999,42.94454730000001],[-74.39392529999998,42.94491260000001],[-74.39372959999997,42.9449841],[-74.3932269,42.945085000000006],[-74.3928022,42.945196899999985],[-74.39232829999997,42.94545599999998],[-74.39155770000002,42.94584170000002],[-74.39096169999999,42.946060699999975],[-74.38956489999998,42.946748300000024],[-74.38837999999998,42.947218299999975],[-74.38767569999999,42.947541899999976],[-74.38649420000002,42.94799870000003],[-74.38612660000001,42.9480939],[-74.3855074,42.94821660000002],[-74.38458589999999,42.948430599999995],[-74.3843587,42.94844010000003],[-74.3842219,42.948435399999994],[-74.38410579999999,42.948336299999994],[-74.38400059999998,42.948172399999976],[-74.38371619999998,42.94818789999999],[-74.383558,42.9482117],[-74.38350209999999,42.9482605],[-74.38348539999998,42.9484592],[-74.38345049999998,42.94851219999998],[-74.38334739999999,42.948579300000006],[-74.38264900000001,42.948694699999976],[-74.38224100000002,42.94876019999998],[-74.38133199999999,42.94882200000001],[-74.3805992,42.948840099999984],[-74.37991149999999,42.9488791],[-74.37924759999999,42.948970799999984],[-74.37834099999998,42.949050399999976],[-74.37766290000002,42.949092199999996],[-74.37720619999999,42.94910520000002],[-74.37680870000003,42.949106400000005],[-74.37561419999997,42.948961199999985],[-74.3746926,42.948973799999976],[-74.3746835,42.94924500000002],[-74.37437219999998,42.9492492],[-74.37436939999998,42.94898599999999],[-74.3738712,42.94900050000001],[-74.37255299999998,42.94928479999999],[-74.3722598,42.949296300000015],[-74.37207239999998,42.94928060000001],[-74.37192959999999,42.949281299999996],[-74.37131219999998,42.94934269999999],[-74.3702639,42.949481100000014],[-74.3696981,42.949714700000015],[-74.36947750000002,42.94978450000002],[-74.36930699999999,42.94981799999999],[-74.36912369999999,42.949853899999994],[-74.369035,42.949871400000006],[-74.36842539999998,42.949866499999985],[-74.3682164,42.949857099999974],[-74.36782779999999,42.94979489999997],[-74.3672603,42.94976509999998],[-74.36657220000001,42.94969409999999],[-74.36620219999998,42.94965070000001],[-74.36537980000003,42.94952460000002],[-74.36505010000002,42.94948369999997],[-74.36466039999999,42.9494684],[-74.36419799999999,42.949433699999986],[-74.36394689999997,42.949409600000024],[-74.3629075,42.94935459999999],[-74.36230360000002,42.94932130000001],[-74.36064140000002,42.949198000000024],[-74.36019199999998,42.94912799999997],[-74.3596789,42.94909089999999],[-74.3593505,42.949088500000016],[-74.35899920000003,42.949119499999995]]]}},{"type":"Feature","properties":{},"geometry":{"type":"Polygon","coordinates":[[[-74.35304960000002,42.95043659999999],[-74.35311259999997,42.95042790000002],[-74.3531858,42.950354600000026],[-74.35352469999998,42.950322200000016],[-74.35409959999998,42.9505097],[-74.35483959999999,42.95059930000002],[-74.3554102,42.95063160000001],[-74.35585040000001,42.95063349999998],[-74.35673559999998,42.950574500000016],[-74.3576124,42.950573099999986],[-74.35809510000001,42.95054110000001],[-74.35945709999999,42.95057830000002],[-74.35996510000001,42.9506126],[-74.3610486,42.950685899999996],[-74.36199269999997,42.95077909999998],[-74.36316529999999,42.95081620000002],[-74.36439200000001,42.95098359999997],[-74.36565710000002,42.95113789999999],[-74.3661682,42.95114460000002],[-74.36682869999999,42.95113309999999],[-74.36821650000002,42.95103879999999],[-74.3685514,42.9510009],[-74.36934659999997,42.95085080000001],[-74.36952989999997,42.95081620000002],[-74.3697512,42.95071250000001],[-74.37001529999998,42.950643000000014],[-74.3709442,42.95048120000001],[-74.37098709999998,42.95044309999997],[-74.3719767,42.95032020000002],[-74.37320210000001,42.950185499999975],[-74.37349030000001,42.95015380000001],[-74.37443630000001,42.95001100000002],[-74.37512070000002,42.95004460000001],[-74.37636079999999,42.95025559999999],[-74.37714799999998,42.950318100000004],[-74.37764550000003,42.950322700000015],[-74.37802149999999,42.95038699999998],[-74.37841259999999,42.9503904],[-74.37894160000002,42.9503411],[-74.3791779,42.95035360000003],[-74.3794512,42.950407900000016],[-74.37959430000001,42.95046070000001],[-74.37974350000002,42.95062890000003],[-74.37974919999999,42.95073930000001],[-74.3799611,42.95086600000002],[-74.38023820000001,42.95074039999997],[-74.38083549999999,42.95029069999998],[-74.3809331,42.95027879999998],[-74.3810851,42.95031890000001],[-74.3812805,42.9503454],[-74.38325300000002,42.95028830000001],[-74.38448749999998,42.95014600000002],[-74.38509399999998,42.95005939999999],[-74.38575809999998,42.949920399999996],[-74.3867634,42.94965619999999],[-74.38736,42.94947789999998],[-74.3894401,42.94879400000002],[-74.39066550000001,42.94835440000003],[-74.39122179999998,42.948143000000016],[-74.39280079999997,42.94749630000001],[-74.39407829999999,42.9468966],[-74.39473980000002,42.94656909999998],[-74.39535749999999,42.94625980000001],[-74.3962601,42.94580450000001],[-74.39650369999998,42.94566070000002],[-74.39705450000002,42.94532800000002],[-74.39823239999998,42.94465700000001],[-74.3993489,42.94403829999999],[-74.39999999999998,42.94364200000001],[-74.39999999999998,42.97500000000002],[-74.32499999999999,42.97500000000002],[-74.32499999999999,42.93768510000001],[-74.32652330000002,42.938331800000014],[-74.3268716,42.93849290000003],[-74.32783540000003,42.938994200000025],[-74.3292573,42.93964519999997],[-74.32952130000001,42.93975760000001],[-74.32995149999999,42.93992029999998],[-74.33067010000002,42.94018679999999],[-74.33152630000001,42.940483700000016],[-74.33195710000001,42.94066029999999],[-74.3326452,42.94096300000001],[-74.3335318,42.94125709999997],[-74.3339901,42.941504099999975],[-74.33432420000003,42.941798199999994],[-74.3345979,42.94197439999999],[-74.33485519999999,42.94210939999999],[-74.33539489999998,42.94238919999998],[-74.33635989999999,42.9428011],[-74.3369614,42.943084699999986],[-74.33807469999999,42.9435742],[-74.33903299999997,42.94406550000002],[-74.34022470000002,42.94463919999998],[-74.3412884,42.94528459999998],[-74.34291589999998,42.94619260000002],[-74.34337040000003,42.94639239999998],[-74.3438496,42.94663800000001],[-74.34431310000002,42.946827799999994],[-74.34486609999999,42.947034900000006],[-74.3455133,42.947269199999994],[-74.34648270000002,42.947588800000005],[-74.34766150000002,42.94803280000002],[-74.3490792,42.94860679999999],[-74.34939800000001,42.9487747],[-74.34984730000002,42.948975099999984],[-74.35027960000002,42.94912310000001],[-74.35117159999999,42.9494603],[-74.35167539999998,42.94963530000001],[-74.35241780000001,42.94994220000001],[-74.35270000000003,42.95010150000002],[-74.35290379999998,42.95018970000001],[-74.35298829999999,42.9502569],[-74.35300610000002,42.950404400000025],[-74.35304960000002,42.95043659999999]]]}},{"type":"Feature","properties":{},"geometry":{"type":"Polygon","coordinates":[[[-74.32499999999999,42.89999999999998],[-74.32499999999999,42.936136999999974],[-74.3240217,42.93574749999999],[-74.32315879999999,42.93539479999998],[-74.32226400000002,42.93505750000003],[-74.3214835,42.9348081],[-74.32062880000001,42.934566399999994],[-74.31975749999998,42.93435119999998],[-74.3186263,42.93403910000001],[-74.31803230000003,42.933858199999975],[-74.31672270000001,42.93356510000001],[-74.31634960000002,42.93351180000002],[-74.3156224,42.93345470000003],[-74.31542589999998,42.93337330000003],[-74.31524739999998,42.933340499999986],[-74.31514040000002,42.93326760000002],[-74.31512320000002,42.93318629999999],[-74.31558719999998,42.93237110000001],[-74.31534879999998,42.93230249999999],[-74.3151972,42.932537000000025],[-74.31459619999998,42.93282679999999],[-74.313804,42.93277790000002],[-74.3135456,42.93281510000003],[-74.31335580000001,42.932683699999984],[-74.31318160000001,42.93266089999997],[-74.3124492,42.93233249999997],[-74.31175200000001,42.93190709999999],[-74.31133699999998,42.931841399999996],[-74.31095579999999,42.9317001],[-74.31023770000002,42.93165290000002],[-74.31001070000002,42.93170429999998],[-74.309778,42.93161300000003],[-74.30975799999999,42.93136879999997],[-74.30993219999999,42.93087059999999],[-74.30991840000002,42.93079820000003],[-74.30987090000002,42.93077870000002],[-74.30978320000003,42.930875300000025],[-74.30974329999998,42.93102759999999],[-74.3096612,42.93109820000001],[-74.3094767,42.931223999999986],[-74.30923480000001,42.93142690000002],[-74.30907780000001,42.931442600000025],[-74.3078385,42.93118850000002],[-74.3075187,42.93106710000001],[-74.30738029999998,42.93089149999997],[-74.30715559999999,42.930756099999996],[-74.30708290000001,42.9307359],[-74.30660360000002,42.93073450000003],[-74.30608109999997,42.930584599999975],[-74.3052887,42.93039900000002],[-74.3048518,42.93034189999997],[-74.3044107,42.930321900000024],[-74.30397240000002,42.93042609999998],[-74.3031244,42.9304032],[-74.30174340000002,42.930497],[-74.3009614,42.93062689999999],[-74.3003751,42.93084010000001],[-74.2998399,42.93108760000001],[-74.29943580000003,42.931300299999975],[-74.29899119999999,42.93150639999999],[-74.29832169999997,42.9318452],[-74.29776909999998,42.932167900000024],[-74.29745930000001,42.932349199999976],[-74.2971253,42.93253329999999],[-74.29687109999998,42.93270319999999],[-74.29651990000002,42.93290029999997],[-74.29619869999999,42.93316290000001],[-74.29587750000002,42.93348129999998],[-74.295659,42.933741199999986],[-74.29555049999999,42.933928200000025],[-74.2954163,42.934420699999976],[-74.29537529999999,42.93506669999999],[-74.29538059999999,42.9352202],[-74.29547769999999,42.935877000000005],[-74.2955862,42.9362539],[-74.29565480000002,42.936348099999975],[-74.29578900000001,42.936409500000025],[-74.29574760000003,42.93662219999999],[-74.29588319999999,42.93724179999998],[-74.2959917,42.93786290000003],[-74.29599030000003,42.93811410000001],[-74.2959017,42.9383383],[-74.29571040000002,42.938673800000004],[-74.2954178,42.939124900000024],[-74.29507799999999,42.939459],[-74.29474249999998,42.939854500000024],[-74.2945583,42.940088600000024],[-74.2943042,42.940337],[-74.29414559999998,42.94048550000002],[-74.29377449999998,42.94069680000001],[-74.29332190000002,42.94088670000002],[-74.29318769999998,42.94069539999998],[-74.29268439999998,42.94041549999997],[-74.29214409999997,42.94016859999999],[-74.29121750000002,42.93992159999999],[-74.290548,42.93983020000002],[-74.29000539999998,42.939668900000015],[-74.28985699999998,42.93959890000002],[-74.28904849999998,42.93932269999999],[-74.28865259999998,42.939257999999995],[-74.28826040000001,42.939223700000014],[-74.28752370000001,42.93895149999997],[-74.28687739999998,42.93872879999998],[-74.2867918,42.93885349999999],[-74.28740679999999,42.93908499999998],[-74.28774950000002,42.9391445],[-74.28778160000002,42.93920400000002],[-74.28771499999999,42.939259900000025],[-74.28724620000003,42.939240900000016],[-74.28718789999999,42.93929559999998],[-74.28724399999999,42.93934839999997],[-74.28723550000001,42.93939599999999],[-74.28714459999998,42.939392199999986],[-74.2869503,42.939320899999984],[-74.28658159999998,42.93915989999999],[-74.28619780000002,42.93976959999998],[-74.2859608,42.939675299999976],[-74.28629840000002,42.939142300000015],[-74.2861542,42.93913730000003],[-74.28595860000001,42.9391718],[-74.28576249999998,42.93917110000001],[-74.28548610000001,42.939151400000014],[-74.2843368,42.938949200000025],[-74.28367500000002,42.93871530000001],[-74.2830874,42.93836900000002],[-74.28256599999997,42.9393417],[-74.28332749999998,42.93963289999999],[-74.28395369999998,42.939886100000024],[-74.28435919999998,42.939962200000025],[-74.28505209999997,42.9399813],[-74.28583450000002,42.940171599999985],[-74.28694619999999,42.94039620000001],[-74.28803590000001,42.9405223],[-74.2892076,42.94078080000003],[-74.29035549999998,42.941081499999996],[-74.29052680000001,42.941271900000004],[-74.29061239999999,42.94146030000002],[-74.29051340000001,42.941723000000025],[-74.29023740000002,42.94217229999998],[-74.28982730000001,42.94261770000003],[-74.28937509999997,42.94307839999999],[-74.28912759999997,42.94349140000003],[-74.28886499999999,42.94375600000001],[-74.28825110000002,42.94405810000001],[-74.28802739999998,42.944179399999996],[-74.28792629999998,42.944238799999994],[-74.28765979999997,42.94432089999998],[-74.28755269999999,42.94441849999998],[-74.2870863,42.94470639999997],[-74.28684600000003,42.944836099999975],[-74.28678409999998,42.944944299999975],[-74.28663060000002,42.94495740000002],[-74.28646529999997,42.94501930000001],[-74.28631180000002,42.94512989999998],[-74.28608459999998,42.945243000000005],[-74.28574550000002,42.94543570000002],[-74.28518869999999,42.945788300000004],[-74.2848846,42.9461139],[-74.2844235,42.946462199999985],[-74.28410650000001,42.94668919999998],[-74.28370960000001,42.94694620000001],[-74.28331129999998,42.94719170000002],[-74.28299850000002,42.94737040000001],[-74.2823148,42.947742800000015],[-74.28194639999998,42.947945600000025],[-74.2815253,42.9481768],[-74.2809656,42.94846519999999],[-74.28000459999998,42.948922400000015],[-74.27949919999998,42.9492065],[-74.2791752,42.949384899999984],[-74.27799900000002,42.949929699999984],[-74.277578,42.950167799999974],[-74.27608850000001,42.951122399999974],[-74.27568730000002,42.9513594],[-74.27463089999998,42.951550699999984],[-74.27386899999999,42.951669200000026],[-74.27331500000003,42.95178010000001],[-74.2728368,42.95184369999998],[-74.27166460000001,42.95182390000002],[-74.27124320000001,42.9519229],[-74.27115450000002,42.95194379999998],[-74.2709984,42.95180290000002],[-74.2708556,42.95180479999999],[-74.27068809999997,42.95196090000002],[-74.27006749999998,42.95204849999999],[-74.26917400000002,42.952342499999986],[-74.26872250000002,42.95242630000001],[-74.26816229999997,42.952504499999975],[-74.26686219999999,42.9524988],[-74.264412,42.95228830000002],[-74.26416460000002,42.952092300000004],[-74.26415689999999,42.95191519999997],[-74.26453579999998,42.95165250000002],[-74.26507450000003,42.951365099999975],[-74.26564029999997,42.95127630000002],[-74.2657231,42.951200700000015],[-74.26577730000002,42.95108640000001],[-74.26600450000001,42.951032699999985],[-74.26608299999998,42.950938699999995],[-74.2660866,42.950823300000025],[-74.2661842,42.950776899999994],[-74.26645660000003,42.95076499999999],[-74.26664099999999,42.95072570000002],[-74.26675289999997,42.95063649999997],[-74.26667250000003,42.950383999999985],[-74.26651850000002,42.95041170000002],[-74.26616990000002,42.950565100000006],[-74.26516579999998,42.95101249999999],[-74.2648279,42.951207599999975],[-74.26468990000001,42.951401499999974],[-74.26450549999998,42.951507400000025],[-74.26410809999999,42.95151340000001],[-74.26395580000002,42.95157160000002],[-74.26384519999999,42.951721599999985],[-74.2637143,42.95199760000003],[-74.26359769999999,42.95209160000002],[-74.26346210000003,42.952145099999996],[-74.26277199999998,42.9523021],[-74.2618129,42.952482499999974],[-74.26103189999998,42.95260960000002],[-74.26024239999998,42.95258389999998],[-74.25866630000002,42.95266520000001],[-74.25706580000002,42.952789499999994],[-74.25581419999997,42.95284320000002],[-74.25429930000001,42.952794100000006],[-74.25379249999997,42.9526894],[-74.25302929999998,42.95251769999999],[-74.25199379999998,42.95231209999997],[-74.25140329999999,42.9523092],[-74.25073930000002,42.95235020000001],[-74.25,42.95235020000001],[-74.25,42.89999999999998],[-74.32499999999999,42.89999999999998]]]}},{"type":"Feature","properties":{},"geometry":{"type":"Polygon","coordinates":[[[-74.25123289999999,42.95360699999998],[-74.25223460000001,42.9537497],[-74.25306890000002,42.95393050000001],[-74.2534134,42.95410750000002],[-74.25363229999999,42.954339800000014],[-74.2536685,42.9545468],[-74.25354859999999,42.954710999999975],[-74.25309090000002,42.95497760000001],[-74.25220510000003,42.955459099999985],[-74.25170830000002,42.95562610000002],[-74.2512969,42.95566960000002],[-74.25,42.955642599999976],[-74.25,42.953542200000015],[-74.25123289999999,42.95360699999998]]]}},{"type":"Feature","properties":{},"geometry":{"type":"Polygon","coordinates":[[[-74.26305409999998,42.953545099999985],[-74.26341009999999,42.95360599999998],[-74.26380410000002,42.953756399999975],[-74.26390679999997,42.95389849999998],[-74.26387829999999,42.95404309999998],[-74.26370320000001,42.95428029999999],[-74.26316059999999,42.95456660000002],[-74.2622508,42.95475190000002],[-74.2608897,42.95495749999998],[-74.25952109999997,42.95500129999999],[-74.25908140000001,42.9548623],[-74.25714920000001,42.95441690000001],[-74.25628119999999,42.954279799999995],[-74.256279,42.95421909999999],[-74.25770130000001,42.95394670000002],[-74.25893289999999,42.95377350000001],[-74.25980800000002,42.953686300000015],[-74.26201479999997,42.953507],[-74.26305409999998,42.953545099999985]]]}},{"type":"Feature","properties":{},"geometry":{"type":"Polygon","coordinates":[[[-74.28332,42.9485694],[-74.283457,42.948501799999974],[-74.28350749999998,42.94855319999999],[-74.28341610000001,42.948648400000025],[-74.283279,42.94870639999999],[-74.2832115,42.94865119999997],[-74.28332,42.9485694]]]}},{"type":"Feature","properties":{},"geometry":{"type":"Polygon","coordinates":[[[-74.2535896,42.95652719999998],[-74.25380109999998,42.95642409999999],[-74.25429220000001,42.95624509999999],[-74.25470910000001,42.9560472],[-74.25510129999998,42.95572550000003],[-74.25571989999997,42.955508399999985],[-74.25674020000002,42.955323799999974],[-74.257496,42.955348500000014],[-74.2585962,42.95560549999999],[-74.25915400000002,42.95578640000002],[-74.26014759999998,42.95597859999998],[-74.2606083,42.95600150000001],[-74.26108040000003,42.95599390000001],[-74.26168569999999,42.95594440000002],[-74.26209310000002,42.95587389999997],[-74.26270790000001,42.955708300000026],[-74.26330560000002,42.95559220000001],[-74.26407660000001,42.95545320000002],[-74.26448399999998,42.955306699999994],[-74.2654167,42.9551639],[-74.26659310000002,42.95513149999999],[-74.26800939999998,42.954990699999996],[-74.26860900000003,42.95489550000002],[-74.26928479999998,42.954756499999974],[-74.269675,42.954655600000024],[-74.27078289999997,42.95450340000002],[-74.2709921,42.954495399999985],[-74.2713349,42.95448240000002],[-74.27168899999998,42.95444629999997],[-74.27207729999998,42.95437770000001],[-74.27297959999999,42.954189299999996],[-74.27403989999999,42.9539504],[-74.2743754,42.953910399999984],[-74.27480939999998,42.95381470000001],[-74.27528289999998,42.95365770000001],[-74.2763736,42.953297899999995],[-74.27746680000001,42.95294769999998],[-74.27777659999998,42.952797799999985],[-74.27808540000001,42.95272110000002],[-74.27820919999999,42.952637400000015],[-74.2783503,42.952434400000016],[-74.27882590000002,42.9521196],[-74.27901630000002,42.95192930000002],[-74.27920469999998,42.95169129999999],[-74.27985569999998,42.95128779999999],[-74.28051060000001,42.95054920000001],[-74.2808569,42.9500079],[-74.28116640000002,42.94979260000002],[-74.28196109999999,42.94944129999999],[-74.28268830000002,42.948971099999994],[-74.28320409999998,42.948952099999985],[-74.2845395,42.94824540000002],[-74.28484789999999,42.948011199999996],[-74.28516619999999,42.94742020000001],[-74.28538789999999,42.947218599999985],[-74.28542119999997,42.9471461],[-74.28543250000001,42.94706839999998],[-74.2859315,42.946786299999985],[-74.28645970000002,42.9465022],[-74.28687660000003,42.9462666],[-74.28749190000002,42.946042499999976],[-74.28801429999999,42.945868099999984],[-74.28879110000003,42.94559989999999],[-74.28892100000002,42.94555559999998],[-74.28917849999999,42.94546580000002],[-74.28940790000001,42.945385699999974],[-74.29028299999999,42.94508020000001],[-74.29094709999998,42.94487559999999],[-74.29187889999997,42.9445824],[-74.29218029999998,42.944638999999995],[-74.29245709999998,42.944525],[-74.29276829999998,42.94429650000001],[-74.2932237,42.943841099999986],[-74.29366770000001,42.94353840000002],[-74.2938034,42.943378499999994],[-74.29398179999998,42.943123000000014],[-74.29422310000001,42.94269609999998],[-74.2944101,42.942402000000016],[-74.29473130000002,42.941929500000015],[-74.294984,42.94159250000001],[-74.2952396,42.941172800000004],[-74.29535670000001,42.940970100000015],[-74.2957207,42.94049749999999],[-74.29606339999998,42.94020339999997],[-74.2963603,42.93991790000001],[-74.2966202,42.93970660000002],[-74.2970856,42.93932539999997],[-74.29740299999997,42.93903169999999],[-74.29749720000001,42.938825699999995],[-74.2975581,42.937783000000024],[-74.2974097,42.937215700000024],[-74.29686470000001,42.935908900000015],[-74.29680810000002,42.935502499999984],[-74.29690140000002,42.935069],[-74.2972345,42.934347100000025],[-74.2976319,42.93391489999999],[-74.29808059999999,42.933618000000024],[-74.29869550000001,42.933291499999996],[-74.29931319999997,42.93303980000002],[-74.30045969999998,42.93268649999999],[-74.30120540000001,42.932475899999986],[-74.30212289999997,42.9322798],[-74.30255499999998,42.93224359999999],[-74.30379040000003,42.93227030000003],[-74.30449670000002,42.93229500000001],[-74.30505629999999,42.93238259999998],[-74.30577590000001,42.93244729999998],[-74.3063717,42.932464400000015],[-74.30777080000001,42.9325101],[-74.3087683,42.93264720000002],[-74.30907710000002,42.932730900000024],[-74.31038869999998,42.933236299999976],[-74.31136950000001,42.93359750000002],[-74.31223890000001,42.9338874],[-74.31303270000001,42.93412719999998],[-74.314346,42.934472400000004],[-74.3160651,42.93470259999998],[-74.3166273,42.93481550000001],[-74.31743970000002,42.93503249999998],[-74.31820090000002,42.935434999999984],[-74.3182066,42.93574760000001],[-74.31817810000001,42.93593040000002],[-74.3180853,42.93606030000001],[-74.31810530000001,42.93633870000002],[-74.31833369999998,42.93657710000002],[-74.31835089999998,42.93669390000002],[-74.31825659999998,42.936768400000005],[-74.31790539999997,42.93687410000001],[-74.31765410000003,42.93710679999998],[-74.31746229999999,42.93750890000001],[-74.31723720000002,42.938105699999994],[-74.31706880000002,42.938422600000024],[-74.31720630000001,42.93846639999998],[-74.31744809999998,42.93802670000002],[-74.31763869999997,42.93748160000001],[-74.31782850000002,42.93714189999997],[-74.31800370000002,42.93700289999998],[-74.318194,42.93690579999998],[-74.31840340000002,42.936825899999974],[-74.31846050000001,42.93676110000001],[-74.31846619999999,42.936534600000016],[-74.31837680000001,42.93631570000002],[-74.31836340000001,42.9360873],[-74.31845670000001,42.93576940000003],[-74.318649,42.93562659999998],[-74.31887549999999,42.935580500000015],[-74.31921999999997,42.935610699999984],[-74.32003479999997,42.935857],[-74.32086279999999,42.93616909999997],[-74.32145930000001,42.936353],[-74.32223529999999,42.93662979999999],[-74.32370900000001,42.93711880000001],[-74.32499999999999,42.93768510000001],[-74.32499999999999,42.97500000000002],[-74.25,42.97500000000002],[-74.25,42.95670580000001],[-74.25037090000001,42.95673620000002],[-74.2510962,42.95674200000002],[-74.25166719999999,42.95670960000001],[-74.25237729999998,42.956663900000024],[-74.25336140000002,42.956606799999975],[-74.2535896,42.95652719999998]]]}},{"type":"Feature","properties":{},"geometry":{"type":"Polygon","coordinates":[[[-74.28424810000001,42.94796339999999],[-74.28441190000001,42.94779030000001],[-74.28461220000003,42.947643400000004],[-74.28493659999998,42.94751070000001],[-74.2849794,42.947558300000026],[-74.28489259999998,42.94765469999999],[-74.28472479999999,42.947893799999974],[-74.28454040000003,42.94798659999998],[-74.28435569999999,42.948124199999995],[-74.28419539999999,42.94811040000002],[-74.28424810000001,42.94796339999999]]]}},{"type":"Feature","properties":{},"geometry":{"type":"Polygon","coordinates":[[[-74.28918470000002,42.94532939999999],[-74.28912330000003,42.945351500000015],[-74.28884970000001,42.945445800000016],[-74.2887217,42.94549069999999],[-74.28838380000002,42.94560919999998],[-74.28796829999999,42.94574770000003],[-74.28780979999999,42.94580339999999],[-74.28776429999999,42.94575309999999],[-74.28790830000003,42.94569059999998],[-74.2880682,42.94565779999999],[-74.28826099999998,42.945595000000026],[-74.28869370000001,42.945446600000025],[-74.28882170000003,42.94540269999999],[-74.28901719999999,42.94532700000002],[-74.28915560000002,42.94527260000001],[-74.28918470000002,42.94532939999999]]]}},{"type":"Feature","properties":{},"geometry":{"type":"Polygon","coordinates":[[[-74.28792629999998,42.939475500000015],[-74.28795839999998,42.93951550000003],[-74.2879034,42.9395619],[-74.2876372,42.939484100000016],[-74.28765290000001,42.9394284],[-74.28792629999998,42.939475500000015]]]}},{"type":"Feature","properties":{},"geometry":{"type":"Polygon","coordinates":[[[-74.2382088,42.954949899999974],[-74.23856949999998,42.954991699999994],[-74.2386257,42.955027900000005],[-74.23857140000001,42.955158299999994],[-74.23849339999998,42.955162099999995],[-74.23823169999997,42.95507459999999],[-74.23786519999999,42.9549384],[-74.23766039999998,42.95480900000001],[-74.23772059999999,42.95477469999997],[-74.2382088,42.954949899999974]]]}},{"type":"Feature","properties":{},"geometry":{"type":"Polygon","coordinates":[[[-74.23996799999998,42.955287],[-74.23992609999999,42.95534600000002],[-74.23978849999997,42.955319900000006],[-74.23964000000001,42.95527279999999],[-74.23964219999999,42.95521280000003],[-74.23976429999999,42.955210799999975],[-74.23996799999998,42.955287]]]}},{"type":"Feature","properties":{},"geometry":{"type":"Polygon","coordinates":[[[-74.24121050000002,42.95554069999997],[-74.2414503,42.95565399999998],[-74.2414617,42.955713],[-74.24138749999997,42.955733899999984],[-74.24101339999999,42.95567870000002],[-74.24098300000003,42.955625399999974],[-74.24101730000001,42.955577800000015],[-74.24109240000001,42.95553589999997],[-74.24121050000002,42.95554069999997]]]}},{"type":"Feature","properties":{},"geometry":{"type":"Polygon","coordinates":[[[-74.25,42.953542200000015],[-74.25,42.955642599999976],[-74.2493134,42.9556331],[-74.24798800000002,42.95567360000001],[-74.24699579999998,42.95568309999999],[-74.24523740000001,42.955518900000015],[-74.2440952,42.95533089999998],[-74.24342899999999,42.955216699999994],[-74.24280320000003,42.95521200000002],[-74.24261280000002,42.95513340000002],[-74.24212740000002,42.954662299999995],[-74.24174199999999,42.95441249999999],[-74.24173480000002,42.95430540000001],[-74.24182289999999,42.95424350000002],[-74.24302690000002,42.95416260000002],[-74.24373309999999,42.95406830000002],[-74.24445220000001,42.953972299999975],[-74.24516599999998,42.953862800000024],[-74.24658419999997,42.95363680000003],[-74.24668739999998,42.95362799999998],[-74.24747880000001,42.9535606],[-74.24901829999999,42.95352730000002],[-74.25,42.953542200000015]]]}},{"type":"Feature","properties":{},"geometry":{"type":"Polygon","coordinates":[[[-74.20462629999997,42.94172839999999],[-74.20496730000002,42.9418781],[-74.20534329999998,42.94204939999997],[-74.20574900000003,42.9422017],[-74.20611659999997,42.94234319999998],[-74.20645689999998,42.94249430000002],[-74.20662220000003,42.94256100000001],[-74.20706480000001,42.942707299999995],[-74.20735869999999,42.94281669999998],[-74.20792260000002,42.943114200000025],[-74.2083973,42.943453499999976],[-74.20874709999998,42.94373469999999],[-74.20893510000002,42.9438882],[-74.20905399999998,42.94405360000002],[-74.20903980000003,42.94423440000003],[-74.20897550000001,42.94433670000001],[-74.20871729999999,42.94439390000002],[-74.20843660000003,42.944399799999985],[-74.2079726,42.9442368],[-74.20745879999998,42.94405069999999],[-74.20704769999998,42.9439213],[-74.2066365,42.94366430000002],[-74.20610920000001,42.94331599999998],[-74.2055115,42.942883800000004],[-74.20514789999999,42.94262689999999],[-74.20479189999998,42.9421681],[-74.20453120000002,42.94196249999999],[-74.20441690000001,42.94178360000001],[-74.20444550000002,42.941690300000005],[-74.20462629999997,42.94172839999999]]]}},{"type":"Feature","properties":{},"geometry":{"type":"Polygon","coordinates":[[[-74.2256481,42.954073100000016],[-74.22596220000003,42.95416230000001],[-74.2261704,42.95422780000001],[-74.22631910000001,42.954225399999984],[-74.22645030000001,42.95421950000002],[-74.22673909999997,42.954206399999975],[-74.22690799999998,42.95416829999999],[-74.2269973,42.954186100000015],[-74.2270972,42.954238499999974],[-74.22728640000003,42.954265899999996],[-74.22729709999999,42.95433129999998],[-74.2269842,42.9544027],[-74.22675099999998,42.95439429999999],[-74.22657850000002,42.9544717],[-74.22617159999999,42.954485999999974],[-74.22566119999999,42.954499],[-74.22554459999998,42.95454539999997],[-74.22546010000002,42.95457640000001],[-74.22490449999998,42.95452999999998],[-74.22466179999998,42.9544836],[-74.22455480000002,42.95443239999997],[-74.22445959999999,42.954347900000016],[-74.22413360000002,42.954287299999976],[-74.22380279999999,42.95425039999998],[-74.22323410000001,42.95408140000001],[-74.22297839999999,42.95397079999998],[-74.22268330000003,42.95382089999998],[-74.222669,42.953751899999986],[-74.22274399999998,42.953684099999975],[-74.22283679999998,42.95368050000002],[-74.2232591,42.95374709999999],[-74.2238362,42.95383750000002],[-74.22418119999998,42.9538685],[-74.2246892,42.953896999999984],[-74.22534239999999,42.953956500000004],[-74.2255113,42.95400649999999],[-74.2256481,42.954073100000016]]]}}]}