{"type":"FeatureCollection","features":[{"type":"Feature","properties":{},"geometry":{"type":"Polygon","coordinates":[[[-73.2743327,44.39999999999998],[-73.27499999999998,44.39999999999998],[-73.27499999999998,44.44882000000001],[-73.27499999999998,44.44912590000001],[-73.27499999999998,44.44948959999999],[-73.27499999999998,44.449600499999974],[-73.27499999999998,44.45025670000001],[-73.27499999999998,44.45032550000002],[-73.27499999999998,44.45056349999999],[-73.27499999999998,44.45198690000001],[-73.27499999999998,44.45308840000001],[-73.27499999999998,44.453357900000015],[-73.27499999999998,44.470575999999994],[-73.27499999999998,44.47500000000002],[-73.22556020000002,44.47500000000002],[-73.22547170000001,44.47500000000002],[-73.2254307,44.47500000000002],[-73.2233991,44.47500000000002],[-73.22209900000001,44.47500000000002],[-73.22131430000002,44.47500000000002],[-73.22120999999999,44.47500000000002],[-73.22118640000002,44.47500000000002],[-73.22109999999998,44.47500000000002],[-73.22084530000001,44.47500000000002],[-73.22073369999998,44.47500000000002],[-73.2205042,44.47500000000002],[-73.22037210000002,44.47500000000002],[-73.21964029999998,44.47500000000002],[-73.219424,44.47500000000002],[-73.21073259999997,44.47500000000002],[-73.19999999999999,44.47500000000002],[-73.19999999999999,44.430747199999985],[-73.19999999999999,44.39999999999998],[-73.22947090000002,44.39999999999998],[-73.22961420000001,44.39999999999998],[-73.2315489,44.39999999999998],[-73.23220140000001,44.39999999999998],[-73.23316729999999,44.39999999999998],[-73.23325569999997,44.39999999999998],[-73.23335309999999,44.39999999999998],[-73.2338532,44.39999999999998],[-73.2342726,44.39999999999998],[-73.2344534,44.39999999999998],[-73.23685660000001,44.39999999999998],[-73.23690160000001,44.39999999999998],[-73.27181460000003,44.39999999999998],[-73.2719525,44.39999999999998],[-73.2725461,44.39999999999998],[-73.27384389999997,44.39999999999998],[-73.2743327,44.39999999999998]]]}},{"type":"Feature","properties":{},"geometry":{"type":"Polygon","coordinates":[[[-73.22556020000002,44.47500000000002],[-73.27499999999998,44.47500000000002],[-73.27499999999998,44.495838400000025],[-73.27499999999998,44.49858310000002],[-73.27499999999998,44.5022654],[-73.27499999999998,44.503084],[-73.27499999999998,44.50314800000001],[-73.27499999999998,44.50320540000001],[-73.27499999999998,44.507658100000015],[-73.27499999999998,44.507864299999994],[-73.27499999999998,44.508218],[-73.27499999999998,44.52680950000001],[-73.27499999999998,44.52824679999998],[-73.27499999999998,44.53129280000002],[-73.27499999999998,44.53144529999997],[-73.27499999999998,44.532364099999995],[-73.27499999999998,44.53333809999998],[-73.27499999999998,44.55000000000001],[-73.22488190000001,44.55000000000001],[-73.22427729999998,44.55000000000001],[-73.22420140000003,44.55000000000001],[-73.22401559999997,44.55000000000001],[-73.2240036,44.55000000000001],[-73.22295480000002,44.55000000000001],[-73.22016459999998,44.55000000000001],[-73.21570830000002,44.55000000000001],[-73.20310510000002,44.55000000000001],[-73.20193940000001,44.55000000000001],[-73.19999999999999,44.55000000000001],[-73.19999999999999,44.549106300000005],[-73.19999999999999,44.54901619999998],[-73.19999999999999,44.496024999999975],[-73.19999999999999,44.49009790000002],[-73.19999999999999,44.489393800000016],[-73.19999999999999,44.47500000000002],[-73.21073259999997,44.47500000000002],[-73.219424,44.47500000000002],[-73.21964029999998,44.47500000000002],[-73.22037210000002,44.47500000000002],[-73.2205042,44.47500000000002],[-73.22073369999998,44.47500000000002],[-73.22084530000001,44.47500000000002],[-73.22109999999998,44.47500000000002],[-73.22118640000002,44.47500000000002],[-73.22120999999999,44.47500000000002],[-73.22131430000002,44.47500000000002],[-73.22209900000001,44.47500000000002],[-73.2233991,44.47500000000002],[-73.2254307,44.47500000000002],[-73.22547170000001,44.47500000000002],[-73.22556020000002,44.47500000000002]]]}}]}