{"type":"FeatureCollection","features":[{"type":"Feature","properties":{},"geometry":{"type":"Polygon","coordinates":[[[-70.03465360000001,41.17500000000001],[-70.0495909,41.17500000000001],[-70.05000000000001,41.17500000000001],[-70.05000000000001,41.1759692],[-70.05000000000001,41.177457600000025],[-70.05000000000001,41.17796629999998],[-70.05000000000001,41.17895970000001],[-70.05000000000001,41.18044309999999],[-70.05000000000001,41.18195029999998],[-70.05000000000001,41.18342910000001],[-70.05000000000001,41.1834556],[-70.05000000000001,41.18490480000003],[-70.05000000000001,41.1864142],[-70.05000000000001,41.187732900000015],[-70.05000000000001,41.1878954],[-70.05000000000001,41.18939949999998],[-70.05000000000001,41.19088599999998],[-70.05000000000001,41.1919456],[-70.05000000000001,41.19223010000002],[-70.05000000000001,41.19238469999999],[-70.05000000000001,41.1925516],[-70.05000000000001,41.1925966],[-70.05000000000001,41.19387660000001],[-70.05000000000001,41.195369700000015],[-70.05000000000001,41.19686710000002],[-70.05000000000001,41.198354300000005],[-70.05000000000001,41.199857699999995],[-70.05000000000001,41.201338899999996],[-70.05000000000001,41.202848200000005],[-70.05000000000001,41.20416130000001],[-70.05000000000001,41.2043233],[-70.05000000000001,41.205802800000015],[-70.05000000000001,41.20616319999999],[-70.05000000000001,41.20658100000003],[-70.05000000000001,41.20730739999999],[-70.05000000000001,41.208793300000025],[-70.05000000000001,41.209351200000015],[-70.05000000000001,41.21029140000002],[-70.05000000000001,41.2117839],[-70.05000000000001,41.21259989999999],[-70.05000000000001,41.213275399999986],[-70.05000000000001,41.21466650000002],[-70.05000000000001,41.214774499999976],[-70.05000000000001,41.2162591],[-70.05000000000001,41.217764999999986],[-70.05000000000001,41.21924259999997],[-70.05000000000001,41.22071949999997],[-70.05000000000001,41.22222579999999],[-70.05000000000001,41.223710100000005],[-70.05000000000001,41.2241755],[-70.05000000000001,41.22520880000002],[-70.05000000000001,41.226700600000015],[-70.05000000000001,41.22819179999999],[-70.05000000000001,41.228869599999996],[-70.05000000000001,41.22969119999999],[-70.05000000000001,41.231174599999974],[-70.05000000000001,41.2314045],[-70.05000000000001,41.2326817],[-70.05000000000001,41.234157100000004],[-70.05000000000001,41.2343606],[-70.05000000000001,41.23563619999999],[-70.05000000000001,41.23713959999998],[-70.05000000000001,41.23862680000002],[-70.05000000000001,41.23948710000002],[-70.05000000000001,41.24012210000001],[-70.05000000000001,41.24108289999998],[-70.05000000000001,41.24161729999997],[-70.05000000000001,41.24162719999998],[-70.05000000000001,41.24254209999998],[-70.05000000000001,41.243103899999994],[-70.05000000000001,41.243224699999985],[-70.05000000000001,41.24348199999997],[-70.05000000000001,41.24964720000003],[-70.05000000000001,41.25],[-70.04994149999999,41.25],[-69.97500000000002,41.25],[-69.97500000000002,41.24755579999999],[-69.97500000000002,41.24754780000001],[-69.97500000000002,41.247531400000014],[-69.97500000000002,41.2472305],[-69.97500000000002,41.24708240000001],[-69.97500000000002,41.2470773],[-69.97500000000002,41.24706809999998],[-69.97500000000002,41.24699509999999],[-69.97500000000002,41.24698289999998],[-69.97500000000002,41.2460567],[-69.97500000000002,41.24590540000003],[-69.97500000000002,41.24588440000002],[-69.97500000000002,41.24582400000003],[-69.97500000000002,41.24576969999998],[-69.97500000000002,41.2456947],[-69.97500000000002,41.245188600000006],[-69.97500000000002,41.24435299999999],[-69.97500000000002,41.243715399999985],[-69.97500000000002,41.24347770000003],[-69.97500000000002,41.243171399999994],[-69.97500000000002,41.24143609999999],[-69.97500000000002,41.240006300000005],[-69.97500000000002,41.23988509999998],[-69.97500000000002,41.23981909999998],[-69.97500000000002,41.23972939999999],[-69.97500000000002,41.23946410000002],[-69.97500000000002,41.23884179999999],[-69.97500000000002,41.238367400000016],[-69.97500000000002,41.23829619999998],[-69.97500000000002,41.23743769999999],[-69.97500000000002,41.23669810000001],[-69.97500000000002,41.236684500000024],[-69.97500000000002,41.23501950000002],[-69.97500000000002,41.2349782],[-69.97500000000002,41.23495150000002],[-69.97500000000002,41.2347274],[-69.97500000000002,41.23454939999999],[-69.97500000000002,41.23092170000001],[-69.97500000000002,41.23091440000002],[-69.97500000000002,41.23085789999999],[-69.97500000000002,41.23081029999997],[-69.97500000000002,41.23080700000003],[-69.97500000000002,41.23055979999998],[-69.97500000000002,41.23054159999998],[-69.97500000000002,41.23044820000001],[-69.97500000000002,41.229781],[-69.97500000000002,41.229722700000025],[-69.97500000000002,41.22969230000001],[-69.97500000000002,41.22855320000002],[-69.97500000000002,41.228002600000025],[-69.97500000000002,41.227290700000026],[-69.97500000000002,41.22726019999999],[-69.97500000000002,41.22723830000001],[-69.97500000000002,41.22698320000001],[-69.97500000000002,41.226303900000005],[-69.97500000000002,41.22623729999998],[-69.97500000000002,41.226151200000004],[-69.97500000000002,41.22581650000001],[-69.97500000000002,41.22553140000002],[-69.97500000000002,41.223221799999976],[-69.97500000000002,41.22150599999998],[-69.97500000000002,41.22124409999998],[-69.97500000000002,41.22040750000002],[-69.97500000000002,41.21864499999998],[-69.97500000000002,41.218480899999975],[-69.97500000000002,41.21847889999998],[-69.97500000000002,41.2184077],[-69.97500000000002,41.21838250000002],[-69.97500000000002,41.21773719999999],[-69.97500000000002,41.217562799999996],[-69.97500000000002,41.216544699999986],[-69.97500000000002,41.216428199999996],[-69.97500000000002,41.21627940000002],[-69.97500000000002,41.2162108],[-69.97500000000002,41.21606059999999],[-69.97500000000002,41.21577309999998],[-69.97500000000002,41.21347589999999],[-69.97500000000002,41.213129200000026],[-69.97500000000002,41.2130942],[-69.97500000000002,41.212980200000004],[-69.97500000000002,41.208859700000005],[-69.97500000000002,41.208731899999975],[-69.97500000000002,41.208052699999996],[-69.97500000000002,41.207931900000005],[-69.97500000000002,41.20605280000001],[-69.97500000000002,41.20594599999998],[-69.97500000000002,41.20577479999997],[-69.97500000000002,41.20498170000002],[-69.97500000000002,41.20483250000001],[-69.97500000000002,41.20481000000001],[-69.97500000000002,41.204585099999974],[-69.97500000000002,41.204535599999986],[-69.97500000000002,41.204484200000024],[-69.97500000000002,41.20437939999999],[-69.97500000000002,41.20437879999997],[-69.97500000000002,41.204317600000024],[-69.97500000000002,41.20425710000001],[-69.97500000000002,41.1940841],[-69.97500000000002,41.19371910000001],[-69.97500000000002,41.19348179999997],[-69.97500000000002,41.18609300000003],[-69.97500000000002,41.18608089999998],[-69.97500000000002,41.18490880000002],[-69.97500000000002,41.18487649999997],[-69.97500000000002,41.184795699999995],[-69.97500000000002,41.184660199999996],[-69.97500000000002,41.18460160000001],[-69.97500000000002,41.18391600000001],[-69.97500000000002,41.1834556],[-69.97500000000002,41.18311030000001],[-69.97500000000002,41.18018860000001],[-69.97500000000002,41.179921999999976],[-69.97500000000002,41.17992129999999],[-69.97500000000002,41.179920200000026],[-69.97500000000002,41.17736159999998],[-69.97500000000002,41.17727860000002],[-69.97500000000002,41.177256],[-69.97500000000002,41.17725230000002],[-69.97500000000002,41.17714710000001],[-69.97500000000002,41.176719100000014],[-69.97500000000002,41.17539849999997],[-69.97500000000002,41.17500000000001],[-69.98029930000001,41.17500000000001],[-69.99473189999998,41.17500000000001],[-69.99480089999997,41.17500000000001],[-69.99487649999998,41.17500000000001],[-69.99540560000003,41.17500000000001],[-69.9954722,41.17500000000001],[-69.99554210000002,41.17500000000001],[-69.99777039999998,41.17500000000001],[-69.99784790000001,41.17500000000001],[-69.99792760000003,41.17500000000001],[-69.99815949999999,41.17500000000001],[-69.99865790000001,41.17500000000001],[-69.9987865,41.17500000000001],[-69.99885890000002,41.17500000000001],[-70.0000427,41.17500000000001],[-70.00011660000001,41.17500000000001],[-70.00024830000001,41.17500000000001],[-70.00069009999999,41.17500000000001],[-70.00111909999998,41.17500000000001],[-70.00114439999999,41.17500000000001],[-70.00164669999998,41.17500000000001],[-70.00180310000002,41.17500000000001],[-70.00268620000003,41.17500000000001],[-70.00380710000002,41.17500000000001],[-70.0062125,41.17500000000001],[-70.00686280000002,41.17500000000001],[-70.00781619999998,41.17500000000001],[-70.01814539999998,41.17500000000001],[-70.02102350000001,41.17500000000001],[-70.02412179999999,41.17500000000001],[-70.0252625,41.17500000000001],[-70.03176020000001,41.17500000000001],[-70.03465360000001,41.17500000000001]]]}},{"type":"Feature","properties":{},"geometry":{"type":"Polygon","coordinates":[[[-69.9739017,41.17500000000001],[-69.97420549999998,41.17500000000001],[-69.97500000000002,41.17500000000001],[-69.97500000000002,41.17714710000001],[-69.97500000000002,41.17725230000002],[-69.97500000000002,41.177256],[-69.97500000000002,41.17727860000002],[-69.97500000000002,41.179920200000026],[-69.97500000000002,41.17992129999999],[-69.97500000000002,41.179921999999976],[-69.97500000000002,41.18311030000001],[-69.97500000000002,41.1834556],[-69.97500000000002,41.18391600000001],[-69.97500000000002,41.184660199999996],[-69.97500000000002,41.184795699999995],[-69.97500000000002,41.18487649999997],[-69.97500000000002,41.18490880000002],[-69.97500000000002,41.18608089999998],[-69.97500000000002,41.18609300000003],[-69.97500000000002,41.19348179999997],[-69.97500000000002,41.19371910000001],[-69.97500000000002,41.1940841],[-69.97500000000002,41.20425710000001],[-69.97500000000002,41.204317600000024],[-69.97500000000002,41.20437879999997],[-69.97500000000002,41.20437939999999],[-69.97500000000002,41.204484200000024],[-69.97500000000002,41.204535599999986],[-69.97500000000002,41.204585099999974],[-69.97500000000002,41.20481000000001],[-69.97500000000002,41.20483250000001],[-69.97500000000002,41.20498170000002],[-69.97500000000002,41.20577479999997],[-69.97500000000002,41.20594599999998],[-69.97500000000002,41.20605280000001],[-69.97500000000002,41.207931900000005],[-69.97500000000002,41.208052699999996],[-69.97500000000002,41.208731899999975],[-69.97500000000002,41.208859700000005],[-69.97500000000002,41.212980200000004],[-69.97500000000002,41.2130942],[-69.97500000000002,41.213129200000026],[-69.97500000000002,41.21577309999998],[-69.97500000000002,41.21606059999999],[-69.97500000000002,41.2162108],[-69.97500000000002,41.21627940000002],[-69.97500000000002,41.216428199999996],[-69.97500000000002,41.216544699999986],[-69.97500000000002,41.21773719999999],[-69.97500000000002,41.21838250000002],[-69.97500000000002,41.2184077],[-69.97500000000002,41.21847889999998],[-69.97500000000002,41.218480899999975],[-69.97500000000002,41.21864499999998],[-69.97500000000002,41.22040750000002],[-69.97500000000002,41.22124409999998],[-69.97500000000002,41.22150599999998],[-69.97500000000002,41.223221799999976],[-69.97500000000002,41.22553140000002],[-69.97500000000002,41.226151200000004],[-69.97500000000002,41.22623729999998],[-69.97500000000002,41.226303900000005],[-69.97500000000002,41.22723830000001],[-69.97500000000002,41.22726019999999],[-69.97500000000002,41.227290700000026],[-69.97500000000002,41.228002600000025],[-69.97500000000002,41.22969230000001],[-69.97500000000002,41.229722700000025],[-69.97500000000002,41.229781],[-69.97500000000002,41.23044820000001],[-69.97500000000002,41.23054159999998],[-69.97500000000002,41.23055979999998],[-69.97500000000002,41.23080700000003],[-69.97500000000002,41.23081029999997],[-69.97500000000002,41.23085789999999],[-69.97500000000002,41.23091440000002],[-69.97500000000002,41.23092170000001],[-69.97500000000002,41.23454939999999],[-69.97500000000002,41.23495150000002],[-69.97500000000002,41.2349782],[-69.97500000000002,41.23501950000002],[-69.97500000000002,41.236684500000024],[-69.97500000000002,41.23669810000001],[-69.97500000000002,41.23829619999998],[-69.97500000000002,41.238367400000016],[-69.97500000000002,41.23946410000002],[-69.97500000000002,41.23981909999998],[-69.97500000000002,41.23988509999998],[-69.97500000000002,41.24143609999999],[-69.97500000000002,41.243171399999994],[-69.97500000000002,41.24347770000003],[-69.97500000000002,41.243715399999985],[-69.97500000000002,41.24435299999999],[-69.97500000000002,41.245188600000006],[-69.97500000000002,41.2456947],[-69.97500000000002,41.24576969999998],[-69.97500000000002,41.24582400000003],[-69.97500000000002,41.24588440000002],[-69.97500000000002,41.24590540000003],[-69.97500000000002,41.24698289999998],[-69.97500000000002,41.24699509999999],[-69.97500000000002,41.2470773],[-69.97500000000002,41.24708240000001],[-69.97500000000002,41.247531400000014],[-69.97500000000002,41.24754780000001],[-69.97500000000002,41.24755579999999],[-69.97500000000002,41.25],[-69.97486359999999,41.25],[-69.97024390000001,41.25],[-69.96944919999999,41.25],[-69.96932479999998,41.25],[-69.96895319999999,41.25],[-69.96860370000002,41.25],[-69.96843589999997,41.25],[-69.96836710000002,41.25],[-69.96833459999999,41.25],[-69.96768659999998,41.25],[-69.9669753,41.25],[-69.9660639,41.25],[-69.96589929999999,41.25],[-69.96587740000001,41.25],[-69.96586910000002,41.25],[-69.96582169999999,41.25],[-69.96565950000002,41.25],[-69.96518789999999,41.25],[-69.960038,41.25],[-69.95948049999998,41.25],[-69.95917170000001,41.25],[-69.95518220000002,41.25],[-69.95419729999998,41.25],[-69.95379689999999,41.25],[-69.9535014,41.25],[-69.9529827,41.25],[-69.95227060000002,41.25],[-69.94810719999998,41.25],[-69.94714970000001,41.25],[-69.94548520000001,41.25],[-69.94548359999999,41.25],[-69.94536069999998,41.25],[-69.94533380000001,41.25],[-69.94495949999998,41.25],[-69.94487429999998,41.25],[-69.94461910000001,41.25],[-69.94460350000003,41.25],[-69.94458300000002,41.25],[-69.94453929999997,41.25],[-69.9444097,41.25],[-69.94328050000001,41.25],[-69.94293110000001,41.25],[-69.9428997,41.25],[-69.94280880000002,41.25],[-69.94271600000002,41.25],[-69.94265469999999,41.25],[-69.9423329,41.25],[-69.94174229999999,41.25],[-69.94114230000002,41.25],[-69.94111709999999,41.25],[-69.9408454,41.25],[-69.94076209999997,41.25],[-69.94039830000003,41.25],[-69.94035639999998,41.25],[-69.93990769999999,41.25],[-69.93982369999998,41.25],[-69.9395417,41.25],[-69.93951959999998,41.25],[-69.93566220000002,41.25],[-69.93559470000002,41.25],[-69.9355822,41.25],[-69.93551609999997,41.25],[-69.9354864,41.25],[-69.93216510000002,41.25],[-69.9267572,41.25],[-69.92666809999997,41.25],[-69.92666630000002,41.25],[-69.92575740000001,41.25],[-69.92442999999997,41.25],[-69.92100260000001,41.25],[-69.92085170000001,41.25],[-69.92082779999998,41.25],[-69.9207725,41.25],[-69.9189139,41.25],[-69.91612500000002,41.25],[-69.91550760000001,41.25],[-69.9154878,41.25],[-69.9154039,41.25],[-69.91474410000001,41.25],[-69.91442990000002,41.25],[-69.91434800000002,41.25],[-69.91379569999998,41.25],[-69.91295430000002,41.25],[-69.91291589999997,41.25],[-69.91165790000002,41.25],[-69.91107349999999,41.25],[-69.90955179999997,41.25],[-69.909358,41.25],[-69.9091158,41.25],[-69.90846859999999,41.25],[-69.9083642,41.25],[-69.90792929999998,41.25],[-69.90783829999998,41.25],[-69.9076202,41.25],[-69.90739239999999,41.25],[-69.90736520000002,41.25],[-69.90515479999999,41.25],[-69.9048343,41.25],[-69.9042177,41.25],[-69.9041267,41.25],[-69.9039535,41.25],[-69.90305230000001,41.25],[-69.90286459999999,41.25],[-69.90142220000001,41.25],[-69.89999999999998,41.25],[-69.89999999999998,41.249894100000006],[-69.89999999999998,41.249826799999994],[-69.89999999999998,41.2497151],[-69.89999999999998,41.24909819999999],[-69.89999999999998,41.24844730000001],[-69.89999999999998,41.247507600000006],[-69.89999999999998,41.24737929999998],[-69.89999999999998,41.24607689999999],[-69.89999999999998,41.245101999999974],[-69.89999999999998,41.245039899999995],[-69.89999999999998,41.244990900000005],[-69.89999999999998,41.244978],[-69.89999999999998,41.244945400000006],[-69.89999999999998,41.24477710000002],[-69.89999999999998,41.24402229999998],[-69.89999999999998,41.24397920000001],[-69.89999999999998,41.24373120000001],[-69.89999999999998,41.2436343],[-69.89999999999998,41.24354469999997],[-69.89999999999998,41.24349719999998],[-69.89999999999998,41.24306109999998],[-69.89999999999998,41.23981650000002],[-69.89999999999998,41.23972509999999],[-69.89999999999998,41.23927520000001],[-69.89999999999998,41.22686920000001],[-69.89999999999998,41.22634900000003],[-69.89999999999998,41.224976500000025],[-69.89999999999998,41.224328300000025],[-69.89999999999998,41.22416720000001],[-69.89999999999998,41.22373809999999],[-69.89999999999998,41.223262499999976],[-69.89999999999998,41.1929834],[-69.89999999999998,41.192765399999985],[-69.89999999999998,41.192297999999994],[-69.89999999999998,41.188426900000024],[-69.89999999999998,41.18520430000001],[-69.89999999999998,41.185074799999995],[-69.89999999999998,41.18503479999998],[-69.89999999999998,41.1845811],[-69.89999999999998,41.184522800000025],[-69.89999999999998,41.1841407],[-69.89999999999998,41.18308339999999],[-69.89999999999998,41.18286610000001],[-69.89999999999998,41.1789885],[-69.89999999999998,41.178105800000026],[-69.89999999999998,41.17804410000002],[-69.89999999999998,41.17693489999999],[-69.89999999999998,41.17692579999999],[-69.89999999999998,41.1768629],[-69.89999999999998,41.17682860000002],[-69.89999999999998,41.1767911],[-69.89999999999998,41.17500000000001],[-69.9006498,41.17500000000001],[-69.9007603,41.17500000000001],[-69.90132770000002,41.17500000000001],[-69.9027218,41.17500000000001],[-69.90273000000002,41.17500000000001],[-69.9067829,41.17500000000001],[-69.9068696,41.17500000000001],[-69.90689049999997,41.17500000000001],[-69.90927629999999,41.17500000000001],[-69.92686889999999,41.17500000000001],[-69.92687389999998,41.17500000000001],[-69.92698489999998,41.17500000000001],[-69.9279808,41.17500000000001],[-69.93512320000002,41.17500000000001],[-69.93518269999998,41.17500000000001],[-69.9352978,41.17500000000001],[-69.93728959999999,41.17500000000001],[-69.93730670000002,41.17500000000001],[-69.93735600000002,41.17500000000001],[-69.93736589999997,41.17500000000001],[-69.93741119999999,41.17500000000001],[-69.937433,41.17500000000001],[-69.93750970000002,41.17500000000001],[-69.93818959999999,41.17500000000001],[-69.9411341,41.17500000000001],[-69.94132430000002,41.17500000000001],[-69.94358269999998,41.17500000000001],[-69.94359739999999,41.17500000000001],[-69.94361550000002,41.17500000000001],[-69.94446160000001,41.17500000000001],[-69.94449159999999,41.17500000000001],[-69.94458459999998,41.17500000000001],[-69.94516579999998,41.17500000000001],[-69.94524710000002,41.17500000000001],[-69.9453939,41.17500000000001],[-69.94544409999997,41.17500000000001],[-69.94548129999998,41.17500000000001],[-69.9492373,41.17500000000001],[-69.94924220000001,41.17500000000001],[-69.95108249999998,41.17500000000001],[-69.95109439999999,41.17500000000001],[-69.95118760000003,41.17500000000001],[-69.9514375,41.17500000000001],[-69.95151650000003,41.17500000000001],[-69.9515242,41.17500000000001],[-69.95221809999998,41.17500000000001],[-69.952337,41.17500000000001],[-69.952426,41.17500000000001],[-69.95326829999999,41.17500000000001],[-69.95335720000003,41.17500000000001],[-69.9533576,41.17500000000001],[-69.95505530000003,41.17500000000001],[-69.95505689999999,41.17500000000001],[-69.95514129999998,41.17500000000001],[-69.95623210000002,41.17500000000001],[-69.95632740000002,41.17500000000001],[-69.9570746,41.17500000000001],[-69.9571492,41.17500000000001],[-69.95715330000002,41.17500000000001],[-69.95719020000001,41.17500000000001],[-69.9603267,41.17500000000001],[-69.96032960000002,41.17500000000001],[-69.96034270000001,41.17500000000001],[-69.96139570000003,41.17500000000001],[-69.96146149999998,41.17500000000001],[-69.9615402,41.17500000000001],[-69.96301440000002,41.17500000000001],[-69.96305949999999,41.17500000000001],[-69.96308549999998,41.17500000000001],[-69.96405529999998,41.17500000000001],[-69.96407199999999,41.17500000000001],[-69.9647218,41.17500000000001],[-69.96472820000002,41.17500000000001],[-69.96543200000002,41.17500000000001],[-69.9654382,41.17500000000001],[-69.96675199999999,41.17500000000001],[-69.96676839999998,41.17500000000001],[-69.9676541,41.17500000000001],[-69.96766639999998,41.17500000000001],[-69.96767299999999,41.17500000000001],[-69.972327,41.17500000000001],[-69.97233990000001,41.17500000000001],[-69.9739017,41.17500000000001]]]}},{"type":"Feature","properties":{},"geometry":{"type":"Polygon","coordinates":[[[-70.04994149999999,41.25],[-70.05000000000001,41.25],[-70.05000000000001,41.25004419999999],[-70.05000000000001,41.29382900000002],[-70.05000000000001,41.2952171],[-70.05000000000001,41.295768099999975],[-70.05000000000001,41.295796800000005],[-70.05000000000001,41.29591190000002],[-70.05000000000001,41.301611200000025],[-70.05000000000001,41.301740300000006],[-70.05000000000001,41.30358319999999],[-70.05000000000001,41.30387510000003],[-70.05000000000001,41.30738339999999],[-70.05000000000001,41.30844139999999],[-70.05000000000001,41.314939400000014],[-70.05000000000001,41.31498970000001],[-70.05000000000001,41.315017599999976],[-70.05000000000001,41.31523579999998],[-70.05000000000001,41.31860799999998],[-70.05000000000001,41.31888090000001],[-70.05000000000001,41.31895370000001],[-70.05000000000001,41.31902880000001],[-70.05000000000001,41.323486100000025],[-70.05000000000001,41.323570399999994],[-70.05000000000001,41.32393250000001],[-70.05000000000001,41.32483760000002],[-70.05000000000001,41.32499999999999],[-70.04968409999998,41.32499999999999],[-70.04364500000003,41.32499999999999],[-70.04353040000001,41.32499999999999],[-70.0432166,41.32499999999999],[-70.0389141,41.32499999999999],[-70.03813020000001,41.32499999999999],[-70.03765879999997,41.32499999999999],[-70.03582920000002,41.32499999999999],[-70.03534960000002,41.32499999999999],[-70.03527880000001,41.32499999999999],[-70.03511709999998,41.32499999999999],[-70.02854150000002,41.32499999999999],[-70.02320939999998,41.32499999999999],[-70.02185680000002,41.32499999999999],[-70.01352079999998,41.32499999999999],[-70.00218430000001,41.32499999999999],[-70.00191669999998,41.32499999999999],[-70.00132680000002,41.32499999999999],[-69.99126619999998,41.32499999999999],[-69.99088440000003,41.32499999999999],[-69.99072660000002,41.32499999999999],[-69.99017620000001,41.32499999999999],[-69.98798690000001,41.32499999999999],[-69.97974490000001,41.32499999999999],[-69.9756276,41.32499999999999],[-69.97500000000002,41.32499999999999],[-69.97500000000002,41.3175698],[-69.97500000000002,41.317451300000016],[-69.97500000000002,41.303643299999976],[-69.97500000000002,41.301890000000014],[-69.97500000000002,41.3015479],[-69.97500000000002,41.30143179999999],[-69.97500000000002,41.301349500000015],[-69.97500000000002,41.300887999999986],[-69.97500000000002,41.30055829999998],[-69.97500000000002,41.29912780000001],[-69.97500000000002,41.29181139999997],[-69.97500000000002,41.25],[-70.04994149999999,41.25]]]}},{"type":"Feature","properties":{},"geometry":{"type":"Polygon","coordinates":[[[-69.97486359999999,41.25],[-69.97500000000002,41.25],[-69.97500000000002,41.29181139999997],[-69.97500000000002,41.29912780000001],[-69.97500000000002,41.30055829999998],[-69.97500000000002,41.300887999999986],[-69.97500000000002,41.301349500000015],[-69.97500000000002,41.30143179999999],[-69.97500000000002,41.3015479],[-69.97500000000002,41.301890000000014],[-69.97500000000002,41.30202200000002],[-69.97500000000002,41.30210740000001],[-69.97500000000002,41.303643299999976],[-69.97500000000002,41.30384079999999],[-69.97500000000002,41.30455569999998],[-69.97500000000002,41.30704320000001],[-69.97500000000002,41.317451300000016],[-69.97500000000002,41.3175698],[-69.97500000000002,41.31852759999998],[-69.97500000000002,41.32499999999999],[-69.96877330000001,41.32499999999999],[-69.96532100000002,41.32499999999999],[-69.96481820000002,41.32499999999999],[-69.96327330000003,41.32499999999999],[-69.96287160000003,41.32499999999999],[-69.96206480000001,41.32499999999999],[-69.9577031,41.32499999999999],[-69.94723449999998,41.32499999999999],[-69.94686009999998,41.32499999999999],[-69.94211760000002,41.32499999999999],[-69.92873500000002,41.32499999999999],[-69.92488700000001,41.32499999999999],[-69.91734839999998,41.32499999999999],[-69.91697520000002,41.32499999999999],[-69.9167895,41.32499999999999],[-69.91641879999997,41.32499999999999],[-69.91612500000002,41.32499999999999],[-69.9127201,41.32499999999999],[-69.91092450000002,41.32499999999999],[-69.91038209999999,41.32499999999999],[-69.90672369999999,41.32499999999999],[-69.90368840000002,41.32499999999999],[-69.89999999999998,41.32499999999999],[-69.89999999999998,41.319130400000006],[-69.89999999999998,41.31722350000001],[-69.89999999999998,41.31564329999998],[-69.89999999999998,41.31025039999997],[-69.89999999999998,41.30991660000001],[-69.89999999999998,41.30943530000002],[-69.89999999999998,41.3075298],[-69.89999999999998,41.30597],[-69.89999999999998,41.305635600000016],[-69.89999999999998,41.30326910000002],[-69.89999999999998,41.3020588],[-69.89999999999998,41.29930839999997],[-69.89999999999998,41.29857980000003],[-69.89999999999998,41.29758629999998],[-69.89999999999998,41.29417710000001],[-69.89999999999998,41.29347560000002],[-69.89999999999998,41.28729120000003],[-69.89999999999998,41.28671650000001],[-69.89999999999998,41.28373019999998],[-69.89999999999998,41.281986700000004],[-69.89999999999998,41.281498699999986],[-69.89999999999998,41.278438600000015],[-69.89999999999998,41.27811220000001],[-69.89999999999998,41.27739120000001],[-69.89999999999998,41.277287899999976],[-69.89999999999998,41.276148999999975],[-69.89999999999998,41.271337200000005],[-69.89999999999998,41.27112149999999],[-69.89999999999998,41.27001680000001],[-69.89999999999998,41.269205],[-69.89999999999998,41.2682274],[-69.89999999999998,41.267446699999994],[-69.89999999999998,41.26710589999999],[-69.89999999999998,41.2667922],[-69.89999999999998,41.2664097],[-69.89999999999998,41.26532479999997],[-69.89999999999998,41.26335069999999],[-69.89999999999998,41.26026760000002],[-69.89999999999998,41.25259460000001],[-69.89999999999998,41.25211389999998],[-69.89999999999998,41.25102670000001],[-69.89999999999998,41.250794499999984],[-69.89999999999998,41.25009369999998],[-69.89999999999998,41.25],[-69.90142220000001,41.25],[-69.90286459999999,41.25],[-69.90305230000001,41.25],[-69.9039535,41.25],[-69.9048343,41.25],[-69.90736520000002,41.25],[-69.9076202,41.25],[-69.9083642,41.25],[-69.90846859999999,41.25],[-69.9091158,41.25],[-69.909358,41.25],[-69.91165790000002,41.25],[-69.91295430000002,41.25],[-69.91379569999998,41.25],[-69.91434800000002,41.25],[-69.91442990000002,41.25],[-69.91474410000001,41.25],[-69.91550760000001,41.25],[-69.91612500000002,41.25],[-69.9189139,41.25],[-69.92082779999998,41.25],[-69.92666809999997,41.25],[-69.9354864,41.25],[-69.9395417,41.25],[-69.94035639999998,41.25],[-69.94039830000003,41.25],[-69.94111709999999,41.25],[-69.94174229999999,41.25],[-69.9423329,41.25],[-69.94271600000002,41.25],[-69.94293110000001,41.25],[-69.94328050000001,41.25],[-69.944229,41.25],[-69.94429819999999,41.25],[-69.9444097,41.25],[-69.94453929999997,41.25],[-69.94560660000002,41.25],[-69.95227060000002,41.25],[-69.9529827,41.25],[-69.9535014,41.25],[-69.95419729999998,41.25],[-69.95917170000001,41.25],[-69.95935750000001,41.25],[-69.95948049999998,41.25],[-69.960038,41.25],[-69.96518789999999,41.25],[-69.96586910000002,41.25],[-69.9669753,41.25],[-69.96768659999998,41.25],[-69.96833459999999,41.25],[-69.96860370000002,41.25],[-69.96895319999999,41.25],[-69.96932479999998,41.25],[-69.96944919999999,41.25],[-69.9697367,41.25],[-69.9698507,41.25],[-69.97024390000001,41.25],[-69.97486359999999,41.25]]]}},{"type":"Feature","properties":{},"geometry":{"type":"Polygon","coordinates":[[[-70.04968409999998,41.32499999999999],[-70.0497805,41.32499999999999],[-70.05000000000001,41.32499999999999],[-70.05000000000001,41.326371600000016],[-70.05000000000001,41.327101400000004],[-70.05000000000001,41.32753530000002],[-70.05000000000001,41.328093000000024],[-70.05000000000001,41.32913860000002],[-70.05000000000001,41.33117499999997],[-70.05000000000001,41.33217939999997],[-70.05000000000001,41.334992],[-70.05000000000001,41.33587130000001],[-70.05000000000001,41.3386605],[-70.05000000000001,41.345977800000014],[-70.05000000000001,41.3583759],[-70.05000000000001,41.35874940000002],[-70.05000000000001,41.35891830000003],[-70.05000000000001,41.3690608],[-70.05000000000001,41.37293260000001],[-70.05000000000001,41.37502189999998],[-70.05000000000001,41.38127420000001],[-70.05000000000001,41.384269700000004],[-70.05000000000001,41.385388999999975],[-70.05000000000001,41.38550650000002],[-70.05000000000001,41.38560460000002],[-70.05000000000001,41.385841500000026],[-70.05000000000001,41.385951999999975],[-70.05000000000001,41.38640120000002],[-70.05000000000001,41.387020699999994],[-70.05000000000001,41.387467000000015],[-70.05000000000001,41.38768479999999],[-70.05000000000001,41.38819719999998],[-70.05000000000001,41.39090490000001],[-70.05000000000001,41.391742799999975],[-70.05000000000001,41.3918956],[-70.05000000000001,41.391938400000015],[-70.05000000000001,41.392021399999976],[-70.05000000000001,41.395347300000026],[-70.05000000000001,41.39868710000002],[-70.05000000000001,41.399096199999974],[-70.05000000000001,41.39954719999997],[-70.05000000000001,41.39971969999999],[-70.05000000000001,41.39990749999998],[-70.05000000000001,41.39999999999998],[-70.04989369999998,41.39999999999998],[-70.04968880000001,41.39999999999998],[-70.04956170000003,41.39999999999998],[-70.04899390000003,41.39999999999998],[-70.04861249999999,41.39999999999998],[-70.04681210000001,41.39999999999998],[-70.04658799999999,41.39999999999998],[-70.0453407,41.39999999999998],[-70.0441338,41.39999999999998],[-70.03639320000002,41.39999999999998],[-70.02932220000002,41.39999999999998],[-70.02246400000001,41.39999999999998],[-70.02169730000003,41.39999999999998],[-70.0213794,41.39999999999998],[-70.01187599999997,41.39999999999998],[-70.00886839999998,41.39999999999998],[-70.0074826,41.39999999999998],[-70.0051972,41.39999999999998],[-70.00421319999998,41.39999999999998],[-69.99713159999999,41.39999999999998],[-69.9870497,41.39999999999998],[-69.97500000000002,41.39999999999998],[-69.97500000000002,41.398896200000024],[-69.97500000000002,41.39820520000001],[-69.97500000000002,41.39037480000002],[-69.97500000000002,41.3844833],[-69.97500000000002,41.3806275],[-69.97500000000002,41.37761979999999],[-69.97500000000002,41.37081710000001],[-69.97500000000002,41.36471319999998],[-69.97500000000002,41.35667840000002],[-69.97500000000002,41.353821100000005],[-69.97500000000002,41.3533731],[-69.97500000000002,41.34963049999999],[-69.97500000000002,41.34765090000002],[-69.97500000000002,41.34309860000002],[-69.97500000000002,41.33967799999999],[-69.97500000000002,41.3316691],[-69.97500000000002,41.32499999999999],[-69.9756276,41.32499999999999],[-69.9757454,41.32499999999999],[-69.97974490000001,41.32499999999999],[-69.98303149999998,41.32499999999999],[-69.98798690000001,41.32499999999999],[-69.98804469999999,41.32499999999999],[-69.98921150000001,41.32499999999999],[-69.98973899999999,41.32499999999999],[-69.99017620000001,41.32499999999999],[-69.99020860000002,41.32499999999999],[-69.99072660000002,41.32499999999999],[-69.99088440000003,41.32499999999999],[-69.99126619999998,41.32499999999999],[-70.00132680000002,41.32499999999999],[-70.00191669999998,41.32499999999999],[-70.00218430000001,41.32499999999999],[-70.01340779999998,41.32499999999999],[-70.01352079999998,41.32499999999999],[-70.02159740000002,41.32499999999999],[-70.02185680000002,41.32499999999999],[-70.02320939999998,41.32499999999999],[-70.02840529999997,41.32499999999999],[-70.02854150000002,41.32499999999999],[-70.02873599999998,41.32499999999999],[-70.03511709999998,41.32499999999999],[-70.03534960000002,41.32499999999999],[-70.03582920000002,41.32499999999999],[-70.03765879999997,41.32499999999999],[-70.03813020000001,41.32499999999999],[-70.0389141,41.32499999999999],[-70.0432166,41.32499999999999],[-70.04353040000001,41.32499999999999],[-70.04364500000003,41.32499999999999],[-70.047935,41.32499999999999],[-70.04842880000001,41.32499999999999],[-70.04951590000002,41.32499999999999],[-70.04968409999998,41.32499999999999]]]}},{"type":"Feature","properties":{},"geometry":{"type":"Polygon","coordinates":[[[-69.96892309999998,41.32499999999999],[-69.97500000000002,41.32499999999999],[-69.97500000000002,41.3316691],[-69.97500000000002,41.33967799999999],[-69.97500000000002,41.34309860000002],[-69.97500000000002,41.34765090000002],[-69.97500000000002,41.34963049999999],[-69.97500000000002,41.3533731],[-69.97500000000002,41.353821100000005],[-69.97500000000002,41.35667840000002],[-69.97500000000002,41.36471319999998],[-69.97500000000002,41.37081710000001],[-69.97500000000002,41.37761979999999],[-69.97500000000002,41.3806275],[-69.97500000000002,41.3844833],[-69.97500000000002,41.39037480000002],[-69.97500000000002,41.39820520000001],[-69.97500000000002,41.398896200000024],[-69.97500000000002,41.39999999999998],[-69.97291139999999,41.39999999999998],[-69.9689689,41.39999999999998],[-69.96839829999999,41.39999999999998],[-69.9678063,41.39999999999998],[-69.96052709999998,41.39999999999998],[-69.95906609999997,41.39999999999998],[-69.95479660000001,41.39999999999998],[-69.9543612,41.39999999999998],[-69.95387770000002,41.39999999999998],[-69.94686610000002,41.39999999999998],[-69.93435449999998,41.39999999999998],[-69.93238300000002,41.39999999999998],[-69.9323324,41.39999999999998],[-69.9231307,41.39999999999998],[-69.91714289999999,41.39999999999998],[-69.9156001,41.39999999999998],[-69.91549090000001,41.39999999999998],[-69.9133473,41.39999999999998],[-69.90474619999998,41.39999999999998],[-69.90198880000003,41.39999999999998],[-69.90066999999999,41.39999999999998],[-69.89999999999998,41.39999999999998],[-69.89999999999998,41.39844260000001],[-69.89999999999998,41.39774010000002],[-69.89999999999998,41.3964282],[-69.89999999999998,41.3964072],[-69.89999999999998,41.3908088],[-69.89999999999998,41.39057200000002],[-69.89999999999998,41.389304400000015],[-69.89999999999998,41.38828890000002],[-69.89999999999998,41.387889099999995],[-69.89999999999998,41.38411079999997],[-69.89999999999998,41.383333300000004],[-69.89999999999998,41.38175480000001],[-69.89999999999998,41.38118969999999],[-69.89999999999998,41.378689399999985],[-69.89999999999998,41.36814450000003],[-69.89999999999998,41.36620970000001],[-69.89999999999998,41.36398129999998],[-69.89999999999998,41.362821],[-69.89999999999998,41.36101689999998],[-69.89999999999998,41.36024600000002],[-69.89999999999998,41.3584644],[-69.89999999999998,41.357597],[-69.89999999999998,41.35669630000001],[-69.89999999999998,41.356216399999994],[-69.89999999999998,41.33928179999998],[-69.89999999999998,41.33900440000002],[-69.89999999999998,41.33857419999998],[-69.89999999999998,41.3376384],[-69.89999999999998,41.33700570000002],[-69.89999999999998,41.33589919999997],[-69.89999999999998,41.33030339999999],[-69.89999999999998,41.3300749],[-69.89999999999998,41.328352300000006],[-69.89999999999998,41.32499999999999],[-69.90368840000002,41.32499999999999],[-69.90672369999999,41.32499999999999],[-69.91038209999999,41.32499999999999],[-69.91092450000002,41.32499999999999],[-69.91230050000001,41.32499999999999],[-69.9127201,41.32499999999999],[-69.91612500000002,41.32499999999999],[-69.91641879999997,41.32499999999999],[-69.9167895,41.32499999999999],[-69.91697520000002,41.32499999999999],[-69.91734839999998,41.32499999999999],[-69.92488700000001,41.32499999999999],[-69.92492449999997,41.32499999999999],[-69.9285443,41.32499999999999],[-69.92873500000002,41.32499999999999],[-69.94211760000002,41.32499999999999],[-69.9431399,41.32499999999999],[-69.94686009999998,41.32499999999999],[-69.94723449999998,41.32499999999999],[-69.9577031,41.32499999999999],[-69.96206480000001,41.32499999999999],[-69.96220290000002,41.32499999999999],[-69.96266170000001,41.32499999999999],[-69.96287160000003,41.32499999999999],[-69.96327330000003,41.32499999999999],[-69.96481820000002,41.32499999999999],[-69.96526239999997,41.32499999999999],[-69.96532100000002,41.32499999999999],[-69.96892309999998,41.32499999999999]]]}},{"type":"Feature","properties":{},"geometry":{"type":"Polygon","coordinates":[[[-70.04709509999998,41.47500000000002],[-70.05000000000001,41.47500000000002],[-70.05000000000001,41.47703180000002],[-70.05000000000001,41.47724360000001],[-70.05000000000001,41.4806562],[-70.05000000000001,41.48172920000002],[-70.05000000000001,41.49471310000001],[-70.05000000000001,41.495940899999994],[-70.05000000000001,41.49916459999997],[-70.05000000000001,41.50397409999999],[-70.05000000000001,41.50606620000002],[-70.05000000000001,41.5100137],[-70.05000000000001,41.510641899999996],[-70.05000000000001,41.511744599999986],[-70.05000000000001,41.51349809999999],[-70.05000000000001,41.51467789999998],[-70.05000000000001,41.514934400000016],[-70.05000000000001,41.5155838],[-70.05000000000001,41.516181500000016],[-70.05000000000001,41.5164211],[-70.05000000000001,41.51668380000001],[-70.05000000000001,41.51688109999998],[-70.05000000000001,41.517622700000004],[-70.05000000000001,41.517661299999986],[-70.05000000000001,41.51827159999999],[-70.05000000000001,41.51961319999998],[-70.05000000000001,41.52352389999999],[-70.05000000000001,41.5239191],[-70.05000000000001,41.5260897],[-70.05000000000001,41.52737209999998],[-70.05000000000001,41.528900599999986],[-70.05000000000001,41.52992979999999],[-70.05000000000001,41.532947999999976],[-70.05000000000001,41.53417969999998],[-70.05000000000001,41.536514899999986],[-70.05000000000001,41.55000000000001],[-70.04717570000003,41.55000000000001],[-70.04591479999999,41.55000000000001],[-70.0456107,41.55000000000001],[-70.04325160000002,41.55000000000001],[-70.04274149999998,41.55000000000001],[-70.0426582,41.55000000000001],[-70.0425745,41.55000000000001],[-70.03694050000001,41.55000000000001],[-70.03527650000001,41.55000000000001],[-70.03519240000003,41.55000000000001],[-70.0323525,41.55000000000001],[-70.03215419999998,41.55000000000001],[-70.03102000000001,41.55000000000001],[-70.0287217,41.55000000000001],[-70.02247260000001,41.55000000000001],[-70.02181999999999,41.55000000000001],[-70.0215149,41.55000000000001],[-70.02113980000001,41.55000000000001],[-70.02017239999998,41.55000000000001],[-70.01969689999999,41.55000000000001],[-70.01886339999999,41.55000000000001],[-70.01836370000001,41.55000000000001],[-70.01758899999999,41.55000000000001],[-70.01749109999997,41.55000000000001],[-70.0173524,41.55000000000001],[-70.01716379999999,41.55000000000001],[-70.01659669999998,41.55000000000001],[-70.01596610000001,41.55000000000001],[-70.0152716,41.55000000000001],[-70.0129662,41.55000000000001],[-70.01272469999998,41.55000000000001],[-69.99032849999998,41.55000000000001],[-69.99002359999997,41.55000000000001],[-69.9897813,41.55000000000001],[-69.98869050000002,41.55000000000001],[-69.98839700000002,41.55000000000001],[-69.98800549999999,41.55000000000001],[-69.98777109999997,41.55000000000001],[-69.9870201,41.55000000000001],[-69.98668520000001,41.55000000000001],[-69.98195659999999,41.55000000000001],[-69.98186190000001,41.55000000000001],[-69.98170149999999,41.55000000000001],[-69.98128730000002,41.55000000000001],[-69.98115030000002,41.55000000000001],[-69.97990900000002,41.55000000000001],[-69.9781749,41.55000000000001],[-69.97738909999998,41.55000000000001],[-69.97590739999998,41.55000000000001],[-69.97544370000003,41.55000000000001],[-69.97500000000002,41.55000000000001],[-69.97500000000002,41.5494769],[-69.97500000000002,41.547071500000015],[-69.97500000000002,41.54363790000002],[-69.97500000000002,41.5424453],[-69.97500000000002,41.54191350000002],[-69.97500000000002,41.541657999999984],[-69.97500000000002,41.53909659999999],[-69.97500000000002,41.533389899999975],[-69.97500000000002,41.53279359999999],[-69.97500000000002,41.5318671],[-69.97500000000002,41.531326200000024],[-69.97500000000002,41.53092609999999],[-69.97500000000002,41.53086300000001],[-69.97500000000002,41.530771500000014],[-69.97500000000002,41.530710699999986],[-69.97500000000002,41.529877399999975],[-69.97500000000002,41.52920110000002],[-69.97500000000002,41.5277413],[-69.97500000000002,41.5275436],[-69.97500000000002,41.5274273],[-69.97500000000002,41.525945999999976],[-69.97500000000002,41.52274569999997],[-69.97500000000002,41.52198979999997],[-69.97500000000002,41.51751089999999],[-69.97500000000002,41.5169755],[-69.97500000000002,41.51227460000001],[-69.97500000000002,41.510701100000006],[-69.97500000000002,41.50923979999999],[-69.97500000000002,41.50811199999998],[-69.97500000000002,41.506855599999994],[-69.97500000000002,41.50505470000002],[-69.97500000000002,41.504559099999994],[-69.97500000000002,41.50207110000002],[-69.97500000000002,41.50175200000001],[-69.97500000000002,41.5017259],[-69.97500000000002,41.50088210000001],[-69.97500000000002,41.49887749999999],[-69.97500000000002,41.4966053],[-69.97500000000002,41.49621059999998],[-69.97500000000002,41.4959796],[-69.97500000000002,41.492241999999976],[-69.97500000000002,41.49077999999997],[-69.97500000000002,41.48954250000003],[-69.97500000000002,41.48935799999998],[-69.97500000000002,41.48234480000002],[-69.97500000000002,41.47984919999999],[-69.97500000000002,41.47806489999999],[-69.97500000000002,41.476848099999984],[-69.97500000000002,41.47500000000002],[-69.9765567,41.47500000000002],[-69.97850269999998,41.47500000000002],[-69.9924292,41.47500000000002],[-69.99279080000002,41.47500000000002],[-69.99449499999997,41.47500000000002],[-69.99573989999999,41.47500000000002],[-69.99723449999999,41.47500000000002],[-69.99851269999999,41.47500000000002],[-70.01493959999999,41.47500000000002],[-70.01526089999999,41.47500000000002],[-70.01539250000002,41.47500000000002],[-70.01709949999997,41.47500000000002],[-70.01752929999998,41.47500000000002],[-70.01761099999999,41.47500000000002],[-70.01806479999999,41.47500000000002],[-70.0183993,41.47500000000002],[-70.01891649999999,41.47500000000002],[-70.01991479999998,41.47500000000002],[-70.0206144,41.47500000000002],[-70.0210826,41.47500000000002],[-70.04709509999998,41.47500000000002]]]}},{"type":"Feature","properties":{},"geometry":{"type":"Polygon","coordinates":[[[-70.04325160000002,41.55000000000001],[-70.0456107,41.55000000000001],[-70.04591479999999,41.55000000000001],[-70.04717570000003,41.55000000000001],[-70.05000000000001,41.55000000000001],[-70.05000000000001,41.550382300000024],[-70.05000000000001,41.5511252],[-70.05000000000001,41.55195500000002],[-70.05000000000001,41.55271399999998],[-70.05000000000001,41.553789600000016],[-70.05000000000001,41.5550834],[-70.05000000000001,41.55664639999998],[-70.05000000000001,41.55764599999998],[-70.05000000000001,41.55971199999999],[-70.05000000000001,41.55995969999998],[-70.05000000000001,41.560068100000024],[-70.05000000000001,41.56019300000003],[-70.05000000000001,41.5746221],[-70.05000000000001,41.574840300000005],[-70.05000000000001,41.57564550000001],[-70.05000000000001,41.578815899999995],[-70.05000000000001,41.579604200000006],[-70.05000000000001,41.58657770000002],[-70.05000000000001,41.60000000000002],[-70.05000000000001,41.61629770000002],[-70.05000000000001,41.625],[-70.04997889999999,41.625],[-70.03999529999999,41.625],[-70.03397039999999,41.625],[-70.01443,41.625],[-70.01360010000002,41.625],[-70.01329859999998,41.625],[-70.01080569999999,41.625],[-70.00984920000002,41.625],[-70.00931559999998,41.625],[-70.0075013,41.625],[-70.00577140000001,41.625],[-70.00142820000002,41.625],[-70.00061060000002,41.625],[-69.9973405,41.625],[-69.9929889,41.625],[-69.98860780000001,41.625],[-69.9856805,41.625],[-69.98268710000002,41.625],[-69.98074450000001,41.625],[-69.9794948,41.625],[-69.97779910000003,41.625],[-69.97500000000002,41.625],[-69.97500000000002,41.61545130000002],[-69.97500000000002,41.61458649999997],[-69.97500000000002,41.61062850000002],[-69.97500000000002,41.60947759999999],[-69.97500000000002,41.60917920000003],[-69.97500000000002,41.605383700000004],[-69.97500000000002,41.60515090000001],[-69.97500000000002,41.6050151],[-69.97500000000002,41.6042114],[-69.97500000000002,41.60326300000003],[-69.97500000000002,41.60314349999999],[-69.97500000000002,41.601997400000016],[-69.97500000000002,41.601876000000004],[-69.97500000000002,41.60018969999999],[-69.97500000000002,41.59964009999999],[-69.97500000000002,41.59895019999999],[-69.97500000000002,41.597249499999975],[-69.97500000000002,41.59701890000002],[-69.97500000000002,41.59594440000001],[-69.97500000000002,41.595575999999994],[-69.97500000000002,41.59553469999997],[-69.97500000000002,41.595409399999994],[-69.97500000000002,41.594948999999986],[-69.97500000000002,41.593871999999976],[-69.97500000000002,41.593282999999985],[-69.97500000000002,41.59263440000001],[-69.97500000000002,41.59217990000002],[-69.97500000000002,41.59215260000002],[-69.97500000000002,41.5904438],[-69.97500000000002,41.57906800000001],[-69.97500000000002,41.575886200000014],[-69.97500000000002,41.57226220000001],[-69.97500000000002,41.57059850000002],[-69.97500000000002,41.569916999999975],[-69.97500000000002,41.56888909999998],[-69.97500000000002,41.56839350000001],[-69.97500000000002,41.5673132],[-69.97500000000002,41.56666230000002],[-69.97500000000002,41.56518399999999],[-69.97500000000002,41.56494279999998],[-69.97500000000002,41.564597400000025],[-69.97500000000002,41.564380700000015],[-69.97500000000002,41.56352149999998],[-69.97500000000002,41.56314680000003],[-69.97500000000002,41.56231889999998],[-69.97500000000002,41.56224700000001],[-69.97500000000002,41.56213739999998],[-69.97500000000002,41.561816799999974],[-69.97500000000002,41.56164960000001],[-69.97500000000002,41.56059529999999],[-69.97500000000002,41.56028509999999],[-69.97500000000002,41.5539756],[-69.97500000000002,41.55377099999998],[-69.97500000000002,41.55274170000001],[-69.97500000000002,41.55250590000003],[-69.97500000000002,41.551825699999995],[-69.97500000000002,41.55166860000003],[-69.97500000000002,41.5515752],[-69.97500000000002,41.550971300000015],[-69.97500000000002,41.550683400000025],[-69.97500000000002,41.55037729999998],[-69.97500000000002,41.550339699999995],[-69.97500000000002,41.550165600000014],[-69.97500000000002,41.55000749999999],[-69.97500000000002,41.55000000000001],[-69.97544370000003,41.55000000000001],[-69.97590739999998,41.55000000000001],[-69.97738909999998,41.55000000000001],[-69.9781749,41.55000000000001],[-69.97990900000002,41.55000000000001],[-69.98115030000002,41.55000000000001],[-69.98128730000002,41.55000000000001],[-69.98170149999999,41.55000000000001],[-69.98186190000001,41.55000000000001],[-69.98195659999999,41.55000000000001],[-69.98668520000001,41.55000000000001],[-69.9870201,41.55000000000001],[-69.98777109999997,41.55000000000001],[-69.98800549999999,41.55000000000001],[-69.98839700000002,41.55000000000001],[-69.98869050000002,41.55000000000001],[-69.9897813,41.55000000000001],[-69.99002359999997,41.55000000000001],[-69.99032849999998,41.55000000000001],[-70.01272469999998,41.55000000000001],[-70.0129662,41.55000000000001],[-70.0152716,41.55000000000001],[-70.01596610000001,41.55000000000001],[-70.01659669999998,41.55000000000001],[-70.01716379999999,41.55000000000001],[-70.0173524,41.55000000000001],[-70.01749109999997,41.55000000000001],[-70.01758899999999,41.55000000000001],[-70.01836370000001,41.55000000000001],[-70.01886339999999,41.55000000000001],[-70.01969689999999,41.55000000000001],[-70.02017239999998,41.55000000000001],[-70.02113980000001,41.55000000000001],[-70.0215149,41.55000000000001],[-70.02181999999999,41.55000000000001],[-70.02247260000001,41.55000000000001],[-70.0287217,41.55000000000001],[-70.03102000000001,41.55000000000001],[-70.03215419999998,41.55000000000001],[-70.0323525,41.55000000000001],[-70.03519240000003,41.55000000000001],[-70.03527650000001,41.55000000000001],[-70.03694050000001,41.55000000000001],[-70.0425745,41.55000000000001],[-70.0426582,41.55000000000001],[-70.04274149999998,41.55000000000001],[-70.04325160000002,41.55000000000001]]]}},{"type":"Feature","properties":{},"geometry":{"type":"Polygon","coordinates":[[[-69.97348849999997,41.55000000000001],[-69.97500000000002,41.55000000000001],[-69.97500000000002,41.550165600000014],[-69.97500000000002,41.550339699999995],[-69.97500000000002,41.55037729999998],[-69.97500000000002,41.550683400000025],[-69.97500000000002,41.550971300000015],[-69.97500000000002,41.5515752],[-69.97500000000002,41.551825699999995],[-69.97500000000002,41.55250590000003],[-69.97500000000002,41.55274170000001],[-69.97500000000002,41.55291620000003],[-69.97500000000002,41.55377099999998],[-69.97500000000002,41.553800799999976],[-69.97500000000002,41.5539756],[-69.97500000000002,41.56028509999999],[-69.97500000000002,41.56059529999999],[-69.97500000000002,41.56164960000001],[-69.97500000000002,41.561816799999974],[-69.97500000000002,41.56213739999998],[-69.97500000000002,41.56224700000001],[-69.97500000000002,41.56231889999998],[-69.97500000000002,41.56314680000003],[-69.97500000000002,41.56352149999998],[-69.97500000000002,41.564380700000015],[-69.97500000000002,41.564597400000025],[-69.97500000000002,41.56494279999998],[-69.97500000000002,41.56518399999999],[-69.97500000000002,41.56666230000002],[-69.97500000000002,41.5673132],[-69.97500000000002,41.56839350000001],[-69.97500000000002,41.56888909999998],[-69.97500000000002,41.569916999999975],[-69.97500000000002,41.57059850000002],[-69.97500000000002,41.57226220000001],[-69.97500000000002,41.575886200000014],[-69.97500000000002,41.57906800000001],[-69.97500000000002,41.5904438],[-69.97500000000002,41.59215260000002],[-69.97500000000002,41.59217990000002],[-69.97500000000002,41.59263440000001],[-69.97500000000002,41.593282999999985],[-69.97500000000002,41.593871999999976],[-69.97500000000002,41.594948999999986],[-69.97500000000002,41.59553469999997],[-69.97500000000002,41.59594440000001],[-69.97500000000002,41.59701890000002],[-69.97500000000002,41.597249499999975],[-69.97500000000002,41.59895019999999],[-69.97500000000002,41.59964009999999],[-69.97500000000002,41.60018969999999],[-69.97500000000002,41.601876000000004],[-69.97500000000002,41.601997400000016],[-69.97500000000002,41.60314349999999],[-69.97500000000002,41.60326300000003],[-69.97500000000002,41.6042114],[-69.97500000000002,41.6050151],[-69.97500000000002,41.60515090000001],[-69.97500000000002,41.605383700000004],[-69.97500000000002,41.60917920000003],[-69.97500000000002,41.60947759999999],[-69.97500000000002,41.61062850000002],[-69.97500000000002,41.61458649999997],[-69.97500000000002,41.61545130000002],[-69.97500000000002,41.625],[-69.97331450000001,41.625],[-69.9722013,41.625],[-69.96992999999998,41.625],[-69.96618169999999,41.625],[-69.96301490000002,41.625],[-69.96260180000002,41.625],[-69.95488410000002,41.625],[-69.9536271,41.625],[-69.95073989999997,41.625],[-69.94858900000003,41.625],[-69.9485272,41.625],[-69.9470215,41.625],[-69.94702080000002,41.625],[-69.94238669999999,41.625],[-69.93163379999999,41.625],[-69.9289718,41.625],[-69.92824619999999,41.625],[-69.92821789999999,41.625],[-69.91037929999999,41.625],[-69.90004520000002,41.625],[-69.89999999999998,41.625],[-69.89999999999998,41.61652759999998],[-69.89999999999998,41.596006999999986],[-69.89999999999998,41.5953427],[-69.89999999999998,41.5946687],[-69.89999999999998,41.59425909999999],[-69.89999999999998,41.589905499999986],[-69.89999999999998,41.5843557],[-69.89999999999998,41.565339300000005],[-69.89999999999998,41.563978099999986],[-69.89999999999998,41.56370879999997],[-69.89999999999998,41.55914660000002],[-69.89999999999998,41.554811700000016],[-69.89999999999998,41.55476779999998],[-69.89999999999998,41.55319229999998],[-69.89999999999998,41.55253010000001],[-69.89999999999998,41.55000000000001],[-69.90476699999999,41.55000000000001],[-69.90487560000003,41.55000000000001],[-69.90684700000003,41.55000000000001],[-69.9069447,41.55000000000001],[-69.90756299999998,41.55000000000001],[-69.90807690000003,41.55000000000001],[-69.91000459999998,41.55000000000001],[-69.9102964,41.55000000000001],[-69.9124028,41.55000000000001],[-69.91310729999998,41.55000000000001],[-69.91440560000001,41.55000000000001],[-69.9154729,41.55000000000001],[-69.91587199999998,41.55000000000001],[-69.9170555,41.55000000000001],[-69.91756800000002,41.55000000000001],[-69.9211707,41.55000000000001],[-69.9213939,41.55000000000001],[-69.921875,41.55000000000001],[-69.92257910000001,41.55000000000001],[-69.9280733,41.55000000000001],[-69.92905630000001,41.55000000000001],[-69.93417140000003,41.55000000000001],[-69.94863179999999,41.55000000000001],[-69.94905460000001,41.55000000000001],[-69.9546315,41.55000000000001],[-69.95565069999998,41.55000000000001],[-69.95654029999997,41.55000000000001],[-69.95664820000002,41.55000000000001],[-69.95741340000001,41.55000000000001],[-69.95741909999998,41.55000000000001],[-69.95777720000001,41.55000000000001],[-69.96528219999999,41.55000000000001],[-69.96556779999997,41.55000000000001],[-69.97078190000002,41.55000000000001],[-69.97098490000002,41.55000000000001],[-69.97348849999997,41.55000000000001]]]}},{"type":"Feature","properties":{},"geometry":{"type":"Polygon","coordinates":[[[-69.89952469999997,41.55000000000001],[-69.89999999999998,41.55000000000001],[-69.89999999999998,41.55253010000001],[-69.89999999999998,41.55319229999998],[-69.89999999999998,41.55476779999998],[-69.89999999999998,41.554811700000016],[-69.89999999999998,41.55914660000002],[-69.89999999999998,41.56370879999997],[-69.89999999999998,41.563978099999986],[-69.89999999999998,41.565339300000005],[-69.89999999999998,41.5843557],[-69.89999999999998,41.589905499999986],[-69.89999999999998,41.59425909999999],[-69.89999999999998,41.5946687],[-69.89999999999998,41.5953427],[-69.89999999999998,41.596006999999986],[-69.89999999999998,41.61652759999998],[-69.89999999999998,41.625],[-69.89998050000003,41.625],[-69.88811099999998,41.625],[-69.88799,41.625],[-69.8876568,41.625],[-69.8875337,41.625],[-69.88718310000002,41.625],[-69.88713589999998,41.625],[-69.85770589999998,41.625],[-69.84666670000001,41.625],[-69.84659260000001,41.625],[-69.84352819999998,41.625],[-69.84297700000002,41.625],[-69.84013970000001,41.625],[-69.84010740000002,41.625],[-69.8345256,41.625],[-69.82499999999999,41.625],[-69.82499999999999,41.60487380000001],[-69.82499999999999,41.59594440000001],[-69.82499999999999,41.58730159999999],[-69.82499999999999,41.571203200000014],[-69.82499999999999,41.562590899999975],[-69.82499999999999,41.55454270000001],[-69.82499999999999,41.55000000000001],[-69.82988030000001,41.55000000000001],[-69.83365980000002,41.55000000000001],[-69.83950270000003,41.55000000000001],[-69.85274470000002,41.55000000000001],[-69.85340259999998,41.55000000000001],[-69.8653031,41.55000000000001],[-69.87690709999998,41.55000000000001],[-69.8773036,41.55000000000001],[-69.88022810000001,41.55000000000001],[-69.8805342,41.55000000000001],[-69.8902635,41.55000000000001],[-69.89045190000002,41.55000000000001],[-69.89590290000001,41.55000000000001],[-69.8986883,41.55000000000001],[-69.89888459999997,41.55000000000001],[-69.89952469999997,41.55000000000001]]]}},{"type":"Feature","properties":{},"geometry":{"type":"Polygon","coordinates":[[[-70.03999529999999,41.625],[-70.05000000000001,41.625],[-70.05000000000001,41.63168689999998],[-70.05000000000001,41.63819109999997],[-70.05000000000001,41.639366800000005],[-70.05000000000001,41.64113099999997],[-70.05000000000001,41.64113309999999],[-70.05000000000001,41.64411910000001],[-70.05000000000001,41.6477769],[-70.05000000000001,41.652929099999994],[-70.05000000000001,41.65501920000003],[-70.05000000000001,41.65526649999998],[-70.05000000000001,41.665342399999986],[-70.05000000000001,41.665565500000014],[-70.05000000000001,41.69999999999999],[-69.99945830000001,41.69999999999999],[-69.9858405,41.69999999999999],[-69.98264710000001,41.69999999999999],[-69.97500000000002,41.69999999999999],[-69.97500000000002,41.681068400000015],[-69.97500000000002,41.68088710000001],[-69.97500000000002,41.680800799999986],[-69.97500000000002,41.68051109999999],[-69.97500000000002,41.680359399999986],[-69.97500000000002,41.67990200000003],[-69.97500000000002,41.6798215],[-69.97500000000002,41.67943839999998],[-69.97500000000002,41.6792782],[-69.97500000000002,41.67730970000002],[-69.97500000000002,41.677171699999974],[-69.97500000000002,41.6766207],[-69.97500000000002,41.667596300000014],[-69.97500000000002,41.665860399999985],[-69.97500000000002,41.665177700000015],[-69.97500000000002,41.664749700000016],[-69.97500000000002,41.66337779999998],[-69.97500000000002,41.66282260000003],[-69.97500000000002,41.66280339999997],[-69.97500000000002,41.66273439999998],[-69.97500000000002,41.6626814],[-69.97500000000002,41.66254070000002],[-69.97500000000002,41.66225930000002],[-69.97500000000002,41.66211879999997],[-69.97500000000002,41.66181590000002],[-69.97500000000002,41.66158999999999],[-69.97500000000002,41.66151359999998],[-69.97500000000002,41.66094290000001],[-69.97500000000002,41.6600062],[-69.97500000000002,41.659088699999984],[-69.97500000000002,41.6583875],[-69.97500000000002,41.65666959999999],[-69.97500000000002,41.65581500000002],[-69.97500000000002,41.6555798],[-69.97500000000002,41.65527580000003],[-69.97500000000002,41.654306899999995],[-69.97500000000002,41.65416879999998],[-69.97500000000002,41.65412989999999],[-69.97500000000002,41.65374659999998],[-69.97500000000002,41.65299620000002],[-69.97500000000002,41.652569700000015],[-69.97500000000002,41.65055369999999],[-69.97500000000002,41.64893039999998],[-69.97500000000002,41.645487100000025],[-69.97500000000002,41.64416929999999],[-69.97500000000002,41.64324090000002],[-69.97500000000002,41.62992919999999],[-69.97500000000002,41.62855810000002],[-69.97500000000002,41.627894500000025],[-69.97500000000002,41.625],[-69.97779910000003,41.625],[-69.9794948,41.625],[-69.98074450000001,41.625],[-69.98268710000002,41.625],[-69.9856805,41.625],[-69.98860780000001,41.625],[-69.9929889,41.625],[-70.00061060000002,41.625],[-70.00142820000002,41.625],[-70.00577140000001,41.625],[-70.00697919999999,41.625],[-70.0075013,41.625],[-70.00931559999998,41.625],[-70.0093225,41.625],[-70.00984920000002,41.625],[-70.01080569999999,41.625],[-70.0132466,41.625],[-70.01355239999998,41.625],[-70.01360010000002,41.625],[-70.01443,41.625],[-70.03397039999999,41.625],[-70.03999529999999,41.625]]]}},{"type":"Feature","properties":{},"geometry":{"type":"Polygon","coordinates":[[[-69.97331450000001,41.625],[-69.97500000000002,41.625],[-69.97500000000002,41.627894500000025],[-69.97500000000002,41.62855810000002],[-69.97500000000002,41.62992919999999],[-69.97500000000002,41.64324090000002],[-69.97500000000002,41.645487100000025],[-69.97500000000002,41.64893039999998],[-69.97500000000002,41.65055369999999],[-69.97500000000002,41.652569700000015],[-69.97500000000002,41.65299620000002],[-69.97500000000002,41.65412989999999],[-69.97500000000002,41.65416879999998],[-69.97500000000002,41.654306899999995],[-69.97500000000002,41.65527580000003],[-69.97500000000002,41.6555798],[-69.97500000000002,41.65581500000002],[-69.97500000000002,41.65666959999999],[-69.97500000000002,41.6583875],[-69.97500000000002,41.659088699999984],[-69.97500000000002,41.6600062],[-69.97500000000002,41.66094290000001],[-69.97500000000002,41.66151359999998],[-69.97500000000002,41.66158999999999],[-69.97500000000002,41.66181590000002],[-69.97500000000002,41.66211879999997],[-69.97500000000002,41.66225930000002],[-69.97500000000002,41.66254070000002],[-69.97500000000002,41.6626814],[-69.97500000000002,41.66273439999998],[-69.97500000000002,41.66280339999997],[-69.97500000000002,41.66282260000003],[-69.97500000000002,41.66337779999998],[-69.97500000000002,41.664749700000016],[-69.97500000000002,41.665177700000015],[-69.97500000000002,41.665860399999985],[-69.97500000000002,41.667596300000014],[-69.97500000000002,41.6766207],[-69.97500000000002,41.677171699999974],[-69.97500000000002,41.67730970000002],[-69.97500000000002,41.6792782],[-69.97500000000002,41.67943839999998],[-69.97500000000002,41.6798215],[-69.97500000000002,41.67990200000003],[-69.97500000000002,41.680359399999986],[-69.97500000000002,41.68051109999999],[-69.97500000000002,41.680800799999986],[-69.97500000000002,41.68088710000001],[-69.97500000000002,41.681068400000015],[-69.97500000000002,41.69999999999999],[-69.95016049999998,41.69999999999999],[-69.94934169999999,41.69999999999999],[-69.94837580000001,41.69999999999999],[-69.94828969999998,41.69999999999999],[-69.9463452,41.69999999999999],[-69.94476020000002,41.69999999999999],[-69.9406525,41.69999999999999],[-69.94030370000002,41.69999999999999],[-69.94014149999998,41.69999999999999],[-69.93935820000002,41.69999999999999],[-69.93921460000001,41.69999999999999],[-69.93893539999999,41.69999999999999],[-69.93788890000002,41.69999999999999],[-69.937478,41.69999999999999],[-69.9364109,41.69999999999999],[-69.93582229999998,41.69999999999999],[-69.93520339999998,41.69999999999999],[-69.93296709999998,41.69999999999999],[-69.9285365,41.69999999999999],[-69.9284015,41.69999999999999],[-69.92783789999999,41.69999999999999],[-69.92674840000001,41.69999999999999],[-69.92634149999998,41.69999999999999],[-69.92350370000003,41.69999999999999],[-69.92266990000002,41.69999999999999],[-69.92242599999997,41.69999999999999],[-69.91964389999998,41.69999999999999],[-69.9136638,41.69999999999999],[-69.91131940000002,41.69999999999999],[-69.91035570000003,41.69999999999999],[-69.89999999999998,41.69999999999999],[-69.89999999999998,41.69544480000002],[-69.89999999999998,41.69279999999998],[-69.89999999999998,41.68792159999998],[-69.89999999999998,41.68641480000002],[-69.89999999999998,41.68382869999999],[-69.89999999999998,41.683648000000005],[-69.89999999999998,41.68333999999999],[-69.89999999999998,41.680023300000016],[-69.89999999999998,41.67869969999998],[-69.89999999999998,41.67007180000002],[-69.89999999999998,41.6666328],[-69.89999999999998,41.66315270000001],[-69.89999999999998,41.652563199999975],[-69.89999999999998,41.639015400000005],[-69.89999999999998,41.625],[-69.91037929999999,41.625],[-69.92821789999999,41.625],[-69.9289718,41.625],[-69.93163379999999,41.625],[-69.94238669999999,41.625],[-69.94702080000002,41.625],[-69.9485272,41.625],[-69.95073989999997,41.625],[-69.9536271,41.625],[-69.95488410000002,41.625],[-69.96260180000002,41.625],[-69.96301490000002,41.625],[-69.96618169999999,41.625],[-69.9722013,41.625],[-69.97331450000001,41.625]]]}},{"type":"Feature","properties":{},"geometry":{"type":"Polygon","coordinates":[[[-69.88811099999998,41.625],[-69.88936139999998,41.625],[-69.89999999999998,41.625],[-69.89999999999998,41.62536549999999],[-69.89999999999998,41.625772900000015],[-69.89999999999998,41.639015400000005],[-69.89999999999998,41.652563199999975],[-69.89999999999998,41.6525843],[-69.89999999999998,41.652588200000025],[-69.89999999999998,41.65263679999998],[-69.89999999999998,41.65274410000001],[-69.89999999999998,41.66315270000001],[-69.89999999999998,41.66327130000002],[-69.89999999999998,41.6666328],[-69.89999999999998,41.667625799999996],[-69.89999999999998,41.67007180000002],[-69.89999999999998,41.67858849999999],[-69.89999999999998,41.6786118],[-69.89999999999998,41.678658799999994],[-69.89999999999998,41.67869969999998],[-69.89999999999998,41.680023300000016],[-69.89999999999998,41.68333999999999],[-69.89999999999998,41.68382869999999],[-69.89999999999998,41.68641480000002],[-69.89999999999998,41.68642440000002],[-69.89999999999998,41.68644610000001],[-69.89999999999998,41.68646860000001],[-69.89999999999998,41.68653089999998],[-69.89999999999998,41.687695700000006],[-69.89999999999998,41.68786399999999],[-69.89999999999998,41.68791590000001],[-69.89999999999998,41.68792159999998],[-69.89999999999998,41.68954819999999],[-69.89999999999998,41.69050579999998],[-69.89999999999998,41.690751999999975],[-69.89999999999998,41.69279999999998],[-69.89999999999998,41.694210699999985],[-69.89999999999998,41.69544480000002],[-69.89999999999998,41.6955279],[-69.89999999999998,41.69994759999997],[-69.89999999999998,41.6999988],[-69.89999999999998,41.69999999999999],[-69.89830169999999,41.69999999999999],[-69.89820859999998,41.69999999999999],[-69.89818700000001,41.69999999999999],[-69.89685980000002,41.69999999999999],[-69.89410989999999,41.69999999999999],[-69.8926922,41.69999999999999],[-69.892358,41.69999999999999],[-69.8921967,41.69999999999999],[-69.8917442,41.69999999999999],[-69.89163009999999,41.69999999999999],[-69.89162750000003,41.69999999999999],[-69.89159569999998,41.69999999999999],[-69.89153049999999,41.69999999999999],[-69.89133880000003,41.69999999999999],[-69.89124679999998,41.69999999999999],[-69.89100919999998,41.69999999999999],[-69.89092929999998,41.69999999999999],[-69.89091889999997,41.69999999999999],[-69.89091020000001,41.69999999999999],[-69.8901998,41.69999999999999],[-69.89018829999998,41.69999999999999],[-69.8875817,41.69999999999999],[-69.88291859999998,41.69999999999999],[-69.88287050000002,41.69999999999999],[-69.8826578,41.69999999999999],[-69.88248950000002,41.69999999999999],[-69.88239449999998,41.69999999999999],[-69.88234290000003,41.69999999999999],[-69.87482089999997,41.69999999999999],[-69.8734265,41.69999999999999],[-69.86810880000002,41.69999999999999],[-69.86801200000002,41.69999999999999],[-69.86797380000002,41.69999999999999],[-69.86796779999997,41.69999999999999],[-69.86794079999999,41.69999999999999],[-69.86781050000002,41.69999999999999],[-69.8677242,41.69999999999999],[-69.86742629999998,41.69999999999999],[-69.86101020000001,41.69999999999999],[-69.86052890000002,41.69999999999999],[-69.86040539999999,41.69999999999999],[-69.84336760000002,41.69999999999999],[-69.83867249999997,41.69999999999999],[-69.8258351,41.69999999999999],[-69.82501689999998,41.69999999999999],[-69.82499999999999,41.69999999999999],[-69.82499999999999,41.69991820000001],[-69.82499999999999,41.6811927],[-69.82499999999999,41.68016449999999],[-69.82499999999999,41.67871170000001],[-69.82499999999999,41.677893600000004],[-69.82499999999999,41.674875799999995],[-69.82499999999999,41.67462819999997],[-69.82499999999999,41.67441769999999],[-69.82499999999999,41.67055199999999],[-69.82499999999999,41.66664989999998],[-69.82499999999999,41.63897509999998],[-69.82499999999999,41.62519420000001],[-69.82499999999999,41.625],[-69.8345256,41.625],[-69.83846319999998,41.625],[-69.83963030000001,41.625],[-69.83972469999998,41.625],[-69.84013970000001,41.625],[-69.84015390000002,41.625],[-69.84024699999998,41.625],[-69.84090559999999,41.625],[-69.8429529,41.625],[-69.84297700000002,41.625],[-69.84300059999998,41.625],[-69.84659260000001,41.625],[-69.84661779999999,41.625],[-69.8466836,41.625],[-69.88466119999998,41.625],[-69.88701839999999,41.625],[-69.88713589999998,41.625],[-69.88724880000001,41.625],[-69.8875337,41.625],[-69.8876568,41.625],[-69.88811099999998,41.625]]]}},{"type":"Feature","properties":{},"geometry":{"type":"Polygon","coordinates":[[[-69.98155639999999,41.77499999999998],[-69.97500000000002,41.77499999999998],[-69.97500000000002,41.770656900000006],[-69.97500000000002,41.76992580000001],[-69.97500000000002,41.7697627],[-69.97500000000002,41.769118400000025],[-69.97500000000002,41.76908689999999],[-69.97500000000002,41.75968339999997],[-69.97500000000002,41.759638300000006],[-69.97500000000002,41.758959300000015],[-69.97500000000002,41.758712600000024],[-69.97500000000002,41.741635900000006],[-69.97500000000002,41.741238099999975],[-69.97500000000002,41.73727250000002],[-69.97500000000002,41.736905999999976],[-69.97500000000002,41.73645779999998],[-69.97500000000002,41.736047799999994],[-69.97500000000002,41.735517300000026],[-69.97500000000002,41.73485240000002],[-69.97500000000002,41.734643800000015],[-69.97500000000002,41.734578],[-69.97500000000002,41.731440299999974],[-69.97500000000002,41.72959079999998],[-69.97500000000002,41.7283941],[-69.97500000000002,41.72789770000003],[-69.97500000000002,41.72562190000002],[-69.97500000000002,41.72393949999997],[-69.97500000000002,41.7233286],[-69.97500000000002,41.72216279999998],[-69.97500000000002,41.721610999999996],[-69.97500000000002,41.72119350000003],[-69.97500000000002,41.717595800000026],[-69.97500000000002,41.717391299999974],[-69.97500000000002,41.716470300000026],[-69.97500000000002,41.71207429999998],[-69.97500000000002,41.71177540000002],[-69.97500000000002,41.710471299999995],[-69.97500000000002,41.706678099999976],[-69.97500000000002,41.706395999999984],[-69.97500000000002,41.70624220000002],[-69.97500000000002,41.7059385],[-69.97500000000002,41.705891399999985],[-69.97500000000002,41.70568930000002],[-69.97500000000002,41.70565620000002],[-69.97500000000002,41.70464879999997],[-69.97500000000002,41.70457449999998],[-69.97500000000002,41.70432469999997],[-69.97500000000002,41.69999999999999],[-69.98264710000001,41.69999999999999],[-69.9858405,41.69999999999999],[-69.99945830000001,41.69999999999999],[-70.05000000000001,41.69999999999999],[-70.05000000000001,41.70455750000002],[-70.05000000000001,41.7342084],[-70.05000000000001,41.77499999999998],[-70.01204999999999,41.77499999999998],[-69.99945830000001,41.77499999999998],[-69.98577089999998,41.77499999999998],[-69.98155639999999,41.77499999999998]]]}},{"type":"Feature","properties":{},"geometry":{"type":"Polygon","coordinates":[[[-69.95016049999998,41.69999999999999],[-69.97500000000002,41.69999999999999],[-69.97500000000002,41.70432469999997],[-69.97500000000002,41.70457449999998],[-69.97500000000002,41.70464879999997],[-69.97500000000002,41.70565620000002],[-69.97500000000002,41.70568930000002],[-69.97500000000002,41.705891399999985],[-69.97500000000002,41.7059385],[-69.97500000000002,41.70624220000002],[-69.97500000000002,41.706395999999984],[-69.97500000000002,41.706678099999976],[-69.97500000000002,41.710471299999995],[-69.97500000000002,41.71177540000002],[-69.97500000000002,41.71207429999998],[-69.97500000000002,41.716470300000026],[-69.97500000000002,41.71712830000001],[-69.97500000000002,41.717391299999974],[-69.97500000000002,41.717595800000026],[-69.97500000000002,41.72119350000003],[-69.97500000000002,41.721610999999996],[-69.97500000000002,41.72216279999998],[-69.97500000000002,41.7233286],[-69.97500000000002,41.72393949999997],[-69.97500000000002,41.72562190000002],[-69.97500000000002,41.72789770000003],[-69.97500000000002,41.7283941],[-69.97500000000002,41.72959079999998],[-69.97500000000002,41.731440299999974],[-69.97500000000002,41.734578],[-69.97500000000002,41.734643800000015],[-69.97500000000002,41.73485240000002],[-69.97500000000002,41.735517300000026],[-69.97500000000002,41.736047799999994],[-69.97500000000002,41.73645779999998],[-69.97500000000002,41.736905999999976],[-69.97500000000002,41.73727250000002],[-69.97500000000002,41.741238099999975],[-69.97500000000002,41.741635900000006],[-69.97500000000002,41.758712600000024],[-69.97500000000002,41.758959300000015],[-69.97500000000002,41.759638300000006],[-69.97500000000002,41.75968339999997],[-69.97500000000002,41.76908689999999],[-69.97500000000002,41.769118400000025],[-69.97500000000002,41.7697627],[-69.97500000000002,41.76992580000001],[-69.97500000000002,41.770656900000006],[-69.97500000000002,41.77499999999998],[-69.97219059999998,41.77499999999998],[-69.97132599999998,41.77499999999998],[-69.97065079999999,41.77499999999998],[-69.97001540000002,41.77499999999998],[-69.9684009,41.77499999999998],[-69.9681349,41.77499999999998],[-69.96711440000001,41.77499999999998],[-69.96660980000001,41.77499999999998],[-69.96641790000001,41.77499999999998],[-69.9657393,41.77499999999998],[-69.9636094,41.77499999999998],[-69.96276269999998,41.77499999999998],[-69.950651,41.77499999999998],[-69.95019769999999,41.77499999999998],[-69.94832589999999,41.77499999999998],[-69.94482679999999,41.77499999999998],[-69.9429993,41.77499999999998],[-69.94295469999997,41.77499999999998],[-69.94131900000002,41.77499999999998],[-69.94123639999998,41.77499999999998],[-69.94000740000001,41.77499999999998],[-69.9385034,41.77499999999998],[-69.9383755,41.77499999999998],[-69.9380908,41.77499999999998],[-69.93734699999999,41.77499999999998],[-69.93692440000001,41.77499999999998],[-69.93635549999999,41.77499999999998],[-69.9338098,41.77499999999998],[-69.9332923,41.77499999999998],[-69.93271149999998,41.77499999999998],[-69.93262900000002,41.77499999999998],[-69.9319906,41.77499999999998],[-69.93198940000002,41.77499999999998],[-69.9310863,41.77499999999998],[-69.9308428,41.77499999999998],[-69.93002949999999,41.77499999999998],[-69.92795740000003,41.77499999999998],[-69.92705990000002,41.77499999999998],[-69.9267327,41.77499999999998],[-69.92558200000002,41.77499999999998],[-69.9245381,41.77499999999998],[-69.9245297,41.77499999999998],[-69.92141450000003,41.77499999999998],[-69.92134850000002,41.77499999999998],[-69.9209093,41.77499999999998],[-69.91239669999999,41.77499999999998],[-69.91237690000003,41.77499999999998],[-69.9086524,41.77499999999998],[-69.90208419999999,41.77499999999998],[-69.89999999999998,41.77499999999998],[-69.89999999999998,41.77495240000002],[-69.89999999999998,41.76794990000002],[-69.89999999999998,41.76680520000002],[-69.89999999999998,41.74023870000002],[-69.89999999999998,41.74021690000001],[-69.89999999999998,41.740088000000014],[-69.89999999999998,41.7400705],[-69.89999999999998,41.74000410000002],[-69.89999999999998,41.69999999999999],[-69.9103045,41.69999999999999],[-69.91035570000003,41.69999999999999],[-69.91131940000002,41.69999999999999],[-69.9136638,41.69999999999999],[-69.91380900000001,41.69999999999999],[-69.9152254,41.69999999999999],[-69.91964389999998,41.69999999999999],[-69.92242599999997,41.69999999999999],[-69.92251850000002,41.69999999999999],[-69.92266990000002,41.69999999999999],[-69.92350370000003,41.69999999999999],[-69.92634149999998,41.69999999999999],[-69.92635309999997,41.69999999999999],[-69.92674840000001,41.69999999999999],[-69.92783789999999,41.69999999999999],[-69.9284015,41.69999999999999],[-69.9284293,41.69999999999999],[-69.9285365,41.69999999999999],[-69.93265330000003,41.69999999999999],[-69.93296709999998,41.69999999999999],[-69.93520339999998,41.69999999999999],[-69.93582229999998,41.69999999999999],[-69.9364109,41.69999999999999],[-69.93642169999998,41.69999999999999],[-69.93707310000002,41.69999999999999],[-69.937478,41.69999999999999],[-69.93788890000002,41.69999999999999],[-69.93893539999999,41.69999999999999],[-69.93921460000001,41.69999999999999],[-69.93935820000002,41.69999999999999],[-69.93938150000002,41.69999999999999],[-69.94014149999998,41.69999999999999],[-69.9401813,41.69999999999999],[-69.94030370000002,41.69999999999999],[-69.9406525,41.69999999999999],[-69.94476020000002,41.69999999999999],[-69.9463452,41.69999999999999],[-69.94649249999998,41.69999999999999],[-69.94828969999998,41.69999999999999],[-69.94837580000001,41.69999999999999],[-69.94934169999999,41.69999999999999],[-69.95016049999998,41.69999999999999]]]}},{"type":"Feature","properties":{},"geometry":{"type":"Polygon","coordinates":[[[-69.89830169999999,41.69999999999999],[-69.89999999999998,41.69999999999999],[-69.89999999999998,41.74000410000002],[-69.89999999999998,41.7400705],[-69.89999999999998,41.740088000000014],[-69.89999999999998,41.74023870000002],[-69.89999999999998,41.76680520000002],[-69.89999999999998,41.76794990000002],[-69.89999999999998,41.77495240000002],[-69.89999999999998,41.77499999999998],[-69.89989539999999,41.77499999999998],[-69.8978952,41.77499999999998],[-69.89783169999998,41.77499999999998],[-69.8977878,41.77499999999998],[-69.89772690000001,41.77499999999998],[-69.89699999999999,41.77499999999998],[-69.87780900000001,41.77499999999998],[-69.87561260000001,41.77499999999998],[-69.87552970000002,41.77499999999998],[-69.87513369999999,41.77499999999998],[-69.86926060000002,41.77499999999998],[-69.86482310000002,41.77499999999998],[-69.8643391,41.77499999999998],[-69.86431549999998,41.77499999999998],[-69.86394460000002,41.77499999999998],[-69.85699820000002,41.77499999999998],[-69.8509899,41.77499999999998],[-69.85048239999998,41.77499999999998],[-69.8502881,41.77499999999998],[-69.84690310000002,41.77499999999998],[-69.84437919999999,41.77499999999998],[-69.83607810000001,41.77499999999998],[-69.82499999999999,41.77499999999998],[-69.82499999999999,41.75331249999999],[-69.82499999999999,41.74829549999998],[-69.82499999999999,41.746759999999995],[-69.82499999999999,41.74450780000001],[-69.82499999999999,41.74115790000002],[-69.82499999999999,41.740817100000015],[-69.82499999999999,41.74039749999997],[-69.82499999999999,41.74035989999999],[-69.82499999999999,41.74031869999999],[-69.82499999999999,41.74024880000002],[-69.82499999999999,41.73814440000001],[-69.82499999999999,41.738083700000004],[-69.82499999999999,41.73489080000002],[-69.82499999999999,41.71536209999999],[-69.82499999999999,41.71375929999999],[-69.82499999999999,41.70649159999999],[-69.82499999999999,41.70629760000003],[-69.82499999999999,41.70008969999998],[-69.82499999999999,41.70003320000001],[-69.82499999999999,41.69999999999999],[-69.82504239999997,41.69999999999999],[-69.82509599999997,41.69999999999999],[-69.83867559999999,41.69999999999999],[-69.84304850000001,41.69999999999999],[-69.84336760000002,41.69999999999999],[-69.84373959999999,41.69999999999999],[-69.84514180000002,41.69999999999999],[-69.8494786,41.69999999999999],[-69.86040539999999,41.69999999999999],[-69.86052890000002,41.69999999999999],[-69.86101020000001,41.69999999999999],[-69.86763969999998,41.69999999999999],[-69.8676936,41.69999999999999],[-69.86793569999998,41.69999999999999],[-69.86794079999999,41.69999999999999],[-69.86797380000002,41.69999999999999],[-69.88234290000003,41.69999999999999],[-69.88239449999998,41.69999999999999],[-69.88248950000002,41.69999999999999],[-69.8826578,41.69999999999999],[-69.8826598,41.69999999999999],[-69.88272719999998,41.69999999999999],[-69.89018829999998,41.69999999999999],[-69.8901998,41.69999999999999],[-69.89091020000001,41.69999999999999],[-69.89091889999997,41.69999999999999],[-69.89092929999998,41.69999999999999],[-69.89100919999998,41.69999999999999],[-69.89124679999998,41.69999999999999],[-69.89133880000003,41.69999999999999],[-69.89153049999999,41.69999999999999],[-69.89159569999998,41.69999999999999],[-69.89162750000003,41.69999999999999],[-69.89163009999999,41.69999999999999],[-69.8917442,41.69999999999999],[-69.8921967,41.69999999999999],[-69.89410989999999,41.69999999999999],[-69.89818700000001,41.69999999999999],[-69.89820859999998,41.69999999999999],[-69.89830169999999,41.69999999999999]]]}},{"type":"Feature","properties":{},"geometry":{"type":"Polygon","coordinates":[[[-70.01204999999999,41.77499999999998],[-70.05000000000001,41.77499999999998],[-70.05000000000001,41.77766129999998],[-70.05000000000001,41.77968750000002],[-70.05000000000001,41.7941376],[-70.05000000000001,41.79919030000002],[-70.05000000000001,41.79953619999998],[-70.05000000000001,41.8007738],[-70.05000000000001,41.80102720000002],[-70.05000000000001,41.80104979999999],[-70.05000000000001,41.80134450000003],[-70.05000000000001,41.80157129999998],[-70.05000000000001,41.80327249999999],[-70.05000000000001,41.8033064],[-70.05000000000001,41.82116580000002],[-70.05000000000001,41.82428220000003],[-70.05000000000001,41.82492500000001],[-70.05000000000001,41.82493720000002],[-70.05000000000001,41.83322500000003],[-70.05000000000001,41.8340278],[-70.05000000000001,41.836969899999986],[-70.05000000000001,41.837028799999985],[-70.05000000000001,41.837340299999994],[-70.05000000000001,41.83767510000001],[-70.05000000000001,41.847580900000025],[-70.05000000000001,41.84803579999999],[-70.05000000000001,41.84908780000001],[-70.05000000000001,41.85000000000002],[-70.03745220000002,41.85000000000002],[-70.02591510000002,41.85000000000002],[-70.0253894,41.85000000000002],[-70.01358249999998,41.85000000000002],[-70.01260739999998,41.85000000000002],[-70.0073453,41.85000000000002],[-70.00641890000003,41.85000000000002],[-69.97500000000002,41.85000000000002],[-69.97500000000002,41.83145560000003],[-69.97500000000002,41.80379690000001],[-69.97500000000002,41.792897700000026],[-69.97500000000002,41.7896389],[-69.97500000000002,41.78493049999997],[-69.97500000000002,41.77499999999998],[-69.98155639999999,41.77499999999998],[-69.98577089999998,41.77499999999998],[-69.99945830000001,41.77499999999998],[-70.01204999999999,41.77499999999998]]]}},{"type":"Feature","properties":{},"geometry":{"type":"Polygon","coordinates":[[[-69.97219059999998,41.77499999999998],[-69.97500000000002,41.77499999999998],[-69.97500000000002,41.78493049999997],[-69.97500000000002,41.7896389],[-69.97500000000002,41.792897700000026],[-69.97500000000002,41.80379690000001],[-69.97500000000002,41.83145560000003],[-69.97500000000002,41.85000000000002],[-69.9732778,41.85000000000002],[-69.9479202,41.85000000000002],[-69.9474045,41.85000000000002],[-69.94597670000002,41.85000000000002],[-69.94534709999999,41.85000000000002],[-69.93649570000002,41.85000000000002],[-69.93240930000002,41.85000000000002],[-69.92417690000002,41.85000000000002],[-69.92358039999999,41.85000000000002],[-69.9036944,41.85000000000002],[-69.89999999999998,41.85000000000002],[-69.89999999999998,41.83636000000001],[-69.89999999999998,41.82524160000003],[-69.89999999999998,41.8068576],[-69.89999999999998,41.78493049999997],[-69.89999999999998,41.7836403],[-69.89999999999998,41.77499999999998],[-69.9086524,41.77499999999998],[-69.91239669999999,41.77499999999998],[-69.92141450000003,41.77499999999998],[-69.9245381,41.77499999999998],[-69.92705990000002,41.77499999999998],[-69.9308428,41.77499999999998],[-69.9319906,41.77499999999998],[-69.93262900000002,41.77499999999998],[-69.9338098,41.77499999999998],[-69.93635549999999,41.77499999999998],[-69.93692440000001,41.77499999999998],[-69.93734699999999,41.77499999999998],[-69.9380908,41.77499999999998],[-69.9383755,41.77499999999998],[-69.9385034,41.77499999999998],[-69.94000740000001,41.77499999999998],[-69.94123639999998,41.77499999999998],[-69.94131900000002,41.77499999999998],[-69.9429993,41.77499999999998],[-69.94482679999999,41.77499999999998],[-69.94832589999999,41.77499999999998],[-69.95019769999999,41.77499999999998],[-69.950651,41.77499999999998],[-69.96276269999998,41.77499999999998],[-69.9636094,41.77499999999998],[-69.9657393,41.77499999999998],[-69.96641790000001,41.77499999999998],[-69.96660980000001,41.77499999999998],[-69.96711440000001,41.77499999999998],[-69.9681349,41.77499999999998],[-69.9684009,41.77499999999998],[-69.97001540000002,41.77499999999998],[-69.97065079999999,41.77499999999998],[-69.97132599999998,41.77499999999998],[-69.97219059999998,41.77499999999998]]]}},{"type":"Feature","properties":{},"geometry":{"type":"Polygon","coordinates":[[[-70.02591510000002,41.85000000000002],[-70.03745220000002,41.85000000000002],[-70.05000000000001,41.85000000000002],[-70.05000000000001,41.8500085],[-70.05000000000001,41.86381849999998],[-70.05000000000001,41.864204700000016],[-70.05000000000001,41.8696051],[-70.05000000000001,41.874570500000004],[-70.05000000000001,41.87781430000001],[-70.05000000000001,41.88056829999999],[-70.05000000000001,41.88064939999998],[-70.05000000000001,41.88127700000001],[-70.05000000000001,41.882157500000005],[-70.05000000000001,41.88279649999998],[-70.05000000000001,41.88282429999998],[-70.05000000000001,41.88360990000001],[-70.05000000000001,41.88362289999998],[-70.05000000000001,41.884330499999976],[-70.05000000000001,41.8843402],[-70.05000000000001,41.88975829999998],[-70.05000000000001,41.89046309999998],[-70.05000000000001,41.8905398],[-70.05000000000001,41.89247119999999],[-70.05000000000001,41.89253839999998],[-70.05000000000001,41.892856300000005],[-70.05000000000001,41.9002653],[-70.05000000000001,41.90038679999998],[-70.05000000000001,41.90239380000003],[-70.05000000000001,41.90240440000002],[-70.05000000000001,41.90352569999999],[-70.05000000000001,41.9035379],[-70.05000000000001,41.91057280000001],[-70.05000000000001,41.91058670000001],[-70.05000000000001,41.911439599999994],[-70.05000000000001,41.91457750000001],[-70.05000000000001,41.915641100000016],[-70.05000000000001,41.91709589999999],[-70.05000000000001,41.92037879999998],[-70.05000000000001,41.92038400000001],[-70.05000000000001,41.9213474],[-70.05000000000001,41.921723499999985],[-70.05000000000001,41.921872500000006],[-70.05000000000001,41.922502699999995],[-70.05000000000001,41.92287169999997],[-70.05000000000001,41.92291779999999],[-70.05000000000001,41.92452530000003],[-70.05000000000001,41.92500000000001],[-70.04961580000003,41.92500000000001],[-70.048205,41.92500000000001],[-70.04459279999998,41.92500000000001],[-70.04237840000002,41.92500000000001],[-70.04231909999999,41.92500000000001],[-70.03672660000001,41.92500000000001],[-70.03659590000001,41.92500000000001],[-70.03647890000002,41.92500000000001],[-70.03624489999999,41.92500000000001],[-70.03612779999997,41.92500000000001],[-70.0360609,41.92500000000001],[-70.0358253,41.92500000000001],[-70.03536700000001,41.92500000000001],[-70.03502479999997,41.92500000000001],[-70.03419709999997,41.92500000000001],[-70.0341156,41.92500000000001],[-70.0340296,41.92500000000001],[-70.0339166,41.92500000000001],[-70.03388039999999,41.92500000000001],[-70.03138430000001,41.92500000000001],[-70.03053890000001,41.92500000000001],[-70.03033640000001,41.92500000000001],[-70.02952440000001,41.92500000000001],[-70.0294821,41.92500000000001],[-70.02924239999999,41.92500000000001],[-70.0285088,41.92500000000001],[-70.02736970000001,41.92500000000001],[-70.02728230000002,41.92500000000001],[-70.0237553,41.92500000000001],[-69.97555019999999,41.92500000000001],[-69.97500000000002,41.92500000000001],[-69.97500000000002,41.92376669999999],[-69.97500000000002,41.918138699999986],[-69.97500000000002,41.85000000000002],[-70.00641890000003,41.85000000000002],[-70.0073453,41.85000000000002],[-70.01260739999998,41.85000000000002],[-70.01358249999998,41.85000000000002],[-70.0253894,41.85000000000002],[-70.02591510000002,41.85000000000002]]]}},{"type":"Feature","properties":{},"geometry":{"type":"Polygon","coordinates":[[[-70.04961580000003,41.92500000000001],[-70.05000000000001,41.92500000000001],[-70.05000000000001,41.92545050000001],[-70.05000000000001,41.92561970000003],[-70.05000000000001,41.925629800000024],[-70.05000000000001,41.926497299999994],[-70.05000000000001,41.9266738],[-70.05000000000001,41.92700500000001],[-70.05000000000001,41.9273058],[-70.05000000000001,41.928032599999995],[-70.05000000000001,41.92808020000001],[-70.05000000000001,41.92958920000001],[-70.05000000000001,41.93061879999999],[-70.05000000000001,41.9308858],[-70.05000000000001,41.932516599999985],[-70.05000000000001,41.934521399999994],[-70.05000000000001,41.9357488],[-70.05000000000001,41.93659789999998],[-70.05000000000001,41.94287480000003],[-70.05000000000001,41.948439699999994],[-70.05000000000001,42.0],[-70.04953610000001,42.0],[-70.03709959999998,42.0],[-70.01996329999997,42.0],[-70.0196434,42.0],[-70.01942220000001,42.0],[-70.01866239999998,42.0],[-70.01761800000003,42.0],[-70.01638659999998,42.0],[-70.01265990000002,42.0],[-70.0124543,42.0],[-70.00924409999999,42.0],[-70.00513160000003,42.0],[-69.99491319999998,42.0],[-69.97500000000002,42.0],[-69.97500000000002,41.966734599999995],[-69.97500000000002,41.966419299999984],[-69.97500000000002,41.964771299999995],[-69.97500000000002,41.95233159999998],[-69.97500000000002,41.94999999999999],[-69.97500000000002,41.94635440000002],[-69.97500000000002,41.94109179999998],[-69.97500000000002,41.94017359999998],[-69.97500000000002,41.93766369999997],[-69.97500000000002,41.929891399999974],[-69.97500000000002,41.928690399999994],[-69.97500000000002,41.927446599999996],[-69.97500000000002,41.92573390000001],[-69.97500000000002,41.925437199999976],[-69.97500000000002,41.92500000000001],[-69.97555019999999,41.92500000000001],[-70.0237553,41.92500000000001],[-70.02728230000002,41.92500000000001],[-70.02736970000001,41.92500000000001],[-70.0285088,41.92500000000001],[-70.02924239999999,41.92500000000001],[-70.0294821,41.92500000000001],[-70.02952440000001,41.92500000000001],[-70.03033640000001,41.92500000000001],[-70.03053890000001,41.92500000000001],[-70.03138430000001,41.92500000000001],[-70.03388039999999,41.92500000000001],[-70.0339166,41.92500000000001],[-70.0340296,41.92500000000001],[-70.0341156,41.92500000000001],[-70.03419709999997,41.92500000000001],[-70.03502479999997,41.92500000000001],[-70.03536700000001,41.92500000000001],[-70.0358253,41.92500000000001],[-70.0360609,41.92500000000001],[-70.03612779999997,41.92500000000001],[-70.03624489999999,41.92500000000001],[-70.03647890000002,41.92500000000001],[-70.03659590000001,41.92500000000001],[-70.03672660000001,41.92500000000001],[-70.04231909999999,41.92500000000001],[-70.04237840000002,41.92500000000001],[-70.04459279999998,41.92500000000001],[-70.04820510000002,41.92500000000001],[-70.04961580000003,41.92500000000001]]]}},{"type":"Feature","properties":{},"geometry":{"type":"Polygon","coordinates":[[[-70.01204999999999,41.77499999999998],[-70.05000000000001,41.77499999999998],[-70.05000000000001,41.77766129999998],[-70.05000000000001,41.77968750000002],[-70.05000000000001,41.7941376],[-70.05000000000001,41.79919030000002],[-70.05000000000001,41.79953619999998],[-70.05000000000001,41.8007738],[-70.05000000000001,41.80102720000002],[-70.05000000000001,41.80104979999999],[-70.05000000000001,41.80134450000003],[-70.05000000000001,41.80157129999998],[-70.05000000000001,41.80327249999999],[-70.05000000000001,41.8033064],[-70.05000000000001,41.82116580000002],[-70.05000000000001,41.82428220000003],[-70.05000000000001,41.82492500000001],[-70.05000000000001,41.82493720000002],[-70.05000000000001,41.83322500000003],[-70.05000000000001,41.8340278],[-70.05000000000001,41.836969899999986],[-70.05000000000001,41.837028799999985],[-70.05000000000001,41.837340299999994],[-70.05000000000001,41.83767510000001],[-70.05000000000001,41.847580900000025],[-70.05000000000001,41.84803579999999],[-70.05000000000001,41.84908780000001],[-70.05000000000001,41.85000000000002],[-70.03745220000002,41.85000000000002],[-70.02591510000002,41.85000000000002],[-70.0253894,41.85000000000002],[-70.01358249999998,41.85000000000002],[-70.0073453,41.85000000000002],[-70.00641890000003,41.85000000000002],[-69.97500000000002,41.85000000000002],[-69.97500000000002,41.83145560000003],[-69.97500000000002,41.80379690000001],[-69.97500000000002,41.792897700000026],[-69.97500000000002,41.7896389],[-69.97500000000002,41.78493049999997],[-69.97500000000002,41.77499999999998],[-69.98155639999999,41.77499999999998],[-69.98577089999998,41.77499999999998],[-69.99945830000001,41.77499999999998],[-70.01204999999999,41.77499999999998]]]}},{"type":"Feature","properties":{},"geometry":{"type":"Polygon","coordinates":[[[-70.02591510000002,41.85000000000002],[-70.03745220000002,41.85000000000002],[-70.05000000000001,41.85000000000002],[-70.05000000000001,41.8500085],[-70.05000000000001,41.86381849999998],[-70.05000000000001,41.864204700000016],[-70.05000000000001,41.8696051],[-70.05000000000001,41.874570500000004],[-70.05000000000001,41.87781430000001],[-70.05000000000001,41.88056829999999],[-70.05000000000001,41.88064939999998],[-70.05000000000001,41.88127700000001],[-70.05000000000001,41.882157500000005],[-70.05000000000001,41.88279649999998],[-70.05000000000001,41.88282429999998],[-70.05000000000001,41.88360990000001],[-70.05000000000001,41.88362289999998],[-70.05000000000001,41.884330499999976],[-70.05000000000001,41.8843402],[-70.05000000000001,41.88975829999998],[-70.05000000000001,41.89046309999998],[-70.05000000000001,41.8905398],[-70.05000000000001,41.89247119999999],[-70.05000000000001,41.89253839999998],[-70.05000000000001,41.892856300000005],[-70.05000000000001,41.9002653],[-70.05000000000001,41.90038679999998],[-70.05000000000001,41.90239380000003],[-70.05000000000001,41.90240440000002],[-70.05000000000001,41.90352569999999],[-70.05000000000001,41.9035379],[-70.05000000000001,41.91057280000001],[-70.05000000000001,41.91058670000001],[-70.05000000000001,41.911439599999994],[-70.05000000000001,41.91457750000001],[-70.05000000000001,41.915641100000016],[-70.05000000000001,41.91709589999999],[-70.05000000000001,41.92037879999998],[-70.05000000000001,41.92038400000001],[-70.05000000000001,41.921723499999985],[-70.05000000000001,41.921872500000006],[-70.05000000000001,41.922502699999995],[-70.05000000000001,41.92287169999997],[-70.05000000000001,41.92452530000003],[-70.05000000000001,41.92500000000001],[-70.04961580000003,41.92500000000001],[-70.04231909999999,41.92500000000001],[-70.03659590000001,41.92500000000001],[-70.03647890000002,41.92500000000001],[-70.03624489999999,41.92500000000001],[-70.03612779999997,41.92500000000001],[-70.0360609,41.92500000000001],[-70.03502479999997,41.92500000000001],[-70.03454260000001,41.92500000000001],[-70.03388039999999,41.92500000000001],[-70.03138430000001,41.92500000000001],[-70.03053890000001,41.92500000000001],[-70.02952440000001,41.92500000000001],[-70.02924239999999,41.92500000000001],[-70.0285088,41.92500000000001],[-70.02728230000002,41.92500000000001],[-70.0237553,41.92500000000001],[-69.97500000000002,41.92500000000001],[-69.97500000000002,41.918138699999986],[-69.97500000000002,41.85000000000002],[-70.00641890000003,41.85000000000002],[-70.0073453,41.85000000000002],[-70.01358249999998,41.85000000000002],[-70.0253894,41.85000000000002],[-70.02591510000002,41.85000000000002]]]}},{"type":"Feature","properties":{},"geometry":{"type":"Polygon","coordinates":[[[-70.04961580000003,41.92500000000001],[-70.05000000000001,41.92500000000001],[-70.05000000000001,41.92561970000003],[-70.05000000000001,41.9266738],[-70.05000000000001,41.92700500000001],[-70.05000000000001,41.92808020000001],[-70.05000000000001,41.92958920000001],[-70.05000000000001,41.93061879999999],[-70.05000000000001,41.9308858],[-70.05000000000001,41.932516599999985],[-70.05000000000001,41.934521399999994],[-70.05000000000001,41.9357488],[-70.05000000000001,41.93659789999998],[-70.05000000000001,41.94287480000003],[-70.05000000000001,41.948439699999994],[-70.05000000000001,42.0],[-70.04953610000001,42.0],[-70.03709959999998,42.0],[-70.01942220000001,42.0],[-70.01866239999998,42.0],[-70.01761800000003,42.0],[-70.01638659999998,42.0],[-70.01265990000002,42.0],[-70.0124543,42.0],[-70.00924409999999,42.0],[-70.00513160000003,42.0],[-69.99491319999998,42.0],[-69.97500000000002,42.0],[-69.97500000000002,41.966734599999995],[-69.97500000000002,41.966419299999984],[-69.97500000000002,41.964771299999995],[-69.97500000000002,41.95233159999998],[-69.97500000000002,41.94999999999999],[-69.97500000000002,41.94635440000002],[-69.97500000000002,41.94109179999998],[-69.97500000000002,41.94017359999998],[-69.97500000000002,41.93766369999997],[-69.97500000000002,41.929891399999974],[-69.97500000000002,41.928690399999994],[-69.97500000000002,41.927446599999996],[-69.97500000000002,41.925437199999976],[-69.97500000000002,41.92500000000001],[-70.0237553,41.92500000000001],[-70.02728230000002,41.92500000000001],[-70.02736970000001,41.92500000000001],[-70.0285088,41.92500000000001],[-70.02924239999999,41.92500000000001],[-70.0294821,41.92500000000001],[-70.03053890000001,41.92500000000001],[-70.03138430000001,41.92500000000001],[-70.03388039999999,41.92500000000001],[-70.03419709999997,41.92500000000001],[-70.03454260000001,41.92500000000001],[-70.03502479999997,41.92500000000001],[-70.0358253,41.92500000000001],[-70.0360609,41.92500000000001],[-70.03612779999997,41.92500000000001],[-70.03624489999999,41.92500000000001],[-70.03647890000002,41.92500000000001],[-70.03659590000001,41.92500000000001],[-70.03672660000001,41.92500000000001],[-70.04231909999999,41.92500000000001],[-70.04237840000002,41.92500000000001],[-70.04961580000003,41.92500000000001]]]}}]}