{"type":"FeatureCollection","features":[{"type":"Feature","properties":{},"geometry":{"type":"Polygon","coordinates":[[[-68.29100410000001,44.25],[-68.290525,44.25],[-68.29000739999998,44.25],[-68.28902290000002,44.25],[-68.27973630000002,44.25],[-68.27628909999999,44.25],[-68.27569729999999,44.25],[-68.27537039999999,44.25],[-68.27531870000001,44.25],[-68.26027640000001,44.25],[-68.25987320000002,44.25],[-68.25978850000001,44.25],[-68.25858729999999,44.25],[-68.2547586,44.25],[-68.25373539999998,44.25],[-68.25304560000001,44.25],[-68.25039120000002,44.25],[-68.25,44.25],[-68.25,44.24951900000002],[-68.25,44.249281199999984],[-68.25,44.247932400000025],[-68.25,44.246274099999994],[-68.25,44.245896200000004],[-68.25,44.245687499999974],[-68.25,44.244706699999995],[-68.25,44.24455080000001],[-68.25,44.2423364],[-68.25,44.240868999999975],[-68.25,44.23600099999999],[-68.25,44.2355455],[-68.25,44.23517820000001],[-68.25,44.23508420000002],[-68.25,44.23500369999999],[-68.25,44.23458049999999],[-68.25,44.234122300000024],[-68.25,44.2319784],[-68.25,44.2310377],[-68.25,44.23003890000001],[-68.25,44.22056459999999],[-68.25,44.21645819999998],[-68.25,44.210476700000015],[-68.25,44.183170399999995],[-68.25,44.181350699999996],[-68.25,44.1780799],[-68.25,44.17643620000001],[-68.25,44.17500000000001],[-68.25037409999999,44.17500000000001],[-68.2513591,44.17500000000001],[-68.2687077,44.17500000000001],[-68.27386030000002,44.17500000000001],[-68.27680600000002,44.17500000000001],[-68.2787204,44.17500000000001],[-68.28015160000001,44.17500000000001],[-68.2846477,44.17500000000001],[-68.29986609999997,44.17500000000001],[-68.30139009999999,44.17500000000001],[-68.30499999999999,44.17500000000001],[-68.30499999999999,44.25],[-68.29100410000001,44.25]]]}},{"type":"Feature","properties":{},"geometry":{"type":"Polygon","coordinates":[[[-68.249932,44.17500000000001],[-68.25,44.17500000000001],[-68.25,44.17643620000001],[-68.25,44.1780799],[-68.25,44.181350699999996],[-68.25,44.183170399999995],[-68.25,44.210476700000015],[-68.25,44.21645819999998],[-68.25,44.22056459999999],[-68.25,44.23003890000001],[-68.25,44.2310377],[-68.25,44.2319784],[-68.25,44.234122300000024],[-68.25,44.23458049999999],[-68.25,44.23500369999999],[-68.25,44.23508420000002],[-68.25,44.23517820000001],[-68.25,44.2355455],[-68.25,44.23600099999999],[-68.25,44.240868999999975],[-68.25,44.2423364],[-68.25,44.24455080000001],[-68.25,44.244706699999995],[-68.25,44.245687499999974],[-68.25,44.245896200000004],[-68.25,44.246274099999994],[-68.25,44.247932400000025],[-68.25,44.249281199999984],[-68.25,44.24951900000002],[-68.25,44.25],[-68.24950000000001,44.25],[-68.24911530000003,44.25],[-68.2487744,44.25],[-68.24854349999998,44.25],[-68.24810609999997,44.25],[-68.24660060000002,44.25],[-68.24526329999998,44.25],[-68.24359090000002,44.25],[-68.2403205,44.25],[-68.23460419999998,44.25],[-68.23384770000001,44.25],[-68.23294299999998,44.25],[-68.23178869999998,44.25],[-68.23148950000001,44.25],[-68.23069329999998,44.25],[-68.22919389999998,44.25],[-68.22867609999997,44.25],[-68.2283812,44.25],[-68.223413,44.25],[-68.2135381,44.25],[-68.21193499999998,44.25],[-68.21144290000001,44.25],[-68.2065174,44.25],[-68.20591830000001,44.25],[-68.205644,44.25],[-68.20496450000002,44.25],[-68.2038483,44.25],[-68.20204230000002,44.25],[-68.20113500000002,44.25],[-68.1993124,44.25],[-68.1983199,44.25],[-68.19712709999999,44.25],[-68.1938126,44.25],[-68.19128719999998,44.25],[-68.18945830000001,44.25],[-68.188333,44.25],[-68.18422559999999,44.25],[-68.180452,44.25],[-68.17693300000002,44.25],[-68.17500000000001,44.25],[-68.17500000000001,44.228062799999975],[-68.17500000000001,44.22726369999998],[-68.17500000000001,44.2160657],[-68.17500000000001,44.21506390000002],[-68.17500000000001,44.21060319999998],[-68.17500000000001,44.1834111],[-68.17500000000001,44.17500000000001],[-68.1814177,44.17500000000001],[-68.18703099999999,44.17500000000001],[-68.20385599999997,44.17500000000001],[-68.21808959999998,44.17500000000001],[-68.23613970000002,44.17500000000001],[-68.23703560000001,44.17500000000001],[-68.23860509999997,44.17500000000001],[-68.23899870000002,44.17500000000001],[-68.23930730000001,44.17500000000001],[-68.24013439999999,44.17500000000001],[-68.24921210000002,44.17500000000001],[-68.24963539999999,44.17500000000001],[-68.249932,44.17500000000001]]]}},{"type":"Feature","properties":{},"geometry":{"type":"Polygon","coordinates":[[[-68.25,44.32499999999999],[-68.25,44.29133710000002],[-68.25,44.2906385],[-68.25,44.289721799999995],[-68.25,44.28933139999998],[-68.25,44.28890469999999],[-68.25,44.28845430000001],[-68.25,44.288451099999975],[-68.25,44.28720700000002],[-68.25,44.28714660000003],[-68.25,44.287057600000026],[-68.25,44.286549200000024],[-68.25,44.282794000000024],[-68.25,44.2818929],[-68.25,44.27943579999999],[-68.25,44.27741450000002],[-68.25,44.27713799999998],[-68.25,44.277086999999995],[-68.25,44.276814],[-68.25,44.276303299999995],[-68.25,44.27056829999998],[-68.25,44.270202100000006],[-68.25,44.27002870000001],[-68.25,44.2700021],[-68.25,44.2699523],[-68.25,44.26848960000001],[-68.25,44.266858300000024],[-68.25,44.2665614],[-68.25,44.261496799999975],[-68.25,44.25849840000001],[-68.25,44.258018400000026],[-68.25,44.25763649999999],[-68.25,44.25688459999998],[-68.25,44.255304000000024],[-68.25,44.25506439999998],[-68.25,44.25349440000002],[-68.25,44.25165179999999],[-68.25,44.2515727],[-68.25,44.25035939999998],[-68.25,44.25],[-68.25039120000002,44.25],[-68.25304560000001,44.25],[-68.25373539999998,44.25],[-68.2547586,44.25],[-68.25858729999999,44.25],[-68.25978850000001,44.25],[-68.25987320000002,44.25],[-68.26027640000001,44.25],[-68.27531870000001,44.25],[-68.27537039999999,44.25],[-68.27569729999999,44.25],[-68.27628909999999,44.25],[-68.27973630000002,44.25],[-68.28902290000002,44.25],[-68.29000739999998,44.25],[-68.290525,44.25],[-68.29100410000001,44.25],[-68.30499999999999,44.25],[-68.30499999999999,44.32499999999999],[-68.25,44.32499999999999]]]}},{"type":"Feature","properties":{},"geometry":{"type":"Polygon","coordinates":[[[-68.24950000000001,44.25],[-68.25,44.25],[-68.25,44.25035939999998],[-68.25,44.2515727],[-68.25,44.25165179999999],[-68.25,44.25349440000002],[-68.25,44.25506439999998],[-68.25,44.255304000000024],[-68.25,44.25688459999998],[-68.25,44.25763649999999],[-68.25,44.258018400000026],[-68.25,44.25849840000001],[-68.25,44.261496799999975],[-68.25,44.2665614],[-68.25,44.266858300000024],[-68.25,44.26848960000001],[-68.25,44.2699523],[-68.25,44.2700021],[-68.25,44.27002870000001],[-68.25,44.270202100000006],[-68.25,44.27056829999998],[-68.25,44.276303299999995],[-68.25,44.276814],[-68.25,44.277086999999995],[-68.25,44.27713799999998],[-68.25,44.27741450000002],[-68.25,44.27943579999999],[-68.25,44.2818929],[-68.25,44.282794000000024],[-68.25,44.286549200000024],[-68.25,44.287057600000026],[-68.25,44.28714660000003],[-68.25,44.28720700000002],[-68.25,44.288451099999975],[-68.25,44.28845430000001],[-68.25,44.28890469999999],[-68.25,44.28933139999998],[-68.25,44.289721799999995],[-68.25,44.2906385],[-68.25,44.29133710000002],[-68.25,44.32499999999999],[-68.20346510000002,44.32499999999999],[-68.18576719999999,44.32499999999999],[-68.18522769999998,44.32499999999999],[-68.18484130000002,44.32499999999999],[-68.18442490000001,44.32499999999999],[-68.17941159999998,44.32499999999999],[-68.1787357,44.32499999999999],[-68.1783906,44.32499999999999],[-68.17721369999998,44.32499999999999],[-68.17683419999997,44.32499999999999],[-68.1764766,44.32499999999999],[-68.17505240000003,44.32499999999999],[-68.17500000000001,44.32499999999999],[-68.17500000000001,44.32292080000002],[-68.17500000000001,44.30991740000002],[-68.17500000000001,44.30955260000002],[-68.17500000000001,44.28454099999999],[-68.17500000000001,44.280641100000025],[-68.17500000000001,44.279944],[-68.17500000000001,44.278231800000015],[-68.17500000000001,44.253306699999996],[-68.17500000000001,44.25],[-68.17693300000002,44.25],[-68.180452,44.25],[-68.18422559999999,44.25],[-68.188333,44.25],[-68.18945830000001,44.25],[-68.19128719999998,44.25],[-68.1938126,44.25],[-68.19712709999999,44.25],[-68.1983199,44.25],[-68.1993124,44.25],[-68.20113500000002,44.25],[-68.20204230000002,44.25],[-68.2038483,44.25],[-68.20496450000002,44.25],[-68.205644,44.25],[-68.20591830000001,44.25],[-68.2065174,44.25],[-68.21144290000001,44.25],[-68.21193499999998,44.25],[-68.2135381,44.25],[-68.223413,44.25],[-68.2283812,44.25],[-68.22867609999997,44.25],[-68.22919389999998,44.25],[-68.23069329999998,44.25],[-68.23148950000001,44.25],[-68.23178869999998,44.25],[-68.23294299999998,44.25],[-68.23384770000001,44.25],[-68.23460419999998,44.25],[-68.2403205,44.25],[-68.24359090000002,44.25],[-68.24526329999998,44.25],[-68.24660060000002,44.25],[-68.24810609999997,44.25],[-68.24854349999998,44.25],[-68.2487744,44.25],[-68.24911530000003,44.25],[-68.24950000000001,44.25]]]}},{"type":"Feature","properties":{},"geometry":{"type":"Polygon","coordinates":[[[-68.25221970000001,44.39999999999998],[-68.25,44.39999999999998],[-68.25,44.37925000000001],[-68.25,44.32499999999999],[-68.30499999999999,44.32499999999999],[-68.30499999999999,44.39999999999998],[-68.25221970000001,44.39999999999998]]]}},{"type":"Feature","properties":{},"geometry":{"type":"Polygon","coordinates":[[[-68.20346510000002,44.32499999999999],[-68.25,44.32499999999999],[-68.25,44.37925000000001],[-68.25,44.39999999999998],[-68.23052589999998,44.39999999999998],[-68.22893690000001,44.39999999999998],[-68.22870080000001,44.39999999999998],[-68.22774179999999,44.39999999999998],[-68.2275558,44.39999999999998],[-68.22748419999999,44.39999999999998],[-68.2267506,44.39999999999998],[-68.22649560000002,44.39999999999998],[-68.2254011,44.39999999999998],[-68.2249698,44.39999999999998],[-68.2246106,44.39999999999998],[-68.22433360000002,44.39999999999998],[-68.22418750000003,44.39999999999998],[-68.22409169999997,44.39999999999998],[-68.22264769999998,44.39999999999998],[-68.2122511,44.39999999999998],[-68.21112590000001,44.39999999999998],[-68.21082790000003,44.39999999999998],[-68.21060210000002,44.39999999999998],[-68.21022690000001,44.39999999999998],[-68.2074414,44.39999999999998],[-68.20328330000001,44.39999999999998],[-68.20284729999997,44.39999999999998],[-68.20271919999999,44.39999999999998],[-68.2023302,44.39999999999998],[-68.20058289999997,44.39999999999998],[-68.19963430000001,44.39999999999998],[-68.1992277,44.39999999999998],[-68.19890470000001,44.39999999999998],[-68.19653590000001,44.39999999999998],[-68.19647800000001,44.39999999999998],[-68.19629989999999,44.39999999999998],[-68.1961369,44.39999999999998],[-68.19607380000002,44.39999999999998],[-68.19576669999998,44.39999999999998],[-68.1921241,44.39999999999998],[-68.19173030000002,44.39999999999998],[-68.19143989999998,44.39999999999998],[-68.1913429,44.39999999999998],[-68.1912757,44.39999999999998],[-68.19119710000001,44.39999999999998],[-68.19099139999997,44.39999999999998],[-68.19081269999998,44.39999999999998],[-68.18824869999997,44.39999999999998],[-68.18601940000002,44.39999999999998],[-68.1819999,44.39999999999998],[-68.17519870000001,44.39999999999998],[-68.17500000000001,44.39999999999998],[-68.17500000000001,44.39991859999998],[-68.17500000000001,44.39596110000002],[-68.17500000000001,44.394831899999986],[-68.17500000000001,44.388799199999994],[-68.17500000000001,44.37925000000001],[-68.17500000000001,44.374041499999976],[-68.17500000000001,44.370155599999975],[-68.17500000000001,44.370023100000026],[-68.17500000000001,44.3645166],[-68.17500000000001,44.36348579999998],[-68.17500000000001,44.34984220000001],[-68.17500000000001,44.34825619999998],[-68.17500000000001,44.34747709999999],[-68.17500000000001,44.3471409],[-68.17500000000001,44.34663740000002],[-68.17500000000001,44.34620219999999],[-68.17500000000001,44.34585920000001],[-68.17500000000001,44.34582369999998],[-68.17500000000001,44.345395999999994],[-68.17500000000001,44.344990800000005],[-68.17500000000001,44.343192199999976],[-68.17500000000001,44.3430012],[-68.17500000000001,44.342511],[-68.17500000000001,44.342419500000005],[-68.17500000000001,44.34221000000002],[-68.17500000000001,44.34110190000001],[-68.17500000000001,44.339082099999985],[-68.17500000000001,44.3382287],[-68.17500000000001,44.33535210000002],[-68.17500000000001,44.334744],[-68.17500000000001,44.334551799999986],[-68.17500000000001,44.33379450000001],[-68.17500000000001,44.333275800000024],[-68.17500000000001,44.33173599999998],[-68.17500000000001,44.331344],[-68.17500000000001,44.33094030000001],[-68.17500000000001,44.330667500000004],[-68.17500000000001,44.330400399999974],[-68.17500000000001,44.32670009999998],[-68.17500000000001,44.3264097],[-68.17500000000001,44.32621979999999],[-68.17500000000001,44.325254599999994],[-68.17500000000001,44.32499999999999],[-68.17505240000003,44.32499999999999],[-68.1764766,44.32499999999999],[-68.17683419999997,44.32499999999999],[-68.17721369999998,44.32499999999999],[-68.1783906,44.32499999999999],[-68.1787357,44.32499999999999],[-68.17941159999998,44.32499999999999],[-68.18442490000001,44.32499999999999],[-68.18484130000002,44.32499999999999],[-68.18522769999998,44.32499999999999],[-68.18576719999999,44.32499999999999],[-68.20346510000002,44.32499999999999]]]}},{"type":"Feature","properties":{},"geometry":{"type":"Polygon","coordinates":[[[-68.17238099999997,44.32499999999999],[-68.17500000000001,44.32499999999999],[-68.17500000000001,44.325254599999994],[-68.17500000000001,44.32621979999999],[-68.17500000000001,44.3264097],[-68.17500000000001,44.32670009999998],[-68.17500000000001,44.330400399999974],[-68.17500000000001,44.330667500000004],[-68.17500000000001,44.33094030000001],[-68.17500000000001,44.331344],[-68.17500000000001,44.33173599999998],[-68.17500000000001,44.333275800000024],[-68.17500000000001,44.33379450000001],[-68.17500000000001,44.334551799999986],[-68.17500000000001,44.334744],[-68.17500000000001,44.33535210000002],[-68.17500000000001,44.3382287],[-68.17500000000001,44.339082099999985],[-68.17500000000001,44.34110190000001],[-68.17500000000001,44.34221000000002],[-68.17500000000001,44.342419500000005],[-68.17500000000001,44.342511],[-68.17500000000001,44.3430012],[-68.17500000000001,44.343192199999976],[-68.17500000000001,44.344990800000005],[-68.17500000000001,44.345395999999994],[-68.17500000000001,44.34582369999998],[-68.17500000000001,44.34585920000001],[-68.17500000000001,44.34620219999999],[-68.17500000000001,44.34663740000002],[-68.17500000000001,44.3471409],[-68.17500000000001,44.34747709999999],[-68.17500000000001,44.34825619999998],[-68.17500000000001,44.34984220000001],[-68.17500000000001,44.36348579999998],[-68.17500000000001,44.3645166],[-68.17500000000001,44.370023100000026],[-68.17500000000001,44.370155599999975],[-68.17500000000001,44.374041499999976],[-68.17500000000001,44.37925000000001],[-68.17500000000001,44.388799199999994],[-68.17500000000001,44.394831899999986],[-68.17500000000001,44.39596110000002],[-68.17500000000001,44.39991859999998],[-68.17500000000001,44.39999999999998],[-68.17297960000002,44.39999999999998],[-68.16941209999999,44.39999999999998],[-68.16818389999997,44.39999999999998],[-68.16650199999998,44.39999999999998],[-68.16473050000002,44.39999999999998],[-68.16415619999998,44.39999999999998],[-68.16223450000001,44.39999999999998],[-68.15601220000002,44.39999999999998],[-68.14843730000001,44.39999999999998],[-68.14449610000003,44.39999999999998],[-68.1421077,44.39999999999998],[-68.14048079999998,44.39999999999998],[-68.14024790000002,44.39999999999998],[-68.14010880000001,44.39999999999998],[-68.14000750000002,44.39999999999998],[-68.13922450000001,44.39999999999998],[-68.12827929999997,44.39999999999998],[-68.1272778,44.39999999999998],[-68.12716990000001,44.39999999999998],[-68.12705679999999,44.39999999999998],[-68.1261475,44.39999999999998],[-68.1257091,44.39999999999998],[-68.12511860000001,44.39999999999998],[-68.11286330000001,44.39999999999998],[-68.11202029999998,44.39999999999998],[-68.11185490000003,44.39999999999998],[-68.11161520000002,44.39999999999998],[-68.1115206,44.39999999999998],[-68.11127110000001,44.39999999999998],[-68.11093599999998,44.39999999999998],[-68.10000000000002,44.39999999999998],[-68.10000000000002,44.38801489999997],[-68.10000000000002,44.37873769999999],[-68.10000000000002,44.378248299999996],[-68.10000000000002,44.37789099999998],[-68.10000000000002,44.377772100000016],[-68.10000000000002,44.375536899999986],[-68.10000000000002,44.37470080000003],[-68.10000000000002,44.373611900000014],[-68.10000000000002,44.37216769999998],[-68.10000000000002,44.3719696],[-68.10000000000002,44.370944699999995],[-68.10000000000002,44.370490099999984],[-68.10000000000002,44.37010099999998],[-68.10000000000002,44.37004539999998],[-68.10000000000002,44.369924500000025],[-68.10000000000002,44.36840059999997],[-68.10000000000002,44.36780759999999],[-68.10000000000002,44.36732749999999],[-68.10000000000002,44.36715340000001],[-68.10000000000002,44.36708379999999],[-68.10000000000002,44.366656499999976],[-68.10000000000002,44.3664756],[-68.10000000000002,44.36634839999999],[-68.10000000000002,44.36584319999997],[-68.10000000000002,44.365446899999995],[-68.10000000000002,44.36420629999998],[-68.10000000000002,44.35588280000002],[-68.10000000000002,44.35542670000001],[-68.10000000000002,44.355033100000014],[-68.10000000000002,44.354824399999984],[-68.10000000000002,44.35471849999999],[-68.10000000000002,44.35431729999999],[-68.10000000000002,44.35410910000002],[-68.10000000000002,44.3535516],[-68.10000000000002,44.35202570000001],[-68.10000000000002,44.3518239],[-68.10000000000002,44.351755000000026],[-68.10000000000002,44.35164450000002],[-68.10000000000002,44.35108059999999],[-68.10000000000002,44.350962200000026],[-68.10000000000002,44.3502757],[-68.10000000000002,44.34972809999999],[-68.10000000000002,44.348060499999974],[-68.10000000000002,44.344427499999995],[-68.10000000000002,44.34157499999998],[-68.10000000000002,44.34115250000002],[-68.10000000000002,44.33910559999998],[-68.10000000000002,44.336081999999976],[-68.10000000000002,44.33527579999998],[-68.10000000000002,44.334133699999995],[-68.10000000000002,44.32516679999998],[-68.10000000000002,44.32499999999999],[-68.10085029999999,44.32499999999999],[-68.10949260000001,44.32499999999999],[-68.11129829999999,44.32499999999999],[-68.11259369999999,44.32499999999999],[-68.12184739999998,44.32499999999999],[-68.12232440000002,44.32499999999999],[-68.12434439999998,44.32499999999999],[-68.12842219999999,44.32499999999999],[-68.13725870000002,44.32499999999999],[-68.17238099999997,44.32499999999999]]]}},{"type":"Feature","properties":{},"geometry":{"type":"Polygon","coordinates":[[[-68.09623579999999,44.32499999999999],[-68.10000000000002,44.32499999999999],[-68.10000000000002,44.32516679999998],[-68.10000000000002,44.334133699999995],[-68.10000000000002,44.33527579999998],[-68.10000000000002,44.336081999999976],[-68.10000000000002,44.33910559999998],[-68.10000000000002,44.34115250000002],[-68.10000000000002,44.34157499999998],[-68.10000000000002,44.344427499999995],[-68.10000000000002,44.348060499999974],[-68.10000000000002,44.34972809999999],[-68.10000000000002,44.3502757],[-68.10000000000002,44.350962200000026],[-68.10000000000002,44.35108059999999],[-68.10000000000002,44.35164450000002],[-68.10000000000002,44.351755000000026],[-68.10000000000002,44.3518239],[-68.10000000000002,44.35202570000001],[-68.10000000000002,44.3535516],[-68.10000000000002,44.35410910000002],[-68.10000000000002,44.35431729999999],[-68.10000000000002,44.35471849999999],[-68.10000000000002,44.354824399999984],[-68.10000000000002,44.355033100000014],[-68.10000000000002,44.35542670000001],[-68.10000000000002,44.35588280000002],[-68.10000000000002,44.36420629999998],[-68.10000000000002,44.365446899999995],[-68.10000000000002,44.36584319999997],[-68.10000000000002,44.36634839999999],[-68.10000000000002,44.3664756],[-68.10000000000002,44.366656499999976],[-68.10000000000002,44.36708379999999],[-68.10000000000002,44.36715340000001],[-68.10000000000002,44.36732749999999],[-68.10000000000002,44.36780759999999],[-68.10000000000002,44.36840059999997],[-68.10000000000002,44.369924500000025],[-68.10000000000002,44.37004539999998],[-68.10000000000002,44.37010099999998],[-68.10000000000002,44.370490099999984],[-68.10000000000002,44.370944699999995],[-68.10000000000002,44.3719696],[-68.10000000000002,44.37216769999998],[-68.10000000000002,44.373611900000014],[-68.10000000000002,44.37470080000003],[-68.10000000000002,44.375536899999986],[-68.10000000000002,44.377772100000016],[-68.10000000000002,44.37789099999998],[-68.10000000000002,44.378248299999996],[-68.10000000000002,44.37873769999999],[-68.10000000000002,44.38801489999997],[-68.10000000000002,44.39999999999998],[-68.0842055,44.39999999999998],[-68.05916669999999,44.39999999999998],[-68.02499999999998,44.39999999999998],[-68.02499999999998,44.38394820000002],[-68.02499999999998,44.38359650000001],[-68.02499999999998,44.383225100000004],[-68.02499999999998,44.38226329999998],[-68.02499999999998,44.3817813],[-68.02499999999998,44.38154650000001],[-68.02499999999998,44.3769135],[-68.02499999999998,44.37652939999998],[-68.02499999999998,44.375280599999996],[-68.02499999999998,44.374029699999994],[-68.02499999999998,44.37348609999998],[-68.02499999999998,44.373272199999974],[-68.02499999999998,44.372520699999995],[-68.02499999999998,44.37144569999998],[-68.02499999999998,44.37092660000002],[-68.02499999999998,44.37083990000002],[-68.02499999999998,44.37056310000003],[-68.02499999999998,44.369416],[-68.02499999999998,44.36927420000001],[-68.02499999999998,44.367646200000024],[-68.02499999999998,44.367568300000016],[-68.02499999999998,44.36734080000002],[-68.02499999999998,44.36560650000001],[-68.02499999999998,44.36525640000002],[-68.02499999999998,44.36416650000001],[-68.02499999999998,44.36392649999999],[-68.02499999999998,44.363667599999985],[-68.02499999999998,44.363262299999974],[-68.02499999999998,44.362789599999985],[-68.02499999999998,44.361664700000006],[-68.02499999999998,44.35577690000002],[-68.02499999999998,44.355595600000015],[-68.02499999999998,44.35525519999999],[-68.02499999999998,44.35470950000001],[-68.02499999999998,44.35459580000003],[-68.02499999999998,44.35427499999997],[-68.02499999999998,44.35369800000001],[-68.02499999999998,44.35334979999999],[-68.02499999999998,44.35228430000001],[-68.02499999999998,44.3516932],[-68.02499999999998,44.35090439999999],[-68.02499999999998,44.34988609999999],[-68.02499999999998,44.346616900000015],[-68.02499999999998,44.33983319999999],[-68.02499999999998,44.32499999999999],[-68.02846349999999,44.32499999999999],[-68.02942569999999,44.32499999999999],[-68.0309173,44.32499999999999],[-68.0312917,44.32499999999999],[-68.03294469999997,44.32499999999999],[-68.03378129999999,44.32499999999999],[-68.03465770000003,44.32499999999999],[-68.03489209999998,44.32499999999999],[-68.03531090000001,44.32499999999999],[-68.0370168,44.32499999999999],[-68.04081780000001,44.32499999999999],[-68.044059,44.32499999999999],[-68.0476051,44.32499999999999],[-68.05139580000002,44.32499999999999],[-68.0619499,44.32499999999999],[-68.0661111,44.32499999999999],[-68.06784499999998,44.32499999999999],[-68.0728044,44.32499999999999],[-68.07790940000001,44.32499999999999],[-68.08700099999999,44.32499999999999],[-68.093928,44.32499999999999],[-68.09430450000002,44.32499999999999],[-68.0959383,44.32499999999999],[-68.09623579999999,44.32499999999999]]]}},{"type":"Feature","properties":{},"geometry":{"type":"Polygon","coordinates":[[[-68.29568,44.47500000000002],[-68.29308220000001,44.47500000000002],[-68.2889932,44.47500000000002],[-68.2728406,44.47500000000002],[-68.26558440000002,44.47500000000002],[-68.26487989999998,44.47500000000002],[-68.26467109999999,44.47500000000002],[-68.26447999999999,44.47500000000002],[-68.26380039999998,44.47500000000002],[-68.26149880000003,44.47500000000002],[-68.25820850000002,44.47500000000002],[-68.25281530000001,44.47500000000002],[-68.25,44.47500000000002],[-68.25,44.47389870000001],[-68.25,44.473269500000015],[-68.25,44.4518003],[-68.25,44.44727469999998],[-68.25,44.44559859999998],[-68.25,44.43924019999997],[-68.25,44.438944900000024],[-68.25,44.438633400000015],[-68.25,44.438403300000004],[-68.25,44.43816190000001],[-68.25,44.43761280000001],[-68.25,44.437372700000026],[-68.25,44.43700639999997],[-68.25,44.43647279999999],[-68.25,44.43601030000002],[-68.25,44.434472099999994],[-68.25,44.43414539999998],[-68.25,44.4339703],[-68.25,44.43370299999998],[-68.25,44.433107699999994],[-68.25,44.42797230000002],[-68.25,44.418216599999994],[-68.25,44.4168732],[-68.25,44.41607010000001],[-68.25,44.41588189999999],[-68.25,44.415330299999994],[-68.25,44.415142100000025],[-68.25,44.41483490000002],[-68.25,44.4144124],[-68.25,44.41392509999997],[-68.25,44.413712299999986],[-68.25,44.4136072],[-68.25,44.39999999999998],[-68.25221970000001,44.39999999999998],[-68.30499999999999,44.39999999999998],[-68.30499999999999,44.47500000000002],[-68.29568,44.47500000000002]]]}},{"type":"Feature","properties":{},"geometry":{"type":"Polygon","coordinates":[[[-68.23052589999998,44.39999999999998],[-68.25,44.39999999999998],[-68.25,44.4136072],[-68.25,44.413712299999986],[-68.25,44.41392509999997],[-68.25,44.4144124],[-68.25,44.41483490000002],[-68.25,44.415142100000025],[-68.25,44.415330299999994],[-68.25,44.41588189999999],[-68.25,44.41607010000001],[-68.25,44.4168732],[-68.25,44.418216599999994],[-68.25,44.42797230000002],[-68.25,44.433107699999994],[-68.25,44.43370299999998],[-68.25,44.4339703],[-68.25,44.43414539999998],[-68.25,44.434472099999994],[-68.25,44.43601030000002],[-68.25,44.43647279999999],[-68.25,44.43700639999997],[-68.25,44.437372700000026],[-68.25,44.43761280000001],[-68.25,44.43816190000001],[-68.25,44.438403300000004],[-68.25,44.438633400000015],[-68.25,44.438944900000024],[-68.25,44.43924019999997],[-68.25,44.44559859999998],[-68.25,44.44727469999998],[-68.25,44.4518003],[-68.25,44.473269500000015],[-68.25,44.47389870000001],[-68.25,44.47500000000002],[-68.2473081,44.47500000000002],[-68.24696110000002,44.47500000000002],[-68.24654850000002,44.47500000000002],[-68.24628289999998,44.47500000000002],[-68.245834,44.47500000000002],[-68.2453711,44.47500000000002],[-68.22884319999997,44.47500000000002],[-68.22819349999997,44.47500000000002],[-68.2279456,44.47500000000002],[-68.22742149999999,44.47500000000002],[-68.22712710000002,44.47500000000002],[-68.22456519999997,44.47500000000002],[-68.221361,44.47500000000002],[-68.21653780000003,44.47500000000002],[-68.21514919999998,44.47500000000002],[-68.21455270000001,44.47500000000002],[-68.21420469999998,44.47500000000002],[-68.21385559999999,44.47500000000002],[-68.21365120000002,44.47500000000002],[-68.21247579999999,44.47500000000002],[-68.20538479999999,44.47500000000002],[-68.2039193,44.47500000000002],[-68.20319799999999,44.47500000000002],[-68.20303200000001,44.47500000000002],[-68.20241800000002,44.47500000000002],[-68.20126859999999,44.47500000000002],[-68.200019,44.47500000000002],[-68.19862999999998,44.47500000000002],[-68.1975946,44.47500000000002],[-68.19588420000002,44.47500000000002],[-68.19502699999998,44.47500000000002],[-68.19292719999999,44.47500000000002],[-68.19252979999999,44.47500000000002],[-68.1915692,44.47500000000002],[-68.19107000000002,44.47500000000002],[-68.1904629,44.47500000000002],[-68.19023340000001,44.47500000000002],[-68.18561519999997,44.47500000000002],[-68.18540760000002,44.47500000000002],[-68.1839622,44.47500000000002],[-68.1831699,44.47500000000002],[-68.18018160000003,44.47500000000002],[-68.17978649999998,44.47500000000002],[-68.17500000000001,44.47500000000002],[-68.17500000000001,44.47178530000002],[-68.17500000000001,44.47094470000002],[-68.17500000000001,44.4698267],[-68.17500000000001,44.468761700000016],[-68.17500000000001,44.46823710000001],[-68.17500000000001,44.46735419999999],[-68.17500000000001,44.46450709999999],[-68.17500000000001,44.46432179999999],[-68.17500000000001,44.46396900000002],[-68.17500000000001,44.46372960000002],[-68.17500000000001,44.46154330000002],[-68.17500000000001,44.460425799999996],[-68.17500000000001,44.45880829999999],[-68.17500000000001,44.44842299999999],[-68.17500000000001,44.4346625],[-68.17500000000001,44.42797230000002],[-68.17500000000001,44.417604100000005],[-68.17500000000001,44.41680969999999],[-68.17500000000001,44.416176500000006],[-68.17500000000001,44.414131999999995],[-68.17500000000001,44.41292340000001],[-68.17500000000001,44.408591899999976],[-68.17500000000001,44.40621299999998],[-68.17500000000001,44.405865500000004],[-68.17500000000001,44.405661899999984],[-68.17500000000001,44.40534919999999],[-68.17500000000001,44.405221299999994],[-68.17500000000001,44.40490790000001],[-68.17500000000001,44.40453209999998],[-68.17500000000001,44.4044437],[-68.17500000000001,44.40440139999998],[-68.17500000000001,44.404294600000014],[-68.17500000000001,44.40284059999999],[-68.17500000000001,44.40073159999997],[-68.17500000000001,44.39999999999998],[-68.17519870000001,44.39999999999998],[-68.1819999,44.39999999999998],[-68.18601940000002,44.39999999999998],[-68.18824869999997,44.39999999999998],[-68.19081269999998,44.39999999999998],[-68.19099139999997,44.39999999999998],[-68.19119710000001,44.39999999999998],[-68.1912757,44.39999999999998],[-68.1913429,44.39999999999998],[-68.19143989999998,44.39999999999998],[-68.19173030000002,44.39999999999998],[-68.1921241,44.39999999999998],[-68.19576669999998,44.39999999999998],[-68.19607380000002,44.39999999999998],[-68.1961369,44.39999999999998],[-68.19629989999999,44.39999999999998],[-68.19647800000001,44.39999999999998],[-68.19653590000001,44.39999999999998],[-68.19890470000001,44.39999999999998],[-68.1992277,44.39999999999998],[-68.19963430000001,44.39999999999998],[-68.20058289999997,44.39999999999998],[-68.2023302,44.39999999999998],[-68.20271919999999,44.39999999999998],[-68.20284729999997,44.39999999999998],[-68.20328330000001,44.39999999999998],[-68.2074414,44.39999999999998],[-68.21022690000001,44.39999999999998],[-68.21060210000002,44.39999999999998],[-68.21082790000003,44.39999999999998],[-68.21112590000001,44.39999999999998],[-68.2122511,44.39999999999998],[-68.22264769999998,44.39999999999998],[-68.22409169999997,44.39999999999998],[-68.22418750000003,44.39999999999998],[-68.22433360000002,44.39999999999998],[-68.2246106,44.39999999999998],[-68.2249698,44.39999999999998],[-68.2254011,44.39999999999998],[-68.22649560000002,44.39999999999998],[-68.2267506,44.39999999999998],[-68.22748419999999,44.39999999999998],[-68.2275558,44.39999999999998],[-68.22774179999999,44.39999999999998],[-68.22870080000001,44.39999999999998],[-68.22893690000001,44.39999999999998],[-68.23052589999998,44.39999999999998]]]}},{"type":"Feature","properties":{},"geometry":{"type":"Polygon","coordinates":[[[-68.17297960000002,44.39999999999998],[-68.17500000000001,44.39999999999998],[-68.17500000000001,44.40073159999997],[-68.17500000000001,44.40284059999999],[-68.17500000000001,44.404294600000014],[-68.17500000000001,44.40440139999998],[-68.17500000000001,44.4044437],[-68.17500000000001,44.40453209999998],[-68.17500000000001,44.40490790000001],[-68.17500000000001,44.405221299999994],[-68.17500000000001,44.40534919999999],[-68.17500000000001,44.405661899999984],[-68.17500000000001,44.405865500000004],[-68.17500000000001,44.40621299999998],[-68.17500000000001,44.408591899999976],[-68.17500000000001,44.41292340000001],[-68.17500000000001,44.414131999999995],[-68.17500000000001,44.416176500000006],[-68.17500000000001,44.41680969999999],[-68.17500000000001,44.417604100000005],[-68.17500000000001,44.42797230000002],[-68.17500000000001,44.4346625],[-68.17500000000001,44.44842299999999],[-68.17500000000001,44.45880829999999],[-68.17500000000001,44.460425799999996],[-68.17500000000001,44.46154330000002],[-68.17500000000001,44.46372960000002],[-68.17500000000001,44.46396900000002],[-68.17500000000001,44.46432179999999],[-68.17500000000001,44.46450709999999],[-68.17500000000001,44.46735419999999],[-68.17500000000001,44.46823710000001],[-68.17500000000001,44.468761700000016],[-68.17500000000001,44.4698267],[-68.17500000000001,44.47094470000002],[-68.17500000000001,44.47178530000002],[-68.17500000000001,44.47500000000002],[-68.16207250000002,44.47500000000002],[-68.16154189999997,44.47500000000002],[-68.16146700000002,44.47500000000002],[-68.161024,44.47500000000002],[-68.15881330000002,44.47500000000002],[-68.15835909999998,44.47500000000002],[-68.15078790000001,44.47500000000002],[-68.15053769999997,44.47500000000002],[-68.15008419999998,44.47500000000002],[-68.14741620000001,44.47500000000002],[-68.1464441,44.47500000000002],[-68.14618239999999,44.47500000000002],[-68.14544869999997,44.47500000000002],[-68.14424550000001,44.47500000000002],[-68.14316830000001,44.47500000000002],[-68.1424045,44.47500000000002],[-68.1419247,44.47500000000002],[-68.13566270000001,44.47500000000002],[-68.13391039999999,44.47500000000002],[-68.13093329999998,44.47500000000002],[-68.1223453,44.47500000000002],[-68.12080659999998,44.47500000000002],[-68.11987069999998,44.47500000000002],[-68.11829060000002,44.47500000000002],[-68.11749839999999,44.47500000000002],[-68.1138163,44.47500000000002],[-68.11340180000002,44.47500000000002],[-68.1125988,44.47500000000002],[-68.10810709999998,44.47500000000002],[-68.10716860000002,44.47500000000002],[-68.10448689999998,44.47500000000002],[-68.10217189999997,44.47500000000002],[-68.10000000000002,44.47500000000002],[-68.10000000000002,44.46996819999998],[-68.10000000000002,44.4696328],[-68.10000000000002,44.469602899999984],[-68.10000000000002,44.46878750000002],[-68.10000000000002,44.466628300000025],[-68.10000000000002,44.46626680000003],[-68.10000000000002,44.465933800000016],[-68.10000000000002,44.401491599999986],[-68.10000000000002,44.39999999999998],[-68.11093599999998,44.39999999999998],[-68.11127110000001,44.39999999999998],[-68.1115206,44.39999999999998],[-68.11161520000002,44.39999999999998],[-68.11185490000003,44.39999999999998],[-68.11202029999998,44.39999999999998],[-68.11286330000001,44.39999999999998],[-68.12511860000001,44.39999999999998],[-68.1257091,44.39999999999998],[-68.1261475,44.39999999999998],[-68.12705679999999,44.39999999999998],[-68.12716990000001,44.39999999999998],[-68.1272778,44.39999999999998],[-68.12827929999997,44.39999999999998],[-68.13922450000001,44.39999999999998],[-68.14000750000002,44.39999999999998],[-68.14010880000001,44.39999999999998],[-68.14024790000002,44.39999999999998],[-68.14048079999998,44.39999999999998],[-68.1421077,44.39999999999998],[-68.14449610000003,44.39999999999998],[-68.14843730000001,44.39999999999998],[-68.15601220000002,44.39999999999998],[-68.16223450000001,44.39999999999998],[-68.16415619999998,44.39999999999998],[-68.16473050000002,44.39999999999998],[-68.16650199999998,44.39999999999998],[-68.16818389999997,44.39999999999998],[-68.16941209999999,44.39999999999998],[-68.17297960000002,44.39999999999998]]]}},{"type":"Feature","properties":{},"geometry":{"type":"Polygon","coordinates":[[[-68.0842055,44.39999999999998],[-68.10000000000002,44.39999999999998],[-68.10000000000002,44.401491599999986],[-68.10000000000002,44.465933800000016],[-68.10000000000002,44.46626680000003],[-68.10000000000002,44.466628300000025],[-68.10000000000002,44.46878750000002],[-68.10000000000002,44.469602899999984],[-68.10000000000002,44.4696328],[-68.10000000000002,44.46996819999998],[-68.10000000000002,44.47500000000002],[-68.0661111,44.47500000000002],[-68.02758440000002,44.47500000000002],[-68.026478,44.47500000000002],[-68.02499999999998,44.47500000000002],[-68.02499999999998,44.471623799999975],[-68.02499999999998,44.471423300000026],[-68.02499999999998,44.47066000000001],[-68.02499999999998,44.46868940000002],[-68.02499999999998,44.4667422],[-68.02499999999998,44.466067599999974],[-68.02499999999998,44.46275159999999],[-68.02499999999998,44.46190050000001],[-68.02499999999998,44.409664299999974],[-68.02499999999998,44.408773800000006],[-68.02499999999998,44.40824420000001],[-68.02499999999998,44.407150899999976],[-68.02499999999998,44.40655129999999],[-68.02499999999998,44.39999999999998],[-68.05916669999999,44.39999999999998],[-68.0842055,44.39999999999998]]]}}]}