{"type":"FeatureCollection","features":[{"type":"Feature","properties":{},"geometry":{"type":"Polygon","coordinates":[[[-73.49519729999997,43.35000000000002],[-73.4951302,43.35009179999997],[-73.49497029999998,43.35018600000001],[-73.49510450000002,43.35038880000002],[-73.49507449999999,43.35060720000001],[-73.49460770000002,43.35189780000002],[-73.49441639999998,43.35234609999998],[-73.49441639999998,43.35255169999999],[-73.49448919999998,43.352802999999994],[-73.4945591,43.35327410000002],[-73.4945588,43.3533152],[-73.49455769999997,43.35342680000002],[-73.4942699,43.35426719999998],[-73.49413279999999,43.355039999999974],[-73.49386629999998,43.35608130000003],[-73.49371589999998,43.35649239999998],[-73.49355600000001,43.35668279999999],[-73.4934642,43.3569986],[-73.49342969999998,43.35704609999999],[-73.4933666,43.35707830000001],[-73.49313819999998,43.3570914],[-73.49305609999999,43.357205599999986],[-73.49300499999998,43.35721510000002],[-73.49295380000001,43.35720429999998],[-73.49291920000002,43.357322599999975],[-73.49298240000002,43.35732580000001],[-73.49303950000001,43.357357200000024],[-73.49321509999999,43.35757139999998],[-73.493248,43.35764419999998],[-73.4932531,43.3576726],[-73.49327570000003,43.35779710000003],[-73.49328079999998,43.35782549999999],[-73.49323800000002,43.35798249999999],[-73.49312379999998,43.35820380000001],[-73.49298959999999,43.358562199999994],[-73.4923612,43.36036230000002],[-73.49221310000001,43.36086319999998],[-73.49195040000001,43.36134290000001],[-73.49154299999998,43.362309900000014],[-73.49121939999998,43.362915199999975],[-73.4909111,43.363790900000026],[-73.49075879999998,43.36413729999998],[-73.49056839999997,43.3644362],[-73.4904047,43.364790200000016],[-73.48998210000002,43.36542220000001],[-73.48969849999997,43.365943800000025],[-73.48947959999998,43.36641780000002],[-73.48939009999998,43.366688099999976],[-73.4892112,43.367032600000016],[-73.48901699999999,43.36759799999999],[-73.48879240000002,43.368043399999976],[-73.48851259999998,43.36879720000002],[-73.48843640000001,43.36953390000002],[-73.48830700000002,43.37022680000001],[-73.48828409999999,43.3702725],[-73.48825090000003,43.370296800000006],[-73.48815509999997,43.37036699999999],[-73.48787870000001,43.370548499999984],[-73.48773160000002,43.37065719999998],[-73.48768639999997,43.37072169999999],[-73.48770619999999,43.3707617],[-73.4877702,43.37078459999998],[-73.48820949999998,43.37069300000002],[-73.48828980000002,43.37070649999998],[-73.48828029999999,43.370993999999996],[-73.4881987,43.37152750000001],[-73.48813919999998,43.37208429999998],[-73.48811660000001,43.37245969999998],[-73.48795860000001,43.3733982],[-73.48796049999999,43.37367990000001],[-73.48789959999999,43.373915899999986],[-73.48783680000003,43.37466970000003],[-73.48770919999998,43.37538169999999],[-73.48764829999999,43.37615260000001],[-73.4875513,43.3766076],[-73.48751320000002,43.376915999999994],[-73.48747700000001,43.37758789999998],[-73.4872714,43.37823700000001],[-73.48717620000002,43.37873960000002],[-73.48715720000001,43.379108900000006],[-73.48707539999998,43.37970469999999],[-73.48704679999997,43.38093629999997],[-73.48699920000001,43.381296099999986],[-73.48686029999999,43.38157210000003],[-73.48690970000001,43.38202510000002],[-73.48689610000002,43.38210720000001],[-73.48683540000002,43.38217259999999],[-73.48662130000002,43.38218690000002],[-73.48652900000002,43.3822174],[-73.48644910000002,43.3823031],[-73.48647190000003,43.382360199999994],[-73.48674979999998,43.38252010000002],[-73.48680309999997,43.382577200000014],[-73.48677120000002,43.38285459999997],[-73.48668090000001,43.38336820000001],[-73.48665469999997,43.383949599999994],[-73.48652520000002,43.38463680000001],[-73.48637100000002,43.38576760000001],[-73.48618590000001,43.38681839999998],[-73.4860703,43.38762350000002],[-73.4859808,43.3879738],[-73.48583230000003,43.38946240000001],[-73.4858317,43.38997389999997],[-73.48578470000001,43.39008869999998],[-73.48568,43.39024089999998],[-73.48558680000002,43.39059500000002],[-73.4855753,43.39091100000002],[-73.48547639999998,43.39147830000002],[-73.48545309999997,43.391884300000015],[-73.48541499999999,43.39221500000002],[-73.48532219999998,43.393022099999996],[-73.48508040000002,43.394541100000026],[-73.48507280000001,43.39502649999997],[-73.48503849999997,43.39509880000003],[-73.48494720000002,43.39512930000001],[-73.48476629999999,43.395072200000016],[-73.48474920000001,43.39513310000001],[-73.4847987,43.395373000000006],[-73.48485010000002,43.3954339],[-73.48502330000002,43.39553669999998],[-73.4850576,43.395633799999985],[-73.48505189999997,43.39577270000001],[-73.48496619999997,43.39620289999999],[-73.48491100000001,43.396863499999995],[-73.48473589999998,43.397425],[-73.48473969999998,43.3975944],[-73.48462169999999,43.39870989999997],[-73.4844903,43.399317199999984],[-73.48442369999998,43.400066700000025],[-73.48435369999999,43.40065019999997],[-73.48430710000002,43.401111300000025],[-73.4841786,43.40205350000002],[-73.48415240000003,43.402489],[-73.4841596,43.402933899999994],[-73.48412530000002,43.40322950000001],[-73.48404590000001,43.40358259999999],[-73.4840031,43.40418940000001],[-73.48404590000001,43.40446420000001],[-73.48415419999998,43.40459270000002],[-73.484128,43.40509479999997],[-73.48425409999999,43.405820500000004],[-73.48419940000002,43.406296399999974],[-73.48431360000001,43.40656530000001],[-73.48433499999999,43.406786599999975],[-73.4843017,43.4074933],[-73.48438979999997,43.408095300000014],[-73.48434930000002,43.408547399999975],[-73.48446589999998,43.40891620000002],[-73.48445400000003,43.40935880000001],[-73.48441120000001,43.40951580000001],[-73.48437009999998,43.41023080000002],[-73.48449210000001,43.41052530000002],[-73.48447110000001,43.41074680000003],[-73.48448450000001,43.410899099999995],[-73.48457580000002,43.41115610000003],[-73.48458340000002,43.411574900000005],[-73.48462719999998,43.41190799999998],[-73.4846025,43.41246580000001],[-73.48464819999998,43.41270179999998],[-73.48464439999998,43.4132424],[-73.48462339999998,43.41327669999998],[-73.48434739999999,43.41330900000003],[-73.48426310000002,43.41337249999998],[-73.48435590000003,43.41338910000002],[-73.48457580000002,43.41336419999999],[-73.48465199999998,43.413425200000006],[-73.48469770000003,43.413567899999975],[-73.48468589999999,43.41367330000003],[-73.4846786,43.41373920000001],[-73.48458340000002,43.41398670000001],[-73.48450350000002,43.41432930000002],[-73.48447870000001,43.4148452],[-73.4843836,43.415437199999985],[-73.4840352,43.41665840000002],[-73.48399239999998,43.41702379999998],[-73.48385819999999,43.41734359999998],[-73.4837511,43.41746210000002],[-73.48352979999999,43.417609200000015],[-73.4834998,43.41767629999998],[-73.48350979999998,43.41775339999998],[-73.48359090000002,43.41784960000001],[-73.48359470000003,43.41794190000002],[-73.48314720000002,43.419355199999984],[-73.48288450000001,43.41999199999998],[-73.4826061,43.42089709999999],[-73.4823634,43.42155100000002],[-73.48207930000001,43.422126400000025],[-73.48198439999999,43.42220520000001],[-73.48187139999999,43.42225400000001],[-73.48176810000001,43.42234050000002],[-73.48152540000001,43.42279880000001],[-73.48127369999997,43.42309469999998],[-73.48103420000001,43.423337000000004],[-73.48083009999999,43.42370970000002],[-73.48062270000003,43.4238656],[-73.48032610000001,43.42404800000003],[-73.47960940000002,43.424330699999985],[-73.47924260000002,43.424352899999974],[-73.4790294,43.42437580000001],[-73.47890269999999,43.42440779999998],[-73.4765473,43.42500000000001],[-73.44964970000001,43.42500000000001],[-73.42500000000001,43.42500000000001],[-73.42500000000001,43.40524310000001],[-73.42500000000001,43.35000000000002],[-73.49519729999997,43.35000000000002]]]}},{"type":"Feature","properties":{},"geometry":{"type":"Polygon","coordinates":[[[-73.48476299999999,43.41660139999999],[-73.48489569999998,43.4166386],[-73.48501599999997,43.416672300000016],[-73.48515700000002,43.41671179999997],[-73.48532,43.416833499999996],[-73.48562340000001,43.41706019999998],[-73.48575670000002,43.4172087],[-73.48621350000002,43.41733620000002],[-73.48677700000002,43.41740679999998],[-73.4868285,43.4172471],[-73.48672879999998,43.41724190000002],[-73.4865165,43.417210899999986],[-73.48641950000001,43.41719669999998],[-73.4860875,43.41711099999998],[-73.48554259999997,43.4167946],[-73.4854082,43.41668870000001],[-73.48549379999997,43.416388900000015],[-73.48558780000002,43.4162187],[-73.48559840000001,43.4161469],[-73.4855331,43.41613899999999],[-73.48547719999999,43.416214000000025],[-73.48534160000003,43.416491199999996],[-73.4852654,43.41654119999998],[-73.48506859999998,43.416517999999996],[-73.48493880000001,43.416502700000024],[-73.48476340000002,43.416437599999995],[-73.48475639999998,43.416353800000024],[-73.4850533,43.4152459],[-73.48523419999998,43.41401619999999],[-73.48523770000003,43.4137255],[-73.48523890000001,43.41362839999999],[-73.48524750000001,43.412933099999975],[-73.4852151,43.4113036],[-73.48511810000002,43.4098664],[-73.48502669999999,43.408990800000026],[-73.48499620000001,43.40800100000001],[-73.48484769999999,43.40621540000001],[-73.48478180000001,43.40485530000001],[-73.4847972,43.40472319999998],[-73.48512269999998,43.40461260000001],[-73.4851251,43.404550700000016],[-73.48508229999999,43.40446270000001],[-73.4848753,43.4045127],[-73.48480389999997,43.404515],[-73.48475630000002,43.40447929999999],[-73.4847777,43.40425090000002],[-73.48475150000002,43.40349659999998],[-73.48475869999999,43.402594799999974],[-73.4847848,43.40248059999999],[-73.48483240000002,43.40172389999998],[-73.4852631,43.39909940000001],[-73.48529880000001,43.39851399999998],[-73.485413,43.397745499999985],[-73.4855177,43.39655809999999],[-73.48566290000002,43.395796700000005],[-73.48581990000002,43.39455459999999],[-73.48596980000002,43.393036499999994],[-73.48610780000001,43.392218000000014],[-73.48612450000002,43.39186339999998],[-73.48620019999998,43.3913465],[-73.48627440000001,43.39095689999999],[-73.48638219999998,43.39012120000001],[-73.48639680000002,43.3900079],[-73.4864076,43.389924199999996],[-73.48647899999997,43.38964579999998],[-73.48648850000001,43.389253199999985],[-73.48661229999999,43.38865120000003],[-73.48669319999999,43.38775650000002],[-73.48679069999997,43.38714970000001],[-73.48681690000001,43.386776199999986],[-73.48711429999997,43.38470360000002],[-73.48717620000002,43.383723299999986],[-73.48728089999997,43.38317599999999],[-73.48730710000001,43.38278580000002],[-73.4873642,43.38251930000001],[-73.48747600000002,43.38164599999999],[-73.48751650000003,43.381510400000025],[-73.48751650000003,43.38109400000002],[-73.48760929999997,43.38048250000003],[-73.48765479999997,43.38027069999998],[-73.48769970000001,43.38017789999998],[-73.4879118,43.380082300000026],[-73.4880546,43.379890999999986],[-73.48820410000002,43.37963780000001],[-73.48818510000001,43.37956159999999],[-73.48811230000001,43.3795786],[-73.48788769999999,43.3797639],[-73.48777339999998,43.37990669999999],[-73.48771160000001,43.37988519999999],[-73.4877502,43.3794815],[-73.48780970000001,43.3790889],[-73.48803279999998,43.377579500000024],[-73.4881613,43.37628749999999],[-73.48828270000001,43.37566650000002],[-73.48832549999997,43.37516679999999],[-73.4883992,43.37483839999999],[-73.4884897,43.373877100000016],[-73.48879419999997,43.371669],[-73.48884659999999,43.371078899999986],[-73.48889539999999,43.37082939999999],[-73.48900839999999,43.37052440000002],[-73.489081,43.37019170000002],[-73.4891619,43.36995139999999],[-73.4891202,43.36968919999998],[-73.48929149999998,43.36881599999998],[-73.48970800000001,43.36756439999999],[-73.48993639999998,43.367150400000014],[-73.49076680000002,43.365470500000015],[-73.49116889999999,43.36475899999999],[-73.4914569,43.36411420000002],[-73.49178999999998,43.36349790000003],[-73.49250860000001,43.361988800000006],[-73.49268469999998,43.361475799999994],[-73.49288999999999,43.360945000000015],[-73.4930066,43.36053930000003],[-73.493246,43.35991089999999],[-73.49345629999999,43.359214099999974],[-73.49372260000001,43.358463900000004],[-73.49375400000002,43.35843249999999],[-73.49387530000001,43.35840539999998],[-73.4941202,43.35838899999999],[-73.49419180000001,43.35834790000001],[-73.49417019999999,43.35831109999998],[-73.4937797,43.35831689999998],[-73.49382659999998,43.358066099999974],[-73.4938641,43.357965200000024],[-73.49390440000002,43.357857000000024],[-73.49424529999999,43.356941000000006],[-73.49466410000002,43.3556466],[-73.49488300000002,43.3552335],[-73.49503770000001,43.35487619999998],[-73.49519830000003,43.35412760000003],[-73.49561130000001,43.35294959999999],[-73.49572840000002,43.352913899999976],[-73.49574910000001,43.35287820000002],[-73.49573270000002,43.35281680000003],[-73.49553200000003,43.352777600000024],[-73.49554769999997,43.352666],[-73.49567100000002,43.352306999999996],[-73.49598409999999,43.3513954],[-73.49646330000002,43.35000000000002],[-73.5,43.35000000000002],[-73.5,43.42500000000001],[-73.49377320000002,43.42500000000001],[-73.49353819999999,43.42500000000001],[-73.49335639999998,43.42500000000001],[-73.47900759999999,43.42500000000001],[-73.47956190000002,43.42480640000002],[-73.48023239999998,43.42452509999998],[-73.48108660000003,43.42402420000002],[-73.48117939999997,43.42400279999998],[-73.48119960000002,43.423952799999995],[-73.48132220000002,43.42388269999998],[-73.481854,43.42343060000002],[-73.48222399999997,43.423020099999974],[-73.48275940000002,43.42225509999997],[-73.4830336,43.421661400000005],[-73.48346070000002,43.42050139999998],[-73.48418240000001,43.41834510000001],[-73.48432709999997,43.41775689999997],[-73.48460310000002,43.416837499999986],[-73.48469069999999,43.41660519999999],[-73.48476299999999,43.41660139999999]]]}},{"type":"Feature","properties":{},"geometry":{"type":"Polygon","coordinates":[[[-73.43538819999998,43.46790199999998],[-73.4361576,43.46714969999999],[-73.43641489999999,43.46690530000001],[-73.4376805,43.465657799999974],[-73.43779469999998,43.465576899999974],[-73.4379161,43.46553399999999],[-73.43798270000002,43.46543170000001],[-73.43860369999999,43.464848700000005],[-73.43950790000002,43.46377560000002],[-73.4398529,43.463208699999996],[-73.43995109999997,43.4629678],[-73.44005520000002,43.462872600000026],[-73.4403883,43.461926800000015],[-73.44057570000001,43.46104639999999],[-73.4406798,43.4607876],[-73.44071550000001,43.460395000000005],[-73.4407809,43.46015410000001],[-73.4408345,43.45974660000002],[-73.44090990000001,43.459541100000024],[-73.44101080000002,43.45940209999998],[-73.44100700000001,43.45933170000001],[-73.44091370000001,43.459259299999985],[-73.44094469999999,43.45911139999998],[-73.44125020000001,43.45765030000001],[-73.44133110000001,43.456986400000005],[-73.44136270000001,43.45687299999997],[-73.44146419999998,43.45650890000002],[-73.44160319999997,43.45605019999999],[-73.44178970000002,43.45560280000001],[-73.44197109999999,43.45523270000001],[-73.44219329999999,43.454873299999974],[-73.44258500000001,43.45429050000001],[-73.44306319999998,43.45373110000003],[-73.443601,43.45311809999998],[-73.44377709999998,43.4528985],[-73.4439056,43.452793799999995],[-73.4444006,43.45221320000002],[-73.4448979,43.451811099999986],[-73.44526669999999,43.4514375],[-73.44559029999999,43.4510497],[-73.4461114,43.45066889999998],[-73.44655060000002,43.450327000000016],[-73.44672580000002,43.45012809999997],[-73.44686330000002,43.449912299999994],[-73.44694420000002,43.449888499999986],[-73.44691560000001,43.449826599999994],[-73.44732729999998,43.44901759999999],[-73.44753429999997,43.448291900000015],[-73.44763189999998,43.44785400000001],[-73.44763189999998,43.4476899],[-73.4476009,43.44755420000001],[-73.44742719999999,43.44722589999998],[-73.4473582,43.44700929999999],[-73.44737249999997,43.446707100000026],[-73.4473137,43.44649650000002],[-73.44722969999998,43.44600759999997],[-73.44714649999997,43.4457577],[-73.44714649999997,43.44547929999999],[-73.44707979999998,43.44490830000001],[-73.44704410000003,43.44426579999998],[-73.44715029999998,43.444139800000016],[-73.44705370000003,43.444053999999994],[-73.4471322,43.44388509999999],[-73.4470751,43.4437423],[-73.44705370000003,43.44340920000002],[-73.44698469999997,43.4430309],[-73.44701320000001,43.44274300000001],[-73.44700749999998,43.442419900000004],[-73.44703609999999,43.442184399999974],[-73.44710120000002,43.44185299999998],[-73.44725119999998,43.44138429999998],[-73.44733680000002,43.44126060000002],[-73.44755809999998,43.4407157],[-73.44806490000002,43.439985200000024],[-73.44828810000001,43.43971499999998],[-73.44901529999999,43.4387294],[-73.44931220000001,43.43833540000003],[-73.44944980000002,43.43816959999998],[-73.44968060000002,43.437979299999995],[-73.4497948,43.43784360000001],[-73.4498638,43.43770089999998],[-73.44999940000002,43.43757479999999],[-73.45018979999998,43.43722500000001],[-73.4501636,43.43713459999998],[-73.4501755,43.437091699999996],[-73.4503302,43.436915699999986],[-73.4504829,43.43679730000002],[-73.45058949999998,43.436670600000014],[-73.45127480000002,43.43614000000002],[-73.45182210000002,43.43577349999998],[-73.4522326,43.43555709999998],[-73.45248479999998,43.435485700000015],[-73.45276560000002,43.43547380000001],[-73.4532082,43.435362],[-73.45317490000002,43.43525729999999],[-73.453508,43.435183499999994],[-73.45352939999998,43.43525010000002],[-73.45369219999998,43.4351274],[-73.4541868,43.434646199999975],[-73.45455090000002,43.4344878],[-73.45478429999997,43.43434639999998],[-73.45535109999997,43.43410940000001],[-73.4555661,43.43398530000002],[-73.45586220000001,43.433851000000004],[-73.4562962,43.43371969999998],[-73.45634189999998,43.433656799999994],[-73.4564833,43.433561199999986],[-73.45736269999998,43.43316859999999],[-73.45857339999998,43.432574699999975],[-73.45901170000002,43.4323948],[-73.45916879999999,43.43231400000002],[-73.45930010000001,43.43221490000002],[-73.4595114,43.4321415],[-73.45973120000002,43.43204209999999],[-73.46053819999997,43.43164059999998],[-73.46170460000002,43.431099500000016],[-73.46194839999998,43.430971399999976],[-73.46239100000003,43.43082429999998],[-73.4627236,43.43075440000001],[-73.46299900000002,43.430735200000015],[-73.4632947,43.4305602],[-73.46348030000001,43.43034749999998],[-73.4636145,43.4302376],[-73.4642184,43.429850699999974],[-73.46488369999997,43.42953940000001],[-73.46530630000001,43.429419499999995],[-73.46558329999999,43.429261],[-73.46625,43.428969800000004],[-73.46730359999998,43.42857909999998],[-73.46819950000003,43.42829119999999],[-73.46943090000002,43.427840300000014],[-73.4695724,43.42776650000002],[-73.46996869999998,43.42763480000002],[-73.47074320000002,43.42735210000001],[-73.47125569999997,43.42716840000003],[-73.47184629999998,43.426938500000006],[-73.47391929999998,43.4261922],[-73.47567629999998,43.425716299999976],[-73.47772259999999,43.425329799999986],[-73.47864679999998,43.42511569999999],[-73.47900759999999,43.42500000000001],[-73.49335639999998,43.42500000000001],[-73.49353819999999,43.42500000000001],[-73.49377320000002,43.42500000000001],[-73.5,43.42500000000001],[-73.5,43.465355999999986],[-73.5,43.5],[-73.42500000000001,43.5],[-73.42500000000001,43.48423070000001],[-73.42501440000001,43.48419200000001],[-73.4250763,43.48402579999998],[-73.42520510000003,43.48370419999998],[-73.4256691,43.482747700000004],[-73.42604740000002,43.481775400000004],[-73.42651760000001,43.48083409999998],[-73.42659090000001,43.480604700000015],[-73.42688500000003,43.480500000000006],[-73.42697249999998,43.480436999999995],[-73.42702070000001,43.480379700000015],[-73.42674099999999,43.48037099999999],[-73.42675430000003,43.48028249999999],[-73.4272876,43.479091400000016],[-73.4275988,43.47849839999998],[-73.42764740000001,43.478478499999994],[-73.42785579999997,43.478499399999976],[-73.42789770000002,43.47846129999999],[-73.42790150000002,43.47839370000003],[-73.42779389999998,43.478203399999984],[-73.4277816,43.47813769999999],[-73.42791199999999,43.477959699999985],[-73.42792809999997,43.47776649999997],[-73.4279833,43.47755999999998],[-73.42809110000002,43.47742040000003],[-73.42820890000002,43.47732389999999],[-73.42831840000002,43.477141200000005],[-73.42836219999998,43.47690419999998],[-73.42874569999998,43.47635789999998],[-73.42889330000003,43.47577919999998],[-73.4290679,43.47537670000003],[-73.4292446,43.47515550000003],[-73.42934409999998,43.47506320000002],[-73.42937640000002,43.47494499999999],[-73.4295411,43.47486980000002],[-73.42941159999998,43.4747299],[-73.42945639999999,43.4745719],[-73.42959580000002,43.47435180000002],[-73.42978570000002,43.474104599999976],[-73.43003119999997,43.473961799999984],[-73.4301074,43.473866699999974],[-73.43014349999999,43.47379910000001],[-73.43015880000002,43.47355829999998],[-73.43020639999997,43.4734555],[-73.43030920000001,43.47332510000001],[-73.4304348,43.47326800000002],[-73.43059749999998,43.4731395],[-73.43088590000002,43.47275500000001],[-73.4310858,43.472322899999995],[-73.43136370000002,43.471910700000024],[-73.43197479999998,43.47129260000003],[-73.43210099999999,43.47118790000002],[-73.4322368,43.47110620000001],[-73.43226010000001,43.47095919999998],[-73.43234280000001,43.47087090000002],[-73.43293069999999,43.4703025],[-73.4331282,43.4701063],[-73.43425969999998,43.469005400000015],[-73.43461930000001,43.46865380000003],[-73.43538819999998,43.46790199999998]]]}},{"type":"Feature","properties":{},"geometry":{"type":"Polygon","coordinates":[[[-73.42500000000001,43.46951619999999],[-73.42500000000001,43.42500000000001],[-73.44964970000001,43.42500000000001],[-73.4765473,43.42500000000001],[-73.47564590000002,43.42525890000002],[-73.47483790000001,43.42541879999999],[-73.4744781,43.425406399999986],[-73.4740031,43.4254426],[-73.47352059999997,43.4256158],[-73.47296,43.42589090000001],[-73.4728106,43.42597940000002],[-73.47219289999998,43.42647520000003],[-73.47166179999999,43.426527599999986],[-73.4714672,43.42661140000001],[-73.47119950000001,43.426788699999975],[-73.47084419999999,43.4269635],[-73.46951739999997,43.42740889999999],[-73.4690948,43.42763550000001],[-73.46874930000001,43.42774489999999],[-73.46810590000001,43.427879099999984],[-73.46666959999999,43.4283322],[-73.46636510000002,43.4284055],[-73.46610989999999,43.4284131],[-73.4658359,43.42850249999998],[-73.46552739999998,43.428666299999975],[-73.46537810000001,43.428727200000026],[-73.464943,43.42874389999997],[-73.46481340000003,43.428852199999994],[-73.46454569999997,43.42924959999999],[-73.46443140000002,43.4293495],[-73.46381280000003,43.429708800000014],[-73.4633417,43.4299087],[-73.46293120000001,43.43004430000002],[-73.46258139999998,43.43012399999998],[-73.46205320000001,43.43034890000001],[-73.46192939999997,43.43041549999998],[-73.46159510000001,43.430715299999974],[-73.46138719999999,43.43084970000001],[-73.46119900000002,43.430923500000006],[-73.4610098,43.4309485],[-73.46078139999997,43.4308997],[-73.46058149999999,43.43090330000001],[-73.46025070000002,43.43101389999998],[-73.45996400000001,43.43115310000002],[-73.45962370000001,43.43139819999999],[-73.45941670000002,43.43150050000003],[-73.45890750000001,43.431976399999996],[-73.4587636,43.43206090000001],[-73.45751910000001,43.4325915],[-73.45666849999998,43.43286869999997],[-73.4560343,43.43291390000002],[-73.4558404,43.43297819999998],[-73.45573209999998,43.43308999999999],[-73.455581,43.433392200000014],[-73.45504570000003,43.433540900000025],[-73.4547566,43.433737199999996],[-73.45399040000001,43.43416669999999],[-73.45387260000001,43.43417979999998],[-73.4537459,43.43415449999998],[-73.45370600000001,43.4341465],[-73.45337649999999,43.43402630000003],[-73.45324319999997,43.433940699999994],[-73.45270310000001,43.43375750000001],[-73.45241750000002,43.433516],[-73.45232950000002,43.43333039999999],[-73.45237229999998,43.433151899999984],[-73.4528851,43.432765200000006],[-73.45285059999998,43.4327212],[-73.45276849999999,43.43269029999999],[-73.45270779999998,43.43271290000001],[-73.45240569999999,43.432904399999984],[-73.45230329999998,43.433004400000016],[-73.45219980000002,43.433198300000015],[-73.452132,43.433426699999984],[-73.45214149999998,43.43350409999999],[-73.45221409999999,43.433601599999974],[-73.45257099999998,43.43385380000001],[-73.4528042,43.4339109],[-73.45306679999999,43.4340378],[-73.45325989999998,43.434164399999986],[-73.45332059999998,43.43426670000002],[-73.45331490000001,43.4343341],[-73.45330630000001,43.434436800000015],[-73.45297160000001,43.43458509999999],[-73.45279790000001,43.43469449999998],[-73.45201780000002,43.435053100000005],[-73.45189590000001,43.435061399999995],[-73.45135629999999,43.43509829999999],[-73.45107430000002,43.435249399999975],[-73.45068650000002,43.43556699999999],[-73.45029390000002,43.43579190000003],[-73.4501654,43.4358062],[-73.45009399999998,43.435777599999994],[-73.45001000000002,43.435781599999984],[-73.44989880000003,43.435791300000005],[-73.44967600000001,43.43571420000001],[-73.44942049999997,43.43566279999999],[-73.4493991,43.4356128],[-73.44955470000002,43.43559140000002],[-73.44974309999998,43.43561999999997],[-73.44998240000001,43.43571400000002],[-73.45004999999998,43.435651500000006],[-73.45007620000001,43.4356123],[-73.4501914,43.43552260000001],[-73.4501871,43.435452699999985],[-73.45015569999998,43.4354156],[-73.449993,43.43536419999998],[-73.44971600000002,43.435358399999984],[-73.4493405,43.43541979999998],[-73.4492449,43.43546839999999],[-73.4490179,43.4357296],[-73.4486038,43.43591240000001],[-73.44842540000002,43.43594380000002],[-73.44837969999998,43.43603680000001],[-73.44858069999998,43.43610699999999],[-73.44920130000003,43.43590330000001],[-73.4493764,43.435893799999974],[-73.44973859999999,43.43594159999998],[-73.45009270000003,43.43604629999999],[-73.45040289999997,43.4360863],[-73.45056849999997,43.436025400000005],[-73.45077600000002,43.435882600000014],[-73.45101110000002,43.4356616],[-73.45117010000001,43.43549810000002],[-73.45131279999998,43.43539340000001],[-73.45143089999999,43.43534579999999],[-73.45159619999998,43.435342400000025],[-73.45171260000001,43.43534010000002],[-73.45165550000002,43.435402899999985],[-73.4514575,43.43546190000001],[-73.4512767,43.43554949999998],[-73.45085219999999,43.43592640000003],[-73.45058089999998,43.43610330000001],[-73.45020499999998,43.436314700000025],[-73.45002410000001,43.43653169999999],[-73.44997080000002,43.436651600000005],[-73.44975570000003,43.43680389999997],[-73.44922939999998,43.43750619999997],[-73.44884580000002,43.43804879999999],[-73.4487411,43.438178300000004],[-73.4485803,43.43833239999998],[-73.44842699999998,43.43858180000001],[-73.44829759999999,43.438749400000006],[-73.44811870000001,43.43891689999998],[-73.4475971,43.439600299999995],[-73.44734010000002,43.44001900000001],[-73.44707169999998,43.44035409999998],[-73.4469727,43.4405711],[-73.44691560000001,43.440799500000026],[-73.44685829999997,43.4408947],[-73.44678590000001,43.4408737],[-73.44680690000001,43.44071960000002],[-73.44678240000002,43.4405749],[-73.4468109,43.44035029999998],[-73.4467866,43.43940029999999],[-73.44692700000002,43.4391339],[-73.44697079999997,43.4386561],[-73.44705649999997,43.438568499999974],[-73.44739720000001,43.43834390000001],[-73.44794730000001,43.43805070000002],[-73.44817289999997,43.43786729999999],[-73.4482979,43.43770660000001],[-73.44838709999999,43.4374717],[-73.448399,43.437108799999976],[-73.44844060000003,43.43682030000002],[-73.44855369999999,43.43654070000002],[-73.44859229999997,43.4363295],[-73.44845550000002,43.436284899999976],[-73.4482443,43.43627600000002],[-73.44817289999997,43.436308699999984],[-73.44807479999997,43.436403900000016],[-73.4480302,43.43650500000001],[-73.44805400000001,43.43655860000001],[-73.44810749999999,43.4365942],[-73.4481131,43.437145699999974],[-73.44810159999997,43.437340800000015],[-73.44797369999998,43.43760550000002],[-73.44784870000001,43.43771850000002],[-73.4477655,43.437703699999986],[-73.44770890000001,43.437620400000014],[-73.44764950000001,43.437587699999995],[-73.4475751,43.43760850000001],[-73.44727169999999,43.43792079999997],[-73.44709799999998,43.4380529],[-73.44683270000002,43.438222999999994],[-73.44664,43.43829790000001],[-73.44638889999999,43.43824080000002],[-73.44639009999997,43.43810400000001],[-73.4463164,43.43805170000002],[-73.4458333,43.438045699999975],[-73.44531699999999,43.43795770000003],[-73.44531460000002,43.437998100000016],[-73.4453681,43.4380481],[-73.44579169999997,43.438212299999975],[-73.4458095,43.4383277],[-73.44588570000002,43.43838840000001],[-73.44646829999999,43.438629900000024],[-73.44645320000001,43.43921640000002],[-73.44640320000002,43.439450799999975],[-73.44635090000003,43.43997660000002],[-73.44627229999998,43.440385900000024],[-73.44618120000001,43.44054990000001],[-73.44617929999998,43.441473099999996],[-73.4461412,43.44161969999999],[-73.44615329999999,43.441740700000025],[-73.44624970000001,43.441846199999986],[-73.4464782,43.44183859999998],[-73.44648389999998,43.4420308],[-73.44638300000003,43.44258669999999],[-73.44637920000002,43.442883600000016],[-73.44647450000002,43.443300299999976],[-73.44650860000002,43.44399149999998],[-73.44664189999997,43.444374100000005],[-73.44659810000002,43.444533999999976],[-73.4466476,43.444888100000014],[-73.44668180000002,43.4451641],[-73.44672270000001,43.4452632],[-73.44674659999998,43.445493399999975],[-73.44673510000001,43.44569519999999],[-73.44667040000002,43.44569519999999],[-73.44659999999999,43.44579040000002],[-73.446461,43.4458037],[-73.44637160000002,43.445765600000016],[-73.44636969999999,43.445657100000005],[-73.44624019999998,43.445579099999975],[-73.44606629999998,43.44553669999999],[-73.44600680000002,43.44555459999998],[-73.44595329999999,43.44561049999999],[-73.44586279999999,43.44562000000002],[-73.44584980000002,43.445674699999984],[-73.44617570000003,43.44591860000003],[-73.44633870000001,43.44617440000002],[-73.44648269999999,43.44648489999997],[-73.44657310000002,43.446770500000014],[-73.4467492,43.44706669999999],[-73.44684439999997,43.4473582],[-73.44684910000001,43.4477139],[-73.44675510000002,43.44802679999998],[-73.44661239999999,43.44824460000001],[-73.44656650000002,43.44840420000003],[-73.44653499999998,43.4488561],[-73.44647909999998,43.448961999999995],[-73.4462547,43.449154899999996],[-73.44606270000003,43.4493463],[-73.44578960000001,43.449728300000004],[-73.4454457,43.45015189999998],[-73.44484590000002,43.4508184],[-73.44444069999997,43.45124010000001],[-73.4442583,43.451462400000025],[-73.44405649999999,43.451746000000014],[-73.44392099999999,43.45189879999998],[-73.4437211,43.45208910000002],[-73.44346039999999,43.45222050000001],[-73.44326619999998,43.45244700000001],[-73.4431482,43.452479400000016],[-73.44299969999997,43.452473699999985],[-73.44279979999999,43.45277629999998],[-73.44259419999997,43.45293620000001],[-73.44224400000002,43.453280800000016],[-73.4421031,43.45338170000002],[-73.44182710000001,43.453720499999974],[-73.44154509999998,43.45419650000002],[-73.44130239999998,43.4545579],[-73.44110610000001,43.454915099999994],[-73.44103710000002,43.455040699999984],[-73.44097670000002,43.45513920000002],[-73.4408027,43.45542280000001],[-73.44064209999999,43.45579170000002],[-73.44057190000001,43.45613789999999],[-73.44059570000002,43.45662090000002],[-73.44068190000002,43.4569156],[-73.44071559999998,43.45703099999997],[-73.44072399999999,43.457059800000025],[-73.44074799999999,43.457141999999976],[-73.44076940000002,43.45731089999998],[-73.44071709999997,43.45764639999999],[-73.44051130000003,43.458528],[-73.4404672,43.4586625],[-73.44026539999999,43.4589876],[-73.44028400000002,43.45921329999999],[-73.44022100000001,43.45940250000001],[-73.44004840000002,43.45948579999998],[-73.43974630000002,43.45999499999999],[-73.43920079999998,43.460673799999995],[-73.43922789999999,43.460890800000016],[-73.43929070000002,43.461089300000026],[-73.43937210000001,43.461210600000015],[-73.43946030000001,43.461273000000006],[-73.43957490000003,43.46131489999999],[-73.4396716,43.4613344],[-73.43970730000001,43.46143009999997],[-73.43969479999998,43.461516200000005],[-73.43952769999999,43.46178600000002],[-73.43951199999998,43.46194869999999],[-73.43939499999999,43.46223140000001],[-73.43923369999999,43.462515999999994],[-73.4391822,43.462606900000026],[-73.43907519999999,43.462722499999984],[-73.43891159999998,43.462863700000014],[-73.43880969999998,43.46288370000002],[-73.43884680000002,43.46297879999997],[-73.43878819999998,43.46306659999999],[-73.43866029999998,43.46321160000002],[-73.43858030000001,43.46334580000001],[-73.4382228,43.463592000000006],[-73.4380615,43.46379330000002],[-73.43792159999998,43.464063099999976],[-73.43774439999999,43.4642685],[-73.43772289999998,43.464293399999974],[-73.43767889999998,43.464344400000016],[-73.43742049999997,43.464534300000025],[-73.43729200000001,43.46472699999998],[-73.43720760000002,43.46479019999998],[-73.4371107,43.46481840000001],[-73.4369979,43.46484409999999],[-73.43663679999997,43.46534939999998],[-73.43636559999999,43.46566339999998],[-73.4358899,43.46605169999998],[-73.43576139999999,43.466150200000016],[-73.43564320000002,43.46622020000001],[-73.4355979,43.46625740000002],[-73.4351777,43.466603099999986],[-73.43505779999998,43.46670169999999],[-73.4347237,43.46689550000002],[-73.43459910000001,43.46700629999998],[-73.43481589999999,43.46712409999998],[-73.43516419999997,43.4673133],[-73.43524389999999,43.46726210000003],[-73.43531410000003,43.467252599999995],[-73.4354295,43.46726210000003],[-73.43549139999999,43.46730020000001],[-73.43553539999999,43.4673406],[-73.43554260000002,43.46745600000003],[-73.435451,43.467626199999984],[-73.43524239999999,43.46783210000001],[-73.43448280000001,43.46858209999999],[-73.43441109999998,43.468652899999995],[-73.4342522,43.46879999999999],[-73.4341748,43.468738099999996],[-73.43422600000002,43.46867739999999],[-73.43418029999998,43.468563700000004],[-73.43418630000002,43.468345899999974],[-73.43440399999997,43.46806989999999],[-73.43506430000002,43.4674655],[-73.4351107,43.46739539999999],[-73.43510830000002,43.46734780000003],[-73.43456579999997,43.467061],[-73.4344084,43.46733280000001],[-73.43428979999999,43.46747629999999],[-73.434053,43.46763920000001],[-73.4338869,43.46781440000001],[-73.4337615,43.46797830000003],[-73.43358310000002,43.46837690000001],[-73.43346409999998,43.46872309999998],[-73.43334750000002,43.4689515],[-73.43332479999998,43.469040199999995],[-73.43328330000003,43.46920260000002],[-73.43320119999998,43.46936670000002],[-73.4330544,43.469506000000024],[-73.43155689999998,43.47092670000001],[-73.43099719999998,43.47149209999998],[-73.4307422,43.47186900000003],[-73.4305278,43.47222210000001],[-73.43006150000002,43.472766999999976],[-73.42966410000002,43.4733119],[-73.42948799999999,43.473621200000025],[-73.42920370000002,43.47403170000001],[-73.42891459999998,43.4743957],[-73.42855049999997,43.47522140000001],[-73.42807340000002,43.47607319999997],[-73.42802820000003,43.47625290000002],[-73.42788660000002,43.476487299999974],[-73.42780340000002,43.476727600000004],[-73.4276309,43.477081],[-73.42747500000002,43.477565200000015],[-73.4273703,43.477785299999994],[-73.42717640000001,43.478069600000026],[-73.42712840000002,43.47843080000001],[-73.42687899999999,43.4787925],[-73.42677049999998,43.47899799999999],[-73.42659350000002,43.479430200000024],[-73.42658119999999,43.47953439999998],[-73.42654590000001,43.47963759999999],[-73.42638699999998,43.47984279999997],[-73.42632800000001,43.480075],[-73.42616520000001,43.480389600000024],[-73.4260415,43.480699800000025],[-73.42591579999998,43.48081789999998],[-73.42591199999998,43.4810349],[-73.42586590000002,43.481152699999996],[-73.42574810000002,43.481249100000014],[-73.4257007,43.48132229999999],[-73.42553020000003,43.481782099999975],[-73.42539040000003,43.482079899999974],[-73.4252305,43.48218650000001],[-73.42515250000002,43.48227220000001],[-73.42510299999998,43.482394],[-73.42509439999998,43.48263450000002],[-73.42500000000001,43.48282990000001],[-73.42500000000001,43.471359699999994],[-73.42500000000001,43.46951619999999]]]}},{"type":"Feature","properties":{},"geometry":{"type":"Polygon","coordinates":[[[-73.44335869999998,43.45271969999999],[-73.44314739999999,43.45288529999999],[-73.44292469999999,43.45320700000002],[-73.44250399999999,43.4536392],[-73.44215380000003,43.45408179999998],[-73.44174370000002,43.454632600000025],[-73.44150189999999,43.45499640000003],[-73.4414241,43.455019300000004],[-73.44140199999998,43.45495],[-73.44174170000002,43.45438059999998],[-73.44245640000003,43.45329459999999],[-73.44260109999999,43.453140399999995],[-73.44298370000001,43.45282630000003],[-73.44306940000001,43.45277870000001],[-73.44325780000003,43.452674],[-73.443334,43.452664500000026],[-73.44335869999998,43.45271969999999]]]}},{"type":"Feature","properties":{},"geometry":{"type":"Polygon","coordinates":[[[-73.4370993,43.46553269999998],[-73.43704980000001,43.46560499999998],[-73.4362979,43.46632460000001],[-73.43590569999998,43.46672619999998],[-73.43578580000002,43.46673950000002],[-73.43573249999997,43.46672430000001],[-73.43568870000001,43.46667100000002],[-73.43570019999999,43.46658530000002],[-73.4359895,43.46632269999998],[-73.43638929999997,43.46601049999998],[-73.43689749999999,43.465565000000026],[-73.43700790000003,43.4654908],[-73.43705549999999,43.465483199999994],[-73.4371031,43.46547559999999],[-73.4370993,43.46553269999998]]]}},{"type":"Feature","properties":{},"geometry":{"type":"Polygon","coordinates":[[[-73.4383163,43.464283799999976],[-73.43805930000002,43.464475100000016],[-73.4379194,43.4645208],[-73.437908,43.464470800000015],[-73.43805789999999,43.464366600000005],[-73.4382463,43.464258099999995],[-73.4383163,43.464283799999976]]]}},{"type":"Feature","properties":{},"geometry":{"type":"Polygon","coordinates":[[[-73.42500000000001,43.42500000000001],[-73.42500000000001,43.46951619999999],[-73.42500000000001,43.471359699999994],[-73.42500000000001,43.48282990000001],[-73.42485249999999,43.4833203],[-73.4246412,43.483624899999995],[-73.42447929999997,43.484056099999975],[-73.42443250000002,43.484180700000024],[-73.42441459999998,43.484228299999984],[-73.42413099999999,43.48477079999998],[-73.42404340000002,43.485065899999995],[-73.4235428,43.485972000000004],[-73.423204,43.48686859999998],[-73.42297359999998,43.48732159999997],[-73.42228260000002,43.48895490000001],[-73.42139939999998,43.4909136],[-73.42131940000002,43.490961200000015],[-73.42123190000001,43.49096309999999],[-73.42105670000001,43.490846999999974],[-73.42067789999999,43.49047580000001],[-73.41979090000001,43.489714400000025],[-73.41909229999999,43.488827300000025],[-73.41854970000003,43.48830579999998],[-73.41769690000001,43.4878908],[-73.41755610000001,43.48774040000001],[-73.4175846,43.487628099999995],[-73.41772170000002,43.48751390000001],[-73.41840889999997,43.48715979999997],[-73.41882900000002,43.48700500000001],[-73.4188067,43.486954200000014],[-73.41870119999999,43.486934399999996],[-73.41847990000002,43.48699149999999],[-73.41731870000001,43.487553100000014],[-73.41726990000001,43.487634000000014],[-73.41727939999998,43.48783980000002],[-73.41733420000003,43.48789210000001],[-73.41795400000001,43.48815509999997],[-73.41812420000002,43.4883097],[-73.4184454,43.48848579999998],[-73.41884390000001,43.488861799999995],[-73.41929599999997,43.48949829999998],[-73.41931390000002,43.48964219999999],[-73.42064520000002,43.49077369999998],[-73.42088080000002,43.491166299999975],[-73.4209545,43.491348500000015],[-73.42104970000003,43.49158390000002],[-73.42065589999999,43.49236430000002],[-73.42026329999999,43.49338560000001],[-73.42012340000002,43.49354269999998],[-73.41938099999999,43.495301600000005],[-73.41912969999998,43.49572840000002],[-73.4184644,43.49734030000002],[-73.4181403,43.49798420000002],[-73.41725880000001,43.5],[-73.35000000000002,43.5],[-73.35000000000002,43.42500000000001],[-73.42500000000001,43.42500000000001]]]}},{"type":"Feature","properties":{},"geometry":{"type":"Polygon","coordinates":[[[-73.41933399999999,43.49697470000001],[-73.41971849999999,43.497088899999994],[-73.41977179999998,43.49705089999998],[-73.4197623,43.49698619999998],[-73.41940629999999,43.49681859999998],[-73.41938160000001,43.49673489999998],[-73.41960239999997,43.496022900000014],[-73.41993359999998,43.495419500000025],[-73.42041710000001,43.49434020000001],[-73.4207475,43.49372469999997],[-73.4210539,43.49297519999999],[-73.42140189999998,43.4923536],[-73.4216012,43.491770599999995],[-73.42199210000001,43.49097690000002],[-73.42270780000001,43.4899547],[-73.42286960000001,43.48954550000002],[-73.42314570000002,43.48846040000001],[-73.42365769999998,43.48742299999998],[-73.42418880000002,43.4861095],[-73.42433920000002,43.4859515],[-73.42441339999999,43.48564499999998],[-73.42477129999997,43.48493689999998],[-73.42497209999999,43.484316999999976],[-73.42500000000001,43.48423070000001],[-73.42500000000001,43.5],[-73.42058270000001,43.5],[-73.41791419999998,43.5],[-73.41913599999998,43.49725460000002],[-73.41925329999998,43.497088700000006],[-73.41933399999999,43.49697470000001]]]}},{"type":"Feature","properties":{},"geometry":{"type":"Polygon","coordinates":[[[-73.5,43.5],[-73.5,43.57499999999999],[-73.43322569999998,43.57499999999999],[-73.43325709999999,43.574955699999975],[-73.4330986,43.5748701],[-73.43332129999999,43.57462650000002],[-73.43342919999998,43.57450840000001],[-73.43344839999997,43.57441610000001],[-73.43333990000002,43.573909300000025],[-73.43288589999997,43.57377650000001],[-73.4328873,43.5736751],[-73.43212640000002,43.57341389999999],[-73.43213329999998,43.57336290000001],[-73.4321435,43.57328819999998],[-73.4322335,43.57329820000001],[-73.43280170000003,43.57346949999999],[-73.43368679999998,43.57378790000001],[-73.43391810000003,43.573915],[-73.4340166,43.5738379],[-73.43401239999997,43.57377359999998],[-73.43349130000001,43.57354379999998],[-73.43207239999998,43.57307370000001],[-73.43184150000002,43.5729973],[-73.43114960000003,43.57276810000002],[-73.4311715,43.572723199999984],[-73.4312256,43.57261199999999],[-73.43125429999998,43.57255300000003],[-73.43201269999997,43.572787800000015],[-73.43221269999998,43.572849700000006],[-73.43323400000003,43.57316589999999],[-73.434123,43.57338290000001],[-73.43444849999997,43.5735009],[-73.43475310000002,43.573224900000014],[-73.43482920000002,43.57310690000003],[-73.43544789999999,43.57258719999999],[-73.43585710000002,43.57227119999999],[-73.436038,43.57220269999999],[-73.43641680000002,43.57220649999999],[-73.43670420000001,43.57226739999999],[-73.4385221,43.57294889999997],[-73.4388305,43.57280800000001],[-73.4390894,43.57283849999999],[-73.43931780000003,43.57276239999999],[-73.43959000000001,43.57276810000002],[-73.4396453,43.572697600000026],[-73.43963380000002,43.572589100000016],[-73.43981280000003,43.57239120000003],[-73.43979560000002,43.57216840000001],[-73.43958809999998,43.572035200000016],[-73.4388667,43.57169060000001],[-73.43867440000002,43.571500300000025],[-73.43818900000002,43.57124520000002],[-73.43814900000001,43.571144300000014],[-73.43815669999998,43.571032],[-73.43823090000001,43.57092160000002],[-73.43832989999999,43.57085310000002],[-73.43862869999998,43.5707865],[-73.43913509999999,43.57074080000001],[-73.43864209999998,43.57035239999999],[-73.43842130000002,43.57008780000001],[-73.43814709999998,43.569971699999996],[-73.4378026,43.56995840000002],[-73.43768460000001,43.56971850000002],[-73.43767120000001,43.569611899999984],[-73.43722389999999,43.56963289999999],[-73.43704309999998,43.56961389999998],[-73.4369193,43.56955859999999],[-73.43659000000002,43.56924270000002],[-73.4364301,43.56897620000001],[-73.436394,43.56885999999997],[-73.436552,43.568532600000026],[-73.43665859999999,43.568188099999986],[-73.43690029999999,43.56796919999999],[-73.43698599999999,43.56767980000001],[-73.43747330000002,43.567175399999996],[-73.4388305,43.56626360000001],[-73.43918459999998,43.56618550000002],[-73.44009640000002,43.56588290000002],[-73.4401249,43.565486899999996],[-73.44016110000001,43.565410799999995],[-73.44025249999999,43.565416500000026],[-73.4402791,43.565380300000015],[-73.44016870000002,43.56529849999998],[-73.44015730000001,43.565193799999975],[-73.44018970000002,43.5651062],[-73.4402925,43.565001499999994],[-73.44034199999999,43.56491010000002],[-73.44065030000002,43.56459030000002],[-73.4414898,43.563975500000026],[-73.4419714,43.56367849999998],[-73.4430317,43.563185499999975],[-73.44396440000003,43.56304080000001],[-73.44452030000002,43.563078899999994],[-73.44467450000002,43.56314170000002],[-73.44473729999999,43.562943700000005],[-73.44467259999999,43.562854300000026],[-73.44469350000003,43.56280670000001],[-73.44521320000001,43.562979900000016],[-73.44528739999998,43.56291520000002],[-73.44536360000001,43.5629285],[-73.44541120000002,43.56301610000003],[-73.44568909999998,43.5630142],[-73.4458128,43.56291709999999],[-73.44526459999997,43.56249070000001],[-73.44521320000001,43.562408800000014],[-73.4451808,43.5622927],[-73.4452018,43.56218990000002],[-73.4454035,43.56194629999999],[-73.4448648,43.56161320000001],[-73.44497899999999,43.56136190000001],[-73.44536740000001,43.56104210000001],[-73.44558060000003,43.560737500000016],[-73.4458947,43.560539500000004],[-73.44624110000001,43.560145499999976],[-73.4471034,43.55955540000002],[-73.44740230000002,43.55915950000002],[-73.4476783,43.55908520000003],[-73.44869670000003,43.55836190000002],[-73.44902789999998,43.5579012],[-73.4491802,43.55778889999999],[-73.4495819,43.55768610000001],[-73.4498046,43.55771850000002],[-73.44990739999997,43.557779400000015],[-73.45017389999998,43.55819050000002],[-73.45034900000002,43.558538899999974],[-73.4506136,43.55882059999999],[-73.45097149999998,43.5590947],[-73.45117900000002,43.5593174],[-73.45127029999998,43.559471599999995],[-73.4513617,43.55943739999998],[-73.45138650000001,43.5593346],[-73.4512646,43.55887389999998],[-73.45133129999999,43.55880730000001],[-73.45155019999999,43.55880539999998],[-73.4516453,43.55875780000002],[-73.45166060000003,43.55855029999998],[-73.45170250000001,43.55848179999998],[-73.45195369999999,43.5583676],[-73.45170819999998,43.55802679999999],[-73.45146640000002,43.55744809999999],[-73.45148160000002,43.55734150000001],[-73.45157110000002,43.557234900000026],[-73.45171010000001,43.557189300000005],[-73.45173670000003,43.556978000000015],[-73.45180240000002,43.55687990000001],[-73.45186810000001,43.556781899999976],[-73.4518357,43.55668480000003],[-73.45188710000002,43.55649060000002],[-73.45178049999998,43.55638979999998],[-73.4517672,43.556285100000025],[-73.4518395,43.55620320000003],[-73.4519214,43.55599569999998],[-73.45192329999998,43.555873899999995],[-73.45179760000002,43.5555693],[-73.45178049999998,43.55519049999998],[-73.45214600000003,43.55453],[-73.45222209999997,43.5538732],[-73.4523896,43.553684799999985],[-73.45306920000002,43.55365999999998],[-73.4531796,43.55362200000002],[-73.45370500000001,43.55324510000003],[-73.45421720000002,43.5530536],[-73.45429510000002,43.55302619999998],[-73.45452160000002,43.552588300000025],[-73.45488710000001,43.5523599],[-73.45515169999999,43.552106700000024],[-73.45518600000003,43.551973499999974],[-73.45520690000001,43.55134529999998],[-73.45524499999999,43.55121780000002],[-73.4555876,43.55097790000002],[-73.4565508,43.55049819999999],[-73.45707240000002,43.550374499999975],[-73.45835540000002,43.54997470000001],[-73.45855340000003,43.549812900000006],[-73.45924630000002,43.54946269999999],[-73.46003250000001,43.548994400000026],[-73.46072729999997,43.54867460000003],[-73.4608948,43.54862889999998],[-73.4614373,43.5486118],[-73.4617819,43.54855659999998],[-73.4621017,43.5484328],[-73.46227490000001,43.54835859999997],[-73.46237079999997,43.5482763],[-73.4625135,43.548308399999996],[-73.46273480000002,43.54826320000001],[-73.4628217,43.54820369999999],[-73.4636069,43.54834410000001],[-73.46394120000002,43.54844400000002],[-73.4639745,43.548386900000025],[-73.4639305,43.548323900000014],[-73.46376629999997,43.54824180000003],[-73.4631536,43.54813230000002],[-73.46270980000003,43.547971700000005],[-73.46272649999997,43.54792170000002],[-73.46281099999999,43.54790509999998],[-73.46297040000002,43.54792650000002],[-73.46347839999999,43.548070499999994],[-73.4638425,43.54813109999998],[-73.46424459999997,43.5482394],[-73.46435880000001,43.5482442],[-73.46457529999998,43.548172799999975],[-73.46486620000002,43.54821980000003],[-73.4650489,43.548172799999975],[-73.46514880000001,43.54821079999999],[-73.46515829999998,43.54830240000001],[-73.46536179999998,43.54836790000002],[-73.4656473,43.54826910000003],[-73.465978,43.54823699999997],[-73.46644680000003,43.5477004],[-73.46646700000002,43.54761719999999],[-73.46641110000002,43.54734109999998],[-73.46635759999998,43.547282800000005],[-73.46622669999999,43.547242400000016],[-73.4662285,43.54721330000001],[-73.4662303,43.54718409999998],[-73.46632069999998,43.54718409999998],[-73.46629810000002,43.5466285],[-73.46674180000002,43.54646550000001],[-73.46694480000002,43.54642310000003],[-73.46742590000002,43.54632270000002],[-73.46761750000002,43.5462359],[-73.46778760000001,43.54609190000002],[-73.46819929999998,43.5460003],[-73.46835270000003,43.54584679999999],[-73.4688013,43.545850400000006],[-73.46919509999998,43.54553040000002],[-73.46946159999999,43.54540780000002],[-73.46964480000003,43.54522700000001],[-73.47007550000001,43.54506759999998],[-73.47053829999999,43.54476890000001],[-73.47082979999999,43.54469519999998],[-73.47134729999999,43.54444059999997],[-73.47172560000001,43.544327599999974],[-73.47212539999998,43.54406340000003],[-73.47247750000002,43.5439088],[-73.47269169999998,43.543911200000025],[-73.4727512,43.54397419999998],[-73.4728035,43.5440979],[-73.47280710000001,43.54437630000001],[-73.47291769999998,43.54451790000002],[-73.4730391,43.5445512],[-73.47310570000002,43.5445191],[-73.47339599999998,43.544131300000004],[-73.47395640000002,43.543711299999984],[-73.474042,43.54360300000002],[-73.47406230000001,43.54348879999998],[-73.4740468,43.54342459999998],[-73.47395990000001,43.543342499999994],[-73.4740051,43.5432854],[-73.47411460000001,43.5432687],[-73.47466659999998,43.54260479999999],[-73.47481420000003,43.54217060000002],[-73.47483799999998,43.54181249999999],[-73.47507589999998,43.541455499999984],[-73.47520320000001,43.54117600000001],[-73.4758928,43.540257],[-73.47633630000001,43.539878199999976],[-73.4764753,43.53983629999999],[-73.47666939999999,43.539560300000005],[-73.47677979999997,43.53946509999997],[-73.47695499999998,43.53933949999998],[-73.47717340000003,43.53926430000001],[-73.47736179999998,43.53894020000001],[-73.4776531,43.53882599999997],[-73.47796290000002,43.538848900000005],[-73.47837980000003,43.538646099999994],[-73.47851259999999,43.5385091],[-73.4785996,43.538253499999996],[-73.47750079999997,43.537178100000006],[-73.47737799999999,43.537182400000006],[-73.47712250000001,43.537082399999974],[-73.47697679999999,43.53709809999998],[-73.47692110000003,43.5370168],[-73.47697829999998,43.5369225],[-73.47680270000001,43.53691679999997],[-73.47664700000001,43.53698109999999],[-73.4765385,43.53693390000001],[-73.47324420000001,43.53690610000001],[-73.47290579999998,43.53718450000002],[-73.4727431,43.53720449999997],[-73.47262460000002,43.53726870000003],[-73.47262310000002,43.537318700000014],[-73.47268880000001,43.53737580000001],[-73.47268020000001,43.53750000000002],[-73.47253599999999,43.537781300000006],[-73.47221480000002,43.5378384],[-73.47240040000003,43.538209600000016],[-73.4724233,43.538914799999986],[-73.47234759999998,43.53893770000002],[-73.47119550000002,43.53891770000001],[-73.47116549999998,43.53902190000002],[-73.4703902,43.53939170000001],[-73.47021319999999,43.539405999999985],[-73.46954929999998,43.539570200000014],[-73.46921809999998,43.53957300000002],[-73.46916240000002,43.5396116],[-73.46916529999999,43.5396844],[-73.46924100000001,43.53979570000001],[-73.4689611,43.53995709999998],[-73.4688683,43.53986850000001],[-73.46829159999999,43.54017829999998],[-73.46825150000001,43.54013889999999],[-73.46838580000002,43.5400113],[-73.46829159999999,43.53989990000002],[-73.46754349999998,43.540803700000026],[-73.46741070000002,43.540810799999974],[-73.4672979,43.5408779],[-73.46702520000002,43.54093929999999],[-73.46675540000001,43.54120769999997],[-73.46620999999999,43.54123199999998],[-73.46598870000003,43.541364699999974],[-73.46551470000003,43.54155750000001],[-73.46540909999999,43.54165310000002],[-73.46451250000001,43.54205860000002],[-73.46390150000002,43.54246260000002],[-73.46332749999999,43.542553999999996],[-73.46286780000003,43.54277669999999],[-73.46231390000003,43.5431279],[-73.46194270000001,43.54309940000002],[-73.46177139999998,43.5432735],[-73.46117170000002,43.54367330000002],[-73.46052500000002,43.543867499999976],[-73.45993249999998,43.54392309999997],[-73.45882610000001,43.544174399999974],[-73.4585591,43.544257200000004],[-73.45842199999998,43.54437999999999],[-73.4579109,43.5445527],[-73.45760969999998,43.54480539999997],[-73.45732989999999,43.54494110000002],[-73.4572713,43.545018200000015],[-73.45722849999999,43.54527940000003],[-73.45713280000001,43.54546069999998],[-73.4569687,43.5456135],[-73.45659749999999,43.54573629999999],[-73.4562077,43.54595189999998],[-73.4555196,43.54625600000003],[-73.45520119999998,43.546497199999976],[-73.4549685,43.546828500000004],[-73.45475429999999,43.54704829999997],[-73.45427460000002,43.54702409999999],[-73.45385490000001,43.54706399999998],[-73.4536008,43.54714539999998],[-73.45345229999998,43.5472939],[-73.45322809999999,43.54736380000003],[-73.45322959999999,43.54741100000001],[-73.45341230000002,43.54757230000001],[-73.45342369999997,43.54764369999998],[-73.45330810000002,43.547756400000026],[-73.4526042,43.548074799999995],[-73.4521517,43.54806339999999],[-73.45182469999997,43.548267599999974],[-73.45103239999997,43.548426000000006],[-73.4507868,43.54856169999999],[-73.4505413,43.548810100000026],[-73.4501515,43.549025700000016],[-73.44917500000003,43.54928690000003],[-73.44873949999999,43.549371199999996],[-73.4478315,43.54939830000001],[-73.44695059999998,43.54926840000002],[-73.44666230000001,43.54911129999999],[-73.4465495,43.5491313],[-73.44639810000001,43.54921839999997],[-73.44618539999999,43.549217],[-73.44590840000001,43.54963809999998],[-73.44584149999997,43.55053880000003],[-73.44562330000002,43.550700199999994],[-73.44531490000003,43.551000999999985],[-73.44522160000002,43.55116659999999],[-73.4451436,43.55122560000001],[-73.44487520000001,43.551345500000025],[-73.4441213,43.551537800000006],[-73.4439329,43.551669100000026],[-73.44402810000003,43.55197939999999],[-73.44401670000002,43.55205169999999],[-73.44390240000001,43.5521488],[-73.4437863,43.5523278],[-73.4437977,43.55259430000001],[-73.44337130000002,43.55335000000002],[-73.4431543,43.553477499999985],[-73.44235479999998,43.55377069999997],[-73.44188659999998,43.55404290000001],[-73.4417019,43.554191300000014],[-73.4411308,43.554370300000016],[-73.44035229999997,43.554709100000025],[-73.43969170000003,43.55494329999999],[-73.43880469999999,43.55499470000001],[-73.43846009999999,43.55489],[-73.4379214,43.554897600000004],[-73.43767780000002,43.554990799999985],[-73.43755779999998,43.55514310000001],[-73.43760730000002,43.555402000000015],[-73.43759970000002,43.55548010000001],[-73.43754259999997,43.55555049999998],[-73.43738080000003,43.55562850000001],[-73.43705720000003,43.5556095],[-73.4368402,43.55564190000001],[-73.43669740000001,43.555877899999984],[-73.43609780000003,43.556113900000014],[-73.4358047,43.55634620000001],[-73.43550390000001,43.55705619999998],[-73.43531539999998,43.5572846],[-73.43481100000002,43.55751500000002],[-73.434436,43.55761589999997],[-73.43417140000003,43.55774530000002],[-73.43371450000001,43.55811460000001],[-73.4335623,43.55850290000001],[-73.43337380000003,43.558636200000024],[-73.4333034,43.55877889999999],[-73.43267900000001,43.55917870000002],[-73.43256480000002,43.559330999999986],[-73.43221069999998,43.559529],[-73.43191380000002,43.55990780000002],[-73.43188520000001,43.5600144],[-73.43194419999998,43.560345600000005],[-73.43166630000002,43.5606616],[-73.43159969999999,43.56068060000001],[-73.43143029999999,43.56064249999997],[-73.4310686,43.56087480000002],[-73.43095820000002,43.561044200000026],[-73.42995880000001,43.5614382],[-73.42964280000001,43.56171999999998],[-73.42953240000003,43.56188750000001],[-73.42943150000002,43.56219010000001],[-73.42930969999998,43.562338599999975],[-73.42927159999999,43.562805000000026],[-73.42914789999998,43.56298770000001],[-73.42879570000002,43.56327520000002],[-73.4285463,43.56371489999998],[-73.42851589999998,43.56383099999999],[-73.42834269999997,43.564027099999976],[-73.42839220000002,43.56416410000003],[-73.4283312,43.56433550000003],[-73.42798099999999,43.5645791],[-73.4277621,43.56491990000001],[-73.42740989999999,43.5652872],[-73.42708820000001,43.565523299999995],[-73.42663900000002,43.56575550000002],[-73.4265552,43.565843099999995],[-73.42649239999997,43.56606579999999],[-73.42657809999997,43.56749159999998],[-73.42678940000002,43.568032200000005],[-73.42743039999999,43.5693119],[-73.42745889999998,43.56950699999999],[-73.42753269999997,43.56964740000001],[-73.42772280000003,43.56989470000002],[-73.42797530000001,43.57022319999999],[-73.42801100000003,43.570349299999975],[-73.42839409999999,43.57062300000001],[-73.4285107,43.570751400000006],[-73.42851539999998,43.57083949999998],[-73.42844400000001,43.57097270000003],[-73.4283251,43.571103600000015],[-73.42813230000002,43.57117499999998],[-73.42814420000002,43.57125350000001],[-73.428425,43.57156520000001],[-73.42927159999999,43.5718943],[-73.4294246,43.571953699999995],[-73.42951479999999,43.571988799999986],[-73.4294916,43.572033499999975],[-73.4294334,43.57214579999999],[-73.42941489999998,43.5721815],[-73.4292959,43.5721863],[-73.42782299999999,43.57168180000002],[-73.42771829999998,43.571665199999984],[-73.427685,43.57172459999998],[-73.42771119999998,43.57178649999997],[-73.42788569999999,43.57184480000001],[-73.42924210000001,43.572297400000025],[-73.42983470000001,43.572495100000026],[-73.43002159999998,43.572557500000016],[-73.429955,43.57269309999998],[-73.42982410000002,43.57267639999998],[-73.429756,43.57265430000001],[-73.42916100000002,43.57246079999999],[-73.42776830000003,43.572007799999994],[-73.4276969,43.5720364],[-73.42768260000003,43.572114899999974],[-73.42807520000002,43.572252900000024],[-73.42805379999999,43.572329000000025],[-73.42754939999998,43.57221720000001],[-73.4273852,43.57238139999998],[-73.42729480000003,43.572538399999985],[-73.42724720000001,43.5729144],[-73.42669269999999,43.57359969999999],[-73.4266523,43.57373999999999],[-73.42678319999999,43.57454910000001],[-73.42663090000002,43.57499999999999],[-73.42500000000001,43.57499999999999],[-73.42500000000001,43.573101099999974],[-73.42500000000001,43.5],[-73.5,43.5]]]}},{"type":"Feature","properties":{},"geometry":{"type":"Polygon","coordinates":[[[-73.45125430000002,43.55838139999997],[-73.45133900000002,43.558380399999976],[-73.45139799999998,43.55845849999997],[-73.4513599,43.55851369999999],[-73.45129329999997,43.558514600000024],[-73.45123430000001,43.558459400000004],[-73.45125430000002,43.55838139999997]]]}},{"type":"Feature","properties":{},"geometry":{"type":"Polygon","coordinates":[[[-73.38995740000001,43.574605599999984],[-73.39009190000002,43.57454369999999],[-73.3902263,43.57448190000002],[-73.39028969999998,43.57443219999999],[-73.3907954,43.574191799999994],[-73.3914284,43.57361880000002],[-73.39189240000002,43.57295779999998],[-73.39193239999997,43.572731799999985],[-73.39191440000002,43.57254280000001],[-73.39179439999998,43.572187799999995],[-73.39166740000002,43.57191080000001],[-73.39153240000002,43.57161780000001],[-73.3913824,43.57117979999998],[-73.39134539999998,43.570859799999994],[-73.3914484,43.57046279999997],[-73.39158040000001,43.57025679999998],[-73.3916744,43.57012880000002],[-73.39171379999999,43.57010270000001],[-73.39191740000001,43.57026280000002],[-73.3923959,43.5700051],[-73.39305030000003,43.56987429999998],[-73.39396160000001,43.56979339999998],[-73.39478009999999,43.56982429999999],[-73.39487530000002,43.56986469999998],[-73.3949657,43.569964700000014],[-73.39508949999998,43.569967099999985],[-73.3952941,43.569841],[-73.39557489999999,43.569795699999986],[-73.39568910000003,43.56974339999999],[-73.39577000000003,43.56966490000002],[-73.39583900000002,43.569512599999996],[-73.39588900000001,43.569296099999974],[-73.39587949999998,43.568715499999996],[-73.39597459999999,43.56839660000003],[-73.39620070000001,43.5681682],[-73.39640530000003,43.56806829999999],[-73.39669320000002,43.56798739999999],[-73.39700019999998,43.56797310000002],[-73.39774019999999,43.568120599999986],[-73.39853729999999,43.56835849999999],[-73.3991322,43.56859650000001],[-73.39909410000001,43.568653600000005],[-73.39870619999999,43.568625],[-73.3985088,43.56877500000002],[-73.3984992,43.56886539999999],[-73.39861350000001,43.56897959999998],[-73.39929869999997,43.56869640000002],[-73.39949150000001,43.56868220000001],[-73.40038379999999,43.569062900000006],[-73.40092629999998,43.56933409999999],[-73.4015521,43.56972200000001],[-73.40258,43.57019309999998],[-73.40279229999999,43.57028079999998],[-73.40310160000001,43.57040869999997],[-73.40407670000002,43.5708118],[-73.40463820000002,43.57095450000003],[-73.40479770000002,43.571106799999995],[-73.40485480000001,43.571205599999985],[-73.4049119,43.57130430000001],[-73.40500709999998,43.571373300000005],[-73.40563759999998,43.57155180000001],[-73.40628720000001,43.57187060000001],[-73.40657040000002,43.57206339999999],[-73.407308,43.5726487],[-73.40753169999999,43.57287480000002],[-73.4078791,43.57334109999999],[-73.40841210000002,43.57370279999998],[-73.40929249999999,43.574076400000024],[-73.4094804,43.57405970000002],[-73.40980880000001,43.57425009999997],[-73.41019189999997,43.574695099999985],[-73.41072250000002,43.57499999999999],[-73.39296710000002,43.57499999999999],[-73.39076949999998,43.57499999999999],[-73.38985229999997,43.57499999999999],[-73.38894859999999,43.57499999999999],[-73.38669520000002,43.57499999999999],[-73.38540080000001,43.57499999999999],[-73.38612740000002,43.574807799999974],[-73.38731239999998,43.57467680000002],[-73.3879814,43.574705800000004],[-73.38882940000002,43.57472580000001],[-73.3892894,43.574749800000006],[-73.38974239999999,43.57469179999998],[-73.38990159999997,43.574616400000025],[-73.38995740000001,43.574605599999984]]]}},{"type":"Feature","properties":{},"geometry":{"type":"Polygon","coordinates":[[[-73.4044126,43.56843600000002],[-73.40442209999998,43.568390299999976],[-73.40452870000001,43.56836179999999],[-73.4048123,43.568693999999994],[-73.404877,43.568723499999976],[-73.4049018,43.568689199999994],[-73.40487819999998,43.568444399999976],[-73.40510189999998,43.56833870000003],[-73.4051207,43.56828949999999],[-73.4049455,43.56832750000001],[-73.40469999999999,43.56825520000001],[-73.40442969999998,43.568230400000004],[-73.40438590000002,43.56772410000002],[-73.40458389999998,43.56764989999999],[-73.4045458,43.56761560000001],[-73.40434019999998,43.56763269999999],[-73.40421329999998,43.56738739999997],[-73.404021,43.5672237],[-73.40401150000002,43.567023800000015],[-73.40380590000001,43.56664690000002],[-73.40326240000002,43.5650612],[-73.40284129999998,43.564099899999974],[-73.4026771,43.56388579999998],[-73.40249390000002,43.5635312],[-73.40239389999999,43.563321900000005],[-73.40241529999997,43.563221899999974],[-73.4028841,43.56219870000001],[-73.40345760000002,43.56069020000001],[-73.40349090000001,43.560516500000006],[-73.40345760000002,43.56042839999998],[-73.40336480000002,43.560373700000014],[-73.4032886,43.56039989999999],[-73.4032363,43.56046650000002],[-73.40301260000001,43.56119699999999],[-73.4029198,43.5613065],[-73.4029079,43.561454000000026],[-73.4025724,43.56235579999998],[-73.40236779999998,43.562893599999995],[-73.40225120000002,43.563010099999985],[-73.40216550000002,43.56302440000002],[-73.40209650000003,43.5629768],[-73.40134219999999,43.5619322],[-73.40120660000002,43.561922700000025],[-73.4009924,43.56167529999999],[-73.40085440000001,43.56142299999999],[-73.4008235,43.561258899999984],[-73.40046180000002,43.560863900000015],[-73.40037380000001,43.56068779999998],[-73.40030239999999,43.56042609999997],[-73.40030239999999,43.56030229999999],[-73.40085679999999,43.559391000000005],[-73.40124909999997,43.55901749999998],[-73.4013018,43.55896739999997],[-73.40135520000001,43.558804899999984],[-73.4014009,43.558666200000005],[-73.40142550000002,43.55859149999998],[-73.40150640000002,43.55846059999999],[-73.40148970000001,43.55828220000001],[-73.40127799999999,43.5579467],[-73.40103470000003,43.5579391],[-73.4009734,43.557937100000004],[-73.40097100000003,43.55780859999999],[-73.40099670000001,43.55766920000002],[-73.40100380000001,43.55763080000003],[-73.40101249999998,43.55758350000002],[-73.40103149999999,43.55748060000002],[-73.4010614,43.55731850000001],[-73.40108220000002,43.557205899999985],[-73.40114240000003,43.5568796],[-73.4011519,43.55682830000001],[-73.40125180000001,43.55654040000002],[-73.40163489999998,43.555931199999975],[-73.4017586,43.555305499999974],[-73.401859,43.555188199999975],[-73.4020418,43.5549747],[-73.4022488,43.55460590000001],[-73.40233919999997,43.553133],[-73.40223209999999,43.55294029999999],[-73.40219880000001,43.55258570000001],[-73.4022559,43.551207999999974],[-73.40219409999997,43.55119139999999],[-73.40223689999999,43.550843999999984],[-73.40231069999999,43.55083680000001],[-73.4023249,43.55037520000002],[-73.40242490000003,43.54996590000002],[-73.40242490000003,43.549754199999995],[-73.40236060000001,43.54957089999999],[-73.40237889999997,43.54943739999999],[-73.4024058,43.549240199999986],[-73.40241529999997,43.54862630000002],[-73.40247010000002,43.54828600000002],[-73.40246530000002,43.54803140000001],[-73.40239630000002,43.54794099999998],[-73.40239869999999,43.547826799999996],[-73.4024915,43.5477697],[-73.40252959999998,43.54757699999999],[-73.40261520000001,43.546565699999974],[-73.40263429999999,43.5456782],[-73.4028429,43.545174900000006],[-73.40287699999999,43.54509280000002],[-73.40320530000002,43.544857200000024],[-73.40313630000003,43.54472870000001],[-73.4031387,43.5446359],[-73.40319579999999,43.54448129999997],[-73.40325769999998,43.54392919999998],[-73.40307919999998,43.54370560000001],[-73.40299590000001,43.5434391],[-73.40290750000003,43.54335209999999],[-73.40284600000001,43.543291599999975],[-73.40286270000001,43.54229220000002],[-73.40292690000001,43.54165449999999],[-73.40297329999999,43.54150340000001],[-73.40301970000002,43.54135230000003],[-73.4030856,43.5412996],[-73.40332910000001,43.54110480000003],[-73.4036408,43.54071219999997],[-73.40424039999999,43.540398100000004],[-73.40502320000002,43.5399008],[-73.40517790000001,43.53971050000001],[-73.40524690000001,43.539601000000005],[-73.40528970000003,43.53954390000001],[-73.40543960000002,43.53952340000001],[-73.40550059999998,43.539552000000015],[-73.4055424,43.5395082],[-73.40551579999999,43.53944539999998],[-73.405373,43.539460599999984],[-73.40535399999999,43.539357800000005],[-73.4054016,43.538935200000026],[-73.4053768,43.53859640000002],[-73.40525120000001,43.53819090000002],[-73.40536730000002,43.53805199999999],[-73.4053007,43.538025300000015],[-73.40511029999999,43.53810720000001],[-73.40517119999998,43.53835079999999],[-73.40515979999998,43.5384689],[-73.40520550000002,43.5385412],[-73.40510269999999,43.53872389999998],[-73.40500370000001,43.538801999999976],[-73.40500179999998,43.53921889999998],[-73.4048343,43.539588200000026],[-73.40471439999999,43.53970240000001],[-73.4044384,43.53981090000002],[-73.40376070000002,43.54024679999998],[-73.40360650000002,43.54027530000002],[-73.40343710000002,43.54048469999998],[-73.40325430000001,43.540538000000026],[-73.40312790000002,43.5406481],[-73.40302589999999,43.540598999999986],[-73.40310590000001,43.53979370000002],[-73.40310240000002,43.538654099999974],[-73.4032214,43.53804020000001],[-73.40328090000003,43.53659110000001],[-73.40347830000002,43.53522049999998],[-73.40348310000002,43.53485169999999],[-73.40355449999998,43.534737500000006],[-73.4037472,43.534716100000026],[-73.40387809999999,43.5347304],[-73.40400899999997,43.534744699999976],[-73.4049584,43.53506349999998],[-73.40504879999997,43.53513959999998],[-73.4050512,43.535456099999976],[-73.40498450000001,43.53563220000001],[-73.4044968,43.53636030000001],[-73.4044849,43.53652690000001],[-73.4045729,43.5365554],[-73.40471330000003,43.53651020000001],[-73.40493220000002,43.536255600000004],[-73.40524629999999,43.536148500000024],[-73.40545329999998,43.53597480000002],[-73.4057555,43.535291900000004],[-73.40577689999998,43.535111099999995],[-73.4057484,43.535006399999986],[-73.40566510000002,43.53491600000001],[-73.40417789999998,43.53438299999999],[-73.40390730000001,43.53422419999998],[-73.4037401,43.534126000000015],[-73.40373060000002,43.534047499999986],[-73.40388999999999,43.53366440000002],[-73.40393039999998,43.53326229999999],[-73.40390430000002,43.5331956],[-73.40379960000001,43.5332004],[-73.40365200000002,43.53340739999999],[-73.4036092,43.53340739999999],[-73.40356639999999,43.53340739999999],[-73.40354969999999,43.53325990000002],[-73.40364490000002,43.53271969999997],[-73.40361159999998,43.53228189999999],[-73.40364729999999,43.53187029999998],[-73.4037591,43.53133009999999],[-73.40387329999999,43.53087799999997],[-73.40391119999998,43.53088200000002],[-73.40401129999998,43.530892300000005],[-73.404041,43.53090789999999],[-73.4041517,43.5309661],[-73.40442300000001,43.53131350000001],[-73.40459429999999,43.53140389999999],[-73.40491079999998,43.53143240000003],[-73.4052891,43.53133250000002],[-73.40565079999999,43.53108500000002],[-73.4057745,43.53092559999999],[-73.40601959999998,43.53037599999999],[-73.40613380000002,43.53029270000002],[-73.40628370000002,43.530242699999974],[-73.4065526,43.530323599999974],[-73.40667869999999,43.53043309999998],[-73.40684049999999,43.530625799999996],[-73.40692619999999,43.53082569999998],[-73.40695240000002,43.53096849999997],[-73.40693329999999,43.53112549999997],[-73.40684290000002,43.531406300000015],[-73.40694280000002,43.531729900000016],[-73.40722360000001,43.5320107],[-73.4073745,43.53208489999997],[-73.40748869999999,43.5321629],[-73.4075325,43.53228089999999],[-73.40760010000002,43.53221989999997],[-73.407621,43.532200999999986],[-73.40750919999999,43.53196070000001],[-73.40728789999997,43.53162520000001],[-73.40726410000002,43.53138719999998],[-73.40726410000002,43.531261099999995],[-73.4072926,43.53092320000002],[-73.40735210000003,43.53074950000001],[-73.4075234,43.530709100000024],[-73.40754959999998,43.53059489999998],[-73.40750200000002,43.530563900000004],[-73.4074235,43.5305735],[-73.40736879999997,43.530623400000025],[-73.40729019999998,43.530630599999995],[-73.40699039999998,43.530195100000014],[-73.40680250000003,43.5300785],[-73.40659310000001,43.53001189999998],[-73.40636230000001,43.529988100000025],[-73.40610529999998,43.53002379999998],[-73.40593630000001,43.53008799999998],[-73.40531529999998,43.53053779999999],[-73.40531049999998,43.530875700000024],[-73.40524149999999,43.53100410000002],[-73.40513920000001,43.53109219999999],[-73.40499410000001,43.53115170000001],[-73.40486320000002,43.531161199999985],[-73.40475850000001,43.531120699999974],[-73.40447060000002,43.53084000000001],[-73.4043254,43.53049729999998],[-73.4041641,43.53045659999998],[-73.40406130000002,43.53043070000001],[-73.40413030000002,43.53013329999999],[-73.40423900000002,43.53007819999999],[-73.40434909999999,43.53002249999997],[-73.40488699999997,43.529750200000024],[-73.40499410000001,43.52965740000002],[-73.40510590000002,43.52951460000003],[-73.4051083,43.52931000000001],[-73.40516300000002,43.52924569999999],[-73.40528440000003,43.52920999999998],[-73.4058531,43.52917430000002],[-73.40608859999998,43.5291244],[-73.40621950000002,43.529052999999976],[-73.40619329999998,43.52897680000001],[-73.4058197,43.52898160000001],[-73.40553419999998,43.52906730000001],[-73.40482750000001,43.52913389999998],[-73.40452290000002,43.52932420000002],[-73.40444200000002,43.529298100000005],[-73.40479420000003,43.528703199999995],[-73.40495600000003,43.52825109999998],[-73.40531290000001,43.527561100000014],[-73.40542950000003,43.527437299999974],[-73.4057507,43.52736590000001],[-73.40588639999999,43.52724699999999],[-73.40608150000003,43.52700659999999],[-73.40629330000002,43.52660450000002],[-73.4064075,43.52654740000003],[-73.40659310000001,43.52652119999999],[-73.40676680000001,43.52653079999999],[-73.40680250000003,43.52645630000001],[-73.40670970000002,43.52642370000001],[-73.4065574,43.52629039999999],[-73.4060053,43.5264641],[-73.40586730000001,43.526471300000026],[-73.40584589999997,43.52637370000002],[-73.40650740000001,43.52505789999998],[-73.40666679999998,43.52456059999997],[-73.40708560000002,43.52378490000001],[-73.40783040000002,43.52208589999998],[-73.40789699999999,43.52185509999998],[-73.4087298,43.520044299999995],[-73.4089889,43.5197599],[-73.40909390000002,43.51964459999999],[-73.40939370000001,43.51963269999999],[-73.4091343,43.519332899999995],[-73.40924380000001,43.51897600000001],[-73.40966259999999,43.51796710000002],[-73.410098,43.5171866],[-73.4110379,43.51509979999997],[-73.41124730000001,43.51452640000002],[-73.41158519999999,43.513862500000016],[-73.41193500000003,43.51299640000002],[-73.41210869999998,43.512660900000014],[-73.41229429999999,43.51263230000001],[-73.41232989999997,43.51254669999997],[-73.4122276,43.512413400000014],[-73.41236329999998,43.51205650000003],[-73.41266539999998,43.51143780000001],[-73.41285579999999,43.510947699999974],[-73.41328650000003,43.51011010000002],[-73.41340309999998,43.51007440000001],[-73.4135397,43.510075099999995],[-73.4141118,43.5100779],[-73.41413560000001,43.50987930000002],[-73.41363280000002,43.5098375],[-73.41352210000002,43.50974489999999],[-73.4134871,43.50971559999999],[-73.41354360000003,43.50948949999997],[-73.4140284,43.50852579999997],[-73.41462619999999,43.507148700000016],[-73.41465599999998,43.5069019],[-73.41523899999999,43.50564370000001],[-73.41531029999999,43.505405800000005],[-73.41547689999999,43.50519459999998],[-73.41558400000002,43.50494179999998],[-73.41569399999997,43.504784099999995],[-73.41574759999997,43.50459970000003],[-73.41608960000002,43.50393939999998],[-73.41656849999998,43.502850799999976],[-73.4168391,43.502363],[-73.4173121,43.50124770000002],[-73.41791419999998,43.5],[-73.42058270000001,43.5],[-73.42500000000001,43.5],[-73.42500000000001,43.573101099999974],[-73.42500000000001,43.57499999999999],[-73.42137530000002,43.57499999999999],[-73.41468120000002,43.57499999999999],[-73.41446230000003,43.57499999999999],[-73.41276349999998,43.57499999999999],[-73.41178129999997,43.57451980000002],[-73.41117020000002,43.5743238],[-73.41071240000002,43.5740715],[-73.41025459999997,43.573819300000025],[-73.40901350000001,43.5729513],[-73.40886970000003,43.5728436],[-73.40853980000003,43.5725966],[-73.4071803,43.5715788],[-73.4058478,43.57094110000003],[-73.40534530000002,43.57065180000001],[-73.4051207,43.57060039999999],[-73.4046505,43.57059659999999],[-73.40445060000002,43.57050140000001],[-73.40364349999999,43.569977900000026],[-73.40338079999998,43.56971709999999],[-73.40298109999998,43.569437300000004],[-73.4029468,43.56932499999999],[-73.40285349999999,43.569226000000015],[-73.40289539999998,43.569117500000004],[-73.40309719999999,43.56901850000003],[-73.40392329999997,43.569147999999984],[-73.4040832,43.56913270000001],[-73.40434399999998,43.56887769999997],[-73.40436690000001,43.56880819999998],[-73.40438970000002,43.56873869999998],[-73.40447540000002,43.568635900000004],[-73.4044126,43.56843600000002]]]}},{"type":"Feature","properties":{},"geometry":{"type":"Polygon","coordinates":[[[-73.4028644,43.56850050000003],[-73.40268830000002,43.568505200000004],[-73.4026098,43.568400499999996],[-73.40211010000002,43.56797940000001],[-73.40179840000002,43.56727740000002],[-73.40145810000001,43.56694190000002],[-73.4011964,43.56652789999998],[-73.4007181,43.566035399999976],[-73.4007062,43.56574979999999],[-73.40082749999999,43.565578500000015],[-73.40080849999998,43.565492800000015],[-73.40066339999998,43.565573700000016],[-73.40056340000001,43.56555229999998],[-73.40013269999997,43.565257299999985],[-73.39985200000001,43.56470999999999],[-73.3997377,43.56459100000001],[-73.39969969999999,43.56447200000002],[-73.3995855,43.56433879999997],[-73.39939509999999,43.56372729999998],[-73.39935700000001,43.56325850000002],[-73.39914049999999,43.56271600000002],[-73.39915000000002,43.56234719999998],[-73.3990953,43.56187840000001],[-73.3991595,43.561649999999986],[-73.39943790000001,43.561226499999975],[-73.39952119999998,43.560976600000004],[-73.39962350000002,43.560950400000024],[-73.39974489999997,43.56101469999999],[-73.40033740000001,43.56145959999998],[-73.4008442,43.56190700000002],[-73.40107499999999,43.56228060000001],[-73.4015081,43.56282779999998],[-73.40151759999998,43.56301109999998],[-73.40159849999998,43.5632157],[-73.40174839999997,43.56343939999999],[-73.40191729999998,43.56355359999998],[-73.4019768,43.563672499999996],[-73.40218620000002,43.5638558],[-73.40219100000002,43.56396280000001],[-73.4021505,43.56405560000002],[-73.4023004,43.56462670000002],[-73.40243129999999,43.56495030000002],[-73.4026288,43.56564040000001],[-73.4031951,43.56700860000001],[-73.40328310000001,43.56732979999998],[-73.40329500000001,43.56767480000002],[-73.4032593,43.56791989999999],[-73.4031094,43.56822920000002],[-73.4028644,43.56850050000003]]]}},{"type":"Feature","properties":{},"geometry":{"type":"Polygon","coordinates":[[[-73.39390739999999,43.5318972],[-73.39485209999998,43.531954299999995],[-73.3957039,43.53186149999999],[-73.39587519999998,43.53186149999999],[-73.3959514,43.5318972],[-73.3959514,43.53196860000003],[-73.39587519999998,43.53202570000002],[-73.3953684,43.5321447],[-73.39490919999997,43.53234930000002],[-73.3944095,43.53264200000001],[-73.39424050000002,43.5326824],[-73.39401930000002,43.532692],[-73.393867,43.532651499999986],[-73.39371469999998,43.53258010000002],[-73.39365759999998,43.53249210000001],[-73.39365759999998,43.532387400000005],[-73.39390739999999,43.5318972]]]}},{"type":"Feature","properties":{},"geometry":{"type":"Polygon","coordinates":[[[-73.39359810000002,43.53106680000002],[-73.39381100000003,43.53106930000001],[-73.39378099999999,43.53100810000001],[-73.3934863,43.53098590000002],[-73.3934744,43.5308622],[-73.39353620000003,43.53080269999998],[-73.39369799999997,43.53080499999999],[-73.39388120000001,43.53090020000002],[-73.394,43.53107469999998],[-73.3940859,43.531283299999984],[-73.39401930000002,43.53135470000001],[-73.39369090000002,43.53129999999999],[-73.3936028,43.531240500000024],[-73.39359810000002,43.53106680000002]]]}},{"type":"Feature","properties":{},"geometry":{"type":"Polygon","coordinates":[[[-73.3998722,43.56086979999998],[-73.4000302,43.560654699999986],[-73.40010059999997,43.560620400000005],[-73.40023580000002,43.56082029999999],[-73.40023960000002,43.5609288],[-73.40029859999999,43.56098780000002],[-73.4001844,43.561115400000006],[-73.39988169999998,43.56095549999998],[-73.3998722,43.56086979999998]]]}},{"type":"Feature","properties":{},"geometry":{"type":"Polygon","coordinates":[[[-73.39363850000001,43.53179970000002],[-73.39365759999998,43.53199480000001],[-73.39359330000002,43.532225600000004],[-73.39350999999999,43.53223509999998],[-73.3934458,43.5320638],[-73.39350289999999,43.53166399999998],[-73.39358859999999,43.5316593],[-73.39363850000001,43.53179970000002]]]}},{"type":"Feature","properties":{},"geometry":{"type":"Polygon","coordinates":[[[-73.41725880000001,43.5],[-73.41610429999997,43.50255529999998],[-73.41583070000001,43.50308469999999],[-73.41482239999999,43.50543440000001],[-73.41370699999999,43.507775200000026],[-73.41340960000002,43.508617000000015],[-73.41332929999999,43.50865859999999],[-73.41316569999998,43.50891139999999],[-73.41299909999998,43.509381399999995],[-73.41285640000001,43.50948549999998],[-73.41268980000001,43.51005950000001],[-73.41258269999997,43.51018740000001],[-73.4123983,43.510657400000014],[-73.41229420000002,43.51065],[-73.41207830000002,43.510634700000026],[-73.41206519999997,43.510752500000024],[-73.41220750000002,43.51083829999999],[-73.41226749999998,43.5108745],[-73.41226449999999,43.51096669999998],[-73.41212469999999,43.51113320000002],[-73.41176480000001,43.51210880000002],[-73.41162800000001,43.51236460000001],[-73.4115506,43.51243899999997],[-73.41134540000002,43.51243599999998],[-73.4113127,43.51253120000001],[-73.41144650000001,43.51258469999999],[-73.41139299999998,43.5129149],[-73.41121750000002,43.513224200000025],[-73.41095869999998,43.5138518],[-73.41030139999998,43.5151932],[-73.4100843,43.515782100000024],[-73.40958160000002,43.51679339999998],[-73.40879050000001,43.51863450000002],[-73.40829059999999,43.5196904],[-73.4079458,43.520419100000026],[-73.40698500000002,43.52265879999999],[-73.40656569999999,43.52349450000003],[-73.4063961,43.523913900000025],[-73.4060154,43.52470210000001],[-73.40590830000002,43.524827000000016],[-73.40555440000003,43.52478239999999],[-73.4053194,43.524529599999994],[-73.4052213,43.52432140000002],[-73.40522420000002,43.52416670000002],[-73.40533729999999,43.52386630000001],[-73.4057626,43.52342909999999],[-73.40578820000002,43.52324149999998],[-73.4055907,43.523216400000024],[-73.405505,43.52336869999999],[-73.40522900000002,43.52356379999998],[-73.40508620000003,43.523585200000014],[-73.4050196,43.523661300000015],[-73.4050196,43.523773199999994],[-73.4049149,43.52393260000002],[-73.40486729999998,43.52408250000002],[-73.4048459,43.52439900000002],[-73.4049268,43.5245774],[-73.40512430000001,43.52479870000002],[-73.4057305,43.52518730000003],[-73.40586669999999,43.52527459999999],[-73.40570489999999,43.52544119999999],[-73.40553119999998,43.52572909999998],[-73.40536700000001,43.52612879999998],[-73.40523139999999,43.526362000000006],[-73.40492440000003,43.52716149999998],[-73.4045294,43.52790390000001],[-73.4044652,43.52811809999997],[-73.403975,43.529198399999984],[-73.40370139999999,43.529943100000025],[-73.40359189999998,43.5301192],[-73.4032755,43.53105670000002],[-73.40316840000003,43.531644400000005],[-73.40298280000002,43.5322084],[-73.40291860000002,43.533305299999995],[-73.40280669999999,43.53365980000001],[-73.40277329999998,43.53366340000002],[-73.40272820000001,43.53366820000002],[-73.40264969999998,43.53367650000001],[-73.40256399999998,43.533612300000016],[-73.40251640000002,43.533331499999974],[-73.40230459999998,43.53311489999999],[-73.40190969999998,43.53289130000002],[-73.40120059999998,43.53264380000002],[-73.40000129999999,43.53209179999999],[-73.39912329999999,43.5318848],[-73.3988473,43.531870500000025],[-73.39864499999999,43.53193470000002],[-73.3974268,43.53185619999999],[-73.39632510000001,43.53174680000001],[-73.39607050000001,43.53166590000001],[-73.39563980000003,43.531437400000016],[-73.39480930000002,43.53142550000001],[-73.39479979999999,43.53152549999999],[-73.3947427,43.5315683],[-73.39439060000001,43.5315564],[-73.39428349999997,43.531482600000004],[-73.39405269999997,43.530909199999996],[-73.39389799999998,43.530742599999996],[-73.3937267,43.53063550000002],[-73.39351490000001,43.53056650000002],[-73.39320559999999,43.530554600000016],[-73.39282960000003,43.530480899999986],[-73.39234900000002,43.530197699999974],[-73.39210150000002,43.529995499999984],[-73.3915328,43.529721800000004],[-73.39094749999998,43.52956949999998],[-73.39031690000002,43.529481499999974],[-73.39015990000001,43.529441099999985],[-73.38997189999998,43.52933639999998],[-73.38962450000002,43.5293173],[-73.38935559999999,43.529400599999974],[-73.38925089999998,43.52951009999998],[-73.38898440000003,43.52949100000001],[-73.388844,43.52951719999999],[-73.38873219999999,43.529629],[-73.38875359999997,43.52969330000002],[-73.38883929999997,43.52971710000003],[-73.3889226,43.52969569999999],[-73.38903679999999,43.52957429999998],[-73.38910579999998,43.529600500000015],[-73.3890748,43.529681400000015],[-73.38896060000002,43.529781300000025],[-73.38880360000002,43.529824099999985],[-73.3886584,43.5298123],[-73.3885204,43.52974089999998],[-73.38832289999999,43.52930070000002],[-73.38832769999999,43.52859160000003],[-73.38808499999999,43.5284393],[-73.38790649999999,43.52844640000001],[-73.38769000000002,43.52852969999998],[-73.38761390000002,43.52861539999998],[-73.38758769999998,43.528817600000025],[-73.38775420000002,43.52903650000002],[-73.38774710000001,43.529540999999995],[-73.38789459999998,43.52985269999999],[-73.38797549999998,43.5299455],[-73.38848710000002,43.53010019999999],[-73.38892019999997,43.53008349999999],[-73.38928659999999,43.5299455],[-73.38957690000001,43.52976699999999],[-73.38979110000002,43.52975989999999],[-73.3908571,43.52997640000001],[-73.3918564,43.53026199999999],[-73.39208009999999,43.5303619],[-73.39225140000002,43.530473700000016],[-73.3929819,43.53111860000001],[-73.3932246,43.53151589999999],[-73.39324370000003,43.53169680000002],[-73.39317469999997,43.531815800000004],[-73.3931604,43.531977600000005],[-73.39323409999997,43.53217510000002],[-73.3934031,43.53242970000002],[-73.3936291,43.53268430000003],[-73.39395510000003,43.53283649999997],[-73.39425260000002,43.532834200000025],[-73.39456189999999,43.53273899999999],[-73.39489500000002,43.5325962],[-73.3953828,43.53230589999998],[-73.3955851,43.53223220000001],[-73.39615140000001,43.53219410000003],[-73.39650590000002,43.53222740000001],[-73.39686039999998,43.53240820000002],[-73.39838329999998,43.53269849999998],[-73.3988473,43.532601],[-73.3994255,43.53241059999999],[-73.39966340000001,43.532405900000015],[-73.39993229999999,43.53245820000001],[-73.40063190000001,43.53280799999999],[-73.40150749999998,43.53331480000003],[-73.4026973,43.53423570000001],[-73.40274959999999,43.53434040000002],[-73.40273869999999,43.534485399999994],[-73.40265920000002,43.53553959999999],[-73.40258540000002,43.53558479999998],[-73.40251560000002,43.535567000000015],[-73.4022023,43.5354873],[-73.40194059999999,43.535489600000005],[-73.40177640000002,43.535556299999996],[-73.40168119999998,43.5356812],[-73.40175740000001,43.535782299999994],[-73.4019025,43.53566810000001],[-73.40204999999997,43.53562529999999],[-73.40225709999999,43.53564189999997],[-73.40247119999998,43.5357181],[-73.4024933,43.53573239999997],[-73.40262109999998,43.53581559999998],[-73.4026637,43.53665109999997],[-73.4026045,43.536935200000016],[-73.4026351,43.537134200000025],[-73.40259459999999,43.5372127],[-73.4024566,43.537260300000014],[-73.40221739999998,43.53744549999999],[-73.40221930000001,43.5375502],[-73.40230689999999,43.5376397],[-73.40231069999999,43.53782439999998],[-73.40252579999998,43.53817459999999],[-73.40255239999999,43.53847159999998],[-73.40240770000003,43.539495699999975],[-73.40236019999998,43.5406036],[-73.40237919999998,43.54101659999998],[-73.40231069999999,43.54129080000001],[-73.40223550000002,43.541370700000016],[-73.40216029999999,43.541450699999984],[-73.40193950000003,43.54160669999999],[-73.40139119999998,43.54181799999998],[-73.4011552,43.54194940000002],[-73.4005765,43.542076899999984],[-73.39971609999998,43.54216070000001],[-73.39947009999997,43.542042200000026],[-73.39959959999999,43.5422097],[-73.3995562,43.54233199999999],[-73.39923069999998,43.542596600000024],[-73.39916599999998,43.54282690000002],[-73.3991603,43.54306109999999],[-73.39924209999998,43.543203800000015],[-73.39942289999999,43.54338280000002],[-73.3995238,43.54346650000002],[-73.39969710000003,43.543523600000015],[-73.39981319999998,43.543487500000026],[-73.39980559999998,43.5433314],[-73.39953910000003,43.5430078],[-73.39951430000002,43.542931599999974],[-73.3995276,43.542844100000025],[-73.39965330000001,43.542699400000004],[-73.4000092,43.5425338],[-73.40099149999998,43.54231490000001],[-73.40123890000001,43.542242499999986],[-73.40135700000002,43.542147399999976],[-73.40209370000002,43.54191509999998],[-73.40219830000001,43.541934200000014],[-73.40224569999998,43.54201160000002],[-73.4022612,43.54203699999999],[-73.4022688,43.54212639999997],[-73.40213929999999,43.543099100000006],[-73.40201080000003,43.54314959999999],[-73.40188239999998,43.54320000000001],[-73.4018519,43.54335609999998],[-73.40197749999999,43.54351980000001],[-73.40203459999998,43.543551200000024],[-73.40209170000003,43.54358259999998],[-73.40213360000001,43.54394239999999],[-73.40212980000001,43.544287],[-73.40205750000001,43.544540100000006],[-73.40205179999998,43.54511120000001],[-73.4020137,43.54518159999998],[-73.4019376,43.54522539999999],[-73.40188599999999,43.545237499999985],[-73.4016368,43.545295899999985],[-73.40144450000003,43.54541769999997],[-73.40145790000003,43.545640400000025],[-73.40139499999998,43.54569750000002],[-73.40142359999999,43.54576420000001],[-73.4016378,43.545725600000026],[-73.40191729999998,43.545728499999996],[-73.4020185,43.545794],[-73.40197979999999,43.546141999999975],[-73.4020185,43.546290699999986],[-73.4018757,43.54733169999997],[-73.40188760000001,43.547706500000004],[-73.40184979999998,43.54777960000001],[-73.40179540000003,43.547884899999985],[-73.40184299999999,43.54800979999999],[-73.40184599999998,43.54817639999999],[-73.4017508,43.549443499999995],[-73.40175470000003,43.5495952],[-73.40175749999997,43.54970800000001],[-73.4017627,43.54991039999999],[-73.40160800000001,43.55173669999999],[-73.40157929999998,43.5517787],[-73.40152469999998,43.5518586],[-73.40146820000001,43.55185349999999],[-73.40136109999997,43.551843700000006],[-73.40101609999999,43.55150170000002],[-73.40073360000002,43.551153699999986],[-73.40048969999998,43.55101689999998],[-73.3998651,43.55035959999998],[-73.39963310000002,43.55019600000003],[-73.39962480000003,43.55015300000002],[-73.39931439999998,43.5502242],[-73.3992859,43.55041840000001],[-73.39966850000002,43.55097230000001],[-73.39952570000003,43.55101610000003],[-73.39958089999999,43.55109599999997],[-73.3998722,43.5511075],[-73.40027379999998,43.551436799999976],[-73.40114,43.55243810000002],[-73.40120089999999,43.55256559999998],[-73.40134940000002,43.55273690000001],[-73.40136460000002,43.55283400000002],[-73.4015283,43.553092900000024],[-73.40152699999999,43.553147000000024],[-73.40151500000002,43.5536697],[-73.40145790000003,43.55415319999997],[-73.40150740000001,43.55428260000002],[-73.4013779,43.55499259999999],[-73.40128429999999,43.55512959999999],[-73.4011514,43.55532390000002],[-73.40099149999998,43.555672200000004],[-73.40093059999998,43.5560605],[-73.40079350000002,43.556243300000006],[-73.40032330000003,43.55747680000002],[-73.40030250000001,43.55750979999999],[-73.40052109999999,43.55753249999998],[-73.40073960000001,43.557555200000024],[-73.40074529999998,43.557508299999995],[-73.40083809999999,43.55705619999998],[-73.40089280000001,43.55674920000001],[-73.40098799999998,43.55674210000001],[-73.40096790000001,43.556863599999986],[-73.4009297,43.5570955],[-73.40087140000003,43.557448799999975],[-73.40086810000003,43.55746479999999],[-73.40085950000002,43.55750760000001],[-73.40084760000002,43.557566399999985],[-73.40084339999999,43.55758700000001],[-73.40083040000002,43.557651299999975],[-73.40082740000003,43.55766649999998],[-73.40080280000001,43.557788200000005],[-73.4007833,43.55788419999999],[-73.40056679999998,43.55838870000002],[-73.40049299999998,43.558369700000014],[-73.40063550000002,43.558054500000026],[-73.4006953,43.55792229999997],[-73.40072930000002,43.557640400000025],[-73.40043209999999,43.557608500000015],[-73.40036500000002,43.55779910000001],[-73.40027650000002,43.55792279999997],[-73.40020980000003,43.557908],[-73.4001915,43.55796650000002],[-73.40017769999997,43.55801070000001],[-73.4001025,43.55825149999998],[-73.39995019999998,43.55860560000002],[-73.39973780000003,43.5589018],[-73.39969769999999,43.55895770000001],[-73.3996171,43.559070099999985],[-73.39934770000002,43.559381299999984],[-73.39924819999999,43.5594964],[-73.39907840000001,43.559692600000005],[-73.39907840000001,43.55980490000002],[-73.39895849999999,43.55978390000001],[-73.39895849999999,43.55986009999998],[-73.39863489999999,43.56020460000002],[-73.39845589999999,43.56036640000002],[-73.39826749999997,43.5604768],[-73.39789819999999,43.56081760000001],[-73.39756890000001,43.56108979999999],[-73.39746229999997,43.56146289999998],[-73.39747749999998,43.5616627],[-73.3975327,43.562001599999974],[-73.39752320000002,43.5623157],[-73.3974566,43.56353969999998],[-73.39758410000002,43.5638328],[-73.3978811,43.564177400000005],[-73.39841209999997,43.565121499999975],[-73.39869010000001,43.565549799999985],[-73.3988405,43.56585819999998],[-73.39886519999999,43.566010500000004],[-73.3991603,43.566191300000014],[-73.39919259999999,43.56625989999998],[-73.3990708,43.56628699999999],[-73.39907549999998,43.56636789999999],[-73.39935159999999,43.566496400000005],[-73.3994753,43.5666296],[-73.39962759999997,43.56712219999997],[-73.40021530000001,43.56761710000001],[-73.40046039999999,43.56786699999998],[-73.4006531,43.56818579999998],[-73.4009696,43.56858319999998],[-73.40103859999999,43.56874499999998],[-73.40099099999998,43.5687997],[-73.40039380000002,43.568647399999975],[-73.39979890000001,43.56841659999998],[-73.3986377,43.568097799999975],[-73.39825939999997,43.567928800000004],[-73.39746229999997,43.56774560000002],[-73.39711249999999,43.56767660000003],[-73.39667939999998,43.567662299999995],[-73.39619879999998,43.56773370000002],[-73.39563720000001,43.56810009999998],[-73.39555159999998,43.5682405],[-73.39543029999999,43.568588799999986],[-73.39542260000002,43.56861090000001],[-73.39542069999999,43.56861650000002],[-73.39542,43.56865069999998],[-73.39541120000001,43.56907810000001],[-73.3954516,43.56925660000002],[-73.39544690000002,43.569342199999994],[-73.39538499999998,43.56939460000001],[-73.39525409999999,43.569442200000026],[-73.39524510000001,43.569442400000014],[-73.39477110000001,43.56945409999997],[-73.39442609999998,43.56938980000001],[-73.39376929999997,43.569377900000006],[-73.39261049999999,43.56959440000003],[-73.39228930000002,43.569668200000024],[-73.3919181,43.56986810000001],[-73.39165939999998,43.57005989999999],[-73.39171379999999,43.57010270000001],[-73.3916744,43.57012880000002],[-73.39158040000001,43.57025679999998],[-73.3914484,43.57046279999997],[-73.39134539999998,43.570859799999994],[-73.3913824,43.57117979999998],[-73.39153240000002,43.57161780000001],[-73.39166740000002,43.57191080000001],[-73.39179439999998,43.572187799999995],[-73.39191440000002,43.57254280000001],[-73.39193239999997,43.572731799999985],[-73.39189240000002,43.57295779999998],[-73.3914284,43.57361880000002],[-73.3907954,43.574191799999994],[-73.39028969999998,43.57443219999999],[-73.3902263,43.57448190000002],[-73.39009190000002,43.57454369999999],[-73.38995740000001,43.574605599999984],[-73.38990159999997,43.574616400000025],[-73.38974239999999,43.57469179999998],[-73.3892894,43.574749800000006],[-73.38882940000002,43.57472580000001],[-73.3879814,43.574705800000004],[-73.38731239999998,43.57467680000002],[-73.38612740000002,43.574807799999974],[-73.38540080000001,43.57499999999999],[-73.3848797,43.57499999999999],[-73.35000000000002,43.57499999999999],[-73.35000000000002,43.5],[-73.41725880000001,43.5]]]}}]}