{"type":"FeatureCollection","features":[{"type":"Feature","properties":{},"geometry":{"type":"Polygon","coordinates":[[[-73.9882738,42.82499999999999],[-73.98717770000002,42.82499999999999],[-73.98696849999999,42.82499999999999],[-73.9820962,42.82499999999999],[-73.98047209999999,42.82499999999999],[-73.9793158,42.82499999999999],[-73.96008139999998,42.82499999999999],[-73.95324319999997,42.82499999999999],[-73.95292869999997,42.82499999999999],[-73.95236879999999,42.82499999999999],[-73.95141050000001,42.82499999999999],[-73.94999999999999,42.82499999999999],[-73.94999999999999,42.8208947],[-73.94999999999999,42.82076760000001],[-73.94999999999999,42.820727799999986],[-73.94999999999999,42.820492100000024],[-73.94999999999999,42.82013540000003],[-73.94999999999999,42.81990510000003],[-73.94999999999999,42.81964240000002],[-73.94999999999999,42.81956050000002],[-73.94999999999999,42.819260799999995],[-73.94999999999999,42.81835239999998],[-73.94999999999999,42.818239300000016],[-73.94999999999999,42.81815790000002],[-73.94999999999999,42.818036800000016],[-73.94999999999999,42.815132500000004],[-73.94999999999999,42.81414619999998],[-73.94999999999999,42.81123050000002],[-73.94999999999999,42.75],[-74.02499999999998,42.75],[-74.02499999999998,42.82499999999999],[-73.9884576,42.82499999999999],[-73.9882738,42.82499999999999]]]}},{"type":"Feature","properties":{},"geometry":{"type":"Polygon","coordinates":[[[-73.94999999999999,42.81123050000002],[-73.94999999999999,42.81414619999998],[-73.94999999999999,42.815132500000004],[-73.94999999999999,42.818036800000016],[-73.94999999999999,42.81815790000002],[-73.94999999999999,42.818239300000016],[-73.94999999999999,42.81835239999998],[-73.94999999999999,42.819260799999995],[-73.94999999999999,42.81956050000002],[-73.94999999999999,42.81964240000002],[-73.94999999999999,42.81990510000003],[-73.94999999999999,42.82013540000003],[-73.94999999999999,42.820492100000024],[-73.94999999999999,42.820727799999986],[-73.94999999999999,42.82076760000001],[-73.94999999999999,42.8208947],[-73.94999999999999,42.82499999999999],[-73.93985930000002,42.82499999999999],[-73.93897750000002,42.82499999999999],[-73.9382387,42.82499999999999],[-73.93714790000001,42.82499999999999],[-73.9369312,42.82499999999999],[-73.9367638,42.82499999999999],[-73.93299250000001,42.82499999999999],[-73.93248990000001,42.82499999999999],[-73.8794145,42.82499999999999],[-73.875,42.82499999999999],[-73.875,42.75],[-73.94999999999999,42.75],[-73.94999999999999,42.81123050000002]]]}},{"type":"Feature","properties":{},"geometry":{"type":"Polygon","coordinates":[[[-73.86407209999999,42.82499999999999],[-73.86236409999998,42.82499999999999],[-73.86132509999999,42.82499999999999],[-73.85350299999999,42.82499999999999],[-73.80000000000001,42.82499999999999],[-73.80000000000001,42.79126450000001],[-73.80000000000001,42.79105800000002],[-73.80000000000001,42.79098269999997],[-73.80000000000001,42.7900429],[-73.80000000000001,42.78959709999998],[-73.80000000000001,42.7888519],[-73.80000000000001,42.787349800000015],[-73.80000000000001,42.78143510000001],[-73.80000000000001,42.7806147],[-73.80000000000001,42.78048180000002],[-73.80000000000001,42.780272500000024],[-73.80000000000001,42.778508699999975],[-73.80000000000001,42.778139899999985],[-73.80000000000001,42.777388599999995],[-73.80000000000001,42.773371399999974],[-73.80000000000001,42.75],[-73.875,42.75],[-73.875,42.82499999999999],[-73.86450150000002,42.82499999999999],[-73.86407209999999,42.82499999999999]]]}},{"type":"Feature","properties":{},"geometry":{"type":"Polygon","coordinates":[[[-74.09110290000001,42.89999999999998],[-74.08898399999998,42.89999999999998],[-74.08816689999998,42.89999999999998],[-74.02499999999998,42.89999999999998],[-74.02499999999998,42.86379470000003],[-74.02499999999998,42.86357859999998],[-74.02499999999998,42.8629444],[-74.02499999999998,42.8628056],[-74.02499999999998,42.86243080000003],[-74.02499999999998,42.82499999999999],[-74.10000000000002,42.82499999999999],[-74.10000000000002,42.89999999999998],[-74.09180079999999,42.89999999999998],[-74.09110290000001,42.89999999999998]]]}},{"type":"Feature","properties":{},"geometry":{"type":"Polygon","coordinates":[[[-73.9884576,42.82499999999999],[-74.02499999999998,42.82499999999999],[-74.02499999999998,42.86243080000003],[-74.02499999999998,42.8628056],[-74.02499999999998,42.8629444],[-74.02499999999998,42.86357859999998],[-74.02499999999998,42.86379470000003],[-74.02499999999998,42.89999999999998],[-73.94999999999999,42.89999999999998],[-73.94999999999999,42.82820609999999],[-73.94999999999999,42.825334999999995],[-73.94999999999999,42.82499999999999],[-73.95141050000001,42.82499999999999],[-73.95236879999999,42.82499999999999],[-73.95292869999997,42.82499999999999],[-73.95324319999997,42.82499999999999],[-73.96008139999998,42.82499999999999],[-73.9793158,42.82499999999999],[-73.98047209999999,42.82499999999999],[-73.9820962,42.82499999999999],[-73.98696849999999,42.82499999999999],[-73.98717770000002,42.82499999999999],[-73.9882738,42.82499999999999],[-73.9884576,42.82499999999999]]]}},{"type":"Feature","properties":{},"geometry":{"type":"Polygon","coordinates":[[[-73.94999999999999,42.825334999999995],[-73.94999999999999,42.82820609999999],[-73.94999999999999,42.89999999999998],[-73.875,42.89999999999998],[-73.875,42.83589180000001],[-73.875,42.83538650000003],[-73.875,42.83464550000002],[-73.875,42.83201550000001],[-73.875,42.831614100000024],[-73.875,42.82499999999999],[-73.8794145,42.82499999999999],[-73.93248990000001,42.82499999999999],[-73.93299250000001,42.82499999999999],[-73.9367638,42.82499999999999],[-73.9369312,42.82499999999999],[-73.93714790000001,42.82499999999999],[-73.9382387,42.82499999999999],[-73.93897750000002,42.82499999999999],[-73.93985930000002,42.82499999999999],[-73.94999999999999,42.82499999999999],[-73.94999999999999,42.825334999999995]]]}},{"type":"Feature","properties":{},"geometry":{"type":"Polygon","coordinates":[[[-73.875,42.831614100000024],[-73.875,42.83201550000001],[-73.875,42.83464550000002],[-73.875,42.83538650000003],[-73.875,42.83589180000001],[-73.875,42.89999999999998],[-73.80000000000001,42.89999999999998],[-73.80000000000001,42.82499999999999],[-73.85350299999999,42.82499999999999],[-73.86132509999999,42.82499999999999],[-73.86236409999998,42.82499999999999],[-73.86407209999999,42.82499999999999],[-73.86450150000002,42.82499999999999],[-73.875,42.82499999999999],[-73.875,42.831614100000024]]]}},{"type":"Feature","properties":{},"geometry":{"type":"Polygon","coordinates":[[[-73.66487169999999,42.82499999999999],[-73.72500000000002,42.82499999999999],[-73.72500000000002,42.89999999999998],[-73.69317519999998,42.89999999999998],[-73.68555659999998,42.89999999999998],[-73.68530809999999,42.89999999999998],[-73.68374669999997,42.89999999999998],[-73.68348709999998,42.89999999999998],[-73.6827561,42.89999999999998],[-73.68255870000002,42.89999999999998],[-73.68223699999999,42.89999999999998],[-73.6780918,42.89999999999998],[-73.64999999999998,42.89999999999998],[-73.64999999999998,42.82499999999999],[-73.66109419999998,42.82499999999999],[-73.66131810000002,42.82499999999999],[-73.66437100000002,42.82499999999999],[-73.66440069999999,42.82499999999999],[-73.66487169999999,42.82499999999999]]]}},{"type":"Feature","properties":{},"geometry":{"type":"Polygon","coordinates":[[[-74.25,42.95235020000001],[-74.25,42.95262029999998],[-74.25,42.953419800000006],[-74.25,42.953542200000015],[-74.25,42.955642599999976],[-74.25,42.95670580000001],[-74.25,42.97500000000002],[-74.17500000000001,42.97500000000002],[-74.17500000000001,42.95563709999999],[-74.17500000000001,42.934344099999976],[-74.17500000000001,42.93356799999998],[-74.17500000000001,42.93331810000001],[-74.17500000000001,42.932387300000016],[-74.17500000000001,42.932004199999994],[-74.17500000000001,42.92533550000002],[-74.17500000000001,42.92515040000001],[-74.17500000000001,42.92416079999998],[-74.17500000000001,42.92389600000001],[-74.17500000000001,42.92375850000002],[-74.17500000000001,42.92255920000002],[-74.17500000000001,42.89999999999998],[-74.25,42.89999999999998],[-74.25,42.95235020000001]]]}},{"type":"Feature","properties":{},"geometry":{"type":"Polygon","coordinates":[[[-74.17500000000001,42.92255920000002],[-74.17500000000001,42.92375850000002],[-74.17500000000001,42.92389600000001],[-74.17500000000001,42.92416079999998],[-74.17500000000001,42.92515040000001],[-74.17500000000001,42.92533550000002],[-74.17500000000001,42.932004199999994],[-74.17500000000001,42.932387300000016],[-74.17500000000001,42.93331810000001],[-74.17500000000001,42.93356799999998],[-74.17500000000001,42.934344099999976],[-74.17500000000001,42.95563709999999],[-74.17500000000001,42.97500000000002],[-74.10000000000002,42.97500000000002],[-74.10000000000002,42.906942000000015],[-74.10000000000002,42.90608830000002],[-74.10000000000002,42.90608520000001],[-74.10000000000002,42.90560290000002],[-74.10000000000002,42.90539230000002],[-74.10000000000002,42.90456899999998],[-74.10000000000002,42.90428179999998],[-74.10000000000002,42.90418260000001],[-74.10000000000002,42.89999999999998],[-74.17500000000001,42.89999999999998],[-74.17500000000001,42.92255920000002]]]}},{"type":"Feature","properties":{},"geometry":{"type":"Polygon","coordinates":[[[-74.10000000000002,42.90418260000001],[-74.10000000000002,42.90428179999998],[-74.10000000000002,42.90456899999998],[-74.10000000000002,42.90539230000002],[-74.10000000000002,42.90560290000002],[-74.10000000000002,42.90608830000002],[-74.10000000000002,42.906942000000015],[-74.10000000000002,42.97500000000002],[-74.02499999999998,42.97500000000002],[-74.02499999999998,42.89999999999998],[-74.08816689999998,42.89999999999998],[-74.08898399999998,42.89999999999998],[-74.09110290000001,42.89999999999998],[-74.09180079999999,42.89999999999998],[-74.10000000000002,42.89999999999998],[-74.10000000000002,42.90418260000001]]]}},{"type":"Feature","properties":{},"geometry":{"type":"Polygon","coordinates":[[[-73.64999999999998,42.938874],[-73.64999999999998,42.93750469999998],[-73.64999999999998,42.93749509999998],[-73.64999999999998,42.936839599999985],[-73.64999999999998,42.936709199999996],[-73.64999999999998,42.936299099999985],[-73.64999999999998,42.9335504],[-73.64999999999998,42.93254539999998],[-73.64999999999998,42.89999999999998],[-73.6780918,42.89999999999998],[-73.68223699999999,42.89999999999998],[-73.68255870000002,42.89999999999998],[-73.6827561,42.89999999999998],[-73.68348709999998,42.89999999999998],[-73.68374669999997,42.89999999999998],[-73.68530809999999,42.89999999999998],[-73.68555659999998,42.89999999999998],[-73.69317519999998,42.89999999999998],[-73.72500000000002,42.89999999999998],[-73.72500000000002,42.97500000000002],[-73.64999999999998,42.97500000000002],[-73.64999999999998,42.93960820000001],[-73.64999999999998,42.939032499999996],[-73.64999999999998,42.938874]]]}},{"type":"Feature","properties":{},"geometry":{"type":"Polygon","coordinates":[[[-73.64999999999998,42.89999999999998],[-73.64999999999998,42.93254539999998],[-73.64999999999998,42.9335504],[-73.64999999999998,42.936299099999985],[-73.64999999999998,42.936709199999996],[-73.64999999999998,42.936839599999985],[-73.64999999999998,42.93749509999998],[-73.64999999999998,42.93750469999998],[-73.64999999999998,42.938874],[-73.64999999999998,42.939032499999996],[-73.64999999999998,42.93960820000001],[-73.64999999999998,42.97500000000002],[-73.63010919999999,42.97500000000002],[-73.6259968,42.97500000000002],[-73.62562400000002,42.97500000000002],[-73.62478599999997,42.97500000000002],[-73.62419770000002,42.97500000000002],[-73.62283009999999,42.97500000000002],[-73.6210514,42.97500000000002],[-73.62031589999998,42.97500000000002],[-73.57499999999999,42.97500000000002],[-73.57499999999999,42.89999999999998],[-73.64999999999998,42.89999999999998]]]}},{"type":"Feature","properties":{},"geometry":{"type":"Polygon","coordinates":[[[-73.58672419999999,43.05000000000001],[-73.58535260000002,43.05000000000001],[-73.58503819999999,43.05000000000001],[-73.58420999999998,43.05000000000001],[-73.58319899999998,43.05000000000001],[-73.58279520000002,43.05000000000001],[-73.57499999999999,43.05000000000001],[-73.57499999999999,42.97500000000002],[-73.62031589999998,42.97500000000002],[-73.6210514,42.97500000000002],[-73.62283009999999,42.97500000000002],[-73.62419770000002,42.97500000000002],[-73.62478599999997,42.97500000000002],[-73.62562400000002,42.97500000000002],[-73.6259968,42.97500000000002],[-73.63010919999999,42.97500000000002],[-73.64999999999998,42.97500000000002],[-73.64999999999998,43.05000000000001],[-73.58712659999998,43.05000000000001],[-73.58672419999999,43.05000000000001]]]}},{"type":"Feature","properties":{},"geometry":{"type":"Polygon","coordinates":[[[-73.58712659999998,43.05000000000001],[-73.64999999999998,43.05000000000001],[-73.64999999999998,43.125],[-73.58755550000001,43.125],[-73.58733469999999,43.125],[-73.58685960000003,43.125],[-73.5857747,43.125],[-73.5857737,43.125],[-73.58534800000001,43.125],[-73.58458990000003,43.125],[-73.57499999999999,43.125],[-73.57499999999999,43.11714430000001],[-73.57499999999999,43.11690340000001],[-73.57499999999999,43.11645229999999],[-73.57499999999999,43.11549150000002],[-73.57499999999999,43.114349300000015],[-73.57499999999999,43.11354269999998],[-73.57499999999999,43.112560599999995],[-73.57499999999999,43.1098197],[-73.57499999999999,43.10893629999998],[-73.57499999999999,43.108205999999996],[-73.57499999999999,43.10527830000001],[-73.57499999999999,43.1046192],[-73.57499999999999,43.09852769999998],[-73.57499999999999,43.0980189],[-73.57499999999999,43.09720290000001],[-73.57499999999999,43.09676830000001],[-73.57499999999999,43.09606150000002],[-73.57499999999999,43.095821],[-73.57499999999999,43.09550309999997],[-73.57499999999999,43.0943355],[-73.57499999999999,43.086276699999985],[-73.57499999999999,43.08562239999998],[-73.57499999999999,43.08443599999998],[-73.57499999999999,43.08382799999998],[-73.57499999999999,43.082503799999984],[-73.57499999999999,43.08184829999999],[-73.57499999999999,43.080662399999994],[-73.57499999999999,43.08049729999999],[-73.57499999999999,43.06406500000003],[-73.57499999999999,43.063338999999985],[-73.57499999999999,43.0596913],[-73.57499999999999,43.0570199],[-73.57499999999999,43.05000000000001],[-73.58279520000002,43.05000000000001],[-73.58319920000002,43.05000000000001],[-73.58420999999998,43.05000000000001],[-73.58503819999999,43.05000000000001],[-73.58535260000002,43.05000000000001],[-73.58672419999999,43.05000000000001],[-73.58712659999998,43.05000000000001]]]}},{"type":"Feature","properties":{},"geometry":{"type":"Polygon","coordinates":[[[-73.57499999999999,43.05000000000001],[-73.57499999999999,43.063338999999985],[-73.57499999999999,43.06406500000003],[-73.57499999999999,43.08049729999999],[-73.57499999999999,43.080662399999994],[-73.57499999999999,43.08184829999999],[-73.57499999999999,43.082503799999984],[-73.57499999999999,43.08382799999998],[-73.57499999999999,43.08443599999998],[-73.57499999999999,43.08562239999998],[-73.57499999999999,43.086276699999985],[-73.57499999999999,43.0943355],[-73.57499999999999,43.09550309999997],[-73.57499999999999,43.095821],[-73.57499999999999,43.09606150000002],[-73.57499999999999,43.09676830000001],[-73.57499999999999,43.09720290000001],[-73.57499999999999,43.09852769999998],[-73.57499999999999,43.10462389999998],[-73.57499999999999,43.105271200000004],[-73.57499999999999,43.10821149999998],[-73.57499999999999,43.10893440000001],[-73.57499999999999,43.1098197],[-73.57499999999999,43.112560599999995],[-73.57499999999999,43.11354269999998],[-73.57499999999999,43.114349300000015],[-73.57499999999999,43.11549150000002],[-73.57499999999999,43.11645229999999],[-73.57499999999999,43.11690340000001],[-73.57499999999999,43.11714430000001],[-73.57499999999999,43.125],[-73.5,43.125],[-73.5,43.05000000000001],[-73.57499999999999,43.05000000000001]]]}},{"type":"Feature","properties":{},"geometry":{"type":"Polygon","coordinates":[[[-73.5842141,43.19999999999999],[-73.58396679999998,43.19999999999999],[-73.58249119999999,43.19999999999999],[-73.58218670000002,43.19999999999999],[-73.58065370000003,43.19999999999999],[-73.5800678,43.19999999999999],[-73.57971379999998,43.19999999999999],[-73.57499999999999,43.19999999999999],[-73.57499999999999,43.151263700000015],[-73.57499999999999,43.15115500000002],[-73.57499999999999,43.125],[-73.58458990000003,43.125],[-73.58534800000001,43.125],[-73.58564899999999,43.125],[-73.5857747,43.125],[-73.5859302,43.125],[-73.58685960000003,43.125],[-73.58733469999999,43.125],[-73.58755550000001,43.125],[-73.64999999999998,43.125],[-73.64999999999998,43.19999999999999],[-73.58450069999998,43.19999999999999],[-73.5842141,43.19999999999999]]]}},{"type":"Feature","properties":{},"geometry":{"type":"Polygon","coordinates":[[[-73.58450069999998,43.19999999999999],[-73.64999999999998,43.19999999999999],[-73.64999999999998,43.27499999999998],[-73.60088159999998,43.27499999999998],[-73.5990802,43.27499999999998],[-73.57499999999999,43.27499999999998],[-73.57499999999999,43.26623519999998],[-73.57499999999999,43.26558749999998],[-73.57499999999999,43.26467960000002],[-73.57499999999999,43.2063412],[-73.57499999999999,43.20584229999997],[-73.57499999999999,43.19999999999999],[-73.57971379999998,43.19999999999999],[-73.5800678,43.19999999999999],[-73.58065370000003,43.19999999999999],[-73.58218670000002,43.19999999999999],[-73.58249119999999,43.19999999999999],[-73.58396679999998,43.19999999999999],[-73.5842141,43.19999999999999],[-73.58450069999998,43.19999999999999]]]}},{"type":"Feature","properties":{},"geometry":{"type":"Polygon","coordinates":[[[-73.57499999999999,43.19999999999999],[-73.57499999999999,43.20584229999997],[-73.57499999999999,43.2063412],[-73.57499999999999,43.26467960000002],[-73.57499999999999,43.26558749999998],[-73.57499999999999,43.26623519999998],[-73.57499999999999,43.27499999999998],[-73.5675857,43.27499999999998],[-73.56744309999999,43.27499999999998],[-73.566596,43.27499999999998],[-73.56603000000001,43.27499999999998],[-73.5,43.27499999999998],[-73.5,43.19999999999999],[-73.57499999999999,43.19999999999999]]]}},{"type":"Feature","properties":{},"geometry":{"type":"Polygon","coordinates":[[[-73.5,43.338759900000014],[-73.5,43.33865639999999],[-73.5,43.27499999999998],[-73.56603000000001,43.27499999999998],[-73.566596,43.27499999999998],[-73.56744309999999,43.27499999999998],[-73.5675857,43.27499999999998],[-73.57499999999999,43.27499999999998],[-73.57499999999999,43.35000000000002],[-73.5,43.35000000000002],[-73.5,43.34297559999999],[-73.5,43.34194639999998],[-73.5,43.338759900000014]]]}},{"type":"Feature","properties":{},"geometry":{"type":"Polygon","coordinates":[[[-73.5,43.27499999999998],[-73.5,43.33865639999999],[-73.5,43.338759900000014],[-73.5,43.34194639999998],[-73.5,43.34297559999999],[-73.5,43.35000000000002],[-73.49646330000002,43.35000000000002],[-73.4957422,43.35000000000002],[-73.49548709999999,43.35000000000002],[-73.49519729999997,43.35000000000002],[-73.42500000000001,43.35000000000002],[-73.42500000000001,43.27499999999998],[-73.5,43.27499999999998]]]}},{"type":"Feature","properties":{},"geometry":{"type":"Polygon","coordinates":[[[-73.49353819999999,43.42500000000001],[-73.49335639999998,43.42500000000001],[-73.47900759999999,43.42500000000001],[-73.4765473,43.42500000000001],[-73.44964970000001,43.42500000000001],[-73.42500000000001,43.42500000000001],[-73.42500000000001,43.40524310000001],[-73.42500000000001,43.35000000000002],[-73.49519729999997,43.35000000000002],[-73.49548709999999,43.35000000000002],[-73.4957422,43.35000000000002],[-73.49646330000002,43.35000000000002],[-73.5,43.35000000000002],[-73.5,43.42500000000001],[-73.49377320000002,43.42500000000001],[-73.49353819999999,43.42500000000001]]]}},{"type":"Feature","properties":{},"geometry":{"type":"Polygon","coordinates":[[[-73.42500000000001,43.42500000000001],[-73.44964970000001,43.42500000000001],[-73.4765473,43.42500000000001],[-73.47900759999999,43.42500000000001],[-73.49335639999998,43.42500000000001],[-73.49353819999999,43.42500000000001],[-73.49377320000002,43.42500000000001],[-73.5,43.42500000000001],[-73.5,43.455000000000005],[-73.42500000000001,43.455000000000005],[-73.42500000000001,43.42500000000001]]]}},{"type":"Feature","properties":{},"geometry":{"type":"Polygon","coordinates":[[[-73.35000000000002,43.42500000000001],[-73.42500000000001,43.42500000000001],[-73.42500000000001,43.455000000000005],[-73.35000000000002,43.455000000000005],[-73.35000000000002,43.42500000000001]]]}},{"type":"Feature","properties":{},"geometry":{"type":"Polygon","coordinates":[[[-73.7995244,42.375],[-73.80000000000001,42.375],[-73.80000000000001,42.3918175],[-73.80000000000001,42.392231700000025],[-73.80000000000001,42.44999999999999],[-73.78753499999999,42.44999999999999],[-73.78753460000001,42.44999999999999],[-73.78737380000001,42.44999999999999],[-73.7868876,42.44999999999999],[-73.78683039999999,42.44999999999999],[-73.78625210000001,42.44999999999999],[-73.78617589999999,42.44999999999999],[-73.78610170000002,42.44999999999999],[-73.78603820000001,42.44999999999999],[-73.78585270000002,42.44999999999999],[-73.78576370000002,42.44999999999999],[-73.7857052,42.44999999999999],[-73.7851923,42.44999999999999],[-73.78515650000003,42.44999999999999],[-73.78511209999999,42.44999999999999],[-73.78509179999998,42.44999999999999],[-73.78488879999998,42.44999999999999],[-73.78447060000002,42.44999999999999],[-73.78405379999998,42.44999999999999],[-73.78363630000001,42.44999999999999],[-73.7836342,42.44999999999999],[-73.78321890000001,42.44999999999999],[-73.78321599999998,42.44999999999999],[-73.78310850000003,42.44999999999999],[-73.78306149999997,42.44999999999999],[-73.7829183,42.44999999999999],[-73.78276970000002,42.44999999999999],[-73.7827279,42.44999999999999],[-73.78261889999999,42.44999999999999],[-73.78261459999999,42.44999999999999],[-73.78258440000002,42.44999999999999],[-73.7825014,42.44999999999999],[-73.78189429999998,42.44999999999999],[-73.78178580000002,42.44999999999999],[-73.77986879999997,42.44999999999999],[-73.77983699999999,42.44999999999999],[-73.77593089999999,42.44999999999999],[-73.77583929999997,42.44999999999999],[-73.77457340000001,42.44999999999999],[-73.77436719999997,42.44999999999999],[-73.77401049999997,42.44999999999999],[-73.77357089999998,42.44999999999999],[-73.773482,42.44999999999999],[-73.77314899999999,42.44999999999999],[-73.77311329999998,42.44999999999999],[-73.772445,42.44999999999999],[-73.77220399999999,42.44999999999999],[-73.77213690000002,42.44999999999999],[-73.7719285,42.44999999999999],[-73.77144449999997,42.44999999999999],[-73.72500000000002,42.44999999999999],[-73.72500000000002,42.375],[-73.78432609999999,42.375],[-73.78455659999997,42.375],[-73.78530710000001,42.375],[-73.78549930000003,42.375],[-73.7858319,42.375],[-73.7860081,42.375],[-73.7902186,42.375],[-73.791109,42.375],[-73.79151000000002,42.375],[-73.79193400000003,42.375],[-73.79196780000001,42.375],[-73.79201160000002,42.375],[-73.79206210000001,42.375],[-73.79208019999999,42.375],[-73.79209780000002,42.375],[-73.79210060000003,42.375],[-73.79212910000001,42.375],[-73.79217799999998,42.375],[-73.79220670000001,42.375],[-73.79221059999998,42.375],[-73.79225630000002,42.375],[-73.7922762,42.375],[-73.792528,42.375],[-73.79295280000002,42.375],[-73.7933774,42.375],[-73.79380200000003,42.375],[-73.79422670000002,42.375],[-73.79483950000002,42.375],[-73.79486930000002,42.375],[-73.79489430000001,42.375],[-73.79494349999999,42.375],[-73.7949448,42.375],[-73.79497040000001,42.375],[-73.79504350000002,42.375],[-73.79504379999997,42.375],[-73.7951084,42.375],[-73.79513509999998,42.375],[-73.79516360000002,42.375],[-73.7952229,42.375],[-73.79526149999998,42.375],[-73.79563689999998,42.375],[-73.79697340000001,42.375],[-73.7974676,42.375],[-73.7975523,42.375],[-73.79815309999998,42.375],[-73.79869300000001,42.375],[-73.79884679999998,42.375],[-73.79947010000001,42.375],[-73.7995244,42.375]]]}},{"type":"Feature","properties":{},"geometry":{"type":"Polygon","coordinates":[[[-73.78753499999999,42.44999999999999],[-73.80000000000001,42.44999999999999],[-73.80000000000001,42.4627395],[-73.80000000000001,42.46300280000003],[-73.80000000000001,42.471958700000016],[-73.80000000000001,42.474200999999994],[-73.80000000000001,42.48699549999998],[-73.80000000000001,42.486996799999986],[-73.80000000000001,42.48710699999998],[-73.80000000000001,42.52499999999998],[-73.768892,42.52499999999998],[-73.76711010000002,42.52499999999998],[-73.7646001,42.52499999999998],[-73.76448210000001,42.52499999999998],[-73.7638126,42.52499999999998],[-73.76363190000001,42.52499999999998],[-73.7635818,42.52499999999998],[-73.76341079999997,42.52499999999998],[-73.7630441,42.52499999999998],[-73.7629958,42.52499999999998],[-73.76285280000002,42.52499999999998],[-73.76282509999999,42.52499999999998],[-73.7626507,42.52499999999998],[-73.76261849999997,42.52499999999998],[-73.76256130000002,42.52499999999998],[-73.7624745,42.52499999999998],[-73.76247430000001,42.52499999999998],[-73.76226530000002,42.52499999999998],[-73.7618799,42.52499999999998],[-73.76149459999999,42.52499999999998],[-73.76137110000002,42.52499999999998],[-73.7611741,42.52499999999998],[-73.76110920000002,42.52499999999998],[-73.76101219999998,42.52499999999998],[-73.761012,42.52499999999998],[-73.76091760000003,42.52499999999998],[-73.76091530000002,42.52499999999998],[-73.76084609999998,42.52499999999998],[-73.7605982,42.52499999999998],[-73.76059759999998,42.52499999999998],[-73.76055919999999,42.52499999999998],[-73.76043049999998,42.52499999999998],[-73.75996420000001,42.52499999999998],[-73.7599606,42.52499999999998],[-73.7574702,42.52499999999998],[-73.7574113,42.52499999999998],[-73.75605710000002,42.52499999999998],[-73.7558651,42.52499999999998],[-73.75024159999998,42.52499999999998],[-73.72500000000002,42.52499999999998],[-73.72500000000002,42.44999999999999],[-73.77144449999997,42.44999999999999],[-73.7719285,42.44999999999999],[-73.77213690000002,42.44999999999999],[-73.77220399999999,42.44999999999999],[-73.772445,42.44999999999999],[-73.77311329999998,42.44999999999999],[-73.77314899999999,42.44999999999999],[-73.773482,42.44999999999999],[-73.77357089999998,42.44999999999999],[-73.77401049999997,42.44999999999999],[-73.77436719999997,42.44999999999999],[-73.77457340000001,42.44999999999999],[-73.77583929999997,42.44999999999999],[-73.77593089999999,42.44999999999999],[-73.77983699999999,42.44999999999999],[-73.77986879999997,42.44999999999999],[-73.78178580000002,42.44999999999999],[-73.78189429999998,42.44999999999999],[-73.7825014,42.44999999999999],[-73.78258440000002,42.44999999999999],[-73.78261459999999,42.44999999999999],[-73.78261889999999,42.44999999999999],[-73.7827279,42.44999999999999],[-73.78276970000002,42.44999999999999],[-73.7829183,42.44999999999999],[-73.78306149999997,42.44999999999999],[-73.78310850000003,42.44999999999999],[-73.78321599999998,42.44999999999999],[-73.78321890000001,42.44999999999999],[-73.7836342,42.44999999999999],[-73.78363630000001,42.44999999999999],[-73.78405379999998,42.44999999999999],[-73.78447060000002,42.44999999999999],[-73.78488879999998,42.44999999999999],[-73.78509179999998,42.44999999999999],[-73.78511209999999,42.44999999999999],[-73.78515650000003,42.44999999999999],[-73.7851923,42.44999999999999],[-73.7857052,42.44999999999999],[-73.78576370000002,42.44999999999999],[-73.78585270000002,42.44999999999999],[-73.78603820000001,42.44999999999999],[-73.78610170000002,42.44999999999999],[-73.78617589999999,42.44999999999999],[-73.78625210000001,42.44999999999999],[-73.78683039999999,42.44999999999999],[-73.7868876,42.44999999999999],[-73.78737380000001,42.44999999999999],[-73.78753460000001,42.44999999999999],[-73.78753499999999,42.44999999999999]]]}},{"type":"Feature","properties":{},"geometry":{"type":"Polygon","coordinates":[[[-73.76291320000001,42.60000000000002],[-73.7628363,42.60000000000002],[-73.76276250000001,42.60000000000002],[-73.762742,42.60000000000002],[-73.76265949999998,42.60000000000002],[-73.76265819999998,42.60000000000002],[-73.76265039999998,42.60000000000002],[-73.7626161,42.60000000000002],[-73.76260960000002,42.60000000000002],[-73.76257329999999,42.60000000000002],[-73.7625281,42.60000000000002],[-73.7623863,42.60000000000002],[-73.76234219999998,42.60000000000002],[-73.76232490000001,42.60000000000002],[-73.7622955,42.60000000000002],[-73.76223979999997,42.60000000000002],[-73.76186080000002,42.60000000000002],[-73.76148169999999,42.60000000000002],[-73.76119,42.60000000000002],[-73.76110269999998,42.60000000000002],[-73.76080000000002,42.60000000000002],[-73.76072370000003,42.60000000000002],[-73.7605031,42.60000000000002],[-73.7604988,42.60000000000002],[-73.76040890000002,42.60000000000002],[-73.7603997,42.60000000000002],[-73.76036119999998,42.60000000000002],[-73.76035660000002,42.60000000000002],[-73.76031139999998,42.60000000000002],[-73.76027720000002,42.60000000000002],[-73.76025090000002,42.60000000000002],[-73.76022449999999,42.60000000000002],[-73.75996020000002,42.60000000000002],[-73.75991579999999,42.60000000000002],[-73.75959019999999,42.60000000000002],[-73.75942120000002,42.60000000000002],[-73.75246659999999,42.60000000000002],[-73.75051739999998,42.60000000000002],[-73.72500000000002,42.60000000000002],[-73.72500000000002,42.52499999999998],[-73.75024159999998,42.52499999999998],[-73.7558651,42.52499999999998],[-73.75605710000002,42.52499999999998],[-73.7574113,42.52499999999998],[-73.7574702,42.52499999999998],[-73.7599606,42.52499999999998],[-73.75996420000001,42.52499999999998],[-73.76043049999998,42.52499999999998],[-73.76055919999999,42.52499999999998],[-73.76059759999998,42.52499999999998],[-73.7605982,42.52499999999998],[-73.76084609999998,42.52499999999998],[-73.76091530000002,42.52499999999998],[-73.76091760000003,42.52499999999998],[-73.761012,42.52499999999998],[-73.76101219999998,42.52499999999998],[-73.76110920000002,42.52499999999998],[-73.7611741,42.52499999999998],[-73.76137110000002,42.52499999999998],[-73.76149459999999,42.52499999999998],[-73.7618799,42.52499999999998],[-73.76226530000002,42.52499999999998],[-73.76247430000001,42.52499999999998],[-73.7624745,42.52499999999998],[-73.76256130000002,42.52499999999998],[-73.76261849999997,42.52499999999998],[-73.7626507,42.52499999999998],[-73.76265080000002,42.52499999999998],[-73.76282509999999,42.52499999999998],[-73.76285280000002,42.52499999999998],[-73.7629958,42.52499999999998],[-73.7630441,42.52499999999998],[-73.76341079999997,42.52499999999998],[-73.7635818,42.52499999999998],[-73.76363190000001,42.52499999999998],[-73.7638126,42.52499999999998],[-73.76448210000001,42.52499999999998],[-73.7646001,42.52499999999998],[-73.76711010000002,42.52499999999998],[-73.768892,42.52499999999998],[-73.80000000000001,42.52499999999998],[-73.80000000000001,42.60000000000002],[-73.76296380000002,42.60000000000002],[-73.76291859999998,42.60000000000002],[-73.76291320000001,42.60000000000002]]]}},{"type":"Feature","properties":{},"geometry":{"type":"Polygon","coordinates":[[[-73.72500000000002,42.671732399999996],[-73.72500000000002,42.67169710000002],[-73.72500000000002,42.6716935],[-73.72500000000002,42.67168559999999],[-73.72500000000002,42.671680400000014],[-73.72500000000002,42.67164969999999],[-73.72500000000002,42.67163390000002],[-73.72500000000002,42.671630100000016],[-73.72500000000002,42.671606999999995],[-73.72500000000002,42.67157270000001],[-73.72500000000002,42.67155589999999],[-73.72500000000002,42.671495900000025],[-73.72500000000002,42.671449199999984],[-73.72500000000002,42.671272199999976],[-73.72500000000002,42.67100190000002],[-73.72500000000002,42.67041790000002],[-73.72500000000002,42.67016719999998],[-73.72500000000002,42.66983379999999],[-73.72500000000002,42.66924979999999],[-73.72500000000002,42.668886199999974],[-73.72500000000002,42.66870490000002],[-73.72500000000002,42.66866590000001],[-73.72500000000002,42.66858350000001],[-73.72500000000002,42.66840789999998],[-73.72500000000002,42.66833939999998],[-73.72500000000002,42.66818319999999],[-73.72500000000002,42.6681595],[-73.72500000000002,42.668120199999976],[-73.72500000000002,42.661132699999996],[-73.72500000000002,42.656462499999975],[-73.72500000000002,42.63456839999998],[-73.72500000000002,42.60000000000002],[-73.75051739999998,42.60000000000002],[-73.75941970000002,42.60000000000002],[-73.75959019999999,42.60000000000002],[-73.75991579999999,42.60000000000002],[-73.75996020000002,42.60000000000002],[-73.76025090000002,42.60000000000002],[-73.76027720000002,42.60000000000002],[-73.76035660000002,42.60000000000002],[-73.76036119999998,42.60000000000002],[-73.76040890000002,42.60000000000002],[-73.7604988,42.60000000000002],[-73.76072370000003,42.60000000000002],[-73.76080000000002,42.60000000000002],[-73.76082150000002,42.60000000000002],[-73.7609349,42.60000000000002],[-73.76110269999998,42.60000000000002],[-73.7611076,42.60000000000002],[-73.76119,42.60000000000002],[-73.76148169999999,42.60000000000002],[-73.76186080000002,42.60000000000002],[-73.76223979999997,42.60000000000002],[-73.7622955,42.60000000000002],[-73.76232490000001,42.60000000000002],[-73.76234219999998,42.60000000000002],[-73.7623863,42.60000000000002],[-73.7625281,42.60000000000002],[-73.76257329999999,42.60000000000002],[-73.76260960000002,42.60000000000002],[-73.7626161,42.60000000000002],[-73.76265039999998,42.60000000000002],[-73.76265819999998,42.60000000000002],[-73.76265949999998,42.60000000000002],[-73.762742,42.60000000000002],[-73.7628363,42.60000000000002],[-73.76291320000001,42.60000000000002],[-73.76296380000002,42.60000000000002],[-73.80000000000001,42.60000000000002],[-73.80000000000001,42.655017999999984],[-73.80000000000001,42.67500000000001],[-73.72500000000002,42.67500000000001],[-73.72500000000002,42.67206279999999],[-73.72500000000002,42.672021900000004],[-73.72500000000002,42.67201540000002],[-73.72500000000002,42.671972400000016],[-73.72500000000002,42.671732399999996]]]}},{"type":"Feature","properties":{},"geometry":{"type":"Polygon","coordinates":[[[-73.72500000000002,42.60000000000002],[-73.72500000000002,42.63456839999998],[-73.72500000000002,42.656462499999975],[-73.72500000000002,42.661132699999996],[-73.72500000000002,42.668120199999976],[-73.72500000000002,42.6681595],[-73.72500000000002,42.66818319999999],[-73.72500000000002,42.66833939999998],[-73.72500000000002,42.66840789999998],[-73.72500000000002,42.66858350000001],[-73.72500000000002,42.66866590000001],[-73.72500000000002,42.66870490000002],[-73.72500000000002,42.668886199999974],[-73.72500000000002,42.66924979999999],[-73.72500000000002,42.66983379999999],[-73.72500000000002,42.67016719999998],[-73.72500000000002,42.67041790000002],[-73.72500000000002,42.67100190000002],[-73.72500000000002,42.671272199999976],[-73.72500000000002,42.671449199999984],[-73.72500000000002,42.671495900000025],[-73.72500000000002,42.67155589999999],[-73.72500000000002,42.67157270000001],[-73.72500000000002,42.671606999999995],[-73.72500000000002,42.671630100000016],[-73.72500000000002,42.671680400000014],[-73.72500000000002,42.67168559999999],[-73.72500000000002,42.6716935],[-73.72500000000002,42.67169710000002],[-73.72500000000002,42.671972400000016],[-73.72500000000002,42.67201540000002],[-73.72500000000002,42.672021900000004],[-73.72500000000002,42.67206279999999],[-73.72500000000002,42.67500000000001],[-73.72433969999997,42.67500000000001],[-73.7240337,42.67500000000001],[-73.72393369999998,42.67500000000001],[-73.72392109999998,42.67500000000001],[-73.72386230000001,42.67500000000001],[-73.72361319999999,42.67500000000001],[-73.72361009999997,42.67500000000001],[-73.72262210000002,42.67500000000001],[-73.7222266,42.67500000000001],[-73.72221309999998,42.67500000000001],[-73.7218254,42.67500000000001],[-73.7218077,42.67500000000001],[-73.7214242,42.67500000000001],[-73.72111710000001,42.67500000000001],[-73.721023,42.67500000000001],[-73.72089729999999,42.67500000000001],[-73.72079500000001,42.67500000000001],[-73.72072500000002,42.67500000000001],[-73.72069110000001,42.67500000000001],[-73.72065079999999,42.67500000000001],[-73.72063960000003,42.67500000000001],[-73.72060950000002,42.67500000000001],[-73.72057239999998,42.67500000000001],[-73.72055799999998,42.67500000000001],[-73.72049329999999,42.67500000000001],[-73.71837420000003,42.67500000000001],[-73.71820079999998,42.67500000000001],[-73.71700099999998,42.67500000000001],[-73.70678459999999,42.67500000000001],[-73.70675240000003,42.67500000000001],[-73.70671959999999,42.67500000000001],[-73.70047210000001,42.67500000000001],[-73.70000440000001,42.67500000000001],[-73.69906270000001,42.67500000000001],[-73.64999999999998,42.67500000000001],[-73.64999999999998,42.60000000000002],[-73.72500000000002,42.60000000000002]]]}},{"type":"Feature","properties":{},"geometry":{"type":"Polygon","coordinates":[[[-73.68980399999998,42.75],[-73.68971420000003,42.75],[-73.68889100000001,42.75],[-73.68885130000001,42.75],[-73.6881841,42.75],[-73.68759949999998,42.75],[-73.6857498,42.75],[-73.6857478,42.75],[-73.68572360000002,42.75],[-73.685699,42.75],[-73.68564809999998,42.75],[-73.68559729999998,42.75],[-73.68554690000002,42.75],[-73.68547180000002,42.75],[-73.68541620000002,42.75],[-73.68540280000002,42.75],[-73.64999999999998,42.75],[-73.64999999999998,42.67500000000001],[-73.69906270000001,42.67500000000001],[-73.70000440000001,42.67500000000001],[-73.70047210000001,42.67500000000001],[-73.70671959999999,42.67500000000001],[-73.70675240000003,42.67500000000001],[-73.70678459999999,42.67500000000001],[-73.71700099999998,42.67500000000001],[-73.71820079999998,42.67500000000001],[-73.71837420000003,42.67500000000001],[-73.72049329999999,42.67500000000001],[-73.72055799999998,42.67500000000001],[-73.72057239999998,42.67500000000001],[-73.72060950000002,42.67500000000001],[-73.72063960000003,42.67500000000001],[-73.72065079999999,42.67500000000001],[-73.72069110000001,42.67500000000001],[-73.72072500000002,42.67500000000001],[-73.72079500000001,42.67500000000001],[-73.72089729999999,42.67500000000001],[-73.721023,42.67500000000001],[-73.72111710000001,42.67500000000001],[-73.7214242,42.67500000000001],[-73.7218077,42.67500000000001],[-73.7218254,42.67500000000001],[-73.72221309999998,42.67500000000001],[-73.7222266,42.67500000000001],[-73.72262210000002,42.67500000000001],[-73.72361009999997,42.67500000000001],[-73.72361319999999,42.67500000000001],[-73.72386230000001,42.67500000000001],[-73.72392109999998,42.67500000000001],[-73.72393369999998,42.67500000000001],[-73.7240337,42.67500000000001],[-73.72433969999997,42.67500000000001],[-73.72500000000002,42.67500000000001],[-73.72500000000002,42.75],[-73.69843070000002,42.75],[-73.68980399999998,42.75]]]}},{"type":"Feature","properties":{},"geometry":{"type":"Polygon","coordinates":[[[-73.80000000000001,42.773371399999974],[-73.80000000000001,42.777388599999995],[-73.80000000000001,42.778139899999985],[-73.80000000000001,42.778508699999975],[-73.80000000000001,42.780272500000024],[-73.80000000000001,42.78048180000002],[-73.80000000000001,42.7806147],[-73.80000000000001,42.78143510000001],[-73.80000000000001,42.787349800000015],[-73.80000000000001,42.7888519],[-73.80000000000001,42.78959709999998],[-73.80000000000001,42.7900429],[-73.80000000000001,42.79098269999997],[-73.80000000000001,42.79105800000002],[-73.80000000000001,42.79126450000001],[-73.80000000000001,42.82499999999999],[-73.72500000000002,42.82499999999999],[-73.72500000000002,42.82458029999998],[-73.72500000000002,42.82390179999999],[-73.72500000000002,42.82371260000002],[-73.72500000000002,42.82091550000001],[-73.72500000000002,42.8207008],[-73.72500000000002,42.81997469999999],[-73.72500000000002,42.8189567],[-73.72500000000002,42.816631900000004],[-73.72500000000002,42.81226579999998],[-73.72500000000002,42.81216169999999],[-73.72500000000002,42.81174970000001],[-73.72500000000002,42.75],[-73.80000000000001,42.75],[-73.80000000000001,42.773371399999974]]]}},{"type":"Feature","properties":{},"geometry":{"type":"Polygon","coordinates":[[[-73.68971420000003,42.75],[-73.72500000000002,42.75],[-73.72500000000002,42.81174970000001],[-73.72500000000002,42.81216169999999],[-73.72500000000002,42.81226579999998],[-73.72500000000002,42.816631900000004],[-73.72500000000002,42.8189567],[-73.72500000000002,42.81997469999999],[-73.72500000000002,42.8207008],[-73.72500000000002,42.82091550000001],[-73.72500000000002,42.82371260000002],[-73.72500000000002,42.82390179999999],[-73.72500000000002,42.82458029999998],[-73.72500000000002,42.82499999999999],[-73.66487169999999,42.82499999999999],[-73.66440069999999,42.82499999999999],[-73.66437100000002,42.82499999999999],[-73.66131810000002,42.82499999999999],[-73.66109419999998,42.82499999999999],[-73.64999999999998,42.82499999999999],[-73.64999999999998,42.75],[-73.67791440000002,42.75],[-73.68500519999998,42.75],[-73.68540280000002,42.75],[-73.68541620000002,42.75],[-73.68547180000002,42.75],[-73.68554690000002,42.75],[-73.68559729999998,42.75],[-73.68564809999998,42.75],[-73.685699,42.75],[-73.68572360000002,42.75],[-73.6857478,42.75],[-73.6857498,42.75],[-73.68759949999998,42.75],[-73.6881841,42.75],[-73.68885130000001,42.75],[-73.68971420000003,42.75]]]}},{"type":"Feature","properties":{},"geometry":{"type":"Polygon","coordinates":[[[-73.79060579999998,42.30000000000001],[-73.80000000000001,42.30000000000001],[-73.80000000000001,42.3573902],[-73.80000000000001,42.357756800000004],[-73.80000000000001,42.357880799999975],[-73.80000000000001,42.35795469999999],[-73.80000000000001,42.35888360000001],[-73.80000000000001,42.35944540000003],[-73.80000000000001,42.375],[-73.79952070000002,42.375],[-73.79947010000001,42.375],[-73.79884679999998,42.375],[-73.79869300000001,42.375],[-73.79815309999998,42.375],[-73.7975523,42.375],[-73.7975515,42.375],[-73.7974676,42.375],[-73.79697340000001,42.375],[-73.79563719999999,42.375],[-73.79563689999998,42.375],[-73.79526149999998,42.375],[-73.7952229,42.375],[-73.79516360000002,42.375],[-73.79513509999998,42.375],[-73.7951084,42.375],[-73.79504379999997,42.375],[-73.79504350000002,42.375],[-73.79497040000001,42.375],[-73.7949448,42.375],[-73.79494349999999,42.375],[-73.79489430000001,42.375],[-73.79486930000002,42.375],[-73.79483950000002,42.375],[-73.79422670000002,42.375],[-73.79380200000003,42.375],[-73.7933774,42.375],[-73.7931878,42.375],[-73.79295280000002,42.375],[-73.79256729999997,42.375],[-73.792528,42.375],[-73.7922762,42.375],[-73.79225630000002,42.375],[-73.79221059999998,42.375],[-73.79220670000001,42.375],[-73.79217799999998,42.375],[-73.79212910000001,42.375],[-73.79210060000003,42.375],[-73.79209780000002,42.375],[-73.79208019999999,42.375],[-73.79206210000001,42.375],[-73.79201160000002,42.375],[-73.79196780000001,42.375],[-73.79193400000003,42.375],[-73.79151000000002,42.375],[-73.791109,42.375],[-73.7902186,42.375],[-73.79021649999999,42.375],[-73.7860081,42.375],[-73.7858319,42.375],[-73.78549939999999,42.375],[-73.785301,42.375],[-73.78505919999998,42.375],[-73.78455659999997,42.375],[-73.7843302,42.375],[-73.72500000000002,42.375],[-73.72500000000002,42.30000000000001],[-73.76910270000002,42.30000000000001],[-73.7691327,42.30000000000001],[-73.76957779999998,42.30000000000001],[-73.7699599,42.30000000000001],[-73.77011800000002,42.30000000000001],[-73.77016220000002,42.30000000000001],[-73.77494050000001,42.30000000000001],[-73.77500730000003,42.30000000000001],[-73.77521239999999,42.30000000000001],[-73.77521289999999,42.30000000000001],[-73.77572859999998,42.30000000000001],[-73.77587779999999,42.30000000000001],[-73.7782216,42.30000000000001],[-73.779427,42.30000000000001],[-73.77949640000003,42.30000000000001],[-73.7795683,42.30000000000001],[-73.77960089999999,42.30000000000001],[-73.77964109999999,42.30000000000001],[-73.77976819999998,42.30000000000001],[-73.77993900000001,42.30000000000001],[-73.78002650000002,42.30000000000001],[-73.78070630000002,42.30000000000001],[-73.78107790000001,42.30000000000001],[-73.78107799999998,42.30000000000001],[-73.7814497,42.30000000000001],[-73.78161829999999,42.30000000000001],[-73.78182120000002,42.30000000000001],[-73.78219280000002,42.30000000000001],[-73.78275250000002,42.30000000000001],[-73.78291949999999,42.30000000000001],[-73.78305369999998,42.30000000000001],[-73.78321210000001,42.30000000000001],[-73.78354919999998,42.30000000000001],[-73.78390150000001,42.30000000000001],[-73.78455159999999,42.30000000000001],[-73.78504809999998,42.30000000000001],[-73.78505489999998,42.30000000000001],[-73.78733199999999,42.30000000000001],[-73.78733599999998,42.30000000000001],[-73.78760140000003,42.30000000000001],[-73.78766940000003,42.30000000000001],[-73.78863460000002,42.30000000000001],[-73.7893712,42.30000000000001],[-73.7894847,42.30000000000001],[-73.79060579999998,42.30000000000001]]]}}]}