{"type":"FeatureCollection","features":[{"type":"Feature","properties":{},"geometry":{"type":"Polygon","coordinates":[[[-73.49353819999999,43.42500000000001],[-73.49335639999998,43.42500000000001],[-73.47900759999999,43.42500000000001],[-73.4765473,43.42500000000001],[-73.44964970000001,43.42500000000001],[-73.42500000000001,43.42500000000001],[-73.42500000000001,43.40524310000001],[-73.42500000000001,43.35000000000002],[-73.49519729999997,43.35000000000002],[-73.49548709999999,43.35000000000002],[-73.4957422,43.35000000000002],[-73.49646330000002,43.35000000000002],[-73.5,43.35000000000002],[-73.5,43.42500000000001],[-73.49377320000002,43.42500000000001],[-73.49353819999999,43.42500000000001]]]}},{"type":"Feature","properties":{},"geometry":{"type":"Polygon","coordinates":[[[-73.49377320000002,43.42500000000001],[-73.5,43.42500000000001],[-73.5,43.465355999999986],[-73.5,43.5],[-73.42500000000001,43.5],[-73.42500000000001,43.48423070000001],[-73.42500000000001,43.48418670000001],[-73.42500000000001,43.4838752],[-73.42500000000001,43.48282990000001],[-73.42500000000001,43.471359699999994],[-73.42500000000001,43.46951619999999],[-73.42500000000001,43.42500000000001],[-73.44964970000001,43.42500000000001],[-73.4765473,43.42500000000001],[-73.47900759999999,43.42500000000001],[-73.49335639999998,43.42500000000001],[-73.49353819999999,43.42500000000001],[-73.49377320000002,43.42500000000001]]]}},{"type":"Feature","properties":{},"geometry":{"type":"Polygon","coordinates":[[[-73.42500000000001,43.42500000000001],[-73.42500000000001,43.46951619999999],[-73.42500000000001,43.471359699999994],[-73.42500000000001,43.48282990000001],[-73.42500000000001,43.4838752],[-73.42500000000001,43.48418670000001],[-73.42500000000001,43.48423070000001],[-73.42500000000001,43.5],[-73.42058270000001,43.5],[-73.41791419999998,43.5],[-73.41725880000001,43.5],[-73.35000000000002,43.5],[-73.35000000000002,43.42500000000001],[-73.42500000000001,43.42500000000001]]]}},{"type":"Feature","properties":{},"geometry":{"type":"Polygon","coordinates":[[[-73.5,43.5],[-73.5,43.57499999999999],[-73.43322569999998,43.57499999999999],[-73.43034790000002,43.57499999999999],[-73.43014740000001,43.57499999999999],[-73.42967490000001,43.57499999999999],[-73.4290484,43.57499999999999],[-73.42864789999999,43.57499999999999],[-73.42663090000002,43.57499999999999],[-73.42500000000001,43.57499999999999],[-73.42500000000001,43.573101099999974],[-73.42500000000001,43.5],[-73.5,43.5]]]}},{"type":"Feature","properties":{},"geometry":{"type":"Polygon","coordinates":[[[-73.42058270000001,43.5],[-73.42500000000001,43.5],[-73.42500000000001,43.573101099999974],[-73.42500000000001,43.57499999999999],[-73.42137530000002,43.57499999999999],[-73.41468120000002,43.57499999999999],[-73.41446230000003,43.57499999999999],[-73.41276349999998,43.57499999999999],[-73.41245029999999,43.57499999999999],[-73.41229470000002,43.57499999999999],[-73.41195299999998,43.57499999999999],[-73.41140100000001,43.57499999999999],[-73.4111575,43.57499999999999],[-73.4109727,43.57499999999999],[-73.41072250000002,43.57499999999999],[-73.39296710000002,43.57499999999999],[-73.39076949999998,43.57499999999999],[-73.38985229999997,43.57499999999999],[-73.38894859999999,43.57499999999999],[-73.38669520000002,43.57499999999999],[-73.38540080000001,43.57499999999999],[-73.3848797,43.57499999999999],[-73.35000000000002,43.57499999999999],[-73.35000000000002,43.5],[-73.41725880000001,43.5],[-73.41791419999998,43.5],[-73.42058270000001,43.5]]]}}]}