{"type":"FeatureCollection","features":[{"type":"Feature","properties":{},"geometry":{"type":"Polygon","coordinates":[[[-76.80000000000001,35.10000000000002],[-76.80000000000001,35.16682780000002],[-76.80000000000001,35.17500000000001],[-76.78797780000002,35.17500000000001],[-76.72500000000002,35.17500000000001],[-76.72500000000002,35.16682780000002],[-76.72500000000002,35.15136869999998],[-76.72500000000002,35.15098360000002],[-76.72500000000002,35.14987819999999],[-76.72500000000002,35.1483801],[-76.72500000000002,35.14583909999999],[-76.72500000000002,35.144294],[-76.72500000000002,35.14261299999998],[-76.72500000000002,35.141996500000005],[-76.72500000000002,35.14143569999999],[-76.72500000000002,35.140486599999974],[-76.72500000000002,35.13870179999998],[-76.72500000000002,35.1368157],[-76.72500000000002,35.13644399999998],[-76.72500000000002,35.12718899999999],[-76.72500000000002,35.12610239999998],[-76.72500000000002,35.12401449999999],[-76.72500000000002,35.120590100000015],[-76.72500000000002,35.12054640000002],[-76.72500000000002,35.11894219999999],[-76.72500000000002,35.10000000000002],[-76.80000000000001,35.10000000000002]]]}},{"type":"Feature","properties":{},"geometry":{"type":"Polygon","coordinates":[[[-76.72292220000003,35.10000000000002],[-76.72500000000002,35.10000000000002],[-76.72500000000002,35.11894219999999],[-76.72500000000002,35.12054640000002],[-76.72500000000002,35.120590100000015],[-76.72500000000002,35.12401449999999],[-76.72500000000002,35.12610239999998],[-76.72500000000002,35.12718899999999],[-76.72500000000002,35.13644399999998],[-76.72500000000002,35.1368157],[-76.72500000000002,35.13870179999998],[-76.72500000000002,35.140486599999974],[-76.72500000000002,35.14143569999999],[-76.72500000000002,35.141996500000005],[-76.72500000000002,35.14261299999998],[-76.72500000000002,35.144294],[-76.72500000000002,35.14583909999999],[-76.72500000000002,35.1483801],[-76.72500000000002,35.14987819999999],[-76.72500000000002,35.15098360000002],[-76.72500000000002,35.15136869999998],[-76.72500000000002,35.16682780000002],[-76.72500000000002,35.17500000000001],[-76.67692039999997,35.17500000000001],[-76.6756901,35.17500000000001],[-76.67496469999998,35.17500000000001],[-76.6709088,35.17500000000001],[-76.66691350000002,35.17500000000001],[-76.66448709999997,35.17500000000001],[-76.64999999999998,35.17500000000001],[-76.64999999999998,35.16682780000002],[-76.64999999999998,35.1659401],[-76.64999999999998,35.16306020000002],[-76.64999999999998,35.16164459999999],[-76.64999999999998,35.160215100000016],[-76.64999999999998,35.158833200000004],[-76.64999999999998,35.15852619999998],[-76.64999999999998,35.1581946],[-76.64999999999998,35.158178099999986],[-76.64999999999998,35.11148709999998],[-76.64999999999998,35.109767499999975],[-76.64999999999998,35.10000000000002],[-76.71735239999998,35.10000000000002],[-76.7177269,35.10000000000002],[-76.71789619999998,35.10000000000002],[-76.72292220000003,35.10000000000002]]]}},{"type":"Feature","properties":{},"geometry":{"type":"Polygon","coordinates":[[[-76.63950269999998,35.10000000000002],[-76.64999999999998,35.10000000000002],[-76.64999999999998,35.109767499999975],[-76.64999999999998,35.11148709999998],[-76.64999999999998,35.158178099999986],[-76.64999999999998,35.1581946],[-76.64999999999998,35.15852619999998],[-76.64999999999998,35.158833200000004],[-76.64999999999998,35.160215100000016],[-76.64999999999998,35.16164459999999],[-76.64999999999998,35.16306020000002],[-76.64999999999998,35.1659401],[-76.64999999999998,35.16682780000002],[-76.64999999999998,35.17500000000001],[-76.64666629999999,35.17500000000001],[-76.6465958,35.17500000000001],[-76.6449116,35.17500000000001],[-76.64412490000001,35.17500000000001],[-76.64387690000001,35.17500000000001],[-76.63810649999999,35.17500000000001],[-76.63605949999999,35.17500000000001],[-76.63282670000001,35.17500000000001],[-76.63123810000002,35.17500000000001],[-76.63071330000002,35.17500000000001],[-76.62887819999997,35.17500000000001],[-76.6277177,35.17500000000001],[-76.62040080000003,35.17500000000001],[-76.60823340000002,35.17500000000001],[-76.6076946,35.17500000000001],[-76.6050199,35.17500000000001],[-76.5903758,35.17500000000001],[-76.58855740000001,35.17500000000001],[-76.58587419999998,35.17500000000001],[-76.57499999999999,35.17500000000001],[-76.57499999999999,35.17310149999997],[-76.57499999999999,35.17164330000003],[-76.57499999999999,35.15907770000001],[-76.57499999999999,35.15332059999997],[-76.57499999999999,35.151980200000025],[-76.57499999999999,35.150826499999994],[-76.57499999999999,35.1497933],[-76.57499999999999,35.14768090000001],[-76.57499999999999,35.147587199999975],[-76.57499999999999,35.145190000000014],[-76.57499999999999,35.143875200000025],[-76.57499999999999,35.142608800000005],[-76.57499999999999,35.140180799999996],[-76.57499999999999,35.139204199999995],[-76.57499999999999,35.137116900000024],[-76.57499999999999,35.13497589999997],[-76.57499999999999,35.13330400000001],[-76.57499999999999,35.12363529999999],[-76.57499999999999,35.11882750000001],[-76.57499999999999,35.116818799999976],[-76.57499999999999,35.116541900000016],[-76.57499999999999,35.113771299999996],[-76.57499999999999,35.100781100000006],[-76.57499999999999,35.100339700000006],[-76.57499999999999,35.10000000000002],[-76.57791730000002,35.10000000000002],[-76.58303160000003,35.10000000000002],[-76.58407110000002,35.10000000000002],[-76.58534800000001,35.10000000000002],[-76.58618790000003,35.10000000000002],[-76.5873469,35.10000000000002],[-76.58860499999997,35.10000000000002],[-76.5891001,35.10000000000002],[-76.5893064,35.10000000000002],[-76.59021230000002,35.10000000000002],[-76.59138639999998,35.10000000000002],[-76.59442469999999,35.10000000000002],[-76.5955988,35.10000000000002],[-76.59667780000001,35.10000000000002],[-76.59703819999999,35.10000000000002],[-76.59810040000002,35.10000000000002],[-76.59863150000001,35.10000000000002],[-76.60156160000003,35.10000000000002],[-76.60379139999998,35.10000000000002],[-76.60429019999998,35.10000000000002],[-76.60567049999997,35.10000000000002],[-76.60614709999999,35.10000000000002],[-76.61017500000003,35.10000000000002],[-76.61157209999999,35.10000000000002],[-76.61168120000002,35.10000000000002],[-76.6122856,35.10000000000002],[-76.61537179999999,35.10000000000002],[-76.61571279999998,35.10000000000002],[-76.61633060000003,35.10000000000002],[-76.63726919999999,35.10000000000002],[-76.63845099999998,35.10000000000002],[-76.63886350000001,35.10000000000002],[-76.63950269999998,35.10000000000002]]]}},{"type":"Feature","properties":{},"geometry":{"type":"Polygon","coordinates":[[[-76.57483930000001,35.10000000000002],[-76.57499999999999,35.10000000000002],[-76.57499999999999,35.100339700000006],[-76.57499999999999,35.100781100000006],[-76.57499999999999,35.113771299999996],[-76.57499999999999,35.116541900000016],[-76.57499999999999,35.116818799999976],[-76.57499999999999,35.11882750000001],[-76.57499999999999,35.12363529999999],[-76.57499999999999,35.13330400000001],[-76.57499999999999,35.13497589999997],[-76.57499999999999,35.137116900000024],[-76.57499999999999,35.139204199999995],[-76.57499999999999,35.140180799999996],[-76.57499999999999,35.142608800000005],[-76.57499999999999,35.143875200000025],[-76.57499999999999,35.145190000000014],[-76.57499999999999,35.147587199999975],[-76.57499999999999,35.14768090000001],[-76.57499999999999,35.1497933],[-76.57499999999999,35.150826499999994],[-76.57499999999999,35.151980200000025],[-76.57499999999999,35.15332059999997],[-76.57499999999999,35.15907770000001],[-76.57499999999999,35.17164330000003],[-76.57499999999999,35.17310149999997],[-76.57499999999999,35.17500000000001],[-76.55682100000001,35.17500000000001],[-76.55419119999999,35.17500000000001],[-76.5459578,35.17500000000001],[-76.5434381,35.17500000000001],[-76.53734680000002,35.17500000000001],[-76.52485999999999,35.17500000000001],[-76.5233422,35.17500000000001],[-76.52019990000002,35.17500000000001],[-76.50295030000001,35.17500000000001],[-76.5,35.17500000000001],[-76.5,35.17279020000001],[-76.5,35.1705791],[-76.5,35.160002399999996],[-76.5,35.15149439999999],[-76.5,35.14919090000001],[-76.5,35.14144620000002],[-76.5,35.13791579999997],[-76.5,35.1372394],[-76.5,35.10000000000002],[-76.52311509999998,35.10000000000002],[-76.53390730000001,35.10000000000002],[-76.534988,35.10000000000002],[-76.54128659999998,35.10000000000002],[-76.5486244,35.10000000000002],[-76.55603389999999,35.10000000000002],[-76.5681831,35.10000000000002],[-76.56823630000002,35.10000000000002],[-76.569908,35.10000000000002],[-76.57428190000002,35.10000000000002],[-76.57483930000001,35.10000000000002]]]}},{"type":"Feature","properties":{},"geometry":{"type":"Polygon","coordinates":[[[-76.48688090000002,35.10000000000002],[-76.5,35.10000000000002],[-76.5,35.1372394],[-76.5,35.13791579999997],[-76.5,35.14144620000002],[-76.5,35.14919090000001],[-76.5,35.15149439999999],[-76.5,35.160002399999996],[-76.5,35.1705791],[-76.5,35.17279020000001],[-76.5,35.17500000000001],[-76.49851510000002,35.17500000000001],[-76.49233190000001,35.17500000000001],[-76.4790688,35.17500000000001],[-76.47648020000003,35.17500000000001],[-76.47555740000001,35.17500000000001],[-76.42500000000001,35.17500000000001],[-76.42500000000001,35.167022599999996],[-76.42500000000001,35.10938399999998],[-76.42500000000001,35.10000000000002],[-76.44712559999999,35.10000000000002],[-76.47496330000001,35.10000000000002],[-76.48688090000002,35.10000000000002]]]}},{"type":"Feature","properties":{},"geometry":{"type":"Polygon","coordinates":[[[-76.39129439999999,35.10000000000002],[-76.42500000000001,35.10000000000002],[-76.42500000000001,35.10938399999998],[-76.42500000000001,35.167022599999996],[-76.42500000000001,35.17500000000001],[-76.418992,35.17500000000001],[-76.40760139999998,35.17500000000001],[-76.39553999999998,35.17500000000001],[-76.3861407,35.17500000000001],[-76.38552600000003,35.17500000000001],[-76.38102809999998,35.17500000000001],[-76.37716499999999,35.17500000000001],[-76.37603280000002,35.17500000000001],[-76.3719916,35.17500000000001],[-76.367504,35.17500000000001],[-76.36110930000001,35.17500000000001],[-76.35236429999998,35.17500000000001],[-76.35000000000002,35.17500000000001],[-76.35000000000002,35.1715322],[-76.35000000000002,35.165430800000024],[-76.35000000000002,35.16229120000003],[-76.35000000000002,35.15960439999998],[-76.35000000000002,35.15805560000001],[-76.35000000000002,35.1507919],[-76.35000000000002,35.10000000000002],[-76.3722785,35.10000000000002],[-76.39129439999999,35.10000000000002]]]}},{"type":"Feature","properties":{},"geometry":{"type":"Polygon","coordinates":[[[-76.28369889999999,35.10000000000002],[-76.35000000000002,35.10000000000002],[-76.35000000000002,35.1507919],[-76.35000000000002,35.15805560000001],[-76.35000000000002,35.15960439999998],[-76.35000000000002,35.16229120000003],[-76.35000000000002,35.165430800000024],[-76.35000000000002,35.1715322],[-76.35000000000002,35.17500000000001],[-76.32631700000002,35.17500000000001],[-76.30833740000003,35.17500000000001],[-76.27499999999998,35.17500000000001],[-76.27499999999998,35.1597797],[-76.27499999999998,35.15805560000001],[-76.27499999999998,35.15288020000003],[-76.27499999999998,35.13777329999999],[-76.27499999999998,35.10000000000002],[-76.28369889999999,35.10000000000002]]]}},{"type":"Feature","properties":{},"geometry":{"type":"Polygon","coordinates":[[[-76.27499999999998,35.10000000000002],[-76.27499999999998,35.13777329999999],[-76.27499999999998,35.15288020000003],[-76.27499999999998,35.15805560000001],[-76.27499999999998,35.1597797],[-76.27499999999998,35.17500000000001],[-76.2462112,35.17500000000001],[-76.245,35.17500000000001],[-76.245,35.10000000000002],[-76.27499999999998,35.10000000000002]]]}},{"type":"Feature","properties":{},"geometry":{"type":"Polygon","coordinates":[[[-76.64999999999998,35.196290799999986],[-76.64999999999998,35.19538419999998],[-76.64999999999998,35.19148389999998],[-76.64999999999998,35.19073639999999],[-76.64999999999998,35.18982949999997],[-76.64999999999998,35.1892062],[-76.64999999999998,35.18184580000002],[-76.64999999999998,35.177770899999985],[-76.64999999999998,35.17500000000001],[-76.66448709999997,35.17500000000001],[-76.66691350000002,35.17500000000001],[-76.6709088,35.17500000000001],[-76.67496469999998,35.17500000000001],[-76.6756901,35.17500000000001],[-76.67692039999997,35.17500000000001],[-76.72500000000002,35.17500000000001],[-76.72500000000002,35.181833299999994],[-76.72500000000002,35.25],[-76.69902780000001,35.25],[-76.64999999999998,35.25],[-76.64999999999998,35.20078219999999],[-76.64999999999998,35.196290799999986]]]}},{"type":"Feature","properties":{},"geometry":{"type":"Polygon","coordinates":[[[-76.64666629999999,35.17500000000001],[-76.64999999999998,35.17500000000001],[-76.64999999999998,35.177770899999985],[-76.64999999999998,35.18184580000002],[-76.64999999999998,35.1892062],[-76.64999999999998,35.18982949999997],[-76.64999999999998,35.19073639999999],[-76.64999999999998,35.19148389999998],[-76.64999999999998,35.19538419999998],[-76.64999999999998,35.196290799999986],[-76.64999999999998,35.20078219999999],[-76.64999999999998,35.25],[-76.6396681,35.25],[-76.59327710000002,35.25],[-76.59299909999999,35.25],[-76.59264510000003,35.25],[-76.57499999999999,35.25],[-76.57499999999999,35.24221449999999],[-76.57499999999999,35.240755999999976],[-76.57499999999999,35.23861410000001],[-76.57499999999999,35.23771829999998],[-76.57499999999999,35.23542149999997],[-76.57499999999999,35.23501759999999],[-76.57499999999999,35.231810800000005],[-76.57499999999999,35.231383300000005],[-76.57499999999999,35.23104919999997],[-76.57499999999999,35.229556],[-76.57499999999999,35.221218599999986],[-76.57499999999999,35.21461110000001],[-76.57499999999999,35.212566200000026],[-76.57499999999999,35.21118899999999],[-76.57499999999999,35.20780389999999],[-76.57499999999999,35.20694309999999],[-76.57499999999999,35.2064158],[-76.57499999999999,35.20445940000002],[-76.57499999999999,35.20235330000003],[-76.57499999999999,35.200809900000024],[-76.57499999999999,35.19560630000001],[-76.57499999999999,35.19280730000003],[-76.57499999999999,35.191148199999986],[-76.57499999999999,35.181586400000015],[-76.57499999999999,35.17959080000003],[-76.57499999999999,35.17500000000001],[-76.58587419999998,35.17500000000001],[-76.58855740000001,35.17500000000001],[-76.5903758,35.17500000000001],[-76.6050199,35.17500000000001],[-76.6076946,35.17500000000001],[-76.60823340000002,35.17500000000001],[-76.62040080000003,35.17500000000001],[-76.6277177,35.17500000000001],[-76.62887819999997,35.17500000000001],[-76.63071330000002,35.17500000000001],[-76.63123810000002,35.17500000000001],[-76.63282670000001,35.17500000000001],[-76.63605949999999,35.17500000000001],[-76.63810649999999,35.17500000000001],[-76.64387690000001,35.17500000000001],[-76.64412490000001,35.17500000000001],[-76.6449116,35.17500000000001],[-76.6465958,35.17500000000001],[-76.64666629999999,35.17500000000001]]]}},{"type":"Feature","properties":{},"geometry":{"type":"Polygon","coordinates":[[[-76.55682100000001,35.17500000000001],[-76.57499999999999,35.17500000000001],[-76.57499999999999,35.17959080000003],[-76.57499999999999,35.181586400000015],[-76.57499999999999,35.191148199999986],[-76.57499999999999,35.19280730000003],[-76.57499999999999,35.19560630000001],[-76.57499999999999,35.200809900000024],[-76.57499999999999,35.20235330000003],[-76.57499999999999,35.20445940000002],[-76.57499999999999,35.2064158],[-76.57499999999999,35.20694309999999],[-76.57499999999999,35.20780389999999],[-76.57499999999999,35.21118899999999],[-76.57499999999999,35.212566200000026],[-76.57499999999999,35.21461110000001],[-76.57499999999999,35.221218599999986],[-76.57499999999999,35.229556],[-76.57499999999999,35.23104919999997],[-76.57499999999999,35.231383300000005],[-76.57499999999999,35.231810800000005],[-76.57499999999999,35.23501759999999],[-76.57499999999999,35.23542149999997],[-76.57499999999999,35.23771829999998],[-76.57499999999999,35.23861410000001],[-76.57499999999999,35.240755999999976],[-76.57499999999999,35.24221449999999],[-76.57499999999999,35.25],[-76.531587,35.25],[-76.52994269999999,35.25],[-76.52878850000002,35.25],[-76.52875490000002,35.25],[-76.5260462,35.25],[-76.52602830000001,35.25],[-76.5253275,35.25],[-76.51492439999998,35.25],[-76.5,35.25],[-76.5,35.2453711],[-76.5,35.24190010000001],[-76.5,35.23695650000002],[-76.5,35.2327037],[-76.5,35.229428299999995],[-76.5,35.22561589999998],[-76.5,35.22438140000003],[-76.5,35.22416370000002],[-76.5,35.21995190000001],[-76.5,35.21362190000002],[-76.5,35.20751469999999],[-76.5,35.20215639999998],[-76.5,35.197646299999974],[-76.5,35.192878500000006],[-76.5,35.190395799999976],[-76.5,35.18267659999998],[-76.5,35.17500000000001],[-76.50295030000001,35.17500000000001],[-76.52019990000002,35.17500000000001],[-76.5233422,35.17500000000001],[-76.52485999999999,35.17500000000001],[-76.53734680000002,35.17500000000001],[-76.5434381,35.17500000000001],[-76.5459578,35.17500000000001],[-76.55419119999999,35.17500000000001],[-76.55682100000001,35.17500000000001]]]}},{"type":"Feature","properties":{},"geometry":{"type":"Polygon","coordinates":[[[-76.2462112,35.17500000000001],[-76.27499999999998,35.17500000000001],[-76.27499999999998,35.20287860000002],[-76.27499999999998,35.216635999999994],[-76.27499999999998,35.246555],[-76.27499999999998,35.25],[-76.26357380000002,35.25],[-76.245,35.25],[-76.245,35.17500000000001],[-76.2462112,35.17500000000001]]]}},{"type":"Feature","properties":{},"geometry":{"type":"Polygon","coordinates":[[[-76.80000000000001,35.25],[-76.80000000000001,35.30000000000001],[-76.80000000000001,35.31750410000001],[-76.80000000000001,35.3179978],[-76.80000000000001,35.318188599999985],[-76.80000000000001,35.3207999],[-76.80000000000001,35.32499999999999],[-76.78444300000001,35.32499999999999],[-76.78377360000002,35.32499999999999],[-76.7712191,35.32499999999999],[-76.77111889999998,35.32499999999999],[-76.77032170000001,35.32499999999999],[-76.77011900000002,35.32499999999999],[-76.7685328,35.32499999999999],[-76.7649614,35.32499999999999],[-76.76426470000001,35.32499999999999],[-76.76389189999998,35.32499999999999],[-76.76079090000002,35.32499999999999],[-76.75926390000001,35.32499999999999],[-76.75879739999999,35.32499999999999],[-76.72500000000002,35.32499999999999],[-76.72500000000002,35.30000000000001],[-76.72500000000002,35.25],[-76.80000000000001,35.25]]]}},{"type":"Feature","properties":{},"geometry":{"type":"Polygon","coordinates":[[[-76.69902780000001,35.25],[-76.72500000000002,35.25],[-76.72500000000002,35.30000000000001],[-76.72500000000002,35.32499999999999],[-76.71241140000001,35.32499999999999],[-76.71125380000001,35.32499999999999],[-76.70767790000002,35.32499999999999],[-76.70667350000002,35.32499999999999],[-76.7055287,35.32499999999999],[-76.70304650000003,35.32499999999999],[-76.70189959999999,35.32499999999999],[-76.7011465,35.32499999999999],[-76.65184520000003,35.32499999999999],[-76.65122489999999,35.32499999999999],[-76.65086059999999,35.32499999999999],[-76.64999999999998,35.32499999999999],[-76.64999999999998,35.32499840000003],[-76.64999999999998,35.324003000000005],[-76.64999999999998,35.30000000000001],[-76.64999999999998,35.2898897],[-76.64999999999998,35.288774699999976],[-76.64999999999998,35.28285899999997],[-76.64999999999998,35.27972920000002],[-76.64999999999998,35.27862699999997],[-76.64999999999998,35.27704210000002],[-76.64999999999998,35.25],[-76.69902780000001,35.25]]]}},{"type":"Feature","properties":{},"geometry":{"type":"Polygon","coordinates":[[[-76.59327710000002,35.25],[-76.6396681,35.25],[-76.64999999999998,35.25],[-76.64999999999998,35.27704210000002],[-76.64999999999998,35.27862699999997],[-76.64999999999998,35.27972920000002],[-76.64999999999998,35.28285899999997],[-76.64999999999998,35.288774699999976],[-76.64999999999998,35.2898897],[-76.64999999999998,35.30000000000001],[-76.64999999999998,35.324003000000005],[-76.64999999999998,35.32499840000003],[-76.64999999999998,35.32499999999999],[-76.6499933,35.32499999999999],[-76.64969079999997,35.32499999999999],[-76.64781119999998,35.32499999999999],[-76.64661469999999,35.32499999999999],[-76.63800090000001,35.32499999999999],[-76.6376722,35.32499999999999],[-76.63744550000001,35.32499999999999],[-76.6293857,35.32499999999999],[-76.62822749999998,35.32499999999999],[-76.62776430000002,35.32499999999999],[-76.62412210000002,35.32499999999999],[-76.6237567,35.32499999999999],[-76.61859120000003,35.32499999999999],[-76.61737049999999,35.32499999999999],[-76.61702359999998,35.32499999999999],[-76.6164589,35.32499999999999],[-76.6128941,35.32499999999999],[-76.60860159999999,35.32499999999999],[-76.60652499999998,35.32499999999999],[-76.6017286,35.32499999999999],[-76.60160439999999,35.32499999999999],[-76.58436019999999,35.32499999999999],[-76.58070559999999,35.32499999999999],[-76.57897000000003,35.32499999999999],[-76.57840440000001,35.32499999999999],[-76.5765748,35.32499999999999],[-76.5754657,35.32499999999999],[-76.57499999999999,35.32499999999999],[-76.57499999999999,35.323735899999974],[-76.57499999999999,35.3224725],[-76.57499999999999,35.3215831],[-76.57499999999999,35.3202493],[-76.57499999999999,35.31738760000002],[-76.57499999999999,35.313998000000026],[-76.57499999999999,35.29461759999998],[-76.57499999999999,35.29171869999999],[-76.57499999999999,35.291122599999994],[-76.57499999999999,35.28756559999999],[-76.57499999999999,35.25],[-76.59264510000003,35.25],[-76.59299909999999,35.25],[-76.59327710000002,35.25]]]}},{"type":"Feature","properties":{},"geometry":{"type":"Polygon","coordinates":[[[-76.531587,35.25],[-76.57499999999999,35.25],[-76.57499999999999,35.28756559999999],[-76.57499999999999,35.291122599999994],[-76.57499999999999,35.29171869999999],[-76.57499999999999,35.29461759999998],[-76.57499999999999,35.313998000000026],[-76.57499999999999,35.31738760000002],[-76.57499999999999,35.3202493],[-76.57499999999999,35.3215831],[-76.57499999999999,35.3224725],[-76.57499999999999,35.323735899999974],[-76.57499999999999,35.32499999999999],[-76.57026839999997,35.32499999999999],[-76.56889000000001,35.32499999999999],[-76.56754740000002,35.32499999999999],[-76.56592999999998,35.32499999999999],[-76.56393150000002,35.32499999999999],[-76.56184539999998,35.32499999999999],[-76.55867009999997,35.32499999999999],[-76.55427220000001,35.32499999999999],[-76.55399649999998,35.32499999999999],[-76.55202150000002,35.32499999999999],[-76.5508092,35.32499999999999],[-76.54517750000002,35.32499999999999],[-76.53698930000002,35.32499999999999],[-76.51832940000003,35.32499999999999],[-76.5,35.32499999999999],[-76.5,35.319485199999974],[-76.5,35.316592000000014],[-76.5,35.31488089999999],[-76.5,35.313840500000026],[-76.5,35.30599599999999],[-76.5,35.303758000000016],[-76.5,35.29935599999999],[-76.5,35.298353299999974],[-76.5,35.297233500000004],[-76.5,35.29540659999998],[-76.5,35.293574999999976],[-76.5,35.29339540000001],[-76.5,35.29149560000002],[-76.5,35.29142589999998],[-76.5,35.28891340000001],[-76.5,35.288721099999975],[-76.5,35.28626270000001],[-76.5,35.284852],[-76.5,35.27935289999999],[-76.5,35.27695729999999],[-76.5,35.27381780000002],[-76.5,35.26882999999998],[-76.5,35.26365279999999],[-76.5,35.2631485],[-76.5,35.25],[-76.51492439999998,35.25],[-76.5253275,35.25],[-76.52602830000001,35.25],[-76.5260462,35.25],[-76.52875490000002,35.25],[-76.52878850000002,35.25],[-76.52994269999999,35.25],[-76.531587,35.25]]]}},{"type":"Feature","properties":{},"geometry":{"type":"Polygon","coordinates":[[[-76.33978209999998,35.25],[-76.35000000000002,35.25],[-76.35000000000002,35.25526239999999],[-76.35000000000002,35.26991720000001],[-76.35000000000002,35.275502500000016],[-76.35000000000002,35.29570860000001],[-76.35000000000002,35.30513029999997],[-76.35000000000002,35.32499999999999],[-76.32129750000001,35.32499999999999],[-76.31116300000002,35.32499999999999],[-76.29520839999998,35.32499999999999],[-76.29355980000003,35.32499999999999],[-76.28460919999998,35.32499999999999],[-76.27822800000001,35.32499999999999],[-76.27499999999998,35.32499999999999],[-76.27499999999998,35.31123359999998],[-76.27499999999998,35.30605559999998],[-76.27499999999998,35.29152110000001],[-76.27499999999998,35.28523610000002],[-76.27499999999998,35.25007529999999],[-76.27499999999998,35.25],[-76.28683669999998,35.25],[-76.30905619999999,35.25],[-76.32370470000001,35.25],[-76.33978209999998,35.25]]]}},{"type":"Feature","properties":{},"geometry":{"type":"Polygon","coordinates":[[[-76.26357380000002,35.25],[-76.27499999999998,35.25],[-76.27499999999998,35.25007529999999],[-76.27499999999998,35.28523610000002],[-76.27499999999998,35.29152110000001],[-76.27499999999998,35.30605559999998],[-76.27499999999998,35.31123359999998],[-76.27499999999998,35.32499999999999],[-76.26637770000002,35.32499999999999],[-76.26353469999998,35.32499999999999],[-76.245,35.32499999999999],[-76.245,35.25],[-76.26357380000002,35.25]]]}},{"type":"Feature","properties":{},"geometry":{"type":"Polygon","coordinates":[[[-76.82278200000002,35.39999999999998],[-76.82257900000002,35.39999999999998],[-76.82208639999999,35.39999999999998],[-76.82088290000002,35.39999999999998],[-76.8186359,35.39999999999998],[-76.81058760000002,35.39999999999998],[-76.80000000000001,35.39999999999998],[-76.80000000000001,35.39229469999998],[-76.80000000000001,35.39056290000002],[-76.80000000000001,35.32499999999999],[-76.80301730000002,35.32499999999999],[-76.80435840000001,35.32499999999999],[-76.8147725,35.32499999999999],[-76.8177786,35.32499999999999],[-76.85499999999999,35.32499999999999],[-76.85499999999999,35.39999999999998],[-76.82278200000002,35.39999999999998]]]}},{"type":"Feature","properties":{},"geometry":{"type":"Polygon","coordinates":[[[-76.78444300000001,35.32499999999999],[-76.80000000000001,35.32499999999999],[-76.80000000000001,35.39056290000002],[-76.80000000000001,35.39229469999998],[-76.80000000000001,35.39999999999998],[-76.79290689999999,35.39999999999998],[-76.72500000000002,35.39999999999998],[-76.72500000000002,35.38466340000002],[-76.72500000000002,35.37838979999998],[-76.72500000000002,35.37534310000001],[-76.72500000000002,35.37514299999998],[-76.72500000000002,35.35731470000002],[-76.72500000000002,35.35465119999998],[-76.72500000000002,35.34865180000003],[-76.72500000000002,35.34719239999998],[-76.72500000000002,35.345558900000015],[-76.72500000000002,35.336816],[-76.72500000000002,35.32499999999999],[-76.75879739999999,35.32499999999999],[-76.75926390000001,35.32499999999999],[-76.76079090000002,35.32499999999999],[-76.76389189999998,35.32499999999999],[-76.76426470000001,35.32499999999999],[-76.7649614,35.32499999999999],[-76.7685328,35.32499999999999],[-76.77011900000002,35.32499999999999],[-76.77032170000001,35.32499999999999],[-76.77111889999998,35.32499999999999],[-76.7712191,35.32499999999999],[-76.78377360000002,35.32499999999999],[-76.78444300000001,35.32499999999999]]]}},{"type":"Feature","properties":{},"geometry":{"type":"Polygon","coordinates":[[[-76.71241140000001,35.32499999999999],[-76.72500000000002,35.32499999999999],[-76.72500000000002,35.336816],[-76.72500000000002,35.345558900000015],[-76.72500000000002,35.34719239999998],[-76.72500000000002,35.34865180000003],[-76.72500000000002,35.35465119999998],[-76.72500000000002,35.35731470000002],[-76.72500000000002,35.37514299999998],[-76.72500000000002,35.37534310000001],[-76.72500000000002,35.37838979999998],[-76.72500000000002,35.38466340000002],[-76.72500000000002,35.39999999999998],[-76.65489889999998,35.39999999999998],[-76.6517159,35.39999999999998],[-76.64999999999998,35.39999999999998],[-76.64999999999998,35.39967960000001],[-76.64999999999998,35.399011900000005],[-76.64999999999998,35.37351460000002],[-76.64999999999998,35.36568349999999],[-76.64999999999998,35.36210269999998],[-76.64999999999998,35.36083350000001],[-76.64999999999998,35.35991109999998],[-76.64999999999998,35.358615199999974],[-76.64999999999998,35.3565413],[-76.64999999999998,35.34472820000002],[-76.64999999999998,35.34029889999999],[-76.64999999999998,35.33961210000001],[-76.64999999999998,35.339217899999994],[-76.64999999999998,35.3365149],[-76.64999999999998,35.32634280000002],[-76.64999999999998,35.3256495],[-76.64999999999998,35.325426900000025],[-76.64999999999998,35.32499999999999],[-76.65086059999999,35.32499999999999],[-76.65122489999999,35.32499999999999],[-76.65184520000003,35.32499999999999],[-76.7011465,35.32499999999999],[-76.70189959999999,35.32499999999999],[-76.70304650000003,35.32499999999999],[-76.7055287,35.32499999999999],[-76.70667350000002,35.32499999999999],[-76.70767790000002,35.32499999999999],[-76.71125380000001,35.32499999999999],[-76.71241140000001,35.32499999999999]]]}},{"type":"Feature","properties":{},"geometry":{"type":"Polygon","coordinates":[[[-76.6499933,35.32499999999999],[-76.64999999999998,35.32499999999999],[-76.64999999999998,35.325426900000025],[-76.64999999999998,35.3256495],[-76.64999999999998,35.32634280000002],[-76.64999999999998,35.3365149],[-76.64999999999998,35.339217899999994],[-76.64999999999998,35.33961210000001],[-76.64999999999998,35.34029889999999],[-76.64999999999998,35.34472820000002],[-76.64999999999998,35.3565413],[-76.64999999999998,35.358615199999974],[-76.64999999999998,35.35991109999998],[-76.64999999999998,35.36083350000001],[-76.64999999999998,35.36210269999998],[-76.64999999999998,35.36568349999999],[-76.64999999999998,35.37351460000002],[-76.64999999999998,35.399011900000005],[-76.64999999999998,35.39967960000001],[-76.64999999999998,35.39999999999998],[-76.646547,35.39999999999998],[-76.64118250000001,35.39999999999998],[-76.62963079999997,35.39999999999998],[-76.59977409999999,35.39999999999998],[-76.59764899999999,35.39999999999998],[-76.59753799999999,35.39999999999998],[-76.59625729999999,35.39999999999998],[-76.59607269999998,35.39999999999998],[-76.59443199999998,35.39999999999998],[-76.58719000000002,35.39999999999998],[-76.58134009999998,35.39999999999998],[-76.57703850000001,35.39999999999998],[-76.57499999999999,35.39999999999998],[-76.57499999999999,35.39902740000002],[-76.57499999999999,35.39337210000002],[-76.57499999999999,35.390320599999995],[-76.57499999999999,35.38936050000001],[-76.57499999999999,35.3890116],[-76.57499999999999,35.38895960000002],[-76.57499999999999,35.38860140000003],[-76.57499999999999,35.383696199999974],[-76.57499999999999,35.379954399999974],[-76.57499999999999,35.35446780000001],[-76.57499999999999,35.34143210000002],[-76.57499999999999,35.335080000000005],[-76.57499999999999,35.33070249999997],[-76.57499999999999,35.33044050000001],[-76.57499999999999,35.32933170000001],[-76.57499999999999,35.328947400000004],[-76.57499999999999,35.32808299999999],[-76.57499999999999,35.32499999999999],[-76.5754657,35.32499999999999],[-76.5765748,35.32499999999999],[-76.57840440000001,35.32499999999999],[-76.57897000000003,35.32499999999999],[-76.58070559999999,35.32499999999999],[-76.58436019999999,35.32499999999999],[-76.60160439999999,35.32499999999999],[-76.6017286,35.32499999999999],[-76.60652499999998,35.32499999999999],[-76.60860159999999,35.32499999999999],[-76.6128941,35.32499999999999],[-76.6164589,35.32499999999999],[-76.61702359999998,35.32499999999999],[-76.61737049999999,35.32499999999999],[-76.61859120000003,35.32499999999999],[-76.6237567,35.32499999999999],[-76.62412210000002,35.32499999999999],[-76.62776430000002,35.32499999999999],[-76.62822749999998,35.32499999999999],[-76.6293857,35.32499999999999],[-76.63744550000001,35.32499999999999],[-76.6376722,35.32499999999999],[-76.63800090000001,35.32499999999999],[-76.64661469999999,35.32499999999999],[-76.64781119999998,35.32499999999999],[-76.64969079999997,35.32499999999999],[-76.6499933,35.32499999999999]]]}},{"type":"Feature","properties":{},"geometry":{"type":"Polygon","coordinates":[[[-76.57026839999997,35.32499999999999],[-76.57499999999999,35.32499999999999],[-76.57499999999999,35.32808299999999],[-76.57499999999999,35.328947400000004],[-76.57499999999999,35.32933170000001],[-76.57499999999999,35.33044050000001],[-76.57499999999999,35.33070249999997],[-76.57499999999999,35.335080000000005],[-76.57499999999999,35.34143210000002],[-76.57499999999999,35.35446780000001],[-76.57499999999999,35.379954399999974],[-76.57499999999999,35.383696199999974],[-76.57499999999999,35.38860140000003],[-76.57499999999999,35.38895960000002],[-76.57499999999999,35.3890116],[-76.57499999999999,35.38936050000001],[-76.57499999999999,35.390320599999995],[-76.57499999999999,35.39337210000002],[-76.57499999999999,35.39902740000002],[-76.57499999999999,35.39999999999998],[-76.57039300000002,35.39999999999998],[-76.5603878,35.39999999999998],[-76.56019500000002,35.39999999999998],[-76.54078700000002,35.39999999999998],[-76.53665339999998,35.39999999999998],[-76.5297124,35.39999999999998],[-76.51989259999999,35.39999999999998],[-76.5195976,35.39999999999998],[-76.5145402,35.39999999999998],[-76.51281949999998,35.39999999999998],[-76.5109673,35.39999999999998],[-76.5070177,35.39999999999998],[-76.50236999999998,35.39999999999998],[-76.50209310000002,35.39999999999998],[-76.50100759999998,35.39999999999998],[-76.50069350000001,35.39999999999998],[-76.5,35.39999999999998],[-76.5,35.39996609999997],[-76.5,35.39662249999998],[-76.5,35.39512860000002],[-76.5,35.3939178],[-76.5,35.387312099999974],[-76.5,35.37967259999999],[-76.5,35.37382439999999],[-76.5,35.37133660000001],[-76.5,35.33057930000001],[-76.5,35.32499999999999],[-76.51832940000003,35.32499999999999],[-76.53698930000002,35.32499999999999],[-76.54517750000002,35.32499999999999],[-76.5508092,35.32499999999999],[-76.55202150000002,35.32499999999999],[-76.55399649999998,35.32499999999999],[-76.55427220000001,35.32499999999999],[-76.55867009999997,35.32499999999999],[-76.56184539999998,35.32499999999999],[-76.56393150000002,35.32499999999999],[-76.56592999999998,35.32499999999999],[-76.56754740000002,35.32499999999999],[-76.56889000000001,35.32499999999999],[-76.57026839999997,35.32499999999999]]]}},{"type":"Feature","properties":{},"geometry":{"type":"Polygon","coordinates":[[[-76.32129750000001,35.32499999999999],[-76.35000000000002,35.32499999999999],[-76.35000000000002,35.336880399999984],[-76.35000000000002,35.33940999999999],[-76.35000000000002,35.34294879999999],[-76.35000000000002,35.34683439999998],[-76.35000000000002,35.34734400000002],[-76.35000000000002,35.35033820000001],[-76.35000000000002,35.35149050000001],[-76.35000000000002,35.35330499999998],[-76.35000000000002,35.36464480000001],[-76.35000000000002,35.377117],[-76.35000000000002,35.38273670000001],[-76.35000000000002,35.389101700000026],[-76.35000000000002,35.391988200000014],[-76.35000000000002,35.39567579999999],[-76.35000000000002,35.39999999999998],[-76.34992799999998,35.39999999999998],[-76.34761429999998,35.39999999999998],[-76.34240649999998,35.39999999999998],[-76.34198270000002,35.39999999999998],[-76.3418289,35.39999999999998],[-76.34161269999998,35.39999999999998],[-76.3415445,35.39999999999998],[-76.3372291,35.39999999999998],[-76.33053749999999,35.39999999999998],[-76.27499999999998,35.39999999999998],[-76.27499999999998,35.37645620000001],[-76.27499999999998,35.368013099999985],[-76.27499999999998,35.35978299999999],[-76.27499999999998,35.352212099999974],[-76.27499999999998,35.34238019999998],[-76.27499999999998,35.34050980000001],[-76.27499999999998,35.332336],[-76.27499999999998,35.331252500000005],[-76.27499999999998,35.32499999999999],[-76.27822800000001,35.32499999999999],[-76.28460919999998,35.32499999999999],[-76.29355980000003,35.32499999999999],[-76.29520839999998,35.32499999999999],[-76.31116300000002,35.32499999999999],[-76.32129750000001,35.32499999999999]]]}},{"type":"Feature","properties":{},"geometry":{"type":"Polygon","coordinates":[[[-76.81913459999998,35.47500000000002],[-76.81824280000001,35.47500000000002],[-76.81581829999999,35.47500000000002],[-76.81452389999998,35.47500000000002],[-76.80000000000001,35.47500000000002],[-76.80000000000001,35.473275],[-76.80000000000001,35.47042240000002],[-76.80000000000001,35.441881799999976],[-76.80000000000001,35.441730199999995],[-76.80000000000001,35.44159130000003],[-76.80000000000001,35.44123960000002],[-76.80000000000001,35.4379811],[-76.80000000000001,35.437150900000006],[-76.80000000000001,35.43411689999999],[-76.80000000000001,35.4326686],[-76.80000000000001,35.40666820000001],[-76.80000000000001,35.39999999999998],[-76.81058760000002,35.39999999999998],[-76.8186359,35.39999999999998],[-76.82088290000002,35.39999999999998],[-76.82208639999999,35.39999999999998],[-76.82257900000002,35.39999999999998],[-76.82278200000002,35.39999999999998],[-76.85499999999999,35.39999999999998],[-76.85499999999999,35.47500000000002],[-76.81913459999998,35.47500000000002]]]}},{"type":"Feature","properties":{},"geometry":{"type":"Polygon","coordinates":[[[-76.79290689999999,35.39999999999998],[-76.80000000000001,35.39999999999998],[-76.80000000000001,35.40666820000001],[-76.80000000000001,35.4326686],[-76.80000000000001,35.43411689999999],[-76.80000000000001,35.437150900000006],[-76.80000000000001,35.4379811],[-76.80000000000001,35.44123960000002],[-76.80000000000001,35.44159130000003],[-76.80000000000001,35.441730199999995],[-76.80000000000001,35.441881799999976],[-76.80000000000001,35.47042240000002],[-76.80000000000001,35.47100560000001],[-76.80000000000001,35.473275],[-76.80000000000001,35.47500000000002],[-76.79559169999999,35.47500000000002],[-76.79401050000001,35.47500000000002],[-76.79076220000002,35.47500000000002],[-76.78707300000002,35.47500000000002],[-76.78638810000001,35.47500000000002],[-76.72500000000002,35.47500000000002],[-76.72500000000002,35.45351849999997],[-76.72500000000002,35.4522346],[-76.72500000000002,35.4437269],[-76.72500000000002,35.438926200000026],[-76.72500000000002,35.4383272],[-76.72500000000002,35.42586],[-76.72500000000002,35.423472300000014],[-76.72500000000002,35.42158599999999],[-76.72500000000002,35.420732699999974],[-76.72500000000002,35.41086619999999],[-76.72500000000002,35.39999999999998],[-76.79290689999999,35.39999999999998]]]}},{"type":"Feature","properties":{},"geometry":{"type":"Polygon","coordinates":[[[-76.65489889999998,35.39999999999998],[-76.72500000000002,35.39999999999998],[-76.72500000000002,35.41086619999999],[-76.72500000000002,35.420732699999974],[-76.72500000000002,35.42158599999999],[-76.72500000000002,35.423472300000014],[-76.72500000000002,35.42586],[-76.72500000000002,35.4383272],[-76.72500000000002,35.438926200000026],[-76.72500000000002,35.4437269],[-76.72500000000002,35.4522346],[-76.72500000000002,35.45351849999997],[-76.72500000000002,35.47500000000002],[-76.64999999999998,35.47500000000002],[-76.64999999999998,35.44327290000001],[-76.64999999999998,35.43856579999999],[-76.64999999999998,35.438330399999984],[-76.64999999999998,35.436961],[-76.64999999999998,35.4363012],[-76.64999999999998,35.43292810000003],[-76.64999999999998,35.43236510000003],[-76.64999999999998,35.43172290000001],[-76.64999999999998,35.430290000000014],[-76.64999999999998,35.4281891],[-76.64999999999998,35.42778700000002],[-76.64999999999998,35.427212499999996],[-76.64999999999998,35.42618090000002],[-76.64999999999998,35.416474100000016],[-76.64999999999998,35.4162384],[-76.64999999999998,35.41596559999999],[-76.64999999999998,35.4156534],[-76.64999999999998,35.41004779999997],[-76.64999999999998,35.40921309999999],[-76.64999999999998,35.40691129999999],[-76.64999999999998,35.406453399999975],[-76.64999999999998,35.40463199999999],[-76.64999999999998,35.39999999999998],[-76.6517159,35.39999999999998],[-76.65489889999998,35.39999999999998]]]}},{"type":"Feature","properties":{},"geometry":{"type":"Polygon","coordinates":[[[-76.646547,35.39999999999998],[-76.64999999999998,35.39999999999998],[-76.64999999999998,35.40463199999999],[-76.64999999999998,35.406453399999975],[-76.64999999999998,35.40691129999999],[-76.64999999999998,35.40921309999999],[-76.64999999999998,35.41004779999997],[-76.64999999999998,35.4156534],[-76.64999999999998,35.41596559999999],[-76.64999999999998,35.4162384],[-76.64999999999998,35.416474100000016],[-76.64999999999998,35.42618090000002],[-76.64999999999998,35.427212499999996],[-76.64999999999998,35.42778700000002],[-76.64999999999998,35.4281891],[-76.64999999999998,35.430290000000014],[-76.64999999999998,35.43172290000001],[-76.64999999999998,35.43236510000003],[-76.64999999999998,35.43292810000003],[-76.64999999999998,35.4363012],[-76.64999999999998,35.436961],[-76.64999999999998,35.438330399999984],[-76.64999999999998,35.43856579999999],[-76.64999999999998,35.44327290000001],[-76.64999999999998,35.47500000000002],[-76.60136899999998,35.47500000000002],[-76.59666800000002,35.47500000000002],[-76.58624270000001,35.47500000000002],[-76.58588559999998,35.47500000000002],[-76.58082839999997,35.47500000000002],[-76.57499999999999,35.47500000000002],[-76.57499999999999,35.4688797],[-76.57499999999999,35.46624700000001],[-76.57499999999999,35.46104389999999],[-76.57499999999999,35.448918900000024],[-76.57499999999999,35.44719889999999],[-76.57499999999999,35.441576999999995],[-76.57499999999999,35.43169169999999],[-76.57499999999999,35.42914939999997],[-76.57499999999999,35.42819650000001],[-76.57499999999999,35.42636540000001],[-76.57499999999999,35.41411950000003],[-76.57499999999999,35.41196389999999],[-76.57499999999999,35.40766869999999],[-76.57499999999999,35.39999999999998],[-76.57703850000001,35.39999999999998],[-76.58134009999998,35.39999999999998],[-76.58719000000002,35.39999999999998],[-76.59443199999998,35.39999999999998],[-76.59607269999998,35.39999999999998],[-76.59625729999999,35.39999999999998],[-76.59753799999999,35.39999999999998],[-76.59764899999999,35.39999999999998],[-76.59977409999999,35.39999999999998],[-76.62963079999997,35.39999999999998],[-76.64118250000001,35.39999999999998],[-76.646547,35.39999999999998]]]}},{"type":"Feature","properties":{},"geometry":{"type":"Polygon","coordinates":[[[-76.57039300000002,35.39999999999998],[-76.57499999999999,35.39999999999998],[-76.57499999999999,35.40766869999999],[-76.57499999999999,35.41196389999999],[-76.57499999999999,35.41411950000003],[-76.57499999999999,35.42636540000001],[-76.57499999999999,35.42819650000001],[-76.57499999999999,35.42914939999997],[-76.57499999999999,35.43169169999999],[-76.57499999999999,35.441576999999995],[-76.57499999999999,35.44719889999999],[-76.57499999999999,35.448918900000024],[-76.57499999999999,35.46104389999999],[-76.57499999999999,35.46624700000001],[-76.57499999999999,35.4688797],[-76.57499999999999,35.47500000000002],[-76.57486799999998,35.47500000000002],[-76.57137879999999,35.47500000000002],[-76.568285,35.47500000000002],[-76.5629859,35.47500000000002],[-76.56263869999998,35.47500000000002],[-76.56191360000003,35.47500000000002],[-76.55602340000002,35.47500000000002],[-76.54710310000002,35.47500000000002],[-76.5467425,35.47500000000002],[-76.5464374,35.47500000000002],[-76.54466489999999,35.47500000000002],[-76.54394339999999,35.47500000000002],[-76.54160250000001,35.47500000000002],[-76.5408615,35.47500000000002],[-76.5391419,35.47500000000002],[-76.53782369999999,35.47500000000002],[-76.52602940000003,35.47500000000002],[-76.52386369999999,35.47500000000002],[-76.52153019999997,35.47500000000002],[-76.52098960000001,35.47500000000002],[-76.5146767,35.47500000000002],[-76.51304720000002,35.47500000000002],[-76.5,35.47500000000002],[-76.5,35.464191400000004],[-76.5,35.46228289999999],[-76.5,35.460309300000006],[-76.5,35.453531699999985],[-76.5,35.42117059999998],[-76.5,35.420801900000015],[-76.5,35.419752200000005],[-76.5,35.41960940000001],[-76.5,35.419057399999986],[-76.5,35.41735110000002],[-76.5,35.4169321],[-76.5,35.40921730000002],[-76.5,35.4081807],[-76.5,35.406545900000026],[-76.5,35.40411289999997],[-76.5,35.40368289999998],[-76.5,35.39999999999998],[-76.50069350000001,35.39999999999998],[-76.50100759999998,35.39999999999998],[-76.50209310000002,35.39999999999998],[-76.50236999999998,35.39999999999998],[-76.5070177,35.39999999999998],[-76.5109673,35.39999999999998],[-76.51281949999998,35.39999999999998],[-76.5145402,35.39999999999998],[-76.5195976,35.39999999999998],[-76.51989259999999,35.39999999999998],[-76.5297124,35.39999999999998],[-76.53665339999998,35.39999999999998],[-76.54078700000002,35.39999999999998],[-76.56019500000002,35.39999999999998],[-76.5603878,35.39999999999998],[-76.57039300000002,35.39999999999998]]]}},{"type":"Feature","properties":{},"geometry":{"type":"Polygon","coordinates":[[[-76.80000000000001,35.55000000000001],[-76.80000000000001,35.5124141],[-76.80000000000001,35.51209419999998],[-76.80000000000001,35.51130410000002],[-76.80000000000001,35.47500000000002],[-76.81452389999998,35.47500000000002],[-76.81581829999999,35.47500000000002],[-76.81824280000001,35.47500000000002],[-76.81913459999998,35.47500000000002],[-76.85499999999999,35.47500000000002],[-76.85499999999999,35.55000000000001],[-76.80000000000001,35.55000000000001]]]}},{"type":"Feature","properties":{},"geometry":{"type":"Polygon","coordinates":[[[-76.79559169999999,35.47500000000002],[-76.80000000000001,35.47500000000002],[-76.80000000000001,35.51130410000002],[-76.80000000000001,35.51209419999998],[-76.80000000000001,35.5124141],[-76.80000000000001,35.55000000000001],[-76.72500000000002,35.55000000000001],[-76.72500000000002,35.52708150000001],[-76.72500000000002,35.52280780000001],[-76.72500000000002,35.519045500000004],[-76.72500000000002,35.51269739999998],[-76.72500000000002,35.51055020000001],[-76.72500000000002,35.50253900000001],[-76.72500000000002,35.50201229999999],[-76.72500000000002,35.47500000000002],[-76.78638810000001,35.47500000000002],[-76.78707300000002,35.47500000000002],[-76.79076220000002,35.47500000000002],[-76.79401050000001,35.47500000000002],[-76.79559169999999,35.47500000000002]]]}},{"type":"Feature","properties":{},"geometry":{"type":"Polygon","coordinates":[[[-76.72500000000002,35.47500000000002],[-76.72500000000002,35.50201229999999],[-76.72500000000002,35.50253900000001],[-76.72500000000002,35.51055020000001],[-76.72500000000002,35.51269739999998],[-76.72500000000002,35.519045500000004],[-76.72500000000002,35.52280780000001],[-76.72500000000002,35.52708150000001],[-76.72500000000002,35.55000000000001],[-76.6943331,35.55000000000001],[-76.68911450000002,35.55000000000001],[-76.6890209,35.55000000000001],[-76.68762029999999,35.55000000000001],[-76.68616279999998,35.55000000000001],[-76.66699319999998,35.55000000000001],[-76.6628283,35.55000000000001],[-76.6620231,35.55000000000001],[-76.65634770000003,35.55000000000001],[-76.65630199999998,35.55000000000001],[-76.6509011,35.55000000000001],[-76.64999999999998,35.55000000000001],[-76.64999999999998,35.54970370000001],[-76.64999999999998,35.54647619999997],[-76.64999999999998,35.54305049999999],[-76.64999999999998,35.538429199999996],[-76.64999999999998,35.53777889999998],[-76.64999999999998,35.530316500000026],[-76.64999999999998,35.529298100000005],[-76.64999999999998,35.52807100000001],[-76.64999999999998,35.51876279999999],[-76.64999999999998,35.518379100000004],[-76.64999999999998,35.51740080000002],[-76.64999999999998,35.51680379999999],[-76.64999999999998,35.51672669999999],[-76.64999999999998,35.515603399999975],[-76.64999999999998,35.51203079999999],[-76.64999999999998,35.507204],[-76.64999999999998,35.50570959999999],[-76.64999999999998,35.49158649999998],[-76.64999999999998,35.4849701],[-76.64999999999998,35.47500000000002],[-76.72500000000002,35.47500000000002]]]}},{"type":"Feature","properties":{},"geometry":{"type":"Polygon","coordinates":[[[-76.60136899999998,35.47500000000002],[-76.64999999999998,35.47500000000002],[-76.64999999999998,35.4849701],[-76.64999999999998,35.49158649999998],[-76.64999999999998,35.50570959999999],[-76.64999999999998,35.507204],[-76.64999999999998,35.51203079999999],[-76.64999999999998,35.515603399999975],[-76.64999999999998,35.51672669999999],[-76.64999999999998,35.51680379999999],[-76.64999999999998,35.51740080000002],[-76.64999999999998,35.518379100000004],[-76.64999999999998,35.51876279999999],[-76.64999999999998,35.52807100000001],[-76.64999999999998,35.529298100000005],[-76.64999999999998,35.530316500000026],[-76.64999999999998,35.53777889999998],[-76.64999999999998,35.538429199999996],[-76.64999999999998,35.54305049999999],[-76.64999999999998,35.54647619999997],[-76.64999999999998,35.54970370000001],[-76.64999999999998,35.55000000000001],[-76.64732500000002,35.55000000000001],[-76.64591439999998,35.55000000000001],[-76.63491320000003,35.55000000000001],[-76.63350580000002,35.55000000000001],[-76.6294886,35.55000000000001],[-76.59536029999998,35.55000000000001],[-76.59271059999998,35.55000000000001],[-76.59200659999999,35.55000000000001],[-76.58974119999999,35.55000000000001],[-76.58565420000002,35.55000000000001],[-76.5842778,35.55000000000001],[-76.58149500000002,35.55000000000001],[-76.5783348,35.55000000000001],[-76.57777049999999,35.55000000000001],[-76.57499999999999,35.55000000000001],[-76.57499999999999,35.5498508],[-76.57499999999999,35.53930350000002],[-76.57499999999999,35.53472900000003],[-76.57499999999999,35.52223520000001],[-76.57499999999999,35.52195069999999],[-76.57499999999999,35.5215],[-76.57499999999999,35.518974300000025],[-76.57499999999999,35.51612590000002],[-76.57499999999999,35.513326000000006],[-76.57499999999999,35.508801500000004],[-76.57499999999999,35.50591429999997],[-76.57499999999999,35.505492000000004],[-76.57499999999999,35.5046097],[-76.57499999999999,35.50323950000001],[-76.57499999999999,35.50159960000002],[-76.57499999999999,35.50127809999998],[-76.57499999999999,35.49877650000002],[-76.57499999999999,35.494122800000014],[-76.57499999999999,35.49335830000001],[-76.57499999999999,35.49027890000002],[-76.57499999999999,35.486080000000015],[-76.57499999999999,35.48440019999998],[-76.57499999999999,35.475186699999995],[-76.57499999999999,35.47500000000002],[-76.58082839999997,35.47500000000002],[-76.58588559999998,35.47500000000002],[-76.58624270000001,35.47500000000002],[-76.59666800000002,35.47500000000002],[-76.60136899999998,35.47500000000002]]]}},{"type":"Feature","properties":{},"geometry":{"type":"Polygon","coordinates":[[[-76.57486799999998,35.47500000000002],[-76.57499999999999,35.47500000000002],[-76.57499999999999,35.475186699999995],[-76.57499999999999,35.48440019999998],[-76.57499999999999,35.486080000000015],[-76.57499999999999,35.49027890000002],[-76.57499999999999,35.49335830000001],[-76.57499999999999,35.494122800000014],[-76.57499999999999,35.49877650000002],[-76.57499999999999,35.50127809999998],[-76.57499999999999,35.50159960000002],[-76.57499999999999,35.50323950000001],[-76.57499999999999,35.5046097],[-76.57499999999999,35.505492000000004],[-76.57499999999999,35.50591429999997],[-76.57499999999999,35.508801500000004],[-76.57499999999999,35.513326000000006],[-76.57499999999999,35.51612590000002],[-76.57499999999999,35.518974300000025],[-76.57499999999999,35.5215],[-76.57499999999999,35.52195069999999],[-76.57499999999999,35.52223520000001],[-76.57499999999999,35.53472900000003],[-76.57499999999999,35.53930350000002],[-76.57499999999999,35.5498508],[-76.57499999999999,35.55000000000001],[-76.5741519,35.55000000000001],[-76.53246669999999,35.55000000000001],[-76.52987000000002,35.55000000000001],[-76.5295903,35.55000000000001],[-76.52877430000001,35.55000000000001],[-76.52580849999998,35.55000000000001],[-76.52519660000002,35.55000000000001],[-76.52470890000001,35.55000000000001],[-76.5,35.55000000000001],[-76.5,35.53833700000001],[-76.5,35.536272499999995],[-76.5,35.53482539999999],[-76.5,35.53442150000001],[-76.5,35.53194000000002],[-76.5,35.51922910000002],[-76.5,35.51869199999999],[-76.5,35.5182805],[-76.5,35.5175241],[-76.5,35.51581199999998],[-76.5,35.5155067],[-76.5,35.51500470000002],[-76.5,35.50978629999997],[-76.5,35.5028906],[-76.5,35.47500000000002],[-76.51304720000002,35.47500000000002],[-76.5146767,35.47500000000002],[-76.52098960000001,35.47500000000002],[-76.52153019999997,35.47500000000002],[-76.52386369999999,35.47500000000002],[-76.52602940000003,35.47500000000002],[-76.53782369999999,35.47500000000002],[-76.5391419,35.47500000000002],[-76.5408615,35.47500000000002],[-76.54160250000001,35.47500000000002],[-76.54394339999999,35.47500000000002],[-76.54466489999999,35.47500000000002],[-76.5464374,35.47500000000002],[-76.5467425,35.47500000000002],[-76.54710310000002,35.47500000000002],[-76.55602340000002,35.47500000000002],[-76.56191360000003,35.47500000000002],[-76.56263869999998,35.47500000000002],[-76.5629859,35.47500000000002],[-76.568285,35.47500000000002],[-76.57137879999999,35.47500000000002],[-76.57486799999998,35.47500000000002]]]}},{"type":"Feature","properties":{},"geometry":{"type":"Polygon","coordinates":[[[-76.48268489999998,35.47500000000002],[-76.5,35.47500000000002],[-76.5,35.5028906],[-76.5,35.50978629999997],[-76.5,35.51500470000002],[-76.5,35.5155067],[-76.5,35.51581199999998],[-76.5,35.5175241],[-76.5,35.5182805],[-76.5,35.51869199999999],[-76.5,35.51922910000002],[-76.5,35.53194000000002],[-76.5,35.53442150000001],[-76.5,35.53482539999999],[-76.5,35.536272499999995],[-76.5,35.53833700000001],[-76.5,35.55000000000001],[-76.48748490000003,35.55000000000001],[-76.48656440000002,35.55000000000001],[-76.4807083,35.55000000000001],[-76.47947470000003,35.55000000000001],[-76.47755699999999,35.55000000000001],[-76.4748897,35.55000000000001],[-76.46797020000002,35.55000000000001],[-76.46670189999998,35.55000000000001],[-76.46554229999998,35.55000000000001],[-76.46219070000001,35.55000000000001],[-76.46193169999998,35.55000000000001],[-76.45740619999998,35.55000000000001],[-76.45503780000001,35.55000000000001],[-76.44919449999998,35.55000000000001],[-76.4480724,35.55000000000001],[-76.44776569999999,35.55000000000001],[-76.44697769999999,35.55000000000001],[-76.4440826,35.55000000000001],[-76.4425278,35.55000000000001],[-76.42500000000001,35.55000000000001],[-76.42500000000001,35.51570340000001],[-76.42500000000001,35.47500000000002],[-76.48268489999998,35.47500000000002]]]}},{"type":"Feature","properties":{},"geometry":{"type":"Polygon","coordinates":[[[-76.4790688,35.17500000000001],[-76.49233190000001,35.17500000000001],[-76.49851510000002,35.17500000000001],[-76.5,35.17500000000001],[-76.5,35.18267659999998],[-76.5,35.190395799999976],[-76.5,35.192878500000006],[-76.5,35.197646299999974],[-76.5,35.20215639999998],[-76.5,35.20751469999999],[-76.5,35.21362190000002],[-76.5,35.21995190000001],[-76.5,35.22416370000002],[-76.5,35.22438140000003],[-76.5,35.22561589999998],[-76.5,35.229428299999995],[-76.5,35.2327037],[-76.5,35.23695650000002],[-76.5,35.24190010000001],[-76.5,35.2453711],[-76.5,35.25],[-76.5,35.2631485],[-76.5,35.26365279999999],[-76.5,35.26882999999998],[-76.5,35.27381780000002],[-76.5,35.27695729999999],[-76.5,35.27935289999999],[-76.5,35.284852],[-76.5,35.28626270000001],[-76.5,35.288721099999975],[-76.5,35.28891340000001],[-76.5,35.29142589999998],[-76.5,35.29149560000002],[-76.5,35.29339540000001],[-76.5,35.293574999999976],[-76.5,35.29540659999998],[-76.5,35.297233500000004],[-76.5,35.298353299999974],[-76.5,35.29935599999999],[-76.5,35.303758000000016],[-76.5,35.30599599999999],[-76.5,35.313840500000026],[-76.5,35.31488089999999],[-76.5,35.316592000000014],[-76.5,35.319485199999974],[-76.5,35.32499999999999],[-76.5,35.33057930000001],[-76.5,35.37133660000001],[-76.5,35.37382439999999],[-76.5,35.37967259999999],[-76.5,35.387312099999974],[-76.5,35.3939178],[-76.5,35.39512860000002],[-76.5,35.39662249999998],[-76.5,35.39996609999997],[-76.5,35.39999999999998],[-76.5,35.40368289999998],[-76.5,35.40411289999997],[-76.5,35.406545900000026],[-76.5,35.4081807],[-76.5,35.40921730000002],[-76.5,35.4169321],[-76.5,35.41735110000002],[-76.5,35.419057399999986],[-76.5,35.41960940000001],[-76.5,35.419752200000005],[-76.5,35.420801900000015],[-76.5,35.42117059999998],[-76.5,35.453531699999985],[-76.5,35.460309300000006],[-76.5,35.46228289999999],[-76.5,35.464191400000004],[-76.5,35.47500000000002],[-76.48268489999998,35.47500000000002],[-76.4812733,35.410819600000025],[-76.4812407,35.40933510000002],[-76.48123270000002,35.40897410000002],[-76.48116979999998,35.40611510000002],[-76.48113999999998,35.4047602],[-76.48108939999997,35.402456900000004],[-76.48104869999997,35.40060820000002],[-76.48104419999999,35.40040429999999],[-76.48093790000001,35.395566900000006],[-76.4809196,35.39473570000001],[-76.48091679999999,35.39460930000001],[-76.4808918,35.393469700000026],[-76.48078149999998,35.3884587],[-76.4807609,35.38752019999998],[-76.4804724,35.374403900000004],[-76.48046199999999,35.373929299999986],[-76.48031989999998,35.36746690000001],[-76.48027780000001,35.36555550000003],[-76.48020020000001,35.36555550000003],[-76.48014369999999,35.362880200000006],[-76.4801415,35.3627778],[-76.48027780000001,35.3627778],[-76.47949310000001,35.32397550000002],[-76.47936470000002,35.3176292],[-76.47927229999999,35.313059399999986],[-76.47913929999999,35.30648400000001],[-76.47906610000001,35.30286319999999],[-76.47895770000002,35.2975065],[-76.478925,35.29588639999997],[-76.47889049999998,35.29418149999998],[-76.47885789999998,35.292569300000025],[-76.4787781,35.288625000000025],[-76.47874089999999,35.28678350000001],[-76.4786704,35.2832985],[-76.47859679999999,35.2796606],[-76.47847489999998,35.273630000000026],[-76.47838339999998,35.26910550000002],[-76.47826359999999,35.2631854],[-76.47823469999997,35.26175469999998],[-76.47817859999998,35.25898339999998],[-76.47793569999999,35.24697309999999],[-76.47792989999999,35.24668830000002],[-76.47791330000001,35.245863499999984],[-76.47780640000002,35.24057720000002],[-76.47779880000002,35.240205600000024],[-76.47772839999999,35.236716],[-76.47768739999998,35.2346933],[-76.47732960000002,35.2170036],[-76.47688040000003,35.194788700000004],[-76.4767989,35.19075759999998],[-76.47659620000002,35.18073679999998],[-76.4765668,35.179284199999984],[-76.47650520000002,35.176235099999985],[-76.47648020000003,35.17500000000001],[-76.4790688,35.17500000000001]]]}},{"type":"Feature","properties":{},"geometry":{"type":"Polygon","coordinates":[[[-76.6943331,35.55000000000001],[-76.72500000000002,35.55000000000001],[-76.72500000000002,35.56691940000002],[-76.72500000000002,35.625],[-76.71088079999998,35.625],[-76.69902780000001,35.625],[-76.64999999999998,35.625],[-76.64999999999998,35.57787050000002],[-76.64999999999998,35.575406699999974],[-76.64999999999998,35.57445039999999],[-76.64999999999998,35.572853699999996],[-76.64999999999998,35.571848999999986],[-76.64999999999998,35.57105369999999],[-76.64999999999998,35.5707774],[-76.64999999999998,35.56599749999998],[-76.64999999999998,35.55837250000002],[-76.64999999999998,35.55177680000003],[-76.64999999999998,35.55000000000001],[-76.6509011,35.55000000000001],[-76.65630199999998,35.55000000000001],[-76.65634770000003,35.55000000000001],[-76.6620231,35.55000000000001],[-76.6628283,35.55000000000001],[-76.66699319999998,35.55000000000001],[-76.68616279999998,35.55000000000001],[-76.68762029999999,35.55000000000001],[-76.6890209,35.55000000000001],[-76.68911450000002,35.55000000000001],[-76.6943331,35.55000000000001]]]}},{"type":"Feature","properties":{},"geometry":{"type":"Polygon","coordinates":[[[-76.64732500000002,35.55000000000001],[-76.64999999999998,35.55000000000001],[-76.64999999999998,35.55177680000003],[-76.64999999999998,35.55837250000002],[-76.64999999999998,35.56599749999998],[-76.64999999999998,35.5707774],[-76.64999999999998,35.57105369999999],[-76.64999999999998,35.571848999999986],[-76.64999999999998,35.572853699999996],[-76.64999999999998,35.57445039999999],[-76.64999999999998,35.575406699999974],[-76.64999999999998,35.57787050000002],[-76.64999999999998,35.625],[-76.57499999999999,35.625],[-76.57499999999999,35.55243330000002],[-76.57499999999999,35.5508648],[-76.57499999999999,35.55061599999999],[-76.57499999999999,35.55000000000001],[-76.57777049999999,35.55000000000001],[-76.5783348,35.55000000000001],[-76.58149500000002,35.55000000000001],[-76.5842778,35.55000000000001],[-76.58565420000002,35.55000000000001],[-76.58974119999999,35.55000000000001],[-76.59200659999999,35.55000000000001],[-76.59271059999998,35.55000000000001],[-76.59536029999998,35.55000000000001],[-76.6294886,35.55000000000001],[-76.63350580000002,35.55000000000001],[-76.63491320000003,35.55000000000001],[-76.6459145,35.55000000000001],[-76.64732500000002,35.55000000000001]]]}},{"type":"Feature","properties":{},"geometry":{"type":"Polygon","coordinates":[[[-76.5741519,35.55000000000001],[-76.57499999999999,35.55000000000001],[-76.57499999999999,35.55061599999999],[-76.57499999999999,35.5508648],[-76.57499999999999,35.55243330000002],[-76.57499999999999,35.625],[-76.5,35.625],[-76.5,35.58373469999998],[-76.5,35.581455800000015],[-76.5,35.58075480000002],[-76.5,35.579499999999996],[-76.5,35.57760239999999],[-76.5,35.577277700000025],[-76.5,35.57593780000002],[-76.5,35.5753598],[-76.5,35.57446220000003],[-76.5,35.57308010000003],[-76.5,35.572684200000026],[-76.5,35.57222139999999],[-76.5,35.570798000000025],[-76.5,35.57004069999999],[-76.5,35.5695164],[-76.5,35.56050049999999],[-76.5,35.55000000000001],[-76.52470890000001,35.55000000000001],[-76.52519660000002,35.55000000000001],[-76.52580849999998,35.55000000000001],[-76.52877430000001,35.55000000000001],[-76.5295903,35.55000000000001],[-76.52987000000002,35.55000000000001],[-76.53246669999999,35.55000000000001],[-76.5741519,35.55000000000001]]]}},{"type":"Feature","properties":{},"geometry":{"type":"Polygon","coordinates":[[[-76.48748490000003,35.55000000000001],[-76.5,35.55000000000001],[-76.5,35.56050049999999],[-76.5,35.5695164],[-76.5,35.57004069999999],[-76.5,35.570798000000025],[-76.5,35.57222139999999],[-76.5,35.572684200000026],[-76.5,35.57308010000003],[-76.5,35.57446220000003],[-76.5,35.5753598],[-76.5,35.57593780000002],[-76.5,35.577277700000025],[-76.5,35.57760239999999],[-76.5,35.579499999999996],[-76.5,35.58075480000002],[-76.5,35.581455800000015],[-76.5,35.58373469999998],[-76.5,35.625],[-76.4372889,35.625],[-76.42500000000001,35.625],[-76.42500000000001,35.55831949999998],[-76.42500000000001,35.5578893],[-76.42500000000001,35.55762390000001],[-76.42500000000001,35.55000000000001],[-76.4425278,35.55000000000001],[-76.4440826,35.55000000000001],[-76.44697769999999,35.55000000000001],[-76.44776569999999,35.55000000000001],[-76.4480724,35.55000000000001],[-76.44919449999998,35.55000000000001],[-76.45503780000001,35.55000000000001],[-76.45740619999998,35.55000000000001],[-76.46193169999998,35.55000000000001],[-76.46219070000001,35.55000000000001],[-76.46554229999998,35.55000000000001],[-76.46670189999998,35.55000000000001],[-76.46797020000002,35.55000000000001],[-76.4748897,35.55000000000001],[-76.47755699999999,35.55000000000001],[-76.47947470000003,35.55000000000001],[-76.4807083,35.55000000000001],[-76.48656440000002,35.55000000000001],[-76.48748490000003,35.55000000000001]]]}},{"type":"Feature","properties":{},"geometry":{"type":"Polygon","coordinates":[[[-76.38769059999998,35.55000000000001],[-76.42500000000001,35.55000000000001],[-76.42500000000001,35.55762390000001],[-76.42500000000001,35.5578893],[-76.42500000000001,35.55831949999998],[-76.42500000000001,35.625],[-76.35000000000002,35.625],[-76.35000000000002,35.57145639999999],[-76.35000000000002,35.5711685],[-76.35000000000002,35.57090149999999],[-76.35000000000002,35.55000000000001],[-76.38769059999998,35.55000000000001]]]}},{"type":"Feature","properties":{},"geometry":{"type":"Polygon","coordinates":[[[-76.32212570000002,35.55000000000001],[-76.34400929999998,35.55000000000001],[-76.35000000000002,35.55000000000001],[-76.35000000000002,35.57090149999999],[-76.35000000000002,35.5711685],[-76.35000000000002,35.57145639999999],[-76.35000000000002,35.625],[-76.31398610000002,35.625],[-76.3075786,35.625],[-76.29494720000002,35.625],[-76.27499999999998,35.625],[-76.27499999999998,35.584763699999996],[-76.27499999999998,35.5844194],[-76.27499999999998,35.584276699999975],[-76.27499999999998,35.56905389999997],[-76.27499999999998,35.568814599999996],[-76.27499999999998,35.55000000000001],[-76.32212570000002,35.55000000000001]]]}},{"type":"Feature","properties":{},"geometry":{"type":"Polygon","coordinates":[[[-76.27499999999998,35.55000000000001],[-76.27499999999998,35.568814599999996],[-76.27499999999998,35.56905389999997],[-76.27499999999998,35.584276699999975],[-76.27499999999998,35.5844194],[-76.27499999999998,35.584763699999996],[-76.27499999999998,35.625],[-76.245,35.625],[-76.245,35.55000000000001],[-76.27499999999998,35.55000000000001]]]}}]}