{"type":"FeatureCollection","features":[{"type":"Feature","properties":{},"geometry":{"type":"Polygon","coordinates":[[[-76.57499999999999,37.42500000000001],[-76.526478,37.42500000000001],[-76.5,37.42500000000001],[-76.5,37.41885100000002],[-76.5,37.418147799999986],[-76.5,37.417551100000026],[-76.5,37.41657809999998],[-76.5,37.41593549999999],[-76.5,37.41433239999998],[-76.5,37.41336910000001],[-76.5,37.412870699999985],[-76.5,37.40300989999997],[-76.5,37.40133159999999],[-76.5,37.40106429999997],[-76.5,37.375],[-76.57499999999999,37.375],[-76.57499999999999,37.42500000000001]]]}},{"type":"Feature","properties":{},"geometry":{"type":"Polygon","coordinates":[[[-76.5,37.40106429999997],[-76.5,37.40133159999999],[-76.5,37.40300989999997],[-76.5,37.412870699999985],[-76.5,37.41336910000001],[-76.5,37.41433239999998],[-76.5,37.41593549999999],[-76.5,37.41657809999998],[-76.5,37.417551100000026],[-76.5,37.418147799999986],[-76.5,37.41885100000002],[-76.5,37.42500000000001],[-76.46320830000002,37.42500000000001],[-76.46195290000003,37.42500000000001],[-76.45256119999999,37.42500000000001],[-76.4513718,37.42500000000001],[-76.44785439999998,37.42500000000001],[-76.44345090000002,37.42500000000001],[-76.42500000000001,37.42500000000001],[-76.42500000000001,37.4216869],[-76.42500000000001,37.42107540000001],[-76.42500000000001,37.41793910000001],[-76.42500000000001,37.412807499999985],[-76.42500000000001,37.411791900000026],[-76.42500000000001,37.41044410000001],[-76.42500000000001,37.39877969999998],[-76.42500000000001,37.39850080000002],[-76.42500000000001,37.39699630000001],[-76.42500000000001,37.3965182],[-76.42500000000001,37.39369599999998],[-76.42500000000001,37.393532300000004],[-76.42500000000001,37.38034590000001],[-76.42500000000001,37.380064000000004],[-76.42500000000001,37.3799338],[-76.42500000000001,37.379596900000024],[-76.42500000000001,37.37866589999999],[-76.42500000000001,37.3783464],[-76.42500000000001,37.375],[-76.5,37.375],[-76.5,37.40106429999997]]]}},{"type":"Feature","properties":{},"geometry":{"type":"Polygon","coordinates":[[[-76.42500000000001,37.3783464],[-76.42500000000001,37.37866589999999],[-76.42500000000001,37.379596900000024],[-76.42500000000001,37.3799338],[-76.42500000000001,37.380064000000004],[-76.42500000000001,37.38034590000001],[-76.42500000000001,37.393532300000004],[-76.42500000000001,37.39369599999998],[-76.42500000000001,37.3965182],[-76.42500000000001,37.39699630000001],[-76.42500000000001,37.39850080000002],[-76.42500000000001,37.39877969999998],[-76.42500000000001,37.41044410000001],[-76.42500000000001,37.411791900000026],[-76.42500000000001,37.412807499999985],[-76.42500000000001,37.41793910000001],[-76.42500000000001,37.42107540000001],[-76.42500000000001,37.4216869],[-76.42500000000001,37.42500000000001],[-76.40989710000002,37.42500000000001],[-76.40818519999999,37.42500000000001],[-76.40569979999998,37.42500000000001],[-76.40495240000001,37.42500000000001],[-76.40456339999997,37.42500000000001],[-76.4030229,37.42500000000001],[-76.40254800000002,37.42500000000001],[-76.40218620000002,37.42500000000001],[-76.39802739999999,37.42500000000001],[-76.39513140000003,37.42500000000001],[-76.37038690000003,37.42500000000001],[-76.37014799999997,37.42500000000001],[-76.368109,37.42500000000001],[-76.36684250000002,37.42500000000001],[-76.36567430000002,37.42500000000001],[-76.36531630000002,37.42500000000001],[-76.36414380000002,37.42500000000001],[-76.36183039999997,37.42500000000001],[-76.36043740000002,37.42500000000001],[-76.3509737,37.42500000000001],[-76.3506658,37.42500000000001],[-76.35039719999997,37.42500000000001],[-76.35013500000002,37.42500000000001],[-76.35000000000002,37.42500000000001],[-76.35000000000002,37.42348750000002],[-76.35000000000002,37.421171000000015],[-76.35000000000002,37.42107149999998],[-76.35000000000002,37.42068139999998],[-76.35000000000002,37.415630799999974],[-76.35000000000002,37.41361640000002],[-76.35000000000002,37.412368800000024],[-76.35000000000002,37.41175229999999],[-76.35000000000002,37.409130000000005],[-76.35000000000002,37.40890230000002],[-76.35000000000002,37.40886849999998],[-76.35000000000002,37.408391600000016],[-76.35000000000002,37.4080826],[-76.35000000000002,37.405801199999985],[-76.35000000000002,37.404575299999976],[-76.35000000000002,37.40323999999998],[-76.35000000000002,37.40166540000001],[-76.35000000000002,37.40059550000001],[-76.35000000000002,37.3993524],[-76.35000000000002,37.3968251],[-76.35000000000002,37.39600059999998],[-76.35000000000002,37.394136600000024],[-76.35000000000002,37.393162099999984],[-76.35000000000002,37.3848567],[-76.35000000000002,37.384446500000024],[-76.35000000000002,37.37966399999999],[-76.35000000000002,37.375],[-76.42500000000001,37.375],[-76.42500000000001,37.3783464]]]}},{"type":"Feature","properties":{},"geometry":{"type":"Polygon","coordinates":[[[-76.35000000000002,37.37966399999999],[-76.35000000000002,37.384446500000024],[-76.35000000000002,37.3848567],[-76.35000000000002,37.393162099999984],[-76.35000000000002,37.394136600000024],[-76.35000000000002,37.39600059999998],[-76.35000000000002,37.3968251],[-76.35000000000002,37.3993524],[-76.35000000000002,37.40059550000001],[-76.35000000000002,37.40166540000001],[-76.35000000000002,37.40323999999998],[-76.35000000000002,37.404575299999976],[-76.35000000000002,37.405801199999985],[-76.35000000000002,37.4080826],[-76.35000000000002,37.408391600000016],[-76.35000000000002,37.40886849999998],[-76.35000000000002,37.40890230000002],[-76.35000000000002,37.409130000000005],[-76.35000000000002,37.41175229999999],[-76.35000000000002,37.412368800000024],[-76.35000000000002,37.41361640000002],[-76.35000000000002,37.415630799999974],[-76.35000000000002,37.42068139999998],[-76.35000000000002,37.42107149999998],[-76.35000000000002,37.421171000000015],[-76.35000000000002,37.42348750000002],[-76.35000000000002,37.42500000000001],[-76.34828370000002,37.42500000000001],[-76.34506829999998,37.42500000000001],[-76.33272,37.42500000000001],[-76.33218959999999,37.42500000000001],[-76.33109400000001,37.42500000000001],[-76.3299786,37.42500000000001],[-76.27808599999997,37.42500000000001],[-76.27761859999998,37.42500000000001],[-76.27499999999998,37.42500000000001],[-76.27499999999998,37.4213436],[-76.27499999999998,37.4182141],[-76.27499999999998,37.416563999999994],[-76.27499999999998,37.4152924],[-76.27499999999998,37.415004899999985],[-76.27499999999998,37.414226799999994],[-76.27499999999998,37.39099090000002],[-76.27499999999998,37.38913719999999],[-76.27499999999998,37.38106829999998],[-76.27499999999998,37.37839389999999],[-76.27499999999998,37.376339400000006],[-76.27499999999998,37.37589780000002],[-76.27499999999998,37.375],[-76.35000000000002,37.375],[-76.35000000000002,37.37966399999999]]]}},{"type":"Feature","properties":{},"geometry":{"type":"Polygon","coordinates":[[[-76.27499999999998,37.37589780000002],[-76.27499999999998,37.376339400000006],[-76.27499999999998,37.37839389999999],[-76.27499999999998,37.38106829999998],[-76.27499999999998,37.38913719999999],[-76.27499999999998,37.39099090000002],[-76.27499999999998,37.414226799999994],[-76.27499999999998,37.415004899999985],[-76.27499999999998,37.4152924],[-76.27499999999998,37.416563999999994],[-76.27499999999998,37.4182141],[-76.27499999999998,37.4213436],[-76.27499999999998,37.42500000000001],[-76.253692,37.42500000000001],[-76.25213810000002,37.42500000000001],[-76.25163500000002,37.42500000000001],[-76.24729209999998,37.42500000000001],[-76.24143370000002,37.42500000000001],[-76.2360799,37.42500000000001],[-76.2356757,37.42500000000001],[-76.23195750000002,37.42500000000001],[-76.218142,37.42500000000001],[-76.21644090000001,37.42500000000001],[-76.2160862,37.42500000000001],[-76.21450620000002,37.42500000000001],[-76.2073732,37.42500000000001],[-76.19999999999999,37.42500000000001],[-76.19999999999999,37.415969399999994],[-76.19999999999999,37.40080710000001],[-76.19999999999999,37.39999390000003],[-76.19999999999999,37.39722999999998],[-76.19999999999999,37.39577639999999],[-76.19999999999999,37.394320300000004],[-76.19999999999999,37.3806644],[-76.19999999999999,37.375],[-76.27499999999998,37.375],[-76.27499999999998,37.37589780000002]]]}},{"type":"Feature","properties":{},"geometry":{"type":"Polygon","coordinates":[[[-76.46195290000003,37.42500000000001],[-76.46320830000002,37.42500000000001],[-76.5,37.42500000000001],[-76.5,37.483749999999986],[-76.5,37.5],[-76.49138049999999,37.5],[-76.42500000000001,37.5],[-76.42500000000001,37.44569799999999],[-76.42500000000001,37.42500000000001],[-76.44345090000002,37.42500000000001],[-76.44785439999998,37.42500000000001],[-76.4513718,37.42500000000001],[-76.45256119999999,37.42500000000001],[-76.46195290000003,37.42500000000001]]]}},{"type":"Feature","properties":{},"geometry":{"type":"Polygon","coordinates":[[[-76.42500000000001,37.44569799999999],[-76.42500000000001,37.5],[-76.35741519999999,37.5],[-76.35000000000002,37.5],[-76.35000000000002,37.487007300000016],[-76.35000000000002,37.485632899999985],[-76.35000000000002,37.44062220000001],[-76.35000000000002,37.440394500000025],[-76.35000000000002,37.42500000000001],[-76.35013500000002,37.42500000000001],[-76.35039719999997,37.42500000000001],[-76.3506658,37.42500000000001],[-76.3509737,37.42500000000001],[-76.36043740000002,37.42500000000001],[-76.36183039999997,37.42500000000001],[-76.36414380000002,37.42500000000001],[-76.36531630000002,37.42500000000001],[-76.36567430000002,37.42500000000001],[-76.36684250000002,37.42500000000001],[-76.368109,37.42500000000001],[-76.37014799999997,37.42500000000001],[-76.37038690000003,37.42500000000001],[-76.39513140000003,37.42500000000001],[-76.39802739999999,37.42500000000001],[-76.40218620000002,37.42500000000001],[-76.40254800000002,37.42500000000001],[-76.4030229,37.42500000000001],[-76.40456339999997,37.42500000000001],[-76.40495240000001,37.42500000000001],[-76.40569979999998,37.42500000000001],[-76.40818519999999,37.42500000000001],[-76.40989710000002,37.42500000000001],[-76.42500000000001,37.42500000000001],[-76.42500000000001,37.44569799999999]]]}},{"type":"Feature","properties":{},"geometry":{"type":"Polygon","coordinates":[[[-76.34828370000002,37.42500000000001],[-76.35000000000002,37.42500000000001],[-76.35000000000002,37.440394500000025],[-76.35000000000002,37.44062220000001],[-76.35000000000002,37.485632899999985],[-76.35000000000002,37.487007300000016],[-76.35000000000002,37.5],[-76.3318989,37.5],[-76.32559250000003,37.5],[-76.3249945,37.5],[-76.3241246,37.5],[-76.3236665,37.5],[-76.3205949,37.5],[-76.31919349999998,37.5],[-76.31468260000003,37.5],[-76.31400259999998,37.5],[-76.31376019999999,37.5],[-76.31249789999998,37.5],[-76.3037804,37.5],[-76.29392289999998,37.5],[-76.29360000000003,37.5],[-76.2764722,37.5],[-76.27499999999998,37.5],[-76.27499999999998,37.49763280000002],[-76.27499999999998,37.484452999999974],[-76.27499999999998,37.48425800000001],[-76.27499999999998,37.48402420000002],[-76.27499999999998,37.48394669999999],[-76.27499999999998,37.4838651],[-76.27499999999998,37.48199199999999],[-76.27499999999998,37.48156770000003],[-76.27499999999998,37.47876710000003],[-76.27499999999998,37.472331199999985],[-76.27499999999998,37.46981779999999],[-76.27499999999998,37.467256299999974],[-76.27499999999998,37.46375660000001],[-76.27499999999998,37.441217800000004],[-76.27499999999998,37.42500000000001],[-76.27761859999998,37.42500000000001],[-76.27808599999997,37.42500000000001],[-76.3299786,37.42500000000001],[-76.33109400000001,37.42500000000001],[-76.33218959999999,37.42500000000001],[-76.33272,37.42500000000001],[-76.34506829999998,37.42500000000001],[-76.34828370000002,37.42500000000001]]]}},{"type":"Feature","properties":{},"geometry":{"type":"Polygon","coordinates":[[[-76.25213810000002,37.42500000000001],[-76.253692,37.42500000000001],[-76.27499999999998,37.42500000000001],[-76.27499999999998,37.441217800000004],[-76.27499999999998,37.46375660000001],[-76.27499999999998,37.467256299999974],[-76.27499999999998,37.46981779999999],[-76.27499999999998,37.472331199999985],[-76.27499999999998,37.47876710000003],[-76.27499999999998,37.48156770000003],[-76.27499999999998,37.48199199999999],[-76.27499999999998,37.4838651],[-76.27499999999998,37.48394669999999],[-76.27499999999998,37.48402420000002],[-76.27499999999998,37.48425800000001],[-76.27499999999998,37.484452999999974],[-76.27499999999998,37.49763280000002],[-76.27499999999998,37.5],[-76.27289150000001,37.5],[-76.27243479999998,37.5],[-76.27102450000001,37.5],[-76.27058590000001,37.5],[-76.25941419999998,37.5],[-76.2548089,37.5],[-76.25366919999999,37.5],[-76.253353,37.5],[-76.19999999999999,37.5],[-76.19999999999999,37.48788280000002],[-76.19999999999999,37.474265600000024],[-76.19999999999999,37.45435839999999],[-76.19999999999999,37.42500000000001],[-76.2073732,37.42500000000001],[-76.21450620000002,37.42500000000001],[-76.2160862,37.42500000000001],[-76.21644090000001,37.42500000000001],[-76.218142,37.42500000000001],[-76.23195750000002,37.42500000000001],[-76.2356757,37.42500000000001],[-76.2360799,37.42500000000001],[-76.24143370000002,37.42500000000001],[-76.24729209999998,37.42500000000001],[-76.25163500000002,37.42500000000001],[-76.25213810000002,37.42500000000001]]]}},{"type":"Feature","properties":{},"geometry":{"type":"Polygon","coordinates":[[[-76.64999999999998,37.37607109999999],[-76.64999999999998,37.37666230000002],[-76.64999999999998,37.37771509999999],[-76.64999999999998,37.377838],[-76.64999999999998,37.382268599999975],[-76.64999999999998,37.383314900000016],[-76.64999999999998,37.3833396],[-76.64999999999998,37.38425239999998],[-76.64999999999998,37.38485700000001],[-76.64999999999998,37.390758500000004],[-76.64999999999998,37.39110640000001],[-76.64999999999998,37.39428240000001],[-76.64999999999998,37.399988699999994],[-76.64999999999998,37.40482429999997],[-76.64999999999998,37.40527470000001],[-76.64999999999998,37.4056013],[-76.64999999999998,37.40606200000002],[-76.64999999999998,37.40624309999998],[-76.64999999999998,37.406406000000004],[-76.64999999999998,37.40700750000002],[-76.64999999999998,37.4081276],[-76.64999999999998,37.41548590000002],[-76.64999999999998,37.41582770000002],[-76.64999999999998,37.42500000000001],[-76.57499999999999,37.42500000000001],[-76.57499999999999,37.375],[-76.64999999999998,37.375],[-76.64999999999998,37.37607109999999]]]}},{"type":"Feature","properties":{},"geometry":{"type":"Polygon","coordinates":[[[-76.19999999999999,37.3806644],[-76.19999999999999,37.394320300000004],[-76.19999999999999,37.39577639999999],[-76.19999999999999,37.39722999999998],[-76.19999999999999,37.39999390000003],[-76.19999999999999,37.40080710000001],[-76.19999999999999,37.415969399999994],[-76.19999999999999,37.42500000000001],[-76.17812479999998,37.42500000000001],[-76.1731815,37.42500000000001],[-76.165,37.42500000000001],[-76.165,37.375],[-76.19999999999999,37.375],[-76.19999999999999,37.3806644]]]}},{"type":"Feature","properties":{},"geometry":{"type":"Polygon","coordinates":[[[-76.64999999999998,37.42500000000001],[-76.64999999999998,37.45574260000001],[-76.64999999999998,37.45677749999999],[-76.64999999999998,37.457419500000015],[-76.64999999999998,37.45801399999999],[-76.64999999999998,37.47187409999998],[-76.64999999999998,37.47252850000001],[-76.64999999999998,37.475743299999976],[-76.64999999999998,37.476302499999974],[-76.64999999999998,37.47676139999999],[-76.64999999999998,37.47753719999997],[-76.64999999999998,37.47818860000001],[-76.64999999999998,37.479888200000005],[-76.64999999999998,37.48114720000001],[-76.64999999999998,37.48150559999999],[-76.64999999999998,37.48189150000002],[-76.64999999999998,37.49045189999998],[-76.64999999999998,37.49127720000001],[-76.64999999999998,37.496540700000025],[-76.64999999999998,37.49711100000002],[-76.64999999999998,37.5],[-76.57499999999999,37.5],[-76.57499999999999,37.42500000000001],[-76.64999999999998,37.42500000000001]]]}},{"type":"Feature","properties":{},"geometry":{"type":"Polygon","coordinates":[[[-76.1731815,37.42500000000001],[-76.17812479999998,37.42500000000001],[-76.19999999999999,37.42500000000001],[-76.19999999999999,37.45435839999999],[-76.19999999999999,37.474265600000024],[-76.19999999999999,37.48788280000002],[-76.19999999999999,37.5],[-76.1993195,37.5],[-76.19849019999998,37.5],[-76.18703210000001,37.5],[-76.165,37.5],[-76.165,37.42500000000001],[-76.1731815,37.42500000000001]]]}},{"type":"Feature","properties":{},"geometry":{"type":"Polygon","coordinates":[[[-76.18703210000001,37.5],[-76.19849019999998,37.5],[-76.1993195,37.5],[-76.19999999999999,37.5],[-76.19999999999999,37.5317326],[-76.19999999999999,37.539943300000004],[-76.19999999999999,37.54046119999998],[-76.19999999999999,37.542873799999995],[-76.19999999999999,37.543675399999984],[-76.19999999999999,37.54605939999999],[-76.19999999999999,37.54731939999999],[-76.19999999999999,37.558741699999985],[-76.19999999999999,37.5711627],[-76.19999999999999,37.57357330000002],[-76.19999999999999,37.57499999999999],[-76.19974029999997,37.57499999999999],[-76.19527920000002,37.57499999999999],[-76.19304749999998,37.57499999999999],[-76.165,37.57499999999999],[-76.165,37.5],[-76.18703210000001,37.5]]]}},{"type":"Feature","properties":{},"geometry":{"type":"Polygon","coordinates":[[[-76.19304749999998,37.57499999999999],[-76.19527920000002,37.57499999999999],[-76.19974029999997,37.57499999999999],[-76.19999999999999,37.57499999999999],[-76.19999999999999,37.57576180000001],[-76.19999999999999,37.579813100000024],[-76.19999999999999,37.59616360000001],[-76.19999999999999,37.59709350000003],[-76.19999999999999,37.611604],[-76.19999999999999,37.61701620000002],[-76.19999999999999,37.64999999999998],[-76.1924161,37.64999999999998],[-76.19116659999997,37.64999999999998],[-76.18293410000001,37.64999999999998],[-76.17436959999998,37.64999999999998],[-76.165,37.64999999999998],[-76.165,37.57499999999999],[-76.19304749999998,37.57499999999999]]]}},{"type":"Feature","properties":{},"geometry":{"type":"Polygon","coordinates":[[[-76.67173980000001,37.42500000000001],[-76.6715365,37.42500000000001],[-76.66571349999998,37.42500000000001],[-76.66478949999998,37.42500000000001],[-76.64999999999998,37.42500000000001],[-76.64999999999998,37.41582770000002],[-76.64999999999998,37.41548590000002],[-76.64999999999998,37.4081276],[-76.64999999999998,37.40700750000002],[-76.64999999999998,37.406406000000004],[-76.64999999999998,37.40624309999998],[-76.64999999999998,37.40606200000002],[-76.64999999999998,37.4056013],[-76.64999999999998,37.40527470000001],[-76.64999999999998,37.40482429999997],[-76.64999999999998,37.399988699999994],[-76.64999999999998,37.39428240000001],[-76.64999999999998,37.39110640000001],[-76.64999999999998,37.390758500000004],[-76.64999999999998,37.38485700000001],[-76.64999999999998,37.38425239999998],[-76.64999999999998,37.3833396],[-76.64999999999998,37.383314900000016],[-76.64999999999998,37.382268599999975],[-76.64999999999998,37.377838],[-76.64999999999998,37.37771509999999],[-76.64999999999998,37.37666230000002],[-76.64999999999998,37.37607109999999],[-76.64999999999998,37.375],[-76.675,37.375],[-76.675,37.42500000000001],[-76.67173980000001,37.42500000000001]]]}},{"type":"Feature","properties":{},"geometry":{"type":"Polygon","coordinates":[[[-76.64999999999998,37.5],[-76.64999999999998,37.49711100000002],[-76.64999999999998,37.496540700000025],[-76.64999999999998,37.49127720000001],[-76.64999999999998,37.49045189999998],[-76.64999999999998,37.48189150000002],[-76.64999999999998,37.48150559999999],[-76.64999999999998,37.48114720000001],[-76.64999999999998,37.479888200000005],[-76.64999999999998,37.47818860000001],[-76.64999999999998,37.47753719999997],[-76.64999999999998,37.47676139999999],[-76.64999999999998,37.476302499999974],[-76.64999999999998,37.475743299999976],[-76.64999999999998,37.47252850000001],[-76.64999999999998,37.47187409999998],[-76.64999999999998,37.45801399999999],[-76.64999999999998,37.457419500000015],[-76.64999999999998,37.45677749999999],[-76.64999999999998,37.45574260000001],[-76.64999999999998,37.42500000000001],[-76.66478949999998,37.42500000000001],[-76.66571349999998,37.42500000000001],[-76.6715365,37.42500000000001],[-76.67173980000001,37.42500000000001],[-76.675,37.42500000000001],[-76.675,37.5],[-76.64999999999998,37.5]]]}}]}