{"type":"FeatureCollection","features":[{"type":"Feature","properties":{},"geometry":{"type":"Polygon","coordinates":[[[-76.4337291,38.25],[-76.5,38.25],[-76.5,38.27258499999999],[-76.5,38.32499999999999],[-76.49470739999998,38.32499999999999],[-76.4938684,38.32499999999999],[-76.4930152,38.32499999999999],[-76.49216330000002,38.32499999999999],[-76.49158920000002,38.32499999999999],[-76.4896632,38.32499999999999],[-76.4869713,38.32499999999999],[-76.48631169999999,38.32499999999999],[-76.48598529999998,38.32499999999999],[-76.4853104,38.32499999999999],[-76.48509680000001,38.32499999999999],[-76.48290020000002,38.32499999999999],[-76.47531659999999,38.32499999999999],[-76.473098,38.32499999999999],[-76.4729284,38.32499999999999],[-76.47061730000001,38.32499999999999],[-76.46775939999998,38.32499999999999],[-76.46711299999998,38.32499999999999],[-76.46700650000002,38.32499999999999],[-76.46669120000001,38.32499999999999],[-76.46637390000001,38.32499999999999],[-76.46602389999998,38.32499999999999],[-76.462066,38.32499999999999],[-76.46206369999999,38.32499999999999],[-76.45945699999999,38.32499999999999],[-76.45831199999998,38.32499999999999],[-76.45773430000003,38.32499999999999],[-76.45726789999998,38.32499999999999],[-76.45665869999999,38.32499999999999],[-76.45627250000001,38.32499999999999],[-76.45580969999997,38.32499999999999],[-76.45577609999998,38.32499999999999],[-76.45560130000001,38.32499999999999],[-76.45511019999998,38.32499999999999],[-76.45508339999998,38.32499999999999],[-76.45489140000001,38.32499999999999],[-76.45476680000002,38.32499999999999],[-76.4516954,38.32499999999999],[-76.45136550000001,38.32499999999999],[-76.45133729999998,38.32499999999999],[-76.45074199999999,38.32499999999999],[-76.45065460000001,38.32499999999999],[-76.45004979999999,38.32499999999999],[-76.43918830000001,38.32499999999999],[-76.43891400000001,38.32499999999999],[-76.43841780000002,38.32499999999999],[-76.43810230000003,38.32499999999999],[-76.43673139999999,38.32499999999999],[-76.43641960000002,38.32499999999999],[-76.43547960000001,38.32499999999999],[-76.43317309999998,38.32499999999999],[-76.43230679999999,38.32499999999999],[-76.43186370000001,38.32499999999999],[-76.42500000000001,38.32499999999999],[-76.42500000000001,38.3218655],[-76.42500000000001,38.32156020000002],[-76.42500000000001,38.32132539999998],[-76.42500000000001,38.32104939999999],[-76.42500000000001,38.31780170000002],[-76.42500000000001,38.31539900000001],[-76.42500000000001,38.313169000000016],[-76.42500000000001,38.30940340000001],[-76.42500000000001,38.30464749999999],[-76.42500000000001,38.30002409999997],[-76.42500000000001,38.299808600000006],[-76.42500000000001,38.2993568],[-76.42500000000001,38.29902470000002],[-76.42500000000001,38.298431100000016],[-76.42500000000001,38.286236099999996],[-76.42500000000001,38.27258499999999],[-76.42500000000001,38.267991600000016],[-76.42500000000001,38.26687509999999],[-76.42500000000001,38.266819199999986],[-76.42500000000001,38.265546400000005],[-76.42500000000001,38.25],[-76.4330334,38.25],[-76.4337291,38.25]]]}},{"type":"Feature","properties":{},"geometry":{"type":"Polygon","coordinates":[[[-76.5,38.334490200000005],[-76.5,38.3343079],[-76.5,38.33381739999999],[-76.5,38.3332795],[-76.5,38.32930019999998],[-76.5,38.32499999999999],[-76.5,38.27258499999999],[-76.58108299999998,38.27258499999999],[-76.58108299999998,38.255007999999975],[-76.6138889,38.255007999999975],[-76.6138889,38.301388900000006],[-76.65085429999999,38.301388900000006],[-76.65799349320554,38.335],[-76.5,38.335],[-76.5,38.334490200000005]]]}},{"type":"Feature","properties":{},"geometry":{"type":"Polygon","coordinates":[[[-76.24593299999998,38.27258499999999],[-76.24593320000002,38.27258499999999],[-76.24762479999998,38.27258499999999],[-76.24762659999999,38.27258499999999],[-76.25001079999998,38.27258499999999],[-76.25001120000002,38.27258499999999],[-76.2513942,38.27258499999999],[-76.2523574,38.27258499999999],[-76.25235880000002,38.27258499999999],[-76.25280170000002,38.27258499999999],[-76.2661425,38.27258499999999],[-76.2675817,38.27258499999999],[-76.2693946,38.27258499999999],[-76.26981,38.27258499999999],[-76.27029579999999,38.27258499999999],[-76.27041939999998,38.27258499999999],[-76.27142459999999,38.27258499999999],[-76.27372109999999,38.27258499999999],[-76.291379,38.27258499999999],[-76.30694,38.27258499999999],[-76.30888420000002,38.27258499999999],[-76.34497060000001,38.27258499999999],[-76.34631309999997,38.27258499999999],[-76.34639010000001,38.27258499999999],[-76.3464371,38.27258499999999],[-76.34880729999998,38.27258499999999],[-76.3522989,38.27258499999999],[-76.35521999999997,38.27258499999999],[-76.35527819999999,38.27258499999999],[-76.3552813,38.27258499999999],[-76.3562043,38.27258499999999],[-76.3562298,38.27258499999999],[-76.35736070000002,38.27258499999999],[-76.35753729999999,38.27258499999999],[-76.3575376,38.27258499999999],[-76.3747578,38.27258499999999],[-76.37476090000001,38.27258499999999],[-76.3755286,38.27258499999999],[-76.37553509999998,38.27258499999999],[-76.37570499999998,38.27258499999999],[-76.37619560000002,38.27258499999999],[-76.37619719999998,38.27258499999999],[-76.37638629999998,38.27258499999999],[-76.37640829999998,38.27258499999999],[-76.38743979999998,38.27258499999999],[-76.38937750000002,38.27258499999999],[-76.3896901,38.27258499999999],[-76.38999189999998,38.27258499999999],[-76.39000170000003,38.27258499999999],[-76.39088620000001,38.27258499999999],[-76.39094899999998,38.27258499999999],[-76.39097809999998,38.27258499999999],[-76.393325,38.27258499999999],[-76.39356040000001,38.27258499999999],[-76.39481310000002,38.27258499999999],[-76.3952658,38.27258499999999],[-76.39526599999999,38.27258499999999],[-76.3953965,38.27258499999999],[-76.39540410000001,38.27258499999999],[-76.39555660000002,38.27258499999999],[-76.39654300000001,38.27258499999999],[-76.39669099999998,38.27258499999999],[-76.3972478,38.27258499999999],[-76.42500000000001,38.27258499999999],[-76.42500000000001,38.286236099999996],[-76.40467749999999,38.286236099999996],[-76.40467749999999,38.295191699999975],[-76.40467749999999,38.30031489999999],[-76.40467749999999,38.300679100000025],[-76.40467749999999,38.3007437],[-76.40467749999999,38.3039756],[-76.40467749999999,38.30414050000002],[-76.40467749999999,38.30429659999999],[-76.40467749999999,38.304299800000024],[-76.40467749999999,38.3044481],[-76.40467749999999,38.304663800000014],[-76.40467749999999,38.30551159999999],[-76.40467749999999,38.30581619999998],[-76.40467749999999,38.306381999999985],[-76.40467749999999,38.30653480000001],[-76.40467749999999,38.306687599999975],[-76.40467749999999,38.30684919999999],[-76.40467749999999,38.30740539999999],[-76.40467749999999,38.30758479999997],[-76.40467749999999,38.30764820000002],[-76.40467749999999,38.30785759999998],[-76.40467749999999,38.30808000000002],[-76.40467749999999,38.30823509999999],[-76.40467749999999,38.308255599999995],[-76.40467749999999,38.30832529999998],[-76.40467749999999,38.30834090000002],[-76.40467749999999,38.30845640000001],[-76.40467749999999,38.308747900000014],[-76.40467749999999,38.3089301],[-76.40467749999999,38.308944],[-76.40467749999999,38.30901189999997],[-76.40467749999999,38.315068],[-76.40467749999999,38.3151125],[-76.40467749999999,38.31511369999998],[-76.40467749999999,38.31567849999999],[-76.40467749999999,38.31583169999999],[-76.40467749999999,38.31607789999998],[-76.40467749999999,38.31940320000001],[-76.40467749999999,38.319659100000024],[-76.40467749999999,38.32459920000002],[-76.40467749999999,38.3258065],[-76.40467749999999,38.32600020000001],[-76.40467749999999,38.32600409999998],[-76.40467749999999,38.326141800000016],[-76.40467749999999,38.326394300000004],[-76.40467749999999,38.32659690000003],[-76.40467749999999,38.3266984],[-76.40467749999999,38.326750300000015],[-76.40467749999999,38.32704210000003],[-76.40467749999999,38.32729269999999],[-76.40467749999999,38.33145400000001],[-76.40467749999999,38.33346460000001],[-76.40467749999999,38.33380840000001],[-76.40467749999999,38.33388980000001],[-76.40467749999999,38.33401249999997],[-76.40467749999999,38.33415000000002],[-76.40467749999999,38.3342725],[-76.40467749999999,38.33452119999998],[-76.40467749999999,38.33478500000001],[-76.40467749999999,38.335],[-76.245,38.335],[-76.245,38.27258499999999],[-76.24593299999998,38.27258499999999]]]}},{"type":"Feature","properties":{},"geometry":{"type":"Polygon","coordinates":[[[-76.40467749999999,38.33478500000001],[-76.40467749999999,38.33452119999998],[-76.40467749999999,38.33415000000002],[-76.40467749999999,38.33401249999997],[-76.40467749999999,38.33388980000001],[-76.40467749999999,38.33380840000001],[-76.40467749999999,38.33346460000001],[-76.40467749999999,38.33145400000001],[-76.40467749999999,38.33126659999999],[-76.40467749999999,38.32729269999999],[-76.40467749999999,38.32704210000003],[-76.40467749999999,38.3266984],[-76.40467749999999,38.32659690000003],[-76.40467749999999,38.326394300000004],[-76.40467749999999,38.326141800000016],[-76.40467749999999,38.32600409999998],[-76.40467749999999,38.32600020000001],[-76.40467749999999,38.3258065],[-76.40467749999999,38.32459920000002],[-76.40467749999999,38.319659100000024],[-76.40467749999999,38.31940320000001],[-76.40467749999999,38.31607789999998],[-76.40467749999999,38.315678400000024],[-76.40467749999999,38.31511369999998],[-76.40467749999999,38.3151125],[-76.40467749999999,38.315068],[-76.40467749999999,38.30901189999997],[-76.40467749999999,38.308944],[-76.40467749999999,38.308747900000014],[-76.40467749999999,38.30845640000001],[-76.40467749999999,38.30834090000002],[-76.40467749999999,38.30832529999998],[-76.40467749999999,38.308255599999995],[-76.40467749999999,38.30808000000002],[-76.40467749999999,38.30785759999998],[-76.40467749999999,38.30764820000002],[-76.40467749999999,38.30740539999999],[-76.40467749999999,38.306687599999975],[-76.40467749999999,38.30653480000001],[-76.40467749999999,38.306381999999985],[-76.40467749999999,38.305807200000004],[-76.40467749999999,38.30443680000002],[-76.40467749999999,38.30429659999999],[-76.40467749999999,38.304089999999974],[-76.40467749999999,38.30398220000001],[-76.40467749999999,38.3007437],[-76.40467749999999,38.286236099999996],[-76.42500000000001,38.286236099999996],[-76.42500000000001,38.298431100000016],[-76.42500000000001,38.29902470000002],[-76.42500000000001,38.2993568],[-76.42500000000001,38.299808600000006],[-76.42500000000001,38.30002409999997],[-76.42500000000001,38.30464749999999],[-76.42500000000001,38.30940340000001],[-76.42500000000001,38.313169000000016],[-76.42500000000001,38.31539900000001],[-76.42500000000001,38.31780170000002],[-76.42500000000001,38.32104939999999],[-76.42500000000001,38.32132539999998],[-76.42500000000001,38.32156020000002],[-76.42500000000001,38.3218655],[-76.42500000000001,38.32499999999999],[-76.42500000000001,38.32909619999998],[-76.42500000000001,38.335],[-76.40467749999999,38.335],[-76.40467749999999,38.33478500000001]]]}},{"type":"Feature","properties":{},"geometry":{"type":"Polygon","coordinates":[[[-76.65195729999999,38.306581600000015],[-76.65085429999999,38.301388900000006],[-76.6401563,38.301388900000006],[-76.6138889,38.301388900000006],[-76.6138889,38.28981249999998],[-76.6138889,38.25874279999999],[-76.6138889,38.255007999999975],[-76.58108299999998,38.255007999999975],[-76.58108299999998,38.2296523],[-76.58108299999998,38.21652560000001],[-76.58108299999998,38.21620189999999],[-76.58108299999998,38.21485799999999],[-76.58108299999998,38.207637999999974],[-76.58108299999998,38.20759720000001],[-76.58108299999998,38.20471600000002],[-76.58108299999998,38.203732100000025],[-76.58108299999998,38.20197680000001],[-76.58108299999998,38.20186469999999],[-76.58108299999998,38.20172100000002],[-76.58108299999998,38.19105669999999],[-76.58108299999998,38.190974400000016],[-76.58108299999998,38.190849800000024],[-76.58108299999998,38.18948289999997],[-76.58108299999998,38.18910790000001],[-76.58108299999998,38.188029400000005],[-76.58108299999998,38.18790250000001],[-76.58108299999998,38.187728400000026],[-76.58108299999998,38.18730849999997],[-76.58108299999998,38.18185970000002],[-76.58108299999998,38.17821700000002],[-76.58108299999998,38.17811929999999],[-76.58108299999998,38.17558059999999],[-76.58108299999998,38.174453099999994],[-76.58108299999998,38.173854000000006],[-76.58108299999998,38.17383890000002],[-76.58108299999998,38.149816999999985],[-76.58108299999998,38.14981690000002],[-76.58108299999998,38.14696900000001],[-76.58108299999998,38.146960200000024],[-76.58108299999998,38.14429799999999],[-76.58108299999998,38.14428839999999],[-76.58108299999998,38.142690000000016],[-76.58108299999998,38.14259750000002],[-76.58108299999998,38.142463099999986],[-76.58108299999998,38.139798799999994],[-76.58108299999998,38.106139299999995],[-76.58108299999998,38.10613710000001],[-76.58108299999998,38.104258000000016],[-76.58108299999998,38.102079],[-76.58108299999998,38.10142289999999],[-76.58108299999998,38.10069549999997],[-76.58108299999998,38.09816549999999],[-76.58108299999998,38.09794579999999],[-76.58108299999998,38.097711300000014],[-76.58108299999998,38.097696799999994],[-76.58108299999998,38.0966674],[-76.58108299999998,38.09634399999999],[-76.58108299999998,38.09564549999999],[-76.58108299999998,38.09564339999997],[-76.58108299999998,38.091576599999996],[-76.58108299999998,38.09134469999998],[-76.58108299999998,38.091288899999995],[-76.5811195,38.091288899999995],[-76.58158429999997,38.091288899999995],[-76.58280830000001,38.091288899999995],[-76.58280830000001,38.09158609999997],[-76.58461740000001,38.09158609999997],[-76.58507100000003,38.09158609999997],[-76.5888966,38.09158609999997],[-76.61306919999998,38.09158609999997],[-76.61374130000002,38.09158609999997],[-76.63553359999997,38.09158609999997],[-76.63912640000001,38.09158609999997],[-76.64382540000003,38.09158609999997],[-76.64446099999998,38.09158609999997],[-76.64497569999997,38.09158609999997],[-76.64589510000002,38.09158609999997],[-76.64842520000002,38.09158609999997],[-76.64903579999998,38.09158609999997],[-76.65844249999998,38.09158609999997],[-76.65923550000002,38.09158609999997],[-76.675,38.09158609999997],[-76.675,38.335],[-76.65799351983411,38.335],[-76.65195729999999,38.306581600000015]]]}},{"type":"Feature","properties":{},"geometry":{"type":"Polygon","coordinates":[[[-76.2617679,38.08332999999999],[-76.2840774,38.08332999999999],[-76.28992699999998,38.08332999999999],[-76.29035099999999,38.08332999999999],[-76.29403050000002,38.08332999999999],[-76.30819100000002,38.08332999999999],[-76.3200425,38.08332999999999],[-76.3204273,38.08332999999999],[-76.322093,38.08332999999999],[-76.32499860000001,38.08332999999999],[-76.32519209999998,38.08332999999999],[-76.33080139999998,38.08332999999999],[-76.33080990000002,38.08332999999999],[-76.33081099999998,38.08332999999999],[-76.33130240000003,38.08332999999999],[-76.33133550000002,38.08332999999999],[-76.3322033,38.08332999999999],[-76.3322144,38.08332999999999],[-76.3383528,38.08332999999999],[-76.33844640000001,38.08332999999999],[-76.34056249999998,38.08332999999999],[-76.3405813,38.08332999999999],[-76.3499061,38.08332999999999],[-76.3500962,38.08332999999999],[-76.35038550000002,38.08332999999999],[-76.35070089999999,38.08332999999999],[-76.3662301,38.08332999999999],[-76.369506,38.08332999999999],[-76.36974500000002,38.08332999999999],[-76.37127989999999,38.08332999999999],[-76.37137969999998,38.08332999999999],[-76.37168079999998,38.08332999999999],[-76.37171840000002,38.08332999999999],[-76.37255060000001,38.08332999999999],[-76.37257069999998,38.08332999999999],[-76.372904,38.08332999999999],[-76.372906,38.08332999999999],[-76.3731995,38.08332999999999],[-76.38730579999998,38.08332999999999],[-76.39042369999999,38.08332999999999],[-76.39853349999998,38.08332999999999],[-76.404471,38.08332999999999],[-76.40643449999999,38.08332999999999],[-76.40700190000001,38.08332999999999],[-76.4082919,38.08332999999999],[-76.410818,38.08332999999999],[-76.41817420000001,38.08332999999999],[-76.42712599999999,38.08332999999999],[-76.43589100000003,38.08332999999999],[-76.43906500000003,38.08332999999999],[-76.444972,38.08332999999999],[-76.44711690000003,38.08332999999999],[-76.45008000000001,38.08332999999999],[-76.4577471,38.08332999999999],[-76.45940769999999,38.08332999999999],[-76.45944229999998,38.08332999999999],[-76.4653012,38.08332999999999],[-76.50421,38.08332999999999],[-76.50501739999999,38.08332999999999],[-76.50719880000003,38.08332999999999],[-76.5201131,38.08332999999999],[-76.5339932,38.08332999999999],[-76.53810220000003,38.08332999999999],[-76.53943220000002,38.08332999999999],[-76.54193659999999,38.08332999999999],[-76.55425500000001,38.08332999999999],[-76.55476770000001,38.08332999999999],[-76.55561019999999,38.08332999999999],[-76.55803479999997,38.08332999999999],[-76.55902250000003,38.08332999999999],[-76.56585710000002,38.08332999999999],[-76.56617139999997,38.08332999999999],[-76.5678249,38.08332999999999],[-76.5687332,38.08332999999999],[-76.58108299999998,38.08332999999999],[-76.58108299999998,38.09564339999997],[-76.58108299999998,38.09634399999999],[-76.58108299999998,38.0966674],[-76.58108299999998,38.097696799999994],[-76.58108299999998,38.102079],[-76.58108299999998,38.104258000000016],[-76.58108299999998,38.106139299999995],[-76.58108299999998,38.14259750000002],[-76.58108299999998,38.14428839999999],[-76.58108299999998,38.146960200000024],[-76.58108299999998,38.17383890000002],[-76.58108299999998,38.174453099999994],[-76.58108299999998,38.17811929999999],[-76.58108299999998,38.187728400000026],[-76.58108299999998,38.190849800000024],[-76.58108299999998,38.20172100000002],[-76.58108299999998,38.20471600000002],[-76.58108299999998,38.20759720000001],[-76.58108299999998,38.27258499999999],[-76.5,38.27258499999999],[-76.5,38.25],[-76.4337291,38.25],[-76.4330334,38.25],[-76.42500000000001,38.25],[-76.42500000000001,38.265546400000005],[-76.42500000000001,38.266819199999986],[-76.42500000000001,38.26687509999999],[-76.42500000000001,38.267991600000016],[-76.42500000000001,38.27258499999999],[-76.3967022,38.27258499999999],[-76.39541559999998,38.27258499999999],[-76.39311279999998,38.27258499999999],[-76.39097809999998,38.27258499999999],[-76.39088620000001,38.27258499999999],[-76.39000170000003,38.27258499999999],[-76.38937750000002,38.27258499999999],[-76.38743979999998,38.27258499999999],[-76.3562043,38.27258499999999],[-76.3552813,38.27258499999999],[-76.34880729999998,38.27258499999999],[-76.3464371,38.27258499999999],[-76.30888850000002,38.27258499999999],[-76.2915231,38.27258499999999],[-76.27376770000001,38.27258499999999],[-76.27148890000001,38.27258499999999],[-76.27029579999999,38.27258499999999],[-76.26990540000003,38.27258499999999],[-76.2692725,38.27258499999999],[-76.26919090000001,38.27258499999999],[-76.25285100000002,38.27258499999999],[-76.2513735,38.27258499999999],[-76.245,38.27258499999999],[-76.245,38.08332999999999],[-76.2617679,38.08332999999999]]]}},{"type":"Feature","properties":{},"geometry":{"type":"Polygon","coordinates":[[[-76.24537049999998,37.87847199999999],[-76.25755570000001,37.87847199999999],[-76.26025859999999,37.87847199999999],[-76.27335090000003,37.87847199999999],[-76.2738223,37.87847199999999],[-76.2742002,37.87847199999999],[-76.27470849999997,37.87847199999999],[-76.27613960000002,37.87847199999999],[-76.2769012,37.87847199999999],[-76.27704670000003,37.87847199999999],[-76.28037330000001,37.87847199999999],[-76.29861490000002,37.87847199999999],[-76.29900190000001,37.87847199999999],[-76.3032867,37.87847199999999],[-76.30368399999998,37.87847199999999],[-76.330239,37.87847199999999],[-76.5160917,37.87847199999999],[-76.54873400000002,37.87847199999999],[-76.58108299999998,37.87847199999999],[-76.58108299999998,37.90916290000001],[-76.58108299999998,38.010693],[-76.58108299999998,38.01450219999998],[-76.58108299999998,38.03214109999999],[-76.58108299999998,38.03437500000001],[-76.58108299999998,38.07396399999999],[-76.58108299999998,38.08332999999999],[-76.5687332,38.08332999999999],[-76.5678249,38.08332999999999],[-76.56616789999998,38.08332999999999],[-76.56585159999997,38.08332999999999],[-76.55902250000003,38.08332999999999],[-76.55803479999997,38.08332999999999],[-76.55561019999999,38.08332999999999],[-76.55476770000001,38.08332999999999],[-76.55425500000001,38.08332999999999],[-76.55339470000001,38.08332999999999],[-76.54193659999999,38.08332999999999],[-76.53943220000002,38.08332999999999],[-76.53810220000003,38.08332999999999],[-76.5339932,38.08332999999999],[-76.5201131,38.08332999999999],[-76.50719880000003,38.08332999999999],[-76.50501739999999,38.08332999999999],[-76.50421,38.08332999999999],[-76.4653012,38.08332999999999],[-76.45944229999998,38.08332999999999],[-76.45940769999999,38.08332999999999],[-76.4577471,38.08332999999999],[-76.45008000000001,38.08332999999999],[-76.44711690000003,38.08332999999999],[-76.444972,38.08332999999999],[-76.43906500000003,38.08332999999999],[-76.43589100000003,38.08332999999999],[-76.42712599999999,38.08332999999999],[-76.41817420000001,38.08332999999999],[-76.410818,38.08332999999999],[-76.4082919,38.08332999999999],[-76.40700190000001,38.08332999999999],[-76.40643449999999,38.08332999999999],[-76.404471,38.08332999999999],[-76.39853349999998,38.08332999999999],[-76.39042369999999,38.08332999999999],[-76.38730579999998,38.08332999999999],[-76.3731995,38.08332999999999],[-76.372906,38.08332999999999],[-76.372904,38.08332999999999],[-76.37257069999998,38.08332999999999],[-76.37255060000001,38.08332999999999],[-76.37171840000002,38.08332999999999],[-76.37168079999998,38.08332999999999],[-76.37137969999998,38.08332999999999],[-76.37127989999999,38.08332999999999],[-76.36974500000002,38.08332999999999],[-76.369506,38.08332999999999],[-76.3662301,38.08332999999999],[-76.35070089999999,38.08332999999999],[-76.35038550000002,38.08332999999999],[-76.3500962,38.08332999999999],[-76.3499061,38.08332999999999],[-76.34987799999999,38.08332999999999],[-76.3405813,38.08332999999999],[-76.34056249999998,38.08332999999999],[-76.33844640000001,38.08332999999999],[-76.3383528,38.08332999999999],[-76.3322144,38.08332999999999],[-76.3322033,38.08332999999999],[-76.33133550000002,38.08332999999999],[-76.33130240000003,38.08332999999999],[-76.33081099999998,38.08332999999999],[-76.33080990000002,38.08332999999999],[-76.33080139999998,38.08332999999999],[-76.32519209999998,38.08332999999999],[-76.32499860000001,38.08332999999999],[-76.322093,38.08332999999999],[-76.3204273,38.08332999999999],[-76.3200425,38.08332999999999],[-76.30819100000002,38.08332999999999],[-76.29403050000002,38.08332999999999],[-76.29035099999999,38.08332999999999],[-76.28992699999998,38.08332999999999],[-76.2840774,38.08332999999999],[-76.2617679,38.08332999999999],[-76.245,38.08332999999999],[-76.245,37.87847199999999],[-76.24537049999998,37.87847199999999]]]}},{"type":"Feature","properties":{},"geometry":{"type":"Polygon","coordinates":[[[-76.2528542,37.80000000000001],[-76.2799311,37.80000000000001],[-76.2850818,37.80000000000001],[-76.29153330000003,37.80000000000001],[-76.29272470000001,37.80000000000001],[-76.30115460000002,37.80000000000001],[-76.302459,37.80000000000001],[-76.3075551,37.80000000000001],[-76.3149972,37.80000000000001],[-76.31609739999999,37.80000000000001],[-76.31792660000002,37.80000000000001],[-76.31875000000002,37.80000000000001],[-76.33974460000002,37.80000000000001],[-76.34030109999998,37.80000000000001],[-76.34053130000001,37.80000000000001],[-76.34148199999998,37.80000000000001],[-76.34560529999999,37.80000000000001],[-76.35084369999998,37.80000000000001],[-76.35470020000002,37.80000000000001],[-76.46601470000002,37.80000000000001],[-76.5,37.80000000000001],[-76.52704699999998,37.80000000000001],[-76.52704699999998,37.857885599999975],[-76.52704699999998,37.87847199999999],[-76.44076560000002,37.87847199999999],[-76.44054299999999,37.87847199999999],[-76.43815160000003,37.87847199999999],[-76.43734940000002,37.87847199999999],[-76.43690859999998,37.87847199999999],[-76.43677359999998,37.87847199999999],[-76.39343159999999,37.87847199999999],[-76.39228789999999,37.87847199999999],[-76.30368399999998,37.87847199999999],[-76.30317609999997,37.87847199999999],[-76.29900190000001,37.87847199999999],[-76.29861490000002,37.87847199999999],[-76.28037330000001,37.87847199999999],[-76.2769012,37.87847199999999],[-76.27613960000002,37.87847199999999],[-76.27470849999997,37.87847199999999],[-76.2742002,37.87847199999999],[-76.27335090000003,37.87847199999999],[-76.25755570000001,37.87847199999999],[-76.24537049999998,37.87847199999999],[-76.245,37.87847199999999],[-76.245,37.80000000000001],[-76.2528542,37.80000000000001]]]}},{"type":"Feature","properties":{},"geometry":{"type":"Polygon","coordinates":[[[-76.63757040000002,37.86499479999998],[-76.63686150000001,37.86435770000003],[-76.62545210000002,37.85410359999997],[-76.62499709999997,37.853694700000005],[-76.58419300000003,37.81702250000001],[-76.58381450000002,37.816682300000025],[-76.58351160000001,37.816410099999985],[-76.58248459999999,37.815487099999984],[-76.5822043,37.81523520000002],[-76.58138889999998,37.814502300000015],[-76.5811157,37.81425680000001],[-76.56525260000001,37.80000000000001],[-76.61719720000002,37.80000000000001],[-76.61790389999999,37.80000000000001],[-76.62656329999999,37.80000000000001],[-76.64849299999997,37.80000000000001],[-76.65397680000001,37.80000000000001],[-76.65937450000001,37.80000000000001],[-76.675,37.80000000000001],[-76.675,37.89863423582672],[-76.63757040000002,37.86499479999998]]]}}]}