{"type":"FeatureCollection","features":[{"type":"Feature","properties":{},"geometry":{"type":"Polygon","coordinates":[[[-65.79653789999998,18.07499999999999],[-65.7964819,18.07499999999999],[-65.7954095,18.07499999999999],[-65.7953794,18.07499999999999],[-65.79481349999998,18.07499999999999],[-65.79470559999999,18.07499999999999],[-65.79453180000002,18.07499999999999],[-65.7938102,18.07499999999999],[-65.79308049999997,18.07499999999999],[-65.79212319999999,18.07499999999999],[-65.79172519999997,18.07499999999999],[-65.79104410000002,18.07499999999999],[-65.78900959999999,18.07499999999999],[-65.7885554,18.07499999999999],[-65.77684449999998,18.07499999999999],[-65.77499999999998,18.07499999999999],[-65.77499999999998,18.074323100000015],[-65.77499999999998,18.07348189999999],[-65.77499999999998,18.072669200000007],[-65.77499999999998,18.069372299999998],[-65.77499999999998,18.051163400000007],[-65.77499999999998,18.050125200000025],[-65.77499999999998,18.046140100000002],[-65.77499999999998,18.044292499999983],[-65.77499999999998,18.016263100000003],[-65.77499999999998,18.01541370000001],[-65.77499999999998,18.0],[-65.78192539999998,18.0],[-65.78273530000001,18.0],[-65.80499999999999,18.0],[-65.80499999999999,18.07499999999999],[-65.79653789999998,18.07499999999999]]]}},{"type":"Feature","properties":{},"geometry":{"type":"Polygon","coordinates":[[[-65.79178239999999,18.149999999999977],[-65.77499999999998,18.149999999999977],[-65.77499999999998,18.1425663],[-65.77499999999998,18.140363200000024],[-65.77499999999998,18.140227600000003],[-65.77499999999998,18.13984640000001],[-65.77499999999998,18.138213399999984],[-65.77499999999998,18.137347499999976],[-65.77499999999998,18.13405979999999],[-65.77499999999998,18.133685200000002],[-65.77499999999998,18.132707299999993],[-65.77499999999998,18.132511899999997],[-65.77499999999998,18.13248420000002],[-65.77499999999998,18.128312300000005],[-65.77499999999998,18.127884400000028],[-65.77499999999998,18.127829599999984],[-65.77499999999998,18.126412500000015],[-65.77499999999998,18.120264599999985],[-65.77499999999998,18.119867],[-65.77499999999998,18.11930159999997],[-65.77499999999998,18.119267400000012],[-65.77499999999998,18.11875409999999],[-65.77499999999998,18.118062599999973],[-65.77499999999998,18.107684000000006],[-65.77499999999998,18.105501500000003],[-65.77499999999998,18.103815699999984],[-65.77499999999998,18.1003556],[-65.77499999999998,18.099908400000004],[-65.77499999999998,18.07783740000002],[-65.77499999999998,18.07499999999999],[-65.77684449999998,18.07499999999999],[-65.7885554,18.07499999999999],[-65.78900959999999,18.07499999999999],[-65.79104410000002,18.07499999999999],[-65.79172519999997,18.07499999999999],[-65.79212319999999,18.07499999999999],[-65.79308049999997,18.07499999999999],[-65.7938102,18.07499999999999],[-65.79453180000002,18.07499999999999],[-65.79470559999999,18.07499999999999],[-65.79481349999998,18.07499999999999],[-65.7953794,18.07499999999999],[-65.7954095,18.07499999999999],[-65.7964819,18.07499999999999],[-65.79653789999998,18.07499999999999],[-65.80499999999999,18.07499999999999],[-65.80499999999999,18.149999999999977],[-65.79178239999999,18.149999999999977]]]}},{"type":"Feature","properties":{},"geometry":{"type":"Polygon","coordinates":[[[-65.77425260000001,18.07499999999999],[-65.77499999999998,18.07499999999999],[-65.77499999999998,18.07783740000002],[-65.77499999999998,18.099908400000004],[-65.77499999999998,18.1003556],[-65.77499999999998,18.103815699999984],[-65.77499999999998,18.105501500000003],[-65.77499999999998,18.107684000000006],[-65.77499999999998,18.118062599999973],[-65.77499999999998,18.11875409999999],[-65.77499999999998,18.119267400000012],[-65.77499999999998,18.11930159999997],[-65.77499999999998,18.119867],[-65.77499999999998,18.120264599999985],[-65.77499999999998,18.126412500000015],[-65.77499999999998,18.127829599999984],[-65.77499999999998,18.127884400000028],[-65.77499999999998,18.128312300000005],[-65.77499999999998,18.13248420000002],[-65.77499999999998,18.132511899999997],[-65.77499999999998,18.132707299999993],[-65.77499999999998,18.133685200000002],[-65.77499999999998,18.13405979999999],[-65.77499999999998,18.137347499999976],[-65.77499999999998,18.138213399999984],[-65.77499999999998,18.13984640000001],[-65.77499999999998,18.140227600000003],[-65.77499999999998,18.140363200000024],[-65.77499999999998,18.1425663],[-65.77499999999998,18.149999999999977],[-65.76559709999998,18.149999999999977],[-65.76497819999997,18.149999999999977],[-65.76452540000003,18.149999999999977],[-65.7637851,18.149999999999977],[-65.76375969999998,18.149999999999977],[-65.76336300000003,18.149999999999977],[-65.7516865,18.149999999999977],[-65.72421379999997,18.149999999999977],[-65.7174114,18.149999999999977],[-65.71590179999998,18.149999999999977],[-65.69999999999999,18.149999999999977],[-65.69999999999999,18.147693000000004],[-65.69999999999999,18.142351399999995],[-65.69999999999999,18.137044100000026],[-65.69999999999999,18.121967499999982],[-65.69999999999999,18.121121000000016],[-65.69999999999999,18.11551079999998],[-65.69999999999999,18.114574500000003],[-65.69999999999999,18.110364000000004],[-65.69999999999999,18.109904200000017],[-65.69999999999999,18.10897920000002],[-65.69999999999999,18.10863169999999],[-65.69999999999999,18.10842500000001],[-65.69999999999999,18.10811530000001],[-65.69999999999999,18.107684000000006],[-65.69999999999999,18.10650290000001],[-65.69999999999999,18.10613059999997],[-65.69999999999999,18.10441209999999],[-65.69999999999999,18.103401799999972],[-65.69999999999999,18.10250819999999],[-65.69999999999999,18.101989899999978],[-65.69999999999999,18.099403499999994],[-65.69999999999999,18.095112200000017],[-65.69999999999999,18.093406700000003],[-65.69999999999999,18.07499999999999],[-65.72953799999999,18.07499999999999],[-65.7334141,18.07499999999999],[-65.73424,18.07499999999999],[-65.73457719999999,18.07499999999999],[-65.73549220000001,18.07499999999999],[-65.73575340000002,18.07499999999999],[-65.73766499999999,18.07499999999999],[-65.7402085,18.07499999999999],[-65.74942900000002,18.07499999999999],[-65.7564069,18.07499999999999],[-65.76105740000003,18.07499999999999],[-65.76148089999998,18.07499999999999],[-65.77425260000001,18.07499999999999]]]}},{"type":"Feature","properties":{},"geometry":{"type":"Polygon","coordinates":[[[-65.69833299999999,18.07499999999999],[-65.69999999999999,18.07499999999999],[-65.69999999999999,18.093406700000003],[-65.69999999999999,18.095112200000017],[-65.69999999999999,18.099403499999994],[-65.69999999999999,18.101989899999978],[-65.69999999999999,18.10250819999999],[-65.69999999999999,18.103401799999972],[-65.69999999999999,18.10441209999999],[-65.69999999999999,18.10613059999997],[-65.69999999999999,18.10650290000001],[-65.69999999999999,18.107684000000006],[-65.69999999999999,18.10811530000001],[-65.69999999999999,18.10842500000001],[-65.69999999999999,18.10863169999999],[-65.69999999999999,18.10897920000002],[-65.69999999999999,18.109904200000017],[-65.69999999999999,18.110364000000004],[-65.69999999999999,18.114574500000003],[-65.69999999999999,18.11551079999998],[-65.69999999999999,18.121121000000016],[-65.69999999999999,18.121967499999982],[-65.69999999999999,18.137044100000026],[-65.69999999999999,18.142351399999995],[-65.69999999999999,18.147693000000004],[-65.69999999999999,18.149999999999977],[-65.69632209999997,18.149999999999977],[-65.69558919999997,18.149999999999977],[-65.69557049999997,18.149999999999977],[-65.69159250000001,18.149999999999977],[-65.68906729999998,18.149999999999977],[-65.68845320000003,18.149999999999977],[-65.67831539999997,18.149999999999977],[-65.6776964,18.149999999999977],[-65.6739723,18.149999999999977],[-65.67364470000001,18.149999999999977],[-65.6735243,18.149999999999977],[-65.67276329999999,18.149999999999977],[-65.6704115,18.149999999999977],[-65.67027139999999,18.149999999999977],[-65.66990800000002,18.149999999999977],[-65.66961579999997,18.149999999999977],[-65.66586280000001,18.149999999999977],[-65.66566089999998,18.149999999999977],[-65.65414870000001,18.149999999999977],[-65.64828169999998,18.149999999999977],[-65.64602550000001,18.149999999999977],[-65.64073020000001,18.149999999999977],[-65.64067599999998,18.149999999999977],[-65.6387014,18.149999999999977],[-65.63786499999998,18.149999999999977],[-65.63618359999998,18.149999999999977],[-65.63497130000002,18.149999999999977],[-65.63189929999999,18.149999999999977],[-65.62855589999998,18.149999999999977],[-65.6270859,18.149999999999977],[-65.62573259999999,18.149999999999977],[-65.625,18.149999999999977],[-65.625,18.149470699999995],[-65.625,18.146567300000015],[-65.625,18.143501300000025],[-65.625,18.142920000000004],[-65.625,18.141324999999995],[-65.625,18.14026610000002],[-65.625,18.137447800000018],[-65.625,18.137091899999973],[-65.625,18.13348860000002],[-65.625,18.12964469999997],[-65.625,18.122610099999974],[-65.625,18.12141200000002],[-65.625,18.120588499999997],[-65.625,18.118559000000005],[-65.625,18.11736350000001],[-65.625,18.116157699999974],[-65.625,18.1149992],[-65.625,18.114303199999995],[-65.625,18.114093700000012],[-65.625,18.113769900000023],[-65.625,18.11180250000001],[-65.625,18.111031000000025],[-65.625,18.107530300000008],[-65.625,18.106094100000007],[-65.625,18.10553379999999],[-65.625,18.10416509999999],[-65.625,18.103776200000027],[-65.625,18.100583400000005],[-65.625,18.09955100000002],[-65.625,18.08653049999998],[-65.625,18.08623],[-65.625,18.080054299999972],[-65.625,18.078508100000022],[-65.625,18.0778866],[-65.625,18.075614400000006],[-65.625,18.075047499999982],[-65.625,18.07499999999999],[-65.65348519999998,18.07499999999999],[-65.65546189999998,18.07499999999999],[-65.69833299999999,18.07499999999999]]]}},{"type":"Feature","properties":{},"geometry":{"type":"Polygon","coordinates":[[[-65.62198999999998,18.07499999999999],[-65.6228954,18.07499999999999],[-65.625,18.07499999999999],[-65.625,18.075047499999982],[-65.625,18.075614400000006],[-65.625,18.0778866],[-65.625,18.078508100000022],[-65.625,18.080054299999972],[-65.625,18.08623],[-65.625,18.08653049999998],[-65.625,18.09955100000002],[-65.625,18.100583400000005],[-65.625,18.103776200000027],[-65.625,18.10416509999999],[-65.625,18.10553379999999],[-65.625,18.106094100000007],[-65.625,18.107530300000008],[-65.625,18.111031000000025],[-65.625,18.11180250000001],[-65.625,18.113769900000023],[-65.625,18.114093700000012],[-65.625,18.114303199999995],[-65.625,18.1149992],[-65.625,18.116157699999974],[-65.625,18.11736350000001],[-65.625,18.118559000000005],[-65.625,18.120588499999997],[-65.625,18.12141200000002],[-65.625,18.122610099999974],[-65.625,18.12964469999997],[-65.625,18.13348860000002],[-65.625,18.137091899999973],[-65.625,18.137447800000018],[-65.625,18.14026610000002],[-65.625,18.141324999999995],[-65.625,18.142920000000004],[-65.625,18.143501300000025],[-65.625,18.146567300000015],[-65.625,18.149470699999995],[-65.625,18.149999999999977],[-65.62495760000002,18.149999999999977],[-65.62460650000003,18.149999999999977],[-65.62313469999998,18.149999999999977],[-65.62029990000002,18.149999999999977],[-65.6199229,18.149999999999977],[-65.619419,18.149999999999977],[-65.6193831,18.149999999999977],[-65.6182528,18.149999999999977],[-65.60613919999997,18.149999999999977],[-65.60493129999998,18.149999999999977],[-65.6035291,18.149999999999977],[-65.6024698,18.149999999999977],[-65.60041260000003,18.149999999999977],[-65.59980669999999,18.149999999999977],[-65.59896509999999,18.149999999999977],[-65.59131939999997,18.149999999999977],[-65.58831470000001,18.149999999999977],[-65.58348769999998,18.149999999999977],[-65.58059079999998,18.149999999999977],[-65.58056319999997,18.149999999999977],[-65.56954430000002,18.149999999999977],[-65.5586887,18.149999999999977],[-65.55098750000002,18.149999999999977],[-65.55075160000001,18.149999999999977],[-65.55000000000001,18.149999999999977],[-65.55000000000001,18.14930179999999],[-65.55000000000001,18.137960099999987],[-65.55000000000001,18.135188400000004],[-65.55000000000001,18.134146600000008],[-65.55000000000001,18.132802700000013],[-65.55000000000001,18.131810200000018],[-65.55000000000001,18.126307699999984],[-65.55000000000001,18.122016400000007],[-65.55000000000001,18.119377999999983],[-65.55000000000001,18.084880199999986],[-65.55000000000001,18.08439390000001],[-65.55000000000001,18.08235860000002],[-65.55000000000001,18.081625599999995],[-65.55000000000001,18.081149400000015],[-65.55000000000001,18.07990289999998],[-65.55000000000001,18.079294100000027],[-65.55000000000001,18.078432299999974],[-65.55000000000001,18.077930999999978],[-65.55000000000001,18.077131399999985],[-65.55000000000001,18.07499999999999],[-65.559099,18.07499999999999],[-65.55938500000002,18.07499999999999],[-65.56318060000001,18.07499999999999],[-65.57167729999998,18.07499999999999],[-65.59072739999999,18.07499999999999],[-65.5992642,18.07499999999999],[-65.60031670000001,18.07499999999999],[-65.61155980000001,18.07499999999999],[-65.61383510000002,18.07499999999999],[-65.62198999999998,18.07499999999999]]]}},{"type":"Feature","properties":{},"geometry":{"type":"Polygon","coordinates":[[[-65.55000000000001,18.077131399999985],[-65.55000000000001,18.077930999999978],[-65.55000000000001,18.078432299999974],[-65.55000000000001,18.079294100000027],[-65.55000000000001,18.07990289999998],[-65.55000000000001,18.081149400000015],[-65.55000000000001,18.081625599999995],[-65.55000000000001,18.08235860000002],[-65.55000000000001,18.08439390000001],[-65.55000000000001,18.084880199999986],[-65.55000000000001,18.119377999999983],[-65.55000000000001,18.122016400000007],[-65.55000000000001,18.126307699999984],[-65.55000000000001,18.131810200000018],[-65.55000000000001,18.132802700000013],[-65.55000000000001,18.134146600000008],[-65.55000000000001,18.135188400000004],[-65.55000000000001,18.137960099999987],[-65.55000000000001,18.14930179999999],[-65.55000000000001,18.149999999999977],[-65.5483979,18.149999999999977],[-65.53982769999999,18.149999999999977],[-65.52963640000002,18.149999999999977],[-65.52679840000002,18.149999999999977],[-65.52145150000001,18.149999999999977],[-65.520332,18.149999999999977],[-65.51779060000001,18.149999999999977],[-65.51626490000001,18.149999999999977],[-65.51553439999998,18.149999999999977],[-65.51463919999998,18.149999999999977],[-65.51444179999999,18.149999999999977],[-65.51401349999998,18.149999999999977],[-65.51379789999999,18.149999999999977],[-65.5134903,18.149999999999977],[-65.50993369999998,18.149999999999977],[-65.50060580000002,18.149999999999977],[-65.50035910000003,18.149999999999977],[-65.49298959999999,18.149999999999977],[-65.4917696,18.149999999999977],[-65.49118700000002,18.149999999999977],[-65.49052849999998,18.149999999999977],[-65.48981300000003,18.149999999999977],[-65.48851539999998,18.149999999999977],[-65.48834540000001,18.149999999999977],[-65.48458260000001,18.149999999999977],[-65.48301550000002,18.149999999999977],[-65.48139329999998,18.149999999999977],[-65.47813070000001,18.149999999999977],[-65.47612400000003,18.149999999999977],[-65.47500000000002,18.149999999999977],[-65.47500000000002,18.143657099999984],[-65.47500000000002,18.142683799999986],[-65.47500000000002,18.142477699999972],[-65.47500000000002,18.142162400000018],[-65.47500000000002,18.09535790000001],[-65.47500000000002,18.094485899999995],[-65.47500000000002,18.093906500000003],[-65.47500000000002,18.088384299999973],[-65.47500000000002,18.087293999999986],[-65.47500000000002,18.08717250000001],[-65.47500000000002,18.086687400000017],[-65.47500000000002,18.08491459999999],[-65.47500000000002,18.083455000000015],[-65.47500000000002,18.080658599999992],[-65.47500000000002,18.07702999999998],[-65.47500000000002,18.076681800000017],[-65.47500000000002,18.076043900000002],[-65.47500000000002,18.0759453],[-65.47500000000002,18.07525770000001],[-65.47500000000002,18.07517569999999],[-65.47500000000002,18.07499999999999],[-65.47595310000003,18.07499999999999],[-65.47602289999998,18.07499999999999],[-65.48325360000001,18.07499999999999],[-65.48401969999998,18.07499999999999],[-65.48552749999999,18.07499999999999],[-65.48659229999998,18.07499999999999],[-65.48955590000003,18.07499999999999],[-65.49111199999999,18.07499999999999],[-65.50974980000001,18.07499999999999],[-65.50992230000003,18.07499999999999],[-65.51094119999999,18.07499999999999],[-65.511122,18.07499999999999],[-65.51362410000002,18.07499999999999],[-65.5173024,18.07499999999999],[-65.51792239999997,18.07499999999999],[-65.518867,18.07499999999999],[-65.5198403,18.07499999999999],[-65.52483389999998,18.07499999999999],[-65.52583709999999,18.07499999999999],[-65.52643920000003,18.07499999999999],[-65.52738900000003,18.07499999999999],[-65.54004300000003,18.07499999999999],[-65.54050690000003,18.07499999999999],[-65.55000000000001,18.07499999999999],[-65.55000000000001,18.077131399999985]]]}},{"type":"Feature","properties":{},"geometry":{"type":"Polygon","coordinates":[[[-65.47500000000002,18.07517569999999],[-65.47500000000002,18.07525770000001],[-65.47500000000002,18.0759453],[-65.47500000000002,18.076043900000002],[-65.47500000000002,18.076681800000017],[-65.47500000000002,18.07702999999998],[-65.47500000000002,18.080658599999992],[-65.47500000000002,18.083455000000015],[-65.47500000000002,18.08491459999999],[-65.47500000000002,18.086687400000017],[-65.47500000000002,18.08717250000001],[-65.47500000000002,18.087293999999986],[-65.47500000000002,18.088384299999973],[-65.47500000000002,18.093906500000003],[-65.47500000000002,18.094485899999995],[-65.47500000000002,18.09535790000001],[-65.47500000000002,18.142162400000018],[-65.47500000000002,18.142477699999972],[-65.47500000000002,18.142683799999986],[-65.47500000000002,18.143657099999984],[-65.47500000000002,18.149999999999977],[-65.46840459999999,18.149999999999977],[-65.46556570000001,18.149999999999977],[-65.4560138,18.149999999999977],[-65.45407569999998,18.149999999999977],[-65.45223470000002,18.149999999999977],[-65.45086959999998,18.149999999999977],[-65.44746800000001,18.149999999999977],[-65.446053,18.149999999999977],[-65.44584709999998,18.149999999999977],[-65.44559299999997,18.149999999999977],[-65.4452407,18.149999999999977],[-65.44502619999997,18.149999999999977],[-65.44486389999997,18.149999999999977],[-65.44456609999997,18.149999999999977],[-65.44417449999997,18.149999999999977],[-65.4439231,18.149999999999977],[-65.438583,18.149999999999977],[-65.43555500000002,18.149999999999977],[-65.40444860000002,18.149999999999977],[-65.39999999999998,18.149999999999977],[-65.39999999999998,18.143382400000007],[-65.39999999999998,18.10826559999998],[-65.39999999999998,18.106849599999975],[-65.39999999999998,18.101500699999974],[-65.39999999999998,18.09380090000002],[-65.39999999999998,18.083681800000022],[-65.39999999999998,18.083263499999987],[-65.39999999999998,18.07499999999999],[-65.43555500000002,18.07499999999999],[-65.438583,18.07499999999999],[-65.47500000000002,18.07499999999999],[-65.47500000000002,18.07517569999999]]]}},{"type":"Feature","properties":{},"geometry":{"type":"Polygon","coordinates":[[[-65.39999999999998,18.083263499999987],[-65.39999999999998,18.083681800000022],[-65.39999999999998,18.09380090000002],[-65.39999999999998,18.101500699999974],[-65.39999999999998,18.106849599999975],[-65.39999999999998,18.10826559999998],[-65.39999999999998,18.143382400000007],[-65.39999999999998,18.149999999999977],[-65.39387920000001,18.149999999999977],[-65.34382549999998,18.149999999999977],[-65.3406769,18.149999999999977],[-65.3400853,18.149999999999977],[-65.33900749999998,18.149999999999977],[-65.33646190000002,18.149999999999977],[-65.33585099999999,18.149999999999977],[-65.33553699999999,18.149999999999977],[-65.33337310000002,18.149999999999977],[-65.33218,18.149999999999977],[-65.32877789999998,18.149999999999977],[-65.32850150000002,18.149999999999977],[-65.32499999999999,18.149999999999977],[-65.32499999999999,18.149156600000026],[-65.32499999999999,18.124822400000028],[-65.32499999999999,18.1230319],[-65.32499999999999,18.11578589999999],[-65.32499999999999,18.113527999999974],[-65.32499999999999,18.10981049999998],[-65.32499999999999,18.098295899999982],[-65.32499999999999,18.095351800000003],[-65.32499999999999,18.0907153],[-65.32499999999999,18.088289299999985],[-65.32499999999999,18.07499999999999],[-65.36126760000002,18.07499999999999],[-65.3723918,18.07499999999999],[-65.38089710000003,18.07499999999999],[-65.3930681,18.07499999999999],[-65.39568630000002,18.07499999999999],[-65.39999999999998,18.07499999999999],[-65.39999999999998,18.083263499999987]]]}},{"type":"Feature","properties":{},"geometry":{"type":"Polygon","coordinates":[[[-65.25461990000002,18.07499999999999],[-65.25703199999998,18.07499999999999],[-65.28277800000001,18.07499999999999],[-65.28481929999998,18.07499999999999],[-65.28521180000001,18.07499999999999],[-65.32499999999999,18.07499999999999],[-65.32499999999999,18.088289299999985],[-65.32499999999999,18.0907153],[-65.32499999999999,18.095351800000003],[-65.32499999999999,18.098295899999982],[-65.32499999999999,18.10981049999998],[-65.32499999999999,18.113527999999974],[-65.32499999999999,18.11578589999999],[-65.32499999999999,18.1230319],[-65.32499999999999,18.124822400000028],[-65.32499999999999,18.149156600000026],[-65.32499999999999,18.149999999999977],[-65.32458329999997,18.149999999999977],[-65.32405080000001,18.149999999999977],[-65.32308180000001,18.149999999999977],[-65.309143,18.149999999999977],[-65.30860910000001,18.149999999999977],[-65.30839220000001,18.149999999999977],[-65.30782399999998,18.149999999999977],[-65.29837049999998,18.149999999999977],[-65.28853040000001,18.149999999999977],[-65.288094,18.149999999999977],[-65.2836585,18.149999999999977],[-65.28297179999998,18.149999999999977],[-65.28278940000001,18.149999999999977],[-65.28031779999998,18.149999999999977],[-65.27725520000001,18.149999999999977],[-65.2545821,18.149999999999977],[-65.25,18.149999999999977],[-65.25,18.136122899999975],[-65.25,18.116572700000006],[-65.25,18.115403200000003],[-65.25,18.114175699999976],[-65.25,18.085505099999978],[-65.25,18.084170700000016],[-65.25,18.083390800000018],[-65.25,18.07499999999999],[-65.25461990000002,18.07499999999999]]]}},{"type":"Feature","properties":{},"geometry":{"type":"Polygon","coordinates":[[[-65.69999999999999,18.183796200000018],[-65.69999999999999,18.182386699999995],[-65.69999999999999,18.18227280000002],[-65.69999999999999,18.182065899999998],[-65.69999999999999,18.181811299999993],[-65.69999999999999,18.181780800000013],[-65.69999999999999,18.181518799999992],[-65.69999999999999,18.180683999999985],[-65.69999999999999,18.176595799999973],[-65.69999999999999,18.172705800000017],[-65.69999999999999,18.165859300000022],[-65.69999999999999,18.149999999999977],[-65.71590179999998,18.149999999999977],[-65.7174114,18.149999999999977],[-65.72421379999997,18.149999999999977],[-65.7516865,18.149999999999977],[-65.76336300000003,18.149999999999977],[-65.76375969999998,18.149999999999977],[-65.7637851,18.149999999999977],[-65.76452540000003,18.149999999999977],[-65.76497819999997,18.149999999999977],[-65.76559709999998,18.149999999999977],[-65.77499999999998,18.149999999999977],[-65.77499999999998,18.21255000000002],[-65.77499999999998,18.225000000000023],[-65.74943230000002,18.225000000000023],[-65.69999999999999,18.225000000000023],[-65.69999999999999,18.21255000000002],[-65.69999999999999,18.185576700000013],[-65.69999999999999,18.183796200000018]]]}},{"type":"Feature","properties":{},"geometry":{"type":"Polygon","coordinates":[[[-65.69632209999997,18.149999999999977],[-65.69999999999999,18.149999999999977],[-65.69999999999999,18.165859300000022],[-65.69999999999999,18.172705800000017],[-65.69999999999999,18.176595799999973],[-65.69999999999999,18.180683999999985],[-65.69999999999999,18.181518799999992],[-65.69999999999999,18.181780800000013],[-65.69999999999999,18.181811299999993],[-65.69999999999999,18.182065899999998],[-65.69999999999999,18.18227280000002],[-65.69999999999999,18.182386699999995],[-65.69999999999999,18.183796200000018],[-65.69999999999999,18.185576700000013],[-65.69999999999999,18.21255000000002],[-65.69999999999999,18.225000000000023],[-65.64680499999997,18.225000000000023],[-65.64056419999997,18.225000000000023],[-65.6400266,18.225000000000023],[-65.63894160000001,18.225000000000023],[-65.63860779999999,18.225000000000023],[-65.63856240000001,18.225000000000023],[-65.6380145,18.225000000000023],[-65.63787880000001,18.225000000000023],[-65.63759119999997,18.225000000000023],[-65.63452339999998,18.225000000000023],[-65.6338637,18.225000000000023],[-65.63380560000002,18.225000000000023],[-65.6337332,18.225000000000023],[-65.63333879999999,18.225000000000023],[-65.63224500000001,18.225000000000023],[-65.6260484,18.225000000000023],[-65.62522389999998,18.225000000000023],[-65.62502410000002,18.225000000000023],[-65.625,18.225000000000023],[-65.625,18.222979899999984],[-65.625,18.215404700000022],[-65.625,18.215397800000005],[-65.625,18.215192000000002],[-65.625,18.215015100000016],[-65.625,18.213983999999982],[-65.625,18.209835399999974],[-65.625,18.20873499999999],[-65.625,18.206338399999993],[-65.625,18.20488690000002],[-65.625,18.204303900000014],[-65.625,18.202518399999974],[-65.625,18.201157599999988],[-65.625,18.200688500000012],[-65.625,18.19977449999999],[-65.625,18.19950990000001],[-65.625,18.19840290000002],[-65.625,18.19217329999998],[-65.625,18.19139389999998],[-65.625,18.191064600000004],[-65.625,18.189573300000006],[-65.625,18.187484100000006],[-65.625,18.186360999999977],[-65.625,18.18620470000002],[-65.625,18.180904699999985],[-65.625,18.178681499999982],[-65.625,18.176642000000015],[-65.625,18.17491799999999],[-65.625,18.172911699999986],[-65.625,18.172784700000022],[-65.625,18.16654920000002],[-65.625,18.164961300000016],[-65.625,18.159316999999987],[-65.625,18.15502520000001],[-65.625,18.15187179999998],[-65.625,18.150953700000002],[-65.625,18.150202700000023],[-65.625,18.15004479999999],[-65.625,18.149999999999977],[-65.62573259999999,18.149999999999977],[-65.6270859,18.149999999999977],[-65.62855589999998,18.149999999999977],[-65.63189929999999,18.149999999999977],[-65.63497130000002,18.149999999999977],[-65.63618359999998,18.149999999999977],[-65.63786499999998,18.149999999999977],[-65.6387014,18.149999999999977],[-65.64067599999998,18.149999999999977],[-65.64073020000001,18.149999999999977],[-65.64602550000001,18.149999999999977],[-65.64828169999998,18.149999999999977],[-65.65414870000001,18.149999999999977],[-65.66566089999998,18.149999999999977],[-65.66586280000001,18.149999999999977],[-65.66961579999997,18.149999999999977],[-65.66990800000002,18.149999999999977],[-65.67027139999999,18.149999999999977],[-65.6704115,18.149999999999977],[-65.67276329999999,18.149999999999977],[-65.6735243,18.149999999999977],[-65.67364470000001,18.149999999999977],[-65.6739723,18.149999999999977],[-65.6776964,18.149999999999977],[-65.67831539999997,18.149999999999977],[-65.68845320000003,18.149999999999977],[-65.68906729999998,18.149999999999977],[-65.69159250000001,18.149999999999977],[-65.69557049999997,18.149999999999977],[-65.69558919999997,18.149999999999977],[-65.69632209999997,18.149999999999977]]]}},{"type":"Feature","properties":{},"geometry":{"type":"Polygon","coordinates":[[[-65.62495760000002,18.149999999999977],[-65.625,18.149999999999977],[-65.625,18.15004479999999],[-65.625,18.150202700000023],[-65.625,18.150953700000002],[-65.625,18.15187179999998],[-65.625,18.15502520000001],[-65.625,18.159316999999987],[-65.625,18.164961300000016],[-65.625,18.16654920000002],[-65.625,18.172784700000022],[-65.625,18.172911699999986],[-65.625,18.17491799999999],[-65.625,18.176642000000015],[-65.625,18.178681499999982],[-65.625,18.180904699999985],[-65.625,18.18620470000002],[-65.625,18.186360999999977],[-65.625,18.187484100000006],[-65.625,18.189573300000006],[-65.625,18.191064600000004],[-65.625,18.19139389999998],[-65.625,18.19217329999998],[-65.625,18.19840290000002],[-65.625,18.19950990000001],[-65.625,18.19977449999999],[-65.625,18.200688500000012],[-65.625,18.201157599999988],[-65.625,18.202518399999974],[-65.625,18.204303900000014],[-65.625,18.20488690000002],[-65.625,18.206338399999993],[-65.625,18.20873499999999],[-65.625,18.209835399999974],[-65.625,18.213983999999982],[-65.625,18.215015100000016],[-65.625,18.215192000000002],[-65.625,18.215397800000005],[-65.625,18.215404700000022],[-65.625,18.222979899999984],[-65.625,18.225000000000023],[-65.62442040000002,18.225000000000023],[-65.6231353,18.225000000000023],[-65.62260889999999,18.225000000000023],[-65.6198824,18.225000000000023],[-65.61727619999999,18.225000000000023],[-65.6169332,18.225000000000023],[-65.60681679999999,18.225000000000023],[-65.60647390000003,18.225000000000023],[-65.6062814,18.225000000000023],[-65.60612320000001,18.225000000000023],[-65.60587550000002,18.225000000000023],[-65.60575110000002,18.225000000000023],[-65.60515850000002,18.225000000000023],[-65.60478440000003,18.225000000000023],[-65.60460870000003,18.225000000000023],[-65.60349459999998,18.225000000000023],[-65.5967508,18.225000000000023],[-65.59650019999998,18.225000000000023],[-65.59644750000001,18.225000000000023],[-65.5962156,18.225000000000023],[-65.59548740000002,18.225000000000023],[-65.59515809999999,18.225000000000023],[-65.59501669999997,18.225000000000023],[-65.59262050000001,18.225000000000023],[-65.59221200000002,18.225000000000023],[-65.59211590000001,18.225000000000023],[-65.59205250000002,18.225000000000023],[-65.59190230000002,18.225000000000023],[-65.59147530000001,18.225000000000023],[-65.59138239999999,18.225000000000023],[-65.58930600000002,18.225000000000023],[-65.58929469999998,18.225000000000023],[-65.58829800000001,18.225000000000023],[-65.58284379999998,18.225000000000023],[-65.5819826,18.225000000000023],[-65.58157720000003,18.225000000000023],[-65.58111580000002,18.225000000000023],[-65.57969270000001,18.225000000000023],[-65.57896290000002,18.225000000000023],[-65.57717530000002,18.225000000000023],[-65.57655399999999,18.225000000000023],[-65.5738988,18.225000000000023],[-65.57232049999999,18.225000000000023],[-65.57004979999999,18.225000000000023],[-65.56761770000003,18.225000000000023],[-65.56682330000001,18.225000000000023],[-65.56655999999998,18.225000000000023],[-65.5655777,18.225000000000023],[-65.5632961,18.225000000000023],[-65.56144239999998,18.225000000000023],[-65.56072339999997,18.225000000000023],[-65.56038480000001,18.225000000000023],[-65.5583436,18.225000000000023],[-65.5572765,18.225000000000023],[-65.55679320000002,18.225000000000023],[-65.5561553,18.225000000000023],[-65.55203929999999,18.225000000000023],[-65.55040100000002,18.225000000000023],[-65.55000000000001,18.225000000000023],[-65.55000000000001,18.224508300000025],[-65.55000000000001,18.223931800000003],[-65.55000000000001,18.219600800000023],[-65.55000000000001,18.217740400000025],[-65.55000000000001,18.217486399999984],[-65.55000000000001,18.21700820000001],[-65.55000000000001,18.21609860000001],[-65.55000000000001,18.214320199999975],[-65.55000000000001,18.21135179999999],[-65.55000000000001,18.210699499999976],[-65.55000000000001,18.209732099999997],[-65.55000000000001,18.207371500000022],[-65.55000000000001,18.205270999999982],[-65.55000000000001,18.204838800000005],[-65.55000000000001,18.199346400000024],[-65.55000000000001,18.194673899999998],[-65.55000000000001,18.192661299999997],[-65.55000000000001,18.18782140000002],[-65.55000000000001,18.187413900000024],[-65.55000000000001,18.186854200000028],[-65.55000000000001,18.186791900000003],[-65.55000000000001,18.184037100000012],[-65.55000000000001,18.17563819999998],[-65.55000000000001,18.172821],[-65.55000000000001,18.17185999999998],[-65.55000000000001,18.17049689999999],[-65.55000000000001,18.16784100000001],[-65.55000000000001,18.16091940000001],[-65.55000000000001,18.15996419999999],[-65.55000000000001,18.159254499999975],[-65.55000000000001,18.159148200000004],[-65.55000000000001,18.157659799999976],[-65.55000000000001,18.154608699999983],[-65.55000000000001,18.153883599999972],[-65.55000000000001,18.150311999999985],[-65.55000000000001,18.149999999999977],[-65.55075160000001,18.149999999999977],[-65.55098750000002,18.149999999999977],[-65.5586887,18.149999999999977],[-65.56954430000002,18.149999999999977],[-65.58056319999997,18.149999999999977],[-65.58059079999998,18.149999999999977],[-65.58348769999998,18.149999999999977],[-65.58831470000001,18.149999999999977],[-65.59131939999997,18.149999999999977],[-65.59896509999999,18.149999999999977],[-65.59980669999999,18.149999999999977],[-65.60041260000003,18.149999999999977],[-65.6024698,18.149999999999977],[-65.6035291,18.149999999999977],[-65.60493129999998,18.149999999999977],[-65.60613919999997,18.149999999999977],[-65.6182528,18.149999999999977],[-65.6193831,18.149999999999977],[-65.619419,18.149999999999977],[-65.6199229,18.149999999999977],[-65.62029990000002,18.149999999999977],[-65.62313469999998,18.149999999999977],[-65.62460650000003,18.149999999999977],[-65.62495760000002,18.149999999999977]]]}},{"type":"Feature","properties":{},"geometry":{"type":"Polygon","coordinates":[[[-65.51553439999998,18.149999999999977],[-65.51626490000001,18.149999999999977],[-65.51779060000001,18.149999999999977],[-65.520332,18.149999999999977],[-65.52145150000001,18.149999999999977],[-65.52679840000002,18.149999999999977],[-65.52963640000002,18.149999999999977],[-65.53982769999999,18.149999999999977],[-65.5483979,18.149999999999977],[-65.55000000000001,18.149999999999977],[-65.55000000000001,18.150311999999985],[-65.55000000000001,18.153883599999972],[-65.55000000000001,18.154608699999983],[-65.55000000000001,18.157659799999976],[-65.55000000000001,18.159148200000004],[-65.55000000000001,18.159254499999975],[-65.55000000000001,18.15996419999999],[-65.55000000000001,18.16091940000001],[-65.55000000000001,18.16784100000001],[-65.55000000000001,18.17049689999999],[-65.55000000000001,18.17185999999998],[-65.55000000000001,18.172821],[-65.55000000000001,18.17563819999998],[-65.55000000000001,18.184037100000012],[-65.55000000000001,18.186791900000003],[-65.55000000000001,18.186854200000028],[-65.55000000000001,18.187413900000024],[-65.55000000000001,18.18782140000002],[-65.55000000000001,18.192661299999997],[-65.55000000000001,18.194673899999998],[-65.55000000000001,18.199346400000024],[-65.55000000000001,18.204838800000005],[-65.55000000000001,18.205270999999982],[-65.55000000000001,18.207371500000022],[-65.55000000000001,18.209732099999997],[-65.55000000000001,18.210699499999976],[-65.55000000000001,18.21135179999999],[-65.55000000000001,18.214320199999975],[-65.55000000000001,18.21609860000001],[-65.55000000000001,18.21700820000001],[-65.55000000000001,18.217486399999984],[-65.55000000000001,18.217740400000025],[-65.55000000000001,18.219600800000023],[-65.55000000000001,18.223931800000003],[-65.55000000000001,18.224508300000025],[-65.55000000000001,18.225000000000023],[-65.54922479999999,18.225000000000023],[-65.5489667,18.225000000000023],[-65.5483337,18.225000000000023],[-65.54755929999999,18.225000000000023],[-65.54566399999999,18.225000000000023],[-65.54350970000002,18.225000000000023],[-65.54258679999998,18.225000000000023],[-65.54149489999998,18.225000000000023],[-65.5403981,18.225000000000023],[-65.53912530000002,18.225000000000023],[-65.5379896,18.225000000000023],[-65.5356382,18.225000000000023],[-65.53481369999997,18.225000000000023],[-65.53477720000001,18.225000000000023],[-65.5333794,18.225000000000023],[-65.53091749999999,18.225000000000023],[-65.53049119999997,18.225000000000023],[-65.52918019999998,18.225000000000023],[-65.52882979999998,18.225000000000023],[-65.52802509999998,18.225000000000023],[-65.5278798,18.225000000000023],[-65.52691220000003,18.225000000000023],[-65.52677390000002,18.225000000000023],[-65.52574829999998,18.225000000000023],[-65.52513579999999,18.225000000000023],[-65.52457390000001,18.225000000000023],[-65.52446049999998,18.225000000000023],[-65.52399509999998,18.225000000000023],[-65.52392759999998,18.225000000000023],[-65.52364799999998,18.225000000000023],[-65.5233212,18.225000000000023],[-65.5231829,18.225000000000023],[-65.52295570000001,18.225000000000023],[-65.52190789999997,18.225000000000023],[-65.52164390000002,18.225000000000023],[-65.52124939999999,18.225000000000023],[-65.52099349999997,18.225000000000023],[-65.52009520000001,18.225000000000023],[-65.51940669999999,18.225000000000023],[-65.51637,18.225000000000023],[-65.5155234,18.225000000000023],[-65.51174359999999,18.225000000000023],[-65.51125239999999,18.225000000000023],[-65.5105656,18.225000000000023],[-65.5102867,18.225000000000023],[-65.50995269999999,18.225000000000023],[-65.50970430000001,18.225000000000023],[-65.50868919999999,18.225000000000023],[-65.50811340000001,18.225000000000023],[-65.50744900000001,18.225000000000023],[-65.5007531,18.225000000000023],[-65.4945267,18.225000000000023],[-65.49398129999997,18.225000000000023],[-65.49355300000002,18.225000000000023],[-65.49333519999999,18.225000000000023],[-65.49204650000001,18.225000000000023],[-65.48802899999998,18.225000000000023],[-65.48538500000001,18.225000000000023],[-65.48334069999999,18.225000000000023],[-65.48321900000002,18.225000000000023],[-65.4822805,18.225000000000023],[-65.48193550000002,18.225000000000023],[-65.48085500000002,18.225000000000023],[-65.47500000000002,18.225000000000023],[-65.47500000000002,18.224060699999995],[-65.47500000000002,18.223199099999988],[-65.47500000000002,18.222470999999985],[-65.47500000000002,18.216820299999995],[-65.47500000000002,18.213835200000005],[-65.47500000000002,18.212920399999973],[-65.47500000000002,18.202636700000028],[-65.47500000000002,18.20194429999998],[-65.47500000000002,18.19539279999998],[-65.47500000000002,18.19389940000002],[-65.47500000000002,18.1874904],[-65.47500000000002,18.18463509999998],[-65.47500000000002,18.183687799999973],[-65.47500000000002,18.180075199999976],[-65.47500000000002,18.179185000000018],[-65.47500000000002,18.177796100000023],[-65.47500000000002,18.175433699999985],[-65.47500000000002,18.17393179999999],[-65.47500000000002,18.173075200000028],[-65.47500000000002,18.153952800000013],[-65.47500000000002,18.15168010000002],[-65.47500000000002,18.149999999999977],[-65.47612400000003,18.149999999999977],[-65.47813070000001,18.149999999999977],[-65.48139329999998,18.149999999999977],[-65.48301550000002,18.149999999999977],[-65.48458260000001,18.149999999999977],[-65.48834540000001,18.149999999999977],[-65.48851539999998,18.149999999999977],[-65.48981300000003,18.149999999999977],[-65.49052849999998,18.149999999999977],[-65.49118700000002,18.149999999999977],[-65.4917696,18.149999999999977],[-65.49298959999999,18.149999999999977],[-65.50035910000003,18.149999999999977],[-65.50060580000002,18.149999999999977],[-65.50993369999998,18.149999999999977],[-65.5134903,18.149999999999977],[-65.51379789999999,18.149999999999977],[-65.51401349999998,18.149999999999977],[-65.51444179999999,18.149999999999977],[-65.51463919999998,18.149999999999977],[-65.51553439999998,18.149999999999977]]]}},{"type":"Feature","properties":{},"geometry":{"type":"Polygon","coordinates":[[[-65.47500000000002,18.15168010000002],[-65.47500000000002,18.153952800000013],[-65.47500000000002,18.173075200000028],[-65.47500000000002,18.17393179999999],[-65.47500000000002,18.175433699999985],[-65.47500000000002,18.177796100000023],[-65.47500000000002,18.179185000000018],[-65.47500000000002,18.180075199999976],[-65.47500000000002,18.183687799999973],[-65.47500000000002,18.18463509999998],[-65.47500000000002,18.1874904],[-65.47500000000002,18.19389940000002],[-65.47500000000002,18.19539279999998],[-65.47500000000002,18.20194429999998],[-65.47500000000002,18.202636700000028],[-65.47500000000002,18.212920399999973],[-65.47500000000002,18.213835200000005],[-65.47500000000002,18.216820299999995],[-65.47500000000002,18.222470999999985],[-65.47500000000002,18.223199099999988],[-65.47500000000002,18.224060699999995],[-65.47500000000002,18.225000000000023],[-65.4748128,18.225000000000023],[-65.47430659999998,18.225000000000023],[-65.47378220000002,18.225000000000023],[-65.467152,18.225000000000023],[-65.4652322,18.225000000000023],[-65.44716970000002,18.225000000000023],[-65.438583,18.225000000000023],[-65.43555500000002,18.225000000000023],[-65.39999999999998,18.225000000000023],[-65.39999999999998,18.212606100000016],[-65.39999999999998,18.21188330000001],[-65.39999999999998,18.194610300000022],[-65.39999999999998,18.18310919999999],[-65.39999999999998,18.172195199999976],[-65.39999999999998,18.171372299999973],[-65.39999999999998,18.16331150000002],[-65.39999999999998,18.16265199999998],[-65.39999999999998,18.16181549999999],[-65.39999999999998,18.160977600000024],[-65.39999999999998,18.15805130000001],[-65.39999999999998,18.153809599999988],[-65.39999999999998,18.149999999999977],[-65.40444860000002,18.149999999999977],[-65.43196719999997,18.149999999999977],[-65.43555500000002,18.149999999999977],[-65.438583,18.149999999999977],[-65.4439231,18.149999999999977],[-65.44417449999997,18.149999999999977],[-65.44456609999997,18.149999999999977],[-65.44486389999997,18.149999999999977],[-65.44502619999997,18.149999999999977],[-65.4452407,18.149999999999977],[-65.44559299999997,18.149999999999977],[-65.44584709999998,18.149999999999977],[-65.446053,18.149999999999977],[-65.44746800000001,18.149999999999977],[-65.45086959999998,18.149999999999977],[-65.45223470000002,18.149999999999977],[-65.45407569999998,18.149999999999977],[-65.4560138,18.149999999999977],[-65.46556570000001,18.149999999999977],[-65.46840459999999,18.149999999999977],[-65.47500000000002,18.149999999999977],[-65.47500000000002,18.15168010000002]]]}},{"type":"Feature","properties":{},"geometry":{"type":"Polygon","coordinates":[[[-65.39387920000001,18.149999999999977],[-65.39999999999998,18.149999999999977],[-65.39999999999998,18.153809599999988],[-65.39999999999998,18.15805130000001],[-65.39999999999998,18.160977600000024],[-65.39999999999998,18.16181549999999],[-65.39999999999998,18.16265199999998],[-65.39999999999998,18.16331150000002],[-65.39999999999998,18.171372299999973],[-65.39999999999998,18.172195199999976],[-65.39999999999998,18.18310919999999],[-65.39999999999998,18.194610300000022],[-65.39999999999998,18.21188330000001],[-65.39999999999998,18.212606100000016],[-65.39999999999998,18.225000000000023],[-65.39769410000002,18.225000000000023],[-65.39045390000001,18.225000000000023],[-65.38478279999998,18.225000000000023],[-65.37288949999999,18.225000000000023],[-65.36215229999999,18.225000000000023],[-65.35218420000001,18.225000000000023],[-65.32995549999998,18.225000000000023],[-65.32499999999999,18.225000000000023],[-65.32499999999999,18.19992339999999],[-65.32499999999999,18.199201500000015],[-65.32499999999999,18.19730229999999],[-65.32499999999999,18.158264799999984],[-65.32499999999999,18.156279900000015],[-65.32499999999999,18.154728200000022],[-65.32499999999999,18.151886999999988],[-65.32499999999999,18.149999999999977],[-65.32850150000002,18.149999999999977],[-65.32877789999998,18.149999999999977],[-65.33218,18.149999999999977],[-65.33337310000002,18.149999999999977],[-65.33553699999999,18.149999999999977],[-65.33585099999999,18.149999999999977],[-65.33646190000002,18.149999999999977],[-65.33900749999998,18.149999999999977],[-65.3400853,18.149999999999977],[-65.3406769,18.149999999999977],[-65.34382549999998,18.149999999999977],[-65.39387920000001,18.149999999999977]]]}},{"type":"Feature","properties":{},"geometry":{"type":"Polygon","coordinates":[[[-65.32405080000001,18.149999999999977],[-65.32458329999997,18.149999999999977],[-65.32499999999999,18.149999999999977],[-65.32499999999999,18.151886999999988],[-65.32499999999999,18.154728200000022],[-65.32499999999999,18.156279900000015],[-65.32499999999999,18.158264799999984],[-65.32499999999999,18.19730229999999],[-65.32499999999999,18.199201500000015],[-65.32499999999999,18.19992339999999],[-65.32499999999999,18.225000000000023],[-65.3050543,18.225000000000023],[-65.29094559999999,18.225000000000023],[-65.25,18.225000000000023],[-65.25,18.191039100000012],[-65.25,18.185680900000023],[-65.25,18.18474930000002],[-65.25,18.149999999999977],[-65.2545821,18.149999999999977],[-65.27725520000001,18.149999999999977],[-65.28031779999998,18.149999999999977],[-65.28278940000001,18.149999999999977],[-65.28297179999998,18.149999999999977],[-65.2836585,18.149999999999977],[-65.288094,18.149999999999977],[-65.28853040000001,18.149999999999977],[-65.29837049999998,18.149999999999977],[-65.30782399999998,18.149999999999977],[-65.30839220000001,18.149999999999977],[-65.30860910000001,18.149999999999977],[-65.309143,18.149999999999977],[-65.32308180000001,18.149999999999977],[-65.32405080000001,18.149999999999977]]]}},{"type":"Feature","properties":{},"geometry":{"type":"Polygon","coordinates":[[[-65.6257865,18.30000000000001],[-65.625,18.30000000000001],[-65.625,18.299638000000016],[-65.625,18.29839529999998],[-65.625,18.297849499999984],[-65.625,18.29275339999998],[-65.625,18.289372200000003],[-65.625,18.284111300000006],[-65.625,18.284097700000018],[-65.625,18.282539999999983],[-65.625,18.280402400000014],[-65.625,18.278432199999997],[-65.625,18.278224000000023],[-65.625,18.277208799999983],[-65.625,18.276385800000014],[-65.625,18.27578060000002],[-65.625,18.274298199999976],[-65.625,18.274078299999985],[-65.625,18.273360799999978],[-65.625,18.272599500000013],[-65.625,18.27245929999998],[-65.625,18.271749],[-65.625,18.27128590000001],[-65.625,18.27091439999998],[-65.625,18.270003700000018],[-65.625,18.26835219999998],[-65.625,18.267587300000002],[-65.625,18.26552650000002],[-65.625,18.258098200000006],[-65.625,18.25733630000002],[-65.625,18.257071699999983],[-65.625,18.243219699999997],[-65.625,18.241360999999984],[-65.625,18.23774880000002],[-65.625,18.23760900000002],[-65.625,18.232846400000028],[-65.625,18.2313939],[-65.625,18.231205699999975],[-65.625,18.231023499999992],[-65.625,18.23040789999999],[-65.625,18.2297557],[-65.625,18.229227100000003],[-65.625,18.22895970000002],[-65.625,18.2283362],[-65.625,18.227784600000007],[-65.625,18.227086499999984],[-65.625,18.22669300000001],[-65.625,18.225206500000013],[-65.625,18.225032899999974],[-65.625,18.225000000000023],[-65.62502410000002,18.225000000000023],[-65.62522389999998,18.225000000000023],[-65.6260484,18.225000000000023],[-65.63224500000001,18.225000000000023],[-65.63333879999999,18.225000000000023],[-65.6337332,18.225000000000023],[-65.63380560000002,18.225000000000023],[-65.6338637,18.225000000000023],[-65.63452339999998,18.225000000000023],[-65.63759119999997,18.225000000000023],[-65.63787880000001,18.225000000000023],[-65.6380145,18.225000000000023],[-65.63856240000001,18.225000000000023],[-65.63860779999999,18.225000000000023],[-65.63894160000001,18.225000000000023],[-65.6400266,18.225000000000023],[-65.64056419999997,18.225000000000023],[-65.64680499999997,18.225000000000023],[-65.69999999999999,18.225000000000023],[-65.69999999999999,18.30000000000001],[-65.6262155,18.30000000000001],[-65.6257865,18.30000000000001]]]}},{"type":"Feature","properties":{},"geometry":{"type":"Polygon","coordinates":[[[-65.62442040000002,18.225000000000023],[-65.625,18.225000000000023],[-65.625,18.225032899999974],[-65.625,18.225206500000013],[-65.625,18.22669300000001],[-65.625,18.227086499999984],[-65.625,18.227784600000007],[-65.625,18.2283362],[-65.625,18.22895970000002],[-65.625,18.229227100000003],[-65.625,18.2297557],[-65.625,18.23040789999999],[-65.625,18.231023499999992],[-65.625,18.231205699999975],[-65.625,18.2313939],[-65.625,18.232846400000028],[-65.625,18.23760900000002],[-65.625,18.23774880000002],[-65.625,18.241360999999984],[-65.625,18.243219699999997],[-65.625,18.257071699999983],[-65.625,18.25733630000002],[-65.625,18.258098200000006],[-65.625,18.26552650000002],[-65.625,18.267587300000002],[-65.625,18.26835219999998],[-65.625,18.270003700000018],[-65.625,18.27091439999998],[-65.625,18.27128590000001],[-65.625,18.271749],[-65.625,18.27245929999998],[-65.625,18.272599500000013],[-65.625,18.273360799999978],[-65.625,18.274078299999985],[-65.625,18.274298199999976],[-65.625,18.27578060000002],[-65.625,18.276385800000014],[-65.625,18.277208799999983],[-65.625,18.278224000000023],[-65.625,18.278432199999997],[-65.625,18.280402400000014],[-65.625,18.282539999999983],[-65.625,18.284097700000018],[-65.625,18.284111300000006],[-65.625,18.289372200000003],[-65.625,18.29275339999998],[-65.625,18.297849499999984],[-65.625,18.29839529999998],[-65.625,18.299638000000016],[-65.625,18.30000000000001],[-65.62484130000001,18.30000000000001],[-65.62429450000002,18.30000000000001],[-65.6240942,18.30000000000001],[-65.62318529999999,18.30000000000001],[-65.61907400000001,18.30000000000001],[-65.61725580000001,18.30000000000001],[-65.61598520000001,18.30000000000001],[-65.60508420000002,18.30000000000001],[-65.6010397,18.30000000000001],[-65.59147510000003,18.30000000000001],[-65.59012669999998,18.30000000000001],[-65.57809630000003,18.30000000000001],[-65.57530070000001,18.30000000000001],[-65.5743832,18.30000000000001],[-65.56438229999998,18.30000000000001],[-65.56139739999998,18.30000000000001],[-65.56009790000002,18.30000000000001],[-65.55957219999999,18.30000000000001],[-65.55000000000001,18.30000000000001],[-65.55000000000001,18.282162900000003],[-65.55000000000001,18.260151500000006],[-65.55000000000001,18.259256100000016],[-65.55000000000001,18.25652919999999],[-65.55000000000001,18.2551967],[-65.55000000000001,18.254481800000008],[-65.55000000000001,18.253544999999974],[-65.55000000000001,18.252146200000027],[-65.55000000000001,18.25172570000001],[-65.55000000000001,18.250861299999997],[-65.55000000000001,18.250680199999977],[-65.55000000000001,18.250186100000008],[-65.55000000000001,18.249840199999994],[-65.55000000000001,18.248684400000002],[-65.55000000000001,18.248455799999988],[-65.55000000000001,18.244633899999997],[-65.55000000000001,18.243068300000004],[-65.55000000000001,18.24071620000001],[-65.55000000000001,18.240427699999998],[-65.55000000000001,18.23945409999999],[-65.55000000000001,18.237844699999982],[-65.55000000000001,18.23705769999998],[-65.55000000000001,18.235788200000002],[-65.55000000000001,18.23543330000001],[-65.55000000000001,18.23395640000001],[-65.55000000000001,18.233075999999983],[-65.55000000000001,18.231474400000025],[-65.55000000000001,18.230828599999995],[-65.55000000000001,18.227659399999993],[-65.55000000000001,18.227001400000006],[-65.55000000000001,18.225000000000023],[-65.55040100000002,18.225000000000023],[-65.55203929999999,18.225000000000023],[-65.5561553,18.225000000000023],[-65.55679320000002,18.225000000000023],[-65.5572765,18.225000000000023],[-65.5583436,18.225000000000023],[-65.56038480000001,18.225000000000023],[-65.56072339999997,18.225000000000023],[-65.56144239999998,18.225000000000023],[-65.5632961,18.225000000000023],[-65.5655777,18.225000000000023],[-65.56655999999998,18.225000000000023],[-65.56682330000001,18.225000000000023],[-65.56761770000003,18.225000000000023],[-65.57004979999999,18.225000000000023],[-65.57232049999999,18.225000000000023],[-65.5738988,18.225000000000023],[-65.57655399999999,18.225000000000023],[-65.57717530000002,18.225000000000023],[-65.57896290000002,18.225000000000023],[-65.57969270000001,18.225000000000023],[-65.58111580000002,18.225000000000023],[-65.58157720000003,18.225000000000023],[-65.5819826,18.225000000000023],[-65.58284379999998,18.225000000000023],[-65.58829800000001,18.225000000000023],[-65.58929469999998,18.225000000000023],[-65.58930600000002,18.225000000000023],[-65.59138239999999,18.225000000000023],[-65.59147530000001,18.225000000000023],[-65.59190230000002,18.225000000000023],[-65.59205250000002,18.225000000000023],[-65.59211590000001,18.225000000000023],[-65.59221200000002,18.225000000000023],[-65.59262050000001,18.225000000000023],[-65.59501669999997,18.225000000000023],[-65.59515809999999,18.225000000000023],[-65.59548740000002,18.225000000000023],[-65.5962156,18.225000000000023],[-65.59644750000001,18.225000000000023],[-65.59650019999998,18.225000000000023],[-65.5967508,18.225000000000023],[-65.60349459999998,18.225000000000023],[-65.60460870000003,18.225000000000023],[-65.60478440000003,18.225000000000023],[-65.60515850000002,18.225000000000023],[-65.60575110000002,18.225000000000023],[-65.60587550000002,18.225000000000023],[-65.60612320000001,18.225000000000023],[-65.6062814,18.225000000000023],[-65.60647390000003,18.225000000000023],[-65.60681679999999,18.225000000000023],[-65.6169332,18.225000000000023],[-65.61727619999999,18.225000000000023],[-65.6198824,18.225000000000023],[-65.62208240000001,18.225000000000023],[-65.62260889999999,18.225000000000023],[-65.6231353,18.225000000000023],[-65.62442040000002,18.225000000000023]]]}},{"type":"Feature","properties":{},"geometry":{"type":"Polygon","coordinates":[[[-65.54922479999999,18.225000000000023],[-65.55000000000001,18.225000000000023],[-65.55000000000001,18.227001400000006],[-65.55000000000001,18.227659399999993],[-65.55000000000001,18.230828599999995],[-65.55000000000001,18.231474400000025],[-65.55000000000001,18.233075999999983],[-65.55000000000001,18.23395640000001],[-65.55000000000001,18.23543330000001],[-65.55000000000001,18.235788200000002],[-65.55000000000001,18.23705769999998],[-65.55000000000001,18.237844699999982],[-65.55000000000001,18.23945409999999],[-65.55000000000001,18.240427699999998],[-65.55000000000001,18.24071620000001],[-65.55000000000001,18.243068300000004],[-65.55000000000001,18.244633899999997],[-65.55000000000001,18.248455799999988],[-65.55000000000001,18.248684400000002],[-65.55000000000001,18.249840199999994],[-65.55000000000001,18.250186100000008],[-65.55000000000001,18.250680199999977],[-65.55000000000001,18.250861299999997],[-65.55000000000001,18.25172570000001],[-65.55000000000001,18.252146200000027],[-65.55000000000001,18.253544999999974],[-65.55000000000001,18.254481800000008],[-65.55000000000001,18.2551967],[-65.55000000000001,18.25652919999999],[-65.55000000000001,18.259256100000016],[-65.55000000000001,18.260151500000006],[-65.55000000000001,18.282162900000003],[-65.55000000000001,18.30000000000001],[-65.53567099999998,18.30000000000001],[-65.53443900000002,18.30000000000001],[-65.53227779999997,18.30000000000001],[-65.49163959999998,18.30000000000001],[-65.4895616,18.30000000000001],[-65.48759410000002,18.30000000000001],[-65.47500000000002,18.30000000000001],[-65.47500000000002,18.286610499999995],[-65.47500000000002,18.279266099999973],[-65.47500000000002,18.269114300000012],[-65.47500000000002,18.263073399999996],[-65.47500000000002,18.259911999999986],[-65.47500000000002,18.253544999999974],[-65.47500000000002,18.249139800000023],[-65.47500000000002,18.23522539999999],[-65.47500000000002,18.234253200000012],[-65.47500000000002,18.22754550000002],[-65.47500000000002,18.225000000000023],[-65.48085500000002,18.225000000000023],[-65.48193550000002,18.225000000000023],[-65.4822805,18.225000000000023],[-65.48321900000002,18.225000000000023],[-65.48334069999999,18.225000000000023],[-65.48538500000001,18.225000000000023],[-65.48802899999998,18.225000000000023],[-65.49204650000001,18.225000000000023],[-65.49333519999999,18.225000000000023],[-65.49355300000002,18.225000000000023],[-65.49398129999997,18.225000000000023],[-65.4945267,18.225000000000023],[-65.5007531,18.225000000000023],[-65.50744900000001,18.225000000000023],[-65.50811340000001,18.225000000000023],[-65.50868919999999,18.225000000000023],[-65.50970430000001,18.225000000000023],[-65.50995269999999,18.225000000000023],[-65.5102867,18.225000000000023],[-65.5105656,18.225000000000023],[-65.51125239999999,18.225000000000023],[-65.51174359999999,18.225000000000023],[-65.5155234,18.225000000000023],[-65.51637,18.225000000000023],[-65.51940669999999,18.225000000000023],[-65.52009520000001,18.225000000000023],[-65.52099349999997,18.225000000000023],[-65.52124939999999,18.225000000000023],[-65.52164390000002,18.225000000000023],[-65.52190789999997,18.225000000000023],[-65.52295570000001,18.225000000000023],[-65.5231829,18.225000000000023],[-65.5233212,18.225000000000023],[-65.52364799999998,18.225000000000023],[-65.52392759999998,18.225000000000023],[-65.52399509999998,18.225000000000023],[-65.52446049999998,18.225000000000023],[-65.52457390000001,18.225000000000023],[-65.52513579999999,18.225000000000023],[-65.52574829999998,18.225000000000023],[-65.52677390000002,18.225000000000023],[-65.52691220000003,18.225000000000023],[-65.5278798,18.225000000000023],[-65.52802509999998,18.225000000000023],[-65.52882979999998,18.225000000000023],[-65.52918019999998,18.225000000000023],[-65.53049119999997,18.225000000000023],[-65.53091749999999,18.225000000000023],[-65.5333794,18.225000000000023],[-65.53477720000001,18.225000000000023],[-65.53481369999997,18.225000000000023],[-65.5356382,18.225000000000023],[-65.5379896,18.225000000000023],[-65.53912530000002,18.225000000000023],[-65.5403981,18.225000000000023],[-65.54149489999998,18.225000000000023],[-65.54258679999998,18.225000000000023],[-65.54350970000002,18.225000000000023],[-65.54566399999999,18.225000000000023],[-65.54755929999999,18.225000000000023],[-65.5483337,18.225000000000023],[-65.5489667,18.225000000000023],[-65.54922479999999,18.225000000000023]]]}},{"type":"Feature","properties":{},"geometry":{"type":"Polygon","coordinates":[[[-65.39999999999998,18.23026759999999],[-65.39999999999998,18.276605700000005],[-65.39999999999998,18.276660600000014],[-65.39999999999998,18.27741420000001],[-65.39999999999998,18.30000000000001],[-65.39854980000001,18.30000000000001],[-65.39630599999998,18.30000000000001],[-65.36514299999999,18.30000000000001],[-65.34944510000003,18.30000000000001],[-65.3494445,18.30000000000001],[-65.338596,18.30000000000001],[-65.33750270000002,18.30000000000001],[-65.33531440000002,18.30000000000001],[-65.33377719999999,18.30000000000001],[-65.33267269999999,18.30000000000001],[-65.3321123,18.30000000000001],[-65.33166799999998,18.30000000000001],[-65.3300582,18.30000000000001],[-65.32949869999999,18.30000000000001],[-65.32930149999999,18.30000000000001],[-65.32847020000003,18.30000000000001],[-65.32843559999998,18.30000000000001],[-65.3275721,18.30000000000001],[-65.3274017,18.30000000000001],[-65.32714579999998,18.30000000000001],[-65.32678370000002,18.30000000000001],[-65.32662590000001,18.30000000000001],[-65.32618489999999,18.30000000000001],[-65.32607839999997,18.30000000000001],[-65.3254513,18.30000000000001],[-65.32499999999999,18.30000000000001],[-65.32499999999999,18.298711400000002],[-65.32499999999999,18.29589870000001],[-65.32499999999999,18.2839204],[-65.32499999999999,18.269971800000008],[-65.32499999999999,18.26911610000002],[-65.32499999999999,18.26591480000002],[-65.32499999999999,18.26485059999999],[-65.32499999999999,18.243559300000015],[-65.32499999999999,18.242513499999973],[-65.32499999999999,18.237472000000025],[-65.32499999999999,18.225000000000023],[-65.32995549999998,18.225000000000023],[-65.36049430000003,18.225000000000023],[-65.36215229999999,18.225000000000023],[-65.36436170000002,18.225000000000023],[-65.38478279999998,18.225000000000023],[-65.39045390000001,18.225000000000023],[-65.39769410000002,18.225000000000023],[-65.39999999999998,18.225000000000023],[-65.39999999999998,18.23026759999999]]]}},{"type":"Feature","properties":{},"geometry":{"type":"Polygon","coordinates":[[[-65.29094559999999,18.225000000000023],[-65.3050543,18.225000000000023],[-65.32499999999999,18.225000000000023],[-65.32499999999999,18.237472000000025],[-65.32499999999999,18.242513499999973],[-65.32499999999999,18.243559300000015],[-65.32499999999999,18.26485059999999],[-65.32499999999999,18.26591480000002],[-65.32499999999999,18.26911610000002],[-65.32499999999999,18.269971800000008],[-65.32499999999999,18.2839204],[-65.32499999999999,18.29589870000001],[-65.32499999999999,18.298711400000002],[-65.32499999999999,18.30000000000001],[-65.32106779999998,18.30000000000001],[-65.32043429999999,18.30000000000001],[-65.31348320000001,18.30000000000001],[-65.3129126,18.30000000000001],[-65.3120007,18.30000000000001],[-65.30923899999999,18.30000000000001],[-65.30923869999998,18.30000000000001],[-65.3091766,18.30000000000001],[-65.30883340000003,18.30000000000001],[-65.30772739999998,18.30000000000001],[-65.30727350000001,18.30000000000001],[-65.30659809999997,18.30000000000001],[-65.30621739999998,18.30000000000001],[-65.30594910000002,18.30000000000001],[-65.3057028,18.30000000000001],[-65.30551150000002,18.30000000000001],[-65.3039286,18.30000000000001],[-65.30323229999999,18.30000000000001],[-65.30183499999998,18.30000000000001],[-65.30172349999998,18.30000000000001],[-65.28910430000002,18.30000000000001],[-65.28896959999997,18.30000000000001],[-65.2887417,18.30000000000001],[-65.288614,18.30000000000001],[-65.28834360000002,18.30000000000001],[-65.28829089999999,18.30000000000001],[-65.28765349999998,18.30000000000001],[-65.2851033,18.30000000000001],[-65.28203639999998,18.30000000000001],[-65.2817743,18.30000000000001],[-65.28166579999998,18.30000000000001],[-65.28158309999998,18.30000000000001],[-65.28082899999998,18.30000000000001],[-65.27931009999998,18.30000000000001],[-65.27878659999999,18.30000000000001],[-65.27793869999999,18.30000000000001],[-65.27777800000001,18.30000000000001],[-65.27733890000002,18.30000000000001],[-65.27685709999997,18.30000000000001],[-65.2572351,18.30000000000001],[-65.2568182,18.30000000000001],[-65.25533130000002,18.30000000000001],[-65.25514529999998,18.30000000000001],[-65.25513460000002,18.30000000000001],[-65.25487040000002,18.30000000000001],[-65.25473840000001,18.30000000000001],[-65.25471820000001,18.30000000000001],[-65.25461510000002,18.30000000000001],[-65.25436389999999,18.30000000000001],[-65.25378189999998,18.30000000000001],[-65.2535494,18.30000000000001],[-65.25312079999998,18.30000000000001],[-65.2528529,18.30000000000001],[-65.25230640000001,18.30000000000001],[-65.2522141,18.30000000000001],[-65.25089559999998,18.30000000000001],[-65.25083840000002,18.30000000000001],[-65.25068970000001,18.30000000000001],[-65.25049339999998,18.30000000000001],[-65.2503888,18.30000000000001],[-65.2502743,18.30000000000001],[-65.25,18.30000000000001],[-65.25,18.29962569999998],[-65.25,18.299160400000005],[-65.25,18.298080500000026],[-65.25,18.297842300000013],[-65.25,18.296953299999984],[-65.25,18.29676189999998],[-65.25,18.296589100000006],[-65.25,18.296517300000005],[-65.25,18.296098900000004],[-65.25,18.296011899999996],[-65.25,18.295862899999975],[-65.25,18.295464299999992],[-65.25,18.295388800000012],[-65.25,18.295186699999988],[-65.25,18.294808699999976],[-65.25,18.294441500000005],[-65.25,18.288744899999983],[-65.25,18.288213799999994],[-65.25,18.288164400000028],[-65.25,18.287717600000008],[-65.25,18.286898599999972],[-65.25,18.286139900000023],[-65.25,18.28558670000001],[-65.25,18.28527939999998],[-65.25,18.280826900000022],[-65.25,18.279739000000006],[-65.25,18.2787692],[-65.25,18.277858600000002],[-65.25,18.27778669999998],[-65.25,18.27744050000001],[-65.25,18.27727759999999],[-65.25,18.277041800000006],[-65.25,18.275967900000012],[-65.25,18.27566189999999],[-65.25,18.27006419999998],[-65.25,18.265640099999985],[-65.25,18.238262700000007],[-65.25,18.237511100000006],[-65.25,18.237472000000025],[-65.25,18.225000000000023],[-65.29094559999999,18.225000000000023]]]}},{"type":"Feature","properties":{},"geometry":{"type":"Polygon","coordinates":[[[-65.19540060000003,18.225000000000023],[-65.25,18.225000000000023],[-65.25,18.237472000000025],[-65.25,18.237511100000006],[-65.25,18.238262700000007],[-65.25,18.265640099999985],[-65.25,18.27006419999998],[-65.25,18.27566189999999],[-65.25,18.275967900000012],[-65.25,18.277041800000006],[-65.25,18.27727759999999],[-65.25,18.27744050000001],[-65.25,18.27778669999998],[-65.25,18.277858600000002],[-65.25,18.2787692],[-65.25,18.279739000000006],[-65.25,18.280826900000022],[-65.25,18.28527939999998],[-65.25,18.28558670000001],[-65.25,18.286139900000023],[-65.25,18.286898599999972],[-65.25,18.287717600000008],[-65.25,18.288164400000028],[-65.25,18.288213799999994],[-65.25,18.288744899999983],[-65.25,18.294441500000005],[-65.25,18.294808699999976],[-65.25,18.295186699999988],[-65.25,18.295388800000012],[-65.25,18.295464299999992],[-65.25,18.295862899999975],[-65.25,18.296011899999996],[-65.25,18.296098900000004],[-65.25,18.296517300000005],[-65.25,18.296589100000006],[-65.25,18.29676189999998],[-65.25,18.296953299999984],[-65.25,18.297842300000013],[-65.25,18.298080500000026],[-65.25,18.299160400000005],[-65.25,18.29962569999998],[-65.25,18.30000000000001],[-65.24864769999999,18.30000000000001],[-65.2485666,18.30000000000001],[-65.2482718,18.30000000000001],[-65.24814839999999,18.30000000000001],[-65.24797710000001,18.30000000000001],[-65.24796859999998,18.30000000000001],[-65.24673890000003,18.30000000000001],[-65.24607609999998,18.30000000000001],[-65.24524050000002,18.30000000000001],[-65.23959689999998,18.30000000000001],[-65.2383911,18.30000000000001],[-65.2339642,18.30000000000001],[-65.2331489,18.30000000000001],[-65.23273030000001,18.30000000000001],[-65.2320719,18.30000000000001],[-65.23181749999998,18.30000000000001],[-65.22908569999998,18.30000000000001],[-65.2284694,18.30000000000001],[-65.22746469999998,18.30000000000001],[-65.22727409999999,18.30000000000001],[-65.22649539999998,18.30000000000001],[-65.22414950000001,18.30000000000001],[-65.2229428,18.30000000000001],[-65.20847930000002,18.30000000000001],[-65.20715969999998,18.30000000000001],[-65.19965109999998,18.30000000000001],[-65.19488799999999,18.30000000000001],[-65.19486110000003,18.30000000000001],[-65.1856874,18.30000000000001],[-65.17500000000001,18.30000000000001],[-65.17500000000001,18.28862240000001],[-65.17500000000001,18.28710480000001],[-65.17500000000001,18.28706840000001],[-65.17500000000001,18.23853409999998],[-65.17500000000001,18.225000000000023],[-65.19540060000003,18.225000000000023]]]}},{"type":"Feature","properties":{},"geometry":{"type":"Polygon","coordinates":[[[-65.6262155,18.30000000000001],[-65.69999999999999,18.30000000000001],[-65.69999999999999,18.368589699999973],[-65.69999999999999,18.368996700000025],[-65.69999999999999,18.37033280000003],[-65.69999999999999,18.370945699999993],[-65.69999999999999,18.37199099999998],[-65.69999999999999,18.37228060000001],[-65.69999999999999,18.373519999999985],[-65.69999999999999,18.373881200000028],[-65.69999999999999,18.37421569999998],[-65.69999999999999,18.374896799999988],[-65.69999999999999,18.375],[-65.69337769999998,18.375],[-65.68781680000001,18.375],[-65.6637887,18.375],[-65.66011020000002,18.375],[-65.65734479999998,18.375],[-65.65708460000002,18.375],[-65.65706920000002,18.375],[-65.65687509999998,18.375],[-65.65460130000002,18.375],[-65.64968349999998,18.375],[-65.64956969999997,18.375],[-65.64918490000002,18.375],[-65.64880490000002,18.375],[-65.64824900000002,18.375],[-65.64807739999998,18.375],[-65.64588199999997,18.375],[-65.64236460000001,18.375],[-65.64214179999999,18.375],[-65.64166319999998,18.375],[-65.640444,18.375],[-65.6401348,18.375],[-65.640038,18.375],[-65.63881730000003,18.375],[-65.63878829999999,18.375],[-65.63854620000001,18.375],[-65.63808130000001,18.375],[-65.63776030000002,18.375],[-65.63522560000001,18.375],[-65.63419909999999,18.375],[-65.63326280000001,18.375],[-65.6297677,18.375],[-65.62923280000001,18.375],[-65.6283927,18.375],[-65.62828669999999,18.375],[-65.62609200000003,18.375],[-65.62589889999998,18.375],[-65.625,18.375],[-65.625,18.37294079999998],[-65.625,18.37276129999998],[-65.625,18.366469100000018],[-65.625,18.365201800000023],[-65.625,18.365196400000002],[-65.625,18.36519420000002],[-65.625,18.36321049999998],[-65.625,18.363182600000016],[-65.625,18.359180600000002],[-65.625,18.358222300000023],[-65.625,18.35806580000002],[-65.625,18.357185200000004],[-65.625,18.35672649999998],[-65.625,18.356633199999976],[-65.625,18.356598599999984],[-65.625,18.356504599999994],[-65.625,18.35605129999999],[-65.625,18.35572350000001],[-65.625,18.35259689999998],[-65.625,18.349591599999997],[-65.625,18.346634300000005],[-65.625,18.340344300000027],[-65.625,18.33975140000001],[-65.625,18.339465599999983],[-65.625,18.339051900000015],[-65.625,18.33798999999999],[-65.625,18.337312199999985],[-65.625,18.336697800000024],[-65.625,18.3365857],[-65.625,18.33490310000002],[-65.625,18.332835699999976],[-65.625,18.331595900000025],[-65.625,18.327836999999988],[-65.625,18.323417800000016],[-65.625,18.32038319999998],[-65.625,18.31869089999998],[-65.625,18.317648299999973],[-65.625,18.31710609999999],[-65.625,18.31518360000001],[-65.625,18.313860999999974],[-65.625,18.30989599999998],[-65.625,18.308491800000013],[-65.625,18.30842960000001],[-65.625,18.307628799999975],[-65.625,18.30758350000002],[-65.625,18.30458809999999],[-65.625,18.30412510000002],[-65.625,18.303875000000005],[-65.625,18.303553099999988],[-65.625,18.303433499999983],[-65.625,18.302807200000018],[-65.625,18.301625],[-65.625,18.30158499999999],[-65.625,18.301160100000004],[-65.625,18.30000000000001],[-65.6257865,18.30000000000001],[-65.6262155,18.30000000000001]]]}},{"type":"Feature","properties":{},"geometry":{"type":"Polygon","coordinates":[[[-65.62484130000001,18.30000000000001],[-65.625,18.30000000000001],[-65.625,18.301160100000004],[-65.625,18.30158499999999],[-65.625,18.301625],[-65.625,18.302807200000018],[-65.625,18.303433499999983],[-65.625,18.303553099999988],[-65.625,18.303875000000005],[-65.625,18.30412510000002],[-65.625,18.30458809999999],[-65.625,18.30758350000002],[-65.625,18.307628799999975],[-65.625,18.30842960000001],[-65.625,18.308491800000013],[-65.625,18.30989599999998],[-65.625,18.313860999999974],[-65.625,18.31518360000001],[-65.625,18.31710609999999],[-65.625,18.317648299999973],[-65.625,18.31869089999998],[-65.625,18.32038319999998],[-65.625,18.323417800000016],[-65.625,18.327836999999988],[-65.625,18.331595900000025],[-65.625,18.332835699999976],[-65.625,18.33490310000002],[-65.625,18.3365857],[-65.625,18.336697800000024],[-65.625,18.337312199999985],[-65.625,18.33798999999999],[-65.625,18.339051900000015],[-65.625,18.339465599999983],[-65.625,18.33975140000001],[-65.625,18.340344300000027],[-65.625,18.346634300000005],[-65.625,18.349591599999997],[-65.625,18.35259689999998],[-65.625,18.35572350000001],[-65.625,18.35605129999999],[-65.625,18.356504599999994],[-65.625,18.356598599999984],[-65.625,18.356633199999976],[-65.625,18.35672649999998],[-65.625,18.357185200000004],[-65.625,18.35806580000002],[-65.625,18.358222300000023],[-65.625,18.359180600000002],[-65.625,18.363182600000016],[-65.625,18.36321049999998],[-65.625,18.36519420000002],[-65.625,18.365201800000023],[-65.625,18.366469100000018],[-65.625,18.37276129999998],[-65.625,18.37294079999998],[-65.625,18.375],[-65.62211129999997,18.375],[-65.62024229999997,18.375],[-65.61867380000001,18.375],[-65.61809449999998,18.375],[-65.61727139999999,18.375],[-65.61718180000003,18.375],[-65.61709350000001,18.375],[-65.61700380000002,18.375],[-65.61670559999999,18.375],[-65.61664109999998,18.375],[-65.61612830000001,18.375],[-65.6161275,18.375],[-65.61583259999998,18.375],[-65.61545369999999,18.375],[-65.6151888,18.375],[-65.61486530000002,18.375],[-65.61479589999999,18.375],[-65.61474620000001,18.375],[-65.61464510000002,18.375],[-65.61396430000002,18.375],[-65.61158490000003,18.375],[-65.58245729999999,18.375],[-65.58097240000001,18.375],[-65.57914140000003,18.375],[-65.57527119999997,18.375],[-65.57489800000002,18.375],[-65.5720442,18.375],[-65.57189110000002,18.375],[-65.57166740000002,18.375],[-65.5690985,18.375],[-65.56870730000003,18.375],[-65.56846730000001,18.375],[-65.5672581,18.375],[-65.56694670000002,18.375],[-65.56679550000001,18.375],[-65.56294400000002,18.375],[-65.56224939999998,18.375],[-65.5619605,18.375],[-65.56173369999999,18.375],[-65.56160979999999,18.375],[-65.56130510000003,18.375],[-65.55770189999998,18.375],[-65.557321,18.375],[-65.55592739999997,18.375],[-65.55510429999998,18.375],[-65.55392119999999,18.375],[-65.55000000000001,18.375],[-65.55000000000001,18.373778300000026],[-65.55000000000001,18.37198840000002],[-65.55000000000001,18.371240699999987],[-65.55000000000001,18.3669132],[-65.55000000000001,18.366476799999987],[-65.55000000000001,18.366179699999975],[-65.55000000000001,18.36528340000001],[-65.55000000000001,18.364114700000016],[-65.55000000000001,18.362229800000023],[-65.55000000000001,18.36045469999999],[-65.55000000000001,18.353553999999974],[-65.55000000000001,18.351648399999988],[-65.55000000000001,18.349153],[-65.55000000000001,18.348869499999978],[-65.55000000000001,18.34711679999998],[-65.55000000000001,18.338326199999983],[-65.55000000000001,18.31752879999999],[-65.55000000000001,18.304075300000022],[-65.55000000000001,18.303201600000023],[-65.55000000000001,18.30000000000001],[-65.55957219999999,18.30000000000001],[-65.56009790000002,18.30000000000001],[-65.56139739999998,18.30000000000001],[-65.56438229999998,18.30000000000001],[-65.5743832,18.30000000000001],[-65.57530070000001,18.30000000000001],[-65.57809630000003,18.30000000000001],[-65.59012669999998,18.30000000000001],[-65.59147510000003,18.30000000000001],[-65.6010397,18.30000000000001],[-65.60508420000002,18.30000000000001],[-65.61598520000001,18.30000000000001],[-65.61725580000001,18.30000000000001],[-65.61907400000001,18.30000000000001],[-65.62318529999999,18.30000000000001],[-65.6240942,18.30000000000001],[-65.62429450000002,18.30000000000001],[-65.62484130000001,18.30000000000001]]]}},{"type":"Feature","properties":{},"geometry":{"type":"Polygon","coordinates":[[[-65.53567099999998,18.30000000000001],[-65.55000000000001,18.30000000000001],[-65.55000000000001,18.303201600000023],[-65.55000000000001,18.304075300000022],[-65.55000000000001,18.31752879999999],[-65.55000000000001,18.338326199999983],[-65.55000000000001,18.34711679999998],[-65.55000000000001,18.348869499999978],[-65.55000000000001,18.349153],[-65.55000000000001,18.351648399999988],[-65.55000000000001,18.353553999999974],[-65.55000000000001,18.36045469999999],[-65.55000000000001,18.362229800000023],[-65.55000000000001,18.364114700000016],[-65.55000000000001,18.36528340000001],[-65.55000000000001,18.366179699999975],[-65.55000000000001,18.366476799999987],[-65.55000000000001,18.3669132],[-65.55000000000001,18.371240699999987],[-65.55000000000001,18.37198840000002],[-65.55000000000001,18.373778300000026],[-65.55000000000001,18.375],[-65.5481029,18.375],[-65.54706979999997,18.375],[-65.53622309999997,18.375],[-65.53366720000002,18.375],[-65.53228680000001,18.375],[-65.51680759999999,18.375],[-65.50227840000002,18.375],[-65.49683349999998,18.375],[-65.47500000000002,18.375],[-65.47500000000002,18.36865899999998],[-65.47500000000002,18.355199400000004],[-65.47500000000002,18.353437799999995],[-65.47500000000002,18.352541799999983],[-65.47500000000002,18.350358200000016],[-65.47500000000002,18.350268000000028],[-65.47500000000002,18.350075600000025],[-65.47500000000002,18.348947899999985],[-65.47500000000002,18.3484962],[-65.47500000000002,18.345882899999992],[-65.47500000000002,18.345727399999987],[-65.47500000000002,18.34386189999998],[-65.47500000000002,18.343717000000026],[-65.47500000000002,18.3436155],[-65.47500000000002,18.3345913],[-65.47500000000002,18.327558599999975],[-65.47500000000002,18.30000000000001],[-65.48759410000002,18.30000000000001],[-65.4895616,18.30000000000001],[-65.49163959999998,18.30000000000001],[-65.53227779999997,18.30000000000001],[-65.53443900000002,18.30000000000001],[-65.53567099999998,18.30000000000001]]]}},{"type":"Feature","properties":{},"geometry":{"type":"Polygon","coordinates":[[[-65.34944510000003,18.30000000000001],[-65.36514299999999,18.30000000000001],[-65.39630599999998,18.30000000000001],[-65.39854980000001,18.30000000000001],[-65.39999999999998,18.30000000000001],[-65.39999999999998,18.30107750000002],[-65.39999999999998,18.30179670000001],[-65.39999999999998,18.312398299999984],[-65.39999999999998,18.320690800000023],[-65.39999999999998,18.332754000000023],[-65.39999999999998,18.334103400000004],[-65.39999999999998,18.34057009999998],[-65.39999999999998,18.343146900000022],[-65.39999999999998,18.349510099999975],[-65.39999999999998,18.375],[-65.39630599999998,18.375],[-65.32499999999999,18.375],[-65.32499999999999,18.352859000000024],[-65.32499999999999,18.350415499999997],[-65.32499999999999,18.34973960000002],[-65.32499999999999,18.34944760000002],[-65.32499999999999,18.349095299999988],[-65.32499999999999,18.346468200000004],[-65.32499999999999,18.345553100000018],[-65.32499999999999,18.342959099999973],[-65.32499999999999,18.342848300000014],[-65.32499999999999,18.341795699999977],[-65.32499999999999,18.341684299999997],[-65.32499999999999,18.341107299999976],[-65.32499999999999,18.340382499999976],[-65.32499999999999,18.340119200000004],[-65.32499999999999,18.339441599999986],[-65.32499999999999,18.339397700000006],[-65.32499999999999,18.339123700000016],[-65.32499999999999,18.33734149999998],[-65.32499999999999,18.337203999999986],[-65.32499999999999,18.336997800000006],[-65.32499999999999,18.336989200000005],[-65.32499999999999,18.326360899999997],[-65.32499999999999,18.322617999999977],[-65.32499999999999,18.322257200000024],[-65.32499999999999,18.322036200000014],[-65.32499999999999,18.32188020000001],[-65.32499999999999,18.321796600000027],[-65.32499999999999,18.321331199999975],[-65.32499999999999,18.319624599999997],[-65.32499999999999,18.317821600000002],[-65.32499999999999,18.31696790000001],[-65.32499999999999,18.31532470000002],[-65.32499999999999,18.3118475],[-65.32499999999999,18.309107700000027],[-65.32499999999999,18.30693580000002],[-65.32499999999999,18.302493099999992],[-65.32499999999999,18.300888299999997],[-65.32499999999999,18.30000000000001],[-65.3254513,18.30000000000001],[-65.32607839999997,18.30000000000001],[-65.32618489999999,18.30000000000001],[-65.32662590000001,18.30000000000001],[-65.32678370000002,18.30000000000001],[-65.32714579999998,18.30000000000001],[-65.3274017,18.30000000000001],[-65.3275721,18.30000000000001],[-65.32843559999998,18.30000000000001],[-65.32847020000003,18.30000000000001],[-65.32930149999999,18.30000000000001],[-65.32949869999999,18.30000000000001],[-65.3300582,18.30000000000001],[-65.33166799999998,18.30000000000001],[-65.3321123,18.30000000000001],[-65.33267269999999,18.30000000000001],[-65.33377719999999,18.30000000000001],[-65.33531440000002,18.30000000000001],[-65.33750270000002,18.30000000000001],[-65.338596,18.30000000000001],[-65.3494445,18.30000000000001],[-65.34944510000003,18.30000000000001]]]}},{"type":"Feature","properties":{},"geometry":{"type":"Polygon","coordinates":[[[-65.32499999999999,18.300888299999997],[-65.32499999999999,18.302493099999992],[-65.32499999999999,18.30693580000002],[-65.32499999999999,18.309107700000027],[-65.32499999999999,18.3118475],[-65.32499999999999,18.31532470000002],[-65.32499999999999,18.31696790000001],[-65.32499999999999,18.317821600000002],[-65.32499999999999,18.319624599999997],[-65.32499999999999,18.321331199999975],[-65.32499999999999,18.321796600000027],[-65.32499999999999,18.32188020000001],[-65.32499999999999,18.322036200000014],[-65.32499999999999,18.322257200000024],[-65.32499999999999,18.322617999999977],[-65.32499999999999,18.326360899999997],[-65.32499999999999,18.336989200000005],[-65.32499999999999,18.336997800000006],[-65.32499999999999,18.337203999999986],[-65.32499999999999,18.33734149999998],[-65.32499999999999,18.339123700000016],[-65.32499999999999,18.339397700000006],[-65.32499999999999,18.339441599999986],[-65.32499999999999,18.340119200000004],[-65.32499999999999,18.340382499999976],[-65.32499999999999,18.341107299999976],[-65.32499999999999,18.341684299999997],[-65.32499999999999,18.341795699999977],[-65.32499999999999,18.342848300000014],[-65.32499999999999,18.342959099999973],[-65.32499999999999,18.345553100000018],[-65.32499999999999,18.346468200000004],[-65.32499999999999,18.349095299999988],[-65.32499999999999,18.34944760000002],[-65.32499999999999,18.34973960000002],[-65.32499999999999,18.350415499999997],[-65.32499999999999,18.352859000000024],[-65.32499999999999,18.375],[-65.28871370000002,18.375],[-65.26060310000003,18.375],[-65.25,18.375],[-65.25,18.372126700000024],[-65.25,18.369770800000026],[-65.25,18.3471222],[-65.25,18.34692339999998],[-65.25,18.345831299999986],[-65.25,18.344919300000015],[-65.25,18.3394356],[-65.25,18.338751300000013],[-65.25,18.338329999999985],[-65.25,18.33829750000001],[-65.25,18.337371399999995],[-65.25,18.336854399999993],[-65.25,18.33460919999999],[-65.25,18.333296500000017],[-65.25,18.333225099999993],[-65.25,18.332998799999984],[-65.25,18.332380999999998],[-65.25,18.33170899999999],[-65.25,18.33129359999998],[-65.25,18.33067729999999],[-65.25,18.33017480000001],[-65.25,18.32991800000002],[-65.25,18.327412100000004],[-65.25,18.32399859999998],[-65.25,18.32201789999999],[-65.25,18.318732099999977],[-65.25,18.317902300000014],[-65.25,18.317739500000016],[-65.25,18.317429300000015],[-65.25,18.317324999999983],[-65.25,18.317139899999972],[-65.25,18.315978400000006],[-65.25,18.315325299999984],[-65.25,18.3144504],[-65.25,18.304986799999995],[-65.25,18.304504399999985],[-65.25,18.304284100000018],[-65.25,18.30407580000002],[-65.25,18.304046900000003],[-65.25,18.3039857],[-65.25,18.303586999999993],[-65.25,18.3035208],[-65.25,18.30252109999998],[-65.25,18.30243250000001],[-65.25,18.301758699999993],[-65.25,18.30109870000001],[-65.25,18.300649399999998],[-65.25,18.300645400000008],[-65.25,18.30052840000002],[-65.25,18.300434199999984],[-65.25,18.30025230000001],[-65.25,18.30000000000001],[-65.2502743,18.30000000000001],[-65.2503888,18.30000000000001],[-65.25049339999998,18.30000000000001],[-65.25083840000002,18.30000000000001],[-65.25089559999998,18.30000000000001],[-65.2522141,18.30000000000001],[-65.25230640000001,18.30000000000001],[-65.2528529,18.30000000000001],[-65.25312079999998,18.30000000000001],[-65.2535494,18.30000000000001],[-65.25378189999998,18.30000000000001],[-65.25436389999999,18.30000000000001],[-65.25461510000002,18.30000000000001],[-65.25471820000001,18.30000000000001],[-65.25473840000001,18.30000000000001],[-65.25487040000002,18.30000000000001],[-65.25513460000002,18.30000000000001],[-65.25514529999998,18.30000000000001],[-65.25533130000002,18.30000000000001],[-65.2568182,18.30000000000001],[-65.2572351,18.30000000000001],[-65.27685709999997,18.30000000000001],[-65.27733890000002,18.30000000000001],[-65.27777800000001,18.30000000000001],[-65.27793869999999,18.30000000000001],[-65.27878659999999,18.30000000000001],[-65.27931009999998,18.30000000000001],[-65.28082899999998,18.30000000000001],[-65.28158309999998,18.30000000000001],[-65.28166579999998,18.30000000000001],[-65.2817743,18.30000000000001],[-65.28203639999998,18.30000000000001],[-65.2851033,18.30000000000001],[-65.28765349999998,18.30000000000001],[-65.28829089999999,18.30000000000001],[-65.28834360000002,18.30000000000001],[-65.288614,18.30000000000001],[-65.2887417,18.30000000000001],[-65.28896959999997,18.30000000000001],[-65.28910430000002,18.30000000000001],[-65.30172349999998,18.30000000000001],[-65.30183499999998,18.30000000000001],[-65.30323229999999,18.30000000000001],[-65.3039286,18.30000000000001],[-65.30551150000002,18.30000000000001],[-65.3057028,18.30000000000001],[-65.30594910000002,18.30000000000001],[-65.30621739999998,18.30000000000001],[-65.30659809999997,18.30000000000001],[-65.30727350000001,18.30000000000001],[-65.30772739999998,18.30000000000001],[-65.30883340000003,18.30000000000001],[-65.3091766,18.30000000000001],[-65.30923869999998,18.30000000000001],[-65.30923899999999,18.30000000000001],[-65.3120007,18.30000000000001],[-65.3129126,18.30000000000001],[-65.31348320000001,18.30000000000001],[-65.32043429999999,18.30000000000001],[-65.32106779999998,18.30000000000001],[-65.32499999999999,18.30000000000001],[-65.32499999999999,18.300888299999997]]]}},{"type":"Feature","properties":{},"geometry":{"type":"Polygon","coordinates":[[[-65.24864769999999,18.30000000000001],[-65.25,18.30000000000001],[-65.25,18.30025230000001],[-65.25,18.300434199999984],[-65.25,18.30052840000002],[-65.25,18.300645400000008],[-65.25,18.300649399999998],[-65.25,18.30109870000001],[-65.25,18.301758699999993],[-65.25,18.30243250000001],[-65.25,18.30252109999998],[-65.25,18.3035208],[-65.25,18.303586999999993],[-65.25,18.3039857],[-65.25,18.304046900000003],[-65.25,18.30407580000002],[-65.25,18.304284100000018],[-65.25,18.304504399999985],[-65.25,18.304986799999995],[-65.25,18.3144504],[-65.25,18.315325299999984],[-65.25,18.315978400000006],[-65.25,18.317139899999972],[-65.25,18.317324999999983],[-65.25,18.317429300000015],[-65.25,18.317739500000016],[-65.25,18.317902300000014],[-65.25,18.318732099999977],[-65.25,18.32201789999999],[-65.25,18.32399859999998],[-65.25,18.327412100000004],[-65.25,18.32991800000002],[-65.25,18.33017480000001],[-65.25,18.33067729999999],[-65.25,18.33129359999998],[-65.25,18.33170899999999],[-65.25,18.332380999999998],[-65.25,18.332998799999984],[-65.25,18.333225099999993],[-65.25,18.333296500000017],[-65.25,18.33460919999999],[-65.25,18.336854399999993],[-65.25,18.337371399999995],[-65.25,18.33829750000001],[-65.25,18.338329999999985],[-65.25,18.338751300000013],[-65.25,18.3394356],[-65.25,18.344919300000015],[-65.25,18.345831299999986],[-65.25,18.34692339999998],[-65.25,18.3471222],[-65.25,18.369770800000026],[-65.25,18.372126700000024],[-65.25,18.375],[-65.24686079999998,18.375],[-65.23353020000002,18.375],[-65.19488799999999,18.375],[-65.19486110000003,18.375],[-65.19361930000002,18.375],[-65.19272439999997,18.375],[-65.19264829999997,18.375],[-65.18712749999997,18.375],[-65.17500000000001,18.375],[-65.17500000000001,18.344425899999976],[-65.17500000000001,18.344307000000015],[-65.17500000000001,18.342731000000015],[-65.17500000000001,18.341095499999994],[-65.17500000000001,18.317100100000005],[-65.17500000000001,18.30000000000001],[-65.1856874,18.30000000000001],[-65.19486110000003,18.30000000000001],[-65.19488799999999,18.30000000000001],[-65.19965109999998,18.30000000000001],[-65.20715969999998,18.30000000000001],[-65.20847930000002,18.30000000000001],[-65.2229428,18.30000000000001],[-65.22414950000001,18.30000000000001],[-65.22649539999998,18.30000000000001],[-65.22727409999999,18.30000000000001],[-65.22746469999998,18.30000000000001],[-65.2284694,18.30000000000001],[-65.22908569999998,18.30000000000001],[-65.23181749999998,18.30000000000001],[-65.2320719,18.30000000000001],[-65.23273030000001,18.30000000000001],[-65.2331489,18.30000000000001],[-65.2339642,18.30000000000001],[-65.2383911,18.30000000000001],[-65.23959689999998,18.30000000000001],[-65.24524050000002,18.30000000000001],[-65.24607609999998,18.30000000000001],[-65.24673890000003,18.30000000000001],[-65.24796859999998,18.30000000000001],[-65.24797710000001,18.30000000000001],[-65.24814839999999,18.30000000000001],[-65.2482718,18.30000000000001],[-65.2485666,18.30000000000001],[-65.24864769999999,18.30000000000001]]]}},{"type":"Feature","properties":{},"geometry":{"type":"Polygon","coordinates":[[[-65.69337769999998,18.375],[-65.69999999999999,18.375],[-65.69999999999999,18.382399799999973],[-65.69999999999999,18.39203789999999],[-65.69999999999999,18.39586589999999],[-65.69999999999999,18.403741799999978],[-65.69999999999999,18.422439300000008],[-65.69999999999999,18.42419369999999],[-65.69999999999999,18.428766800000005],[-65.69999999999999,18.43459969999998],[-65.69999999999999,18.434643199999982],[-65.69999999999999,18.435386499999993],[-65.69999999999999,18.436667],[-65.69999999999999,18.44999999999999],[-65.63139790000002,18.44999999999999],[-65.6289466,18.44999999999999],[-65.625,18.44999999999999],[-65.625,18.436667],[-65.625,18.419135299999994],[-65.625,18.41900800000002],[-65.625,18.410299500000008],[-65.625,18.409546799999987],[-65.625,18.408981299999994],[-65.625,18.40838070000001],[-65.625,18.408049699999992],[-65.625,18.407172000000003],[-65.625,18.403052100000025],[-65.625,18.40128759999999],[-65.625,18.3966322],[-65.625,18.392255799999987],[-65.625,18.387615900000014],[-65.625,18.387518],[-65.625,18.38750950000002],[-65.625,18.387218099999984],[-65.625,18.387186999999983],[-65.625,18.387059599999986],[-65.625,18.386929199999997],[-65.625,18.38690650000001],[-65.625,18.38663009999999],[-65.625,18.385469699999987],[-65.625,18.385384999999985],[-65.625,18.385308399999985],[-65.625,18.38527210000001],[-65.625,18.384126400000014],[-65.625,18.384067500000015],[-65.625,18.38331069999998],[-65.625,18.3831773],[-65.625,18.38314509999998],[-65.625,18.383020499999986],[-65.625,18.380613200000028],[-65.625,18.379352700000027],[-65.625,18.375],[-65.62589889999998,18.375],[-65.62609200000003,18.375],[-65.62828669999999,18.375],[-65.6283927,18.375],[-65.62923280000001,18.375],[-65.6297677,18.375],[-65.63326280000001,18.375],[-65.63419909999999,18.375],[-65.63522560000001,18.375],[-65.63776030000002,18.375],[-65.63808130000001,18.375],[-65.63854620000001,18.375],[-65.63878829999999,18.375],[-65.63881730000003,18.375],[-65.640038,18.375],[-65.6401348,18.375],[-65.640444,18.375],[-65.64166319999998,18.375],[-65.64214179999999,18.375],[-65.64236460000001,18.375],[-65.64588199999997,18.375],[-65.64807739999998,18.375],[-65.64824900000002,18.375],[-65.64880490000002,18.375],[-65.64918490000002,18.375],[-65.64956969999997,18.375],[-65.64968349999998,18.375],[-65.65460130000002,18.375],[-65.65687509999998,18.375],[-65.65706920000002,18.375],[-65.65708460000002,18.375],[-65.65734479999998,18.375],[-65.66011020000002,18.375],[-65.6637887,18.375],[-65.68781680000001,18.375],[-65.69337769999998,18.375]]]}},{"type":"Feature","properties":{},"geometry":{"type":"Polygon","coordinates":[[[-65.62211129999997,18.375],[-65.625,18.375],[-65.625,18.379352700000027],[-65.625,18.380613200000028],[-65.625,18.383020499999986],[-65.625,18.38314509999998],[-65.625,18.3831773],[-65.625,18.38331069999998],[-65.625,18.384067500000015],[-65.625,18.384126400000014],[-65.625,18.38527210000001],[-65.625,18.385308399999985],[-65.625,18.385384999999985],[-65.625,18.385469699999987],[-65.625,18.38663009999999],[-65.625,18.38690650000001],[-65.625,18.386929199999997],[-65.625,18.387059599999986],[-65.625,18.387186999999983],[-65.625,18.387218099999984],[-65.625,18.38750950000002],[-65.625,18.387518],[-65.625,18.387615900000014],[-65.625,18.392255799999987],[-65.625,18.3966322],[-65.625,18.40128759999999],[-65.625,18.403052100000025],[-65.625,18.407172000000003],[-65.625,18.408049699999992],[-65.625,18.40838070000001],[-65.625,18.408981299999994],[-65.625,18.409546799999987],[-65.625,18.410299500000008],[-65.625,18.41900800000002],[-65.625,18.419135299999994],[-65.625,18.436667],[-65.625,18.44999999999999],[-65.60551450000003,18.44999999999999],[-65.60379449999999,18.44999999999999],[-65.5991659,18.44999999999999],[-65.59636269999999,18.44999999999999],[-65.55000000000001,18.44999999999999],[-65.55000000000001,18.436667],[-65.55000000000001,18.42964569999998],[-65.55000000000001,18.428889700000013],[-65.55000000000001,18.401317300000017],[-65.55000000000001,18.38874609999999],[-65.55000000000001,18.38044259999998],[-65.55000000000001,18.37626019999999],[-65.55000000000001,18.375766199999987],[-65.55000000000001,18.375],[-65.55392119999999,18.375],[-65.55510429999998,18.375],[-65.55592739999997,18.375],[-65.557321,18.375],[-65.55770189999998,18.375],[-65.56130510000003,18.375],[-65.56160979999999,18.375],[-65.56173369999999,18.375],[-65.5619605,18.375],[-65.56224939999998,18.375],[-65.56294400000002,18.375],[-65.56679550000001,18.375],[-65.56694670000002,18.375],[-65.5672581,18.375],[-65.56846730000001,18.375],[-65.56870730000003,18.375],[-65.5690985,18.375],[-65.57166740000002,18.375],[-65.57189110000002,18.375],[-65.5720442,18.375],[-65.57489800000002,18.375],[-65.57527119999997,18.375],[-65.57914140000003,18.375],[-65.58097240000001,18.375],[-65.58245729999999,18.375],[-65.61158490000003,18.375],[-65.61396430000002,18.375],[-65.61464510000002,18.375],[-65.61474620000001,18.375],[-65.61479589999999,18.375],[-65.61486530000002,18.375],[-65.6151888,18.375],[-65.61545369999999,18.375],[-65.61583259999998,18.375],[-65.6161275,18.375],[-65.61612830000001,18.375],[-65.61664109999998,18.375],[-65.61670559999999,18.375],[-65.61700380000002,18.375],[-65.61709350000001,18.375],[-65.61718180000003,18.375],[-65.61727139999999,18.375],[-65.61809449999998,18.375],[-65.61867380000001,18.375],[-65.62024229999997,18.375],[-65.62211129999997,18.375]]]}},{"type":"Feature","properties":{},"geometry":{"type":"Polygon","coordinates":[[[-65.5481029,18.375],[-65.55000000000001,18.375],[-65.55000000000001,18.375766199999987],[-65.55000000000001,18.37626019999999],[-65.55000000000001,18.38044259999998],[-65.55000000000001,18.38874609999999],[-65.55000000000001,18.401317300000017],[-65.55000000000001,18.428889700000013],[-65.55000000000001,18.42964569999998],[-65.55000000000001,18.436667],[-65.55000000000001,18.44999999999999],[-65.47500000000002,18.44999999999999],[-65.47500000000002,18.436667],[-65.47500000000002,18.398719099999994],[-65.47500000000002,18.397959200000003],[-65.47500000000002,18.375],[-65.49683349999998,18.375],[-65.50227840000002,18.375],[-65.51680759999999,18.375],[-65.53228680000001,18.375],[-65.53366720000002,18.375],[-65.53622309999997,18.375],[-65.54706979999997,18.375],[-65.5481029,18.375]]]}}]}