{"type":"FeatureCollection","features":[{"type":"Feature","geometry":{"type":"LineString","coordinates":[[-67.18026699999973,18.167770500000188],[-67.18037270000059,18.16780789999939],[-67.18022519999977,18.168015499999456],[-67.18011280000064,18.167990399999326],[-67.18026699999973,18.167770500000188]]},"properties":{"k":"b","n":null,"c":"fixed bridge","v":32767.0,"cc":null,"co":null}},{"type":"Feature","geometry":{"type":"LineString","coordinates":[[-66.08255989999998,18.439007400000264],[-66.08276669999941,18.4391715999991],[-66.08200609999949,18.440005000000383],[-66.08178190000035,18.43983389999994],[-66.08255989999998,18.439007400000264]]},"properties":{"k":"b","n":null,"c":"fixed bridge","v":6.4,"cc":null,"co":null}},{"type":"Feature","geometry":{"type":"LineString","coordinates":[[-66.08627929999966,18.459740800000873],[-66.08618159999969,18.45904960000007],[-66.08642800000052,18.459017799999856],[-66.08650820000003,18.4597432999999],[-66.08627929999966,18.459740800000873]]},"properties":{"k":"b","n":null,"c":"fixed bridge","v":1.5,"cc":null,"co":null}},{"type":"Feature","geometry":{"type":"LineString","coordinates":[[-66.08716819999972,18.459723199999644],[-66.0869273999997,18.458870899999965],[-66.08715540000048,18.45878830000038],[-66.08739629999945,18.45966579999913],[-66.08716819999972,18.459723199999644]]},"properties":{"k":"b","n":null,"c":"fixed bridge","v":1.5,"cc":null,"co":null}},{"type":"Feature","geometry":{"type":"LineString","coordinates":[[-66.0870309,18.459757799999977],[-66.08680529999998,18.458906000000013]]},"properties":{"k":"b","n":null,"c":"footbridge","v":1.5,"cc":null,"co":null}},{"type":"Feature","geometry":{"type":"LineString","coordinates":[[-65.29984739999963,18.30214850000084],[-65.29989380000006,18.302213799999663],[-65.29985449999913,18.30223870000009],[-65.29980959999921,18.302174799999193],[-65.29984739999963,18.30214850000084]]},"properties":{"k":"b","n":null,"c":"fixed bridge","v":null,"cc":null,"co":null}},{"type":"Feature","geometry":{"type":"LineString","coordinates":[[-64.69590050000079,17.749670699999115],[-64.69605000000047,17.74968430000081],[-64.69601519999924,17.74979180000082],[-64.69589079999969,17.749802500000442],[-64.69590050000079,17.749670699999115]]},"properties":{"k":"b","n":null,"c":"fixed bridge","v":null,"cc":null,"co":null}},{"type":"Feature","geometry":{"type":"LineString","coordinates":[[-67.15674910000052,18.214434800000163],[-67.15665459999946,18.214483899999323],[-67.15663379999933,18.214416299999357],[-67.15673679999963,18.214393199999904],[-67.15674910000052,18.214434800000163]]},"properties":{"k":"b","n":null,"c":"fixed bridge","v":null,"cc":null,"co":null}},{"type":"Feature","geometry":{"type":"LineString","coordinates":[[-67.16043119999995,18.188835299999482],[-67.16051599999992,18.18893449999996],[-67.16037440000036,18.189009499999884],[-67.16026690000035,18.18891799999983],[-67.16043119999995,18.188835299999482]]},"properties":{"k":"b","n":null,"c":"fixed bridge","v":null,"cc":null,"co":null}},{"type":"Feature","geometry":{"type":"LineString","coordinates":[[-67.17089970000052,18.179577200000494],[-67.17096029999993,18.179823399999805],[-67.17087060000085,18.179959999999483],[-67.17068619999918,18.1799888000005],[-67.17089970000052,18.179577200000494]]},"properties":{"k":"b","n":null,"c":"fixed bridge","v":null,"cc":null,"co":null}},{"type":"Feature","geometry":{"type":"LineString","coordinates":[[-67.15286940000078,18.20798990000003],[-67.15301809999983,18.208014199999525],[-67.15303080000012,18.208298300000024],[-67.15288300000066,18.208243799999764],[-67.15286940000078,18.20798990000003]]},"properties":{"k":"b","n":null,"c":"fixed bridge","v":null,"cc":null,"co":null}},{"type":"Feature","geometry":{"type":"LineString","coordinates":[[-67.15446110000084,18.214836999999534],[-67.15435910000087,18.214930000000095],[-67.1543101999996,18.21487850000085],[-67.1543314999999,18.214870800000426],[-67.15446110000084,18.214836999999534]]},"properties":{"k":"b","n":null,"c":"fixed bridge","v":null,"cc":null,"co":null}},{"type":"Feature","geometry":{"type":"LineString","coordinates":[[-67.15194610000071,18.20792099999926],[-67.15195320000021,18.208151999999245],[-67.15165309999975,18.208163200000854],[-67.15164379999987,18.207912800000486],[-67.15194610000071,18.20792099999926]]},"properties":{"k":"b","n":null,"c":"fixed bridge","v":null,"cc":null,"co":null}},{"type":"Feature","geometry":{"type":"LineString","coordinates":[[-67.1546588000001,18.21476629999961],[-67.15470339999956,18.21481379999932],[-67.15450819999933,18.2148202999997],[-67.15458509999917,18.214791799999148],[-67.1546588000001,18.21476629999961]]},"properties":{"k":"b","n":null,"c":"fixed bridge","v":null,"cc":null,"co":null}},{"type":"Feature","geometry":{"type":"LineString","coordinates":[[-67.17684030000055,18.25166630000058],[-67.17694409999967,18.251809800000046],[-67.17688350000026,18.251888099999633],[-67.17645970000012,18.251300300000366],[-67.17653040000005,18.251230899999427],[-67.17684030000055,18.25166630000058]]},"properties":{"k":"b","n":null,"c":"fixed bridge","v":null,"cc":null,"co":null}},{"type":"Feature","geometry":{"type":"LineString","coordinates":[[-66.71770819999983,18.466564799999105],[-66.71786070000053,18.466693000000305],[-66.71781039999951,18.46673499999997],[-66.71767399999953,18.466623099999197],[-66.71770819999983,18.466564799999105]]},"properties":{"k":"b","n":null,"c":"fixed bridge","v":null,"cc":null,"co":null}},{"type":"Feature","geometry":{"type":"LineString","coordinates":[[-66.71403199999986,18.46652499999982],[-66.71401800000058,18.466598000000886],[-66.71358200000032,18.46678199999951],[-66.71369400000003,18.466667999999117],[-66.71403199999986,18.46652499999982]]},"properties":{"k":"b","n":null,"c":"fixed bridge","v":null,"cc":null,"co":null}},{"type":"Feature","geometry":{"type":"LineString","coordinates":[[-66.71223400000054,18.466834999999264],[-66.71176399999968,18.467005000000427],[-66.71172800000022,18.466943999999785],[-66.71220299999914,18.4667759999993],[-66.71223400000054,18.466834999999264]]},"properties":{"k":"b","n":null,"c":"fixed bridge","v":null,"cc":null,"co":null}},{"type":"Feature","geometry":{"type":"LineString","coordinates":[[-66.71765500000038,18.466674200000853],[-66.71776710000086,18.466774200000145],[-66.71772389999933,18.466818999999305],[-66.71761689999948,18.466733600000225],[-66.71765500000038,18.466674200000853]]},"properties":{"k":"b","n":null,"c":"fixed bridge","v":null,"cc":null,"co":null}},{"type":"Feature","geometry":{"type":"LineString","coordinates":[[-66.71647999999914,18.465926999999283],[-66.71658199999911,18.465962000000218],[-66.71658199999911,18.466042000000016],[-66.71640900000057,18.465980000000854],[-66.71647999999914,18.465926999999283]]},"properties":{"k":"b","n":null,"c":"fixed bridge","v":null,"cc":null,"co":null}},{"type":"Feature","geometry":{"type":"LineString","coordinates":[[-66.7124160000003,18.467279000000417],[-66.71199399999932,18.46744899999976],[-66.71196699999928,18.467391000000134],[-66.7123730000003,18.46722299999965],[-66.7124160000003,18.467279000000417]]},"properties":{"k":"b","n":null,"c":"fixed bridge","v":null,"cc":null,"co":null}},{"type":"Feature","geometry":{"type":"LineString","coordinates":[[-66.7140159999999,18.46624999999949],[-66.71384299999954,18.46629700000085],[-66.71382599999924,18.466231000000334],[-66.71400800000083,18.4661789999991],[-66.7140159999999,18.46624999999949]]},"properties":{"k":"b","n":null,"c":"fixed bridge","v":null,"cc":null,"co":null}},{"type":"Feature","geometry":{"type":"LineString","coordinates":[[-66.69760409999981,18.476731599999766],[-66.69769819999965,18.476894800000082],[-66.69759270000031,18.4769438000003],[-66.69750430000022,18.47678420000011],[-66.69760409999981,18.476731599999766]]},"properties":{"k":"b","n":null,"c":"fixed bridge","v":null,"cc":null,"co":null}},{"type":"Feature","geometry":{"type":"LineString","coordinates":[[-66.71624300000076,18.466081000000486],[-66.71659200000067,18.466162000000622],[-66.71659100000034,18.46623399999953],[-66.71618800000033,18.46614000000045],[-66.71624300000076,18.466081000000486]]},"properties":{"k":"b","n":null,"c":"fixed bridge","v":null,"cc":null,"co":null}},{"type":"Feature","geometry":{"type":"LineString","coordinates":[[-66.71059400000013,18.467985999999655],[-66.7106359999998,18.468033999999534],[-66.70991700000013,18.468348000000333],[-66.70989799999916,18.46828699999969],[-66.71059400000013,18.467985999999655]]},"properties":{"k":"b","n":null,"c":"fixed bridge","v":null,"cc":null,"co":null}},{"type":"Feature","geometry":{"type":"LineString","coordinates":[[-66.7102548999992,18.47232310000072],[-66.71094120000089,18.472624899999573],[-66.71086079999986,18.472765900000013],[-66.71002450000015,18.472267299999658],[-66.7102548999992,18.47232310000072]]},"properties":{"k":"b","n":null,"c":"fixed bridge","v":null,"cc":null,"co":null}},{"type":"Feature","geometry":{"type":"LineString","coordinates":[[-66.71043800000007,18.467742000000726],[-66.70972799999981,18.46817100000044],[-66.7096390000006,18.46814500000073],[-66.71041200000036,18.46767],[-66.71043800000007,18.467742000000726]]},"properties":{"k":"b","n":null,"c":"fixed bridge","v":null,"cc":null,"co":null}},{"type":"Feature","geometry":{"type":"LineString","coordinates":[[-66.5616188999993,18.487641800000347],[-66.5616313999999,18.487713799999256],[-66.56155369999942,18.48773799999981],[-66.56152619999921,18.487671700000647],[-66.5616188999993,18.487641800000347]]},"properties":{"k":"b","n":null,"c":"fixed bridge","v":null,"cc":null,"co":null}},{"type":"Feature","geometry":{"type":"LineString","coordinates":[[-66.56135729999914,18.488308699999834],[-66.56140520000008,18.488318300000174],[-66.56138309999915,18.488429499999256],[-66.5613269000005,18.488417700000355],[-66.56135729999914,18.488308699999834]]},"properties":{"k":"b","n":null,"c":"fixed bridge","v":null,"cc":null,"co":null}},{"type":"Feature","geometry":{"type":"LineString","coordinates":[[-65.79677579999952,18.07987460000004],[-65.79679140000007,18.079959900000176],[-65.79669749999994,18.0799719000006],[-65.79667879999943,18.079886699999406],[-65.79677579999952,18.07987460000004]]},"properties":{"k":"b","n":null,"c":"fixed bridge","v":null,"cc":null,"co":null}},{"type":"Feature","geometry":{"type":"LineString","coordinates":[[-65.80002969999987,18.08053800000016],[-65.80015439999988,18.080651899999793],[-65.80014010000014,18.0806948999998],[-65.79999239999961,18.080578700000842],[-65.80002969999987,18.08053800000016]]},"properties":{"k":"b","n":null,"c":"fixed bridge","v":null,"cc":null,"co":null}},{"type":"Feature","geometry":{"type":"LineString","coordinates":[[-65.5129906000002,18.089874900000723],[-65.51308740000059,18.09002270000019],[-65.5129794000004,18.09010269999999],[-65.51288419999946,18.089948599999843],[-65.5129906000002,18.089874900000723]]},"properties":{"k":"b","n":null,"c":"fixed bridge","v":null,"cc":null,"co":null}},{"type":"Feature","geometry":{"type":"LineString","coordinates":[[-66.7532613000003,17.997859499999322],[-66.7532867000009,17.997885900000256],[-66.75319549999949,17.997967999999673],[-66.75313930000084,17.99788129999979],[-66.75323070000013,17.99780219999957],[-66.7532613000003,17.997859499999322]]},"properties":{"k":"b","n":null,"c":"fixed bridge","v":null,"cc":null,"co":null}},{"type":"Feature","geometry":{"type":"LineString","coordinates":[[-66.75350950000029,17.998245900000256],[-66.75353010000072,17.998280600000726],[-66.75339829999939,17.9983486000001],[-66.75337890000083,17.998314599999503],[-66.75350950000029,17.998245900000256]]},"properties":{"k":"b","n":null,"c":"fixed bridge","v":null,"cc":null,"co":null}},{"type":"Feature","geometry":{"type":"LineString","coordinates":[[-66.74640030000046,17.992277499999545],[-66.74640360000012,17.992356700000528],[-66.74608489999991,17.99242029999914],[-66.74603449999995,17.992346299999554],[-66.74640030000046,17.992277499999545]]},"properties":{"k":"b","n":null,"c":"fixed bridge","v":null,"cc":null,"co":null}},{"type":"Feature","geometry":{"type":"LineString","coordinates":[[-66.74602950000008,17.993337600000814],[-66.74603960000059,17.993390899999213],[-66.74596399999973,17.993404500000906],[-66.7459545999991,17.993350599999758],[-66.74602950000008,17.993337600000814]]},"properties":{"k":"b","n":null,"c":"fixed bridge","v":null,"cc":null,"co":null}},{"type":"Feature","geometry":{"type":"LineString","coordinates":[[-66.62324459999945,17.9828250999999],[-66.6233654000007,17.98288540000067],[-66.62332900000001,17.982981299999665],[-66.62318950000008,17.982910400000037],[-66.62324459999945,17.9828250999999]]},"properties":{"k":"b","n":null,"c":"fixed bridge","v":null,"cc":null,"co":null}},{"type":"Feature","geometry":{"type":"LineString","coordinates":[[-66.5980471999992,17.98541010000008],[-66.5980228999997,17.985713699999906],[-66.59722010000041,17.985734899999443],[-66.59721600000012,17.985427300000083],[-66.5980471999992,17.98541010000008]]},"properties":{"k":"b","n":null,"c":"fixed bridge","v":null,"cc":null,"co":null}},{"type":"Feature","geometry":{"type":"LineString","coordinates":[[-66.5994711000003,17.9752038000006],[-66.59949699999925,17.975272400000904],[-66.59850069999993,17.975240300000223],[-66.59850519999964,17.97515460000068],[-66.5994711000003,17.9752038000006]]},"properties":{"k":"b","n":null,"c":"fixed bridge","v":null,"cc":null,"co":null}},{"type":"Feature","geometry":{"type":"LineString","coordinates":[[-66.07844040000055,18.416333200000736],[-66.07846839999911,18.41644930000075],[-66.07830920000015,18.416522800000166],[-66.07826709999972,18.416419600000154],[-66.07844040000055,18.416333200000736]]},"properties":{"k":"b","n":null,"c":"fixed bridge","v":null,"cc":null,"co":null}},{"type":"Feature","geometry":{"type":"LineString","coordinates":[[-66.0784036999994,18.41618070000004],[-66.07843030000004,18.416291100000308],[-66.0782491000009,18.416375400000106],[-66.07820940000056,18.416278000000602],[-66.0784036999994,18.41618070000004]]},"properties":{"k":"b","n":null,"c":"fixed bridge","v":null,"cc":null,"co":null}},{"type":"Feature","geometry":{"type":"LineString","coordinates":[[-66.1359424000002,18.447678900000028],[-66.13602639999954,18.44777889999932],[-66.1359580999997,18.44785950000005],[-66.13587460000053,18.447759299999234],[-66.1359424000002,18.447678900000028]]},"properties":{"k":"b","n":null,"c":"fixed bridge","v":null,"cc":null,"co":null}},{"type":"Feature","geometry":{"type":"LineString","coordinates":[[-66.08189909999965,18.421520199999577],[-66.08140409999942,18.42202240000006],[-66.08138759999929,18.421762500000114],[-66.08188759999939,18.421279199999844],[-66.08189909999965,18.421520199999577]]},"properties":{"k":"b","n":null,"c":"fixed bridge","v":null,"cc":null,"co":null}},{"type":"Feature","geometry":{"type":"LineString","coordinates":[[-66.08191740000075,18.421906300000046],[-66.08142939999925,18.42241869999998],[-66.08141280000018,18.422158299999865],[-66.08190560000003,18.42165810000006],[-66.08191740000075,18.421906300000046]]},"properties":{"k":"b","n":null,"c":"fixed bridge","v":null,"cc":null,"co":null}},{"type":"Feature","geometry":{"type":"LineString","coordinates":[[-66.0941872000003,18.426234500000646],[-66.09464579999985,18.42644929999915],[-66.09455499999967,18.426564100000178],[-66.09408240000084,18.426348099999814],[-66.0941872000003,18.426234500000646]]},"properties":{"k":"b","n":null,"c":"fixed bridge","v":null,"cc":null,"co":null}},{"type":"Feature","geometry":{"type":"LineString","coordinates":[[-66.13676510000005,18.446407199999157],[-66.13708249999945,18.44686980000006],[-66.13677690000077,18.447016599999188],[-66.13657369999964,18.44671770000059],[-66.13676510000005,18.446407199999157]]},"properties":{"k":"b","n":null,"c":"fixed bridge","v":null,"cc":null,"co":null}},{"type":"Feature","geometry":{"type":"LineString","coordinates":[[-66.07262199999968,18.436969799999133],[-66.07281859999966,18.43694770000002],[-66.07250799999929,18.43792670000039],[-66.07235709999986,18.437798400000247],[-66.07262199999968,18.436969799999133]]},"properties":{"k":"b","n":null,"c":"fixed bridge","v":null,"cc":null,"co":null}},{"type":"Feature","geometry":{"type":"LineString","coordinates":[[-66.07202429999961,18.43622839999989],[-66.07218769999963,18.436305999999604],[-66.07159710000087,18.437482100000125],[-66.0715137999996,18.437239200000477],[-66.07202429999961,18.43622839999989]]},"properties":{"k":"b","n":null,"c":"fixed bridge","v":null,"cc":null,"co":null}},{"type":"Feature","geometry":{"type":"LineString","coordinates":[[-65.98985200000061,18.427639699999418],[-65.98991569999998,18.427747499999896],[-65.98978790000001,18.427821100000074],[-65.98972479999975,18.427714999999807],[-65.98985200000061,18.427639699999418]]},"properties":{"k":"b","n":null,"c":"fixed bridge","v":null,"cc":null,"co":null}},{"type":"Feature","geometry":{"type":"LineString","coordinates":[[-65.9894048999995,18.42791700000089],[-65.98947399999997,18.42800630000056],[-65.9893503000003,18.428096300000107],[-65.98928990000059,18.427987400000347],[-65.9894048999995,18.42791700000089]]},"properties":{"k":"b","n":null,"c":"fixed bridge","v":null,"cc":null,"co":null}},{"type":"Feature","geometry":{"type":"LineString","coordinates":[[-65.99013849999938,18.427527300000293],[-65.99019229999976,18.42762749999929],[-65.99009230000047,18.427664000000732],[-65.9900533,18.42755709999983],[-65.99013849999938,18.427527300000293]]},"properties":{"k":"b","n":null,"c":"fixed bridge","v":null,"cc":null,"co":null}},{"type":"Feature","geometry":{"type":"LineString","coordinates":[[-65.9896258000008,18.427914699999747],[-65.98956390000058,18.42781020000075],[-65.98969249999936,18.427734099999725],[-65.98975690000043,18.42783899999995],[-65.9896258000008,18.427914699999747]]},"properties":{"k":"b","n":null,"c":"fixed bridge","v":null,"cc":null,"co":null}},{"type":"Feature","geometry":{"type":"LineString","coordinates":[[-66.16147920000003,18.451124600000185],[-66.16152920000059,18.45134180000059],[-66.16042410000045,18.451592299999902],[-66.16041949999999,18.451366600000256],[-66.16096300000027,18.451295700000628],[-66.16147920000003,18.451124600000185]]},"properties":{"k":"b","n":null,"c":"fixed bridge","v":null,"cc":null,"co":null}},{"type":"Feature","geometry":{"type":"LineString","coordinates":[[-66.16284869999981,18.45081190000019],[-66.16290400000071,18.451030099999116],[-66.16234479999912,18.45115690000057],[-66.16229449999992,18.45093850000012],[-66.16284869999981,18.45081190000019]]},"properties":{"k":"b","n":null,"c":"fixed bridge","v":null,"cc":null,"co":null}},{"type":"Feature","geometry":{"type":"LineString","coordinates":[[-66.08611630000087,18.459867100000338],[-66.08615079999981,18.46008559999973],[-66.0833977000002,18.460582699999577],[-66.08335049999914,18.46036280000044],[-66.08611630000087,18.459867100000338]]},"properties":{"k":"b","n":null,"c":"fixed bridge","v":null,"cc":null,"co":null}},{"type":"Feature","geometry":{"type":"LineString","coordinates":[[-65.99297210000077,18.457694900000206],[-65.9931059999999,18.4577405],[-65.99273790000007,18.458213500000056],[-65.99269810000078,18.458045199999106],[-65.99297210000077,18.457694900000206]]},"properties":{"k":"b","n":null,"c":"fixed bridge","v":null,"cc":null,"co":null}},{"type":"Feature","geometry":{"type":"LineString","coordinates":[[-65.29977059999999,18.302208699999994],[-65.29981570000001,18.302263900000014]]},"properties":{"k":"b","n":null,"c":"footbridge","v":null,"cc":null,"co":null}},{"type":"Feature","geometry":{"type":"LineString","coordinates":[[-64.9227199,18.337473699999975],[-64.92279960000002,18.3375087]]},"properties":{"k":"b","n":null,"c":"footbridge","v":null,"cc":null,"co":null}},{"type":"Feature","geometry":{"type":"LineString","coordinates":[[-64.8684055,18.345802300000003],[-64.8686027,18.345662000000004]]},"properties":{"k":"b","n":null,"c":"fixed bridge","v":null,"cc":null,"co":null}},{"type":"Feature","geometry":{"type":"LineString","coordinates":[[-67.17273419999998,18.02434770000002],[-67.17266339999998,18.02419709999998]]},"properties":{"k":"b","n":null,"c":"footbridge","v":null,"cc":null,"co":null}},{"type":"Feature","geometry":{"type":"LineString","coordinates":[[-65.79745159999999,18.080017199999986],[-65.79751850000002,18.079951400000027]]},"properties":{"k":"b","n":null,"c":"fixed bridge","v":null,"cc":null,"co":null}},{"type":"Feature","geometry":{"type":"LineString","coordinates":[[-66.75336870000001,17.99800049999999],[-66.7532559,17.998103300000025]]},"properties":{"k":"b","n":null,"c":"footbridge","v":null,"cc":null,"co":null}},{"type":"Feature","geometry":{"type":"LineString","coordinates":[[-66.07499999999999,18.438211500000023],[-66.0769292,18.438861299999985],[-66.0773312,18.438857600000006],[-66.07740580000001,18.43896719999998]]},"properties":{"k":"b","n":null,"c":"footbridge","v":null,"cc":null,"co":null}},{"type":"Feature","geometry":{"type":"LineString","coordinates":[[-66.06544650000001,18.435110500000008],[-66.06216339999997,18.433793999999978]]},"properties":{"k":"b","n":null,"c":"footbridge","v":null,"cc":null,"co":null}},{"type":"Feature","geometry":{"type":"LineString","coordinates":[[-66.06544650000001,18.435110500000008],[-66.0681447,18.436211200000002],[-66.07119340000003,18.436874400000022],[-66.07499999999999,18.438211500000023]]},"properties":{"k":"b","n":null,"c":"footbridge","v":null,"cc":null,"co":null}},{"type":"Feature","geometry":{"type":"LineString","coordinates":[[-66.07160399999998,18.437502300000006],[-66.07183220000002,18.43708909999998]]},"properties":{"k":"b","n":null,"c":"footbridge","v":null,"cc":null,"co":null}},{"type":"Feature","geometry":{"type":"LineString","coordinates":[[-66.10685990000002,18.463591399999984],[-66.10601050000002,18.46365780000002]]},"properties":{"k":"b","n":null,"c":"footbridge","v":null,"cc":null,"co":null}},{"type":"Feature","geometry":{"type":"LineString","coordinates":[[-65.29983099999998,18.302315299999975],[-65.2996402,18.302050699999995]]},"properties":{"k":"c","n":null,"c":"power line","v":null,"cc":null,"co":null}},{"type":"Feature","geometry":{"type":"LineString","coordinates":[[-65.30170320000002,18.30063480000001],[-65.30254919999999,18.301857799999993]]},"properties":{"k":"c","n":null,"c":"power line","v":null,"cc":null,"co":null}},{"type":"Feature","geometry":{"type":"LineString","coordinates":[[-64.66796499999998,17.75887449999999],[-64.66777150000001,17.758361400000013]]},"properties":{"k":"c","n":null,"c":" ","v":null,"cc":null,"co":null}},{"type":"Feature","geometry":{"type":"LineString","coordinates":[[-66.91269340000002,17.954528400000015],[-66.90522709999999,17.956954999999994]]},"properties":{"k":"c","n":null,"c":"power line","v":null,"cc":null,"co":null}},{"type":"Feature","geometry":{"type":"LineString","coordinates":[[-67.17102089999997,18.17936259999999],[-67.1704115,18.180325100000005]]},"properties":{"k":"c","n":null,"c":"power line","v":null,"cc":null,"co":null}},{"type":"Feature","geometry":{"type":"LineString","coordinates":[[-67.15161060000003,18.20829900000001],[-67.15159720000003,18.20783210000002]]},"properties":{"k":"c","n":null,"c":"power line","v":null,"cc":null,"co":null}},{"type":"Feature","geometry":{"type":"LineString","coordinates":[[-67.1601637,18.188911599999983],[-67.16065650000002,18.18868470000001]]},"properties":{"k":"c","n":null,"c":"power line","v":null,"cc":null,"co":null}},{"type":"Feature","geometry":{"type":"LineString","coordinates":[[-67.15418649999998,18.214763000000005],[-67.15445360000001,18.21504870000001]]},"properties":{"k":"c","n":null,"c":" ","v":null,"cc":null,"co":null}},{"type":"Feature","geometry":{"type":"LineString","coordinates":[[-67.156837,18.21468090000002],[-67.1566856,18.214212400000008]]},"properties":{"k":"c","n":null,"c":"power line","v":null,"cc":null,"co":null}},{"type":"Feature","geometry":{"type":"LineString","coordinates":[[-67.17701620000003,18.251858400000003],[-67.1765206,18.25106870000002]]},"properties":{"k":"c","n":null,"c":"power line","v":null,"cc":null,"co":null}},{"type":"Feature","geometry":{"type":"LineString","coordinates":[[-66.69756619999998,18.47703150000001],[-66.69740940000003,18.476748699999973]]},"properties":{"k":"c","n":null,"c":" ","v":null,"cc":null,"co":null}},{"type":"Feature","geometry":{"type":"LineString","coordinates":[[-66.71411690000002,18.470978899999977],[-66.71380520000002,18.470099600000026]]},"properties":{"k":"c","n":null,"c":" ","v":null,"cc":null,"co":null}},{"type":"Feature","geometry":{"type":"LineString","coordinates":[[-66.59670899999998,17.98638269999998],[-66.59832089999998,17.986587999999983]]},"properties":{"k":"c","n":null,"c":" ","v":null,"cc":null,"co":null}},{"type":"Feature","geometry":{"type":"LineString","coordinates":[[-66.59831889999998,17.986540400000024],[-66.5967124,17.986335899999972]]},"properties":{"k":"c","n":null,"c":" ","v":null,"cc":null,"co":null}},{"type":"Feature","geometry":{"type":"LineString","coordinates":[[-66.11024980000002,18.433656499999984],[-66.11072960000001,18.43345210000001]]},"properties":{"k":"c","n":null,"c":" ","v":null,"cc":null,"co":null}},{"type":"Feature","geometry":{"type":"LineString","coordinates":[[-66.08956599999999,18.42342530000002],[-66.08860900000002,18.42446050000001]]},"properties":{"k":"c","n":null,"c":"power line","v":null,"cc":null,"co":null}},{"type":"Feature","geometry":{"type":"LineString","coordinates":[[-66.0756854,18.433085699999992],[-66.07799779999999,18.433429699999976]]},"properties":{"k":"c","n":null,"c":"power line","v":null,"cc":null,"co":null}},{"type":"Feature","geometry":{"type":"LineString","coordinates":[[-66.07654789999998,18.43595099999999],[-66.07802370000002,18.433696899999973]]},"properties":{"k":"c","n":null,"c":"power line","v":null,"cc":null,"co":null}},{"type":"Feature","geometry":{"type":"LineString","coordinates":[[-66.08234950000002,18.421719699999983],[-66.08422910000002,18.423715500000014]]},"properties":{"k":"c","n":null,"c":"power line","v":null,"cc":null,"co":null}},{"type":"Feature","geometry":{"type":"LineString","coordinates":[[-66.08028689999998,18.41812950000002],[-66.0800289,18.418568600000015]]},"properties":{"k":"c","n":null,"c":"power line","v":null,"cc":null,"co":null}},{"type":"Feature","geometry":{"type":"LineString","coordinates":[[-66.0761822,18.441154799999993],[-66.07627710000003,18.439122800000007],[-66.0764226,18.438739899999973],[-66.07643940000003,18.438032799999974],[-66.07629279999998,18.437600400000008]]},"properties":{"k":"c","n":null,"c":"power line","v":null,"cc":null,"co":null}},{"type":"Feature","geometry":{"type":"LineString","coordinates":[[-66.079072,18.417757999999992],[-66.07935220000002,18.417427099999998]]},"properties":{"k":"c","n":null,"c":"power line","v":null,"cc":null,"co":null}},{"type":"Feature","geometry":{"type":"LineString","coordinates":[[-66.07620659999998,18.437552700000026],[-66.07635490000001,18.438022400000023],[-66.07633929999997,18.438709300000028],[-66.07616610000002,18.439113899999995],[-66.07607469999999,18.441139299999975]]},"properties":{"k":"c","n":null,"c":"power line","v":null,"cc":null,"co":null}},{"type":"Feature","geometry":{"type":"LineString","coordinates":[[-66.0812171,18.42067639999999],[-66.0820713,18.420698399999992]]},"properties":{"k":"c","n":null,"c":"power line","v":null,"cc":null,"co":null}},{"type":"Feature","geometry":{"type":"LineString","coordinates":[[-66.08885350000003,18.42398909999997],[-66.08962709999997,18.422944299999983]]},"properties":{"k":"c","n":null,"c":"power line","v":null,"cc":null,"co":null}},{"type":"Feature","geometry":{"type":"LineString","coordinates":[[-65.99252389999998,18.458126600000014],[-65.9930913,18.457444599999974]]},"properties":{"k":"c","n":null,"c":"power line","v":null,"cc":null,"co":null}}]}