{"type":"FeatureCollection","features":[{"type":"Feature","geometry":{"type":"Point","coordinates":[-64.926222,18.330555]},"properties":{"n":"West Indian Dock Light","s":2,"c":"r","k":"beacon"}},{"type":"Feature","geometry":{"type":"Point","coordinates":[-64.889847,18.296669]},"properties":{"n":"Packet Rock Buoy 2","s":2,"c":"r","k":"buoy"}},{"type":"Feature","geometry":{"type":"Point","coordinates":[-64.943735,18.330291]},"properties":{"n":"East Gregerie Channel Lighted Buoy 3","s":1,"c":"g","k":"buoy"}},{"type":"Feature","geometry":{"type":"Point","coordinates":[-64.927927,18.321876]},"properties":{"n":"St.Thomas Harbor Lighted Buoy 3","s":1,"c":"g","k":"buoy"}},{"type":"Feature","geometry":{"type":"Point","coordinates":[-64.917888,18.30959]},"properties":{"n":"St. Thomas Harbor Entrance Lighted Buoy 2","s":2,"c":"r","k":"buoy"}},{"type":"Feature","geometry":{"type":"Point","coordinates":[-64.934553,18.310516]},"properties":{"n":"East Gregerie Channel Lighted Buoy WR1","s":1,"c":"g","k":"buoy"}},{"type":"Feature","geometry":{"type":"Point","coordinates":[-64.946827,18.331674]},"properties":{"n":"Gregerie Preferred Channel Lighted Buoy GC","s":4,"c":"","k":"buoy"}},{"type":"Feature","geometry":{"type":"Point","coordinates":[-64.927395,18.32842]},"properties":{"n":"St. Thomas Harbor Lighted Buoy 6","s":2,"c":"r","k":"buoy"}},{"type":"Feature","geometry":{"type":"Point","coordinates":[-64.925746,18.322503]},"properties":{"n":"St Thomas Harbor Lighted Buoy 4","s":2,"c":"r","k":"buoy"}},{"type":"Feature","geometry":{"type":"Point","coordinates":[-64.933175,18.320693]},"properties":{"n":"East Gregerie Channel Lighted Buoy 2","s":2,"c":"r","k":"buoy"}},{"type":"Feature","geometry":{"type":"Point","coordinates":[-64.850036,18.324977]},"properties":{"n":"Redhook Bay Junction Buoy P","s":3,"c":"","k":"buoy"}},{"type":"Feature","geometry":{"type":"Point","coordinates":[-64.844028,18.329128]},"properties":{"n":"Redhook Bay Buoy 2","s":2,"c":"r","k":"buoy"}},{"type":"Feature","geometry":{"type":"Point","coordinates":[-64.868783,18.315622]},"properties":{"n":"Benner Bay Lighted Buoy 3","s":1,"c":"g","k":"buoy"}},{"type":"Feature","geometry":{"type":"Point","coordinates":[-64.859641,18.306732]},"properties":{"n":"Red Point Buoy 1","s":1,"c":"g","k":"buoy"}},{"type":"Feature","geometry":{"type":"Point","coordinates":[-64.867678,18.314164]},"properties":{"n":"Benner Bay Lighted Buoy 1","s":1,"c":"g","k":"buoy"}},{"type":"Feature","geometry":{"type":"Point","coordinates":[-64.849263,18.324706]},"properties":{"n":"Redhook Bay South Channel Buoy 1","s":1,"c":"g","k":"buoy"}},{"type":"Feature","geometry":{"type":"Point","coordinates":[-64.851003,18.324517]},"properties":{"n":"Redhook Bay Buoy 6","s":2,"c":"r","k":"buoy"}},{"type":"Feature","geometry":{"type":"Point","coordinates":[-64.847087,18.326773]},"properties":{"n":"Redhook Bay Buoy 3","s":1,"c":"g","k":"buoy"}},{"type":"Feature","geometry":{"type":"Point","coordinates":[-64.868861,18.316111]},"properties":{"n":"Benner Bay Lighted Buoy 5","s":1,"c":"g","k":"buoy"}},{"type":"Feature","geometry":{"type":"Point","coordinates":[-64.80345,18.32305]},"properties":{"n":"Mingo Rock Lighted Buoy 2","s":2,"c":"r","k":"buoy"}},{"type":"Feature","geometry":{"type":"Point","coordinates":[-64.847355,18.327048]},"properties":{"n":"Redhook Bay Buoy 4","s":2,"c":"r","k":"buoy"}},{"type":"Feature","geometry":{"type":"Point","coordinates":[-64.849563,18.324454]},"properties":{"n":"Redhook Bay South Channel Buoy 2","s":2,"c":"r","k":"buoy"}},{"type":"Feature","geometry":{"type":"Point","coordinates":[-64.850806,18.324422]},"properties":{"n":"Redhook Bay Buoy 5","s":1,"c":"g","k":"buoy"}},{"type":"Feature","geometry":{"type":"Point","coordinates":[-64.867578,18.314269]},"properties":{"n":"Benner Bay Lighted Buoy 2","s":2,"c":"r","k":"buoy"}},{"type":"Feature","geometry":{"type":"Point","coordinates":[-64.868533,18.31565]},"properties":{"n":"Benner Bay Lighted Buoy 4","s":2,"c":"r","k":"buoy"}},{"type":"Feature","geometry":{"type":"Point","coordinates":[-64.843753,18.328849]},"properties":{"n":"Redhook Bay Lighted Buoy 1","s":1,"c":"g","k":"buoy"}},{"type":"Feature","geometry":{"type":"Point","coordinates":[-64.830317,18.322315]},"properties":{"n":"Cabrita Point Lighted Buoy 1","s":1,"c":"g","k":"buoy"}},{"type":"Feature","geometry":{"type":"Point","coordinates":[-64.798367,18.333051]},"properties":{"n":"Cruz Bay Buoy 2","s":2,"c":"r","k":"buoy"}},{"type":"Feature","geometry":{"type":"Point","coordinates":[-64.744364,18.36358]},"properties":{"n":"Francis Bay Buoy 2","s":2,"c":"r","k":"buoy"}},{"type":"Feature","geometry":{"type":"Point","coordinates":[-64.769582,18.352176]},"properties":{"n":"Trunk Bay Buoy 1","s":1,"c":"g","k":"buoy"}},{"type":"Feature","geometry":{"type":"Point","coordinates":[-64.770012,18.351937]},"properties":{"n":"Trunk Bay Buoy 2","s":2,"c":"r","k":"buoy"}},{"type":"Feature","geometry":{"type":"Point","coordinates":[-64.778694,18.346954]},"properties":{"n":"Hawksnest Bay Buoy 1","s":1,"c":"g","k":"buoy"}},{"type":"Feature","geometry":{"type":"Point","coordinates":[-64.788203,18.342743]},"properties":{"n":"Caneel Bay Buoy 4","s":2,"c":"r","k":"buoy"}},{"type":"Feature","geometry":{"type":"Point","coordinates":[-64.794924,18.333269]},"properties":{"n":"Cruz Creek Channel Buoy 1C","s":1,"c":"g","k":"buoy"}},{"type":"Feature","geometry":{"type":"Point","coordinates":[-64.795222,18.333038]},"properties":{"n":"Cruz Creek Channel Buoy 2C","s":2,"c":"r","k":"buoy"}},{"type":"Feature","geometry":{"type":"Point","coordinates":[-64.744304,18.36412]},"properties":{"n":"Francis Bay Buoy 1","s":1,"c":"g","k":"buoy"}},{"type":"Feature","geometry":{"type":"Point","coordinates":[-64.787628,18.343009]},"properties":{"n":"Caneel Bay Buoy 5","s":1,"c":"g","k":"buoy"}},{"type":"Feature","geometry":{"type":"Point","coordinates":[-64.796123,18.332244]},"properties":{"n":"Cruz Bay Buoy 3","s":1,"c":"g","k":"buoy"}},{"type":"Feature","geometry":{"type":"Point","coordinates":[-64.788186,18.343009]},"properties":{"n":"Caneel Bay Buoy 3","s":1,"c":"g","k":"buoy"}},{"type":"Feature","geometry":{"type":"Point","coordinates":[-64.788333,18.343009]},"properties":{"n":"Caneel Bay Buoy 1","s":1,"c":"g","k":"buoy"}},{"type":"Feature","geometry":{"type":"Point","coordinates":[-64.779377,18.346632]},"properties":{"n":"Hawksnest Bay Buoy 2","s":2,"c":"r","k":"buoy"}},{"type":"Feature","geometry":{"type":"Point","coordinates":[-64.787646,18.342721]},"properties":{"n":"Caneel Bay Buoy 6","s":2,"c":"r","k":"buoy"}},{"type":"Feature","geometry":{"type":"Point","coordinates":[-64.788373,18.342715]},"properties":{"n":"Caneel Bay Buoy 2","s":2,"c":"r","k":"buoy"}},{"type":"Feature","geometry":{"type":"Point","coordinates":[-64.773741,18.364989]},"properties":{"n":"Johnson Reef Lighted Buoy 1JR","s":1,"c":"g","k":"buoy"}},{"type":"Feature","geometry":{"type":"Point","coordinates":[-64.79834,18.333451]},"properties":{"n":"Cruz Bay Buoy 1","s":1,"c":"g","k":"buoy"}},{"type":"Feature","geometry":{"type":"Point","coordinates":[-64.797332,18.333102]},"properties":{"n":"Cruz Bay Junction Buoy C","s":3,"c":"","k":"buoy"}},{"type":"Feature","geometry":{"type":"Point","coordinates":[-64.796251,18.331502]},"properties":{"n":"Cruz Bay Buoy 4","s":2,"c":"r","k":"buoy"}},{"type":"Feature","geometry":{"type":"Point","coordinates":[-64.742089,17.685008]},"properties":{"n":"Limetree Bay Channel Light 7","s":1,"c":"g","k":"beacon"}},{"type":"Feature","geometry":{"type":"Point","coordinates":[-64.751862,17.690159]},"properties":{"n":"Limetree Bay Channel Junction Light LK","s":3,"c":"","k":"beacon"}},{"type":"Feature","geometry":{"type":"Point","coordinates":[-64.7555,17.688465]},"properties":{"n":"Krause Lagoon Cross Channel Light 4","s":2,"c":"r","k":"beacon"}},{"type":"Feature","geometry":{"type":"Point","coordinates":[-64.760082,17.688831]},"properties":{"n":"Krause Lagoon Channel Light 6","s":2,"c":"r","k":"beacon"}},{"type":"Feature","geometry":{"type":"Point","coordinates":[-64.760891,17.690611]},"properties":{"n":"Krause Lagoon Channel Light 8","s":2,"c":"r","k":"beacon"}},{"type":"Feature","geometry":{"type":"Point","coordinates":[-64.756998,17.683882]},"properties":{"n":"Krause Lagoon Channel Light 4","s":2,"c":"r","k":"beacon"}},{"type":"Feature","geometry":{"type":"Point","coordinates":[-64.757543,17.687491]},"properties":{"n":"Krause Lagoon Cross Channel Light 2","s":2,"c":"r","k":"beacon"}},{"type":"Feature","geometry":{"type":"Point","coordinates":[-64.763226,17.694114]},"properties":{"n":"Krause Lagoon Channel Light 10","s":2,"c":"r","k":"beacon"}},{"type":"Feature","geometry":{"type":"Point","coordinates":[-64.747285,17.68859]},"properties":{"n":"Limetree Bay Channel Light 11","s":1,"c":"g","k":"beacon"}},{"type":"Feature","geometry":{"type":"Point","coordinates":[-64.755962,17.689448]},"properties":{"n":"Krause Lagoon Cross Channel Light 3","s":1,"c":"g","k":"beacon"}},{"type":"Feature","geometry":{"type":"Point","coordinates":[-64.761926,17.69008]},"properties":{"n":"Krause Lagoon Channel Light 7","s":1,"c":"g","k":"beacon"}},{"type":"Feature","geometry":{"type":"Point","coordinates":[-64.765444,17.697687]},"properties":{"n":"Krause Lagoon Channel Light 12","s":2,"c":"r","k":"beacon"}},{"type":"Feature","geometry":{"type":"Point","coordinates":[-64.741621,17.687699]},"properties":{"n":"Limetree Bay Channel Light 8","s":2,"c":"r","k":"beacon"}},{"type":"Feature","geometry":{"type":"Point","coordinates":[-64.744796,17.687987]},"properties":{"n":"Limetree Bay Channel Light 9","s":1,"c":"g","k":"beacon"}},{"type":"Feature","geometry":{"type":"Point","coordinates":[-64.766488,17.697128]},"properties":{"n":"Krause Lagoon Channel Light 11","s":1,"c":"g","k":"beacon"}},{"type":"Feature","geometry":{"type":"Point","coordinates":[-64.740788,17.682348]},"properties":{"n":"Limetree Bay Channel Light 5","s":1,"c":"g","k":"beacon"}},{"type":"Feature","geometry":{"type":"Point","coordinates":[-64.75378,17.692316]},"properties":{"n":"Limetree Bay Port Basin Light 13","s":1,"c":"g","k":"beacon"}},{"type":"Feature","geometry":{"type":"Point","coordinates":[-64.754619,17.69406]},"properties":{"n":"Limetree Bay Port Basin Light 15","s":1,"c":"g","k":"beacon"}},{"type":"Feature","geometry":{"type":"Point","coordinates":[-64.756431,17.694723]},"properties":{"n":"Limetree Bay Port Basin Light 17","s":1,"c":"g","k":"beacon"}},{"type":"Feature","geometry":{"type":"Point","coordinates":[-64.764283,17.693517]},"properties":{"n":"Krause Lagoon Channel Light 9","s":1,"c":"g","k":"beacon"}},{"type":"Feature","geometry":{"type":"Point","coordinates":[-64.768617,17.700728]},"properties":{"n":"Krause Lagoon Channel Light 13","s":1,"c":"g","k":"beacon"}},{"type":"Feature","geometry":{"type":"Point","coordinates":[-64.767647,17.701288]},"properties":{"n":"Krause Lagoon Channel Light 14","s":2,"c":"r","k":"beacon"}},{"type":"Feature","geometry":{"type":"Point","coordinates":[-64.772557,17.703537]},"properties":{"n":"Krause Lagoon Channel Light 17","s":1,"c":"g","k":"beacon"}},{"type":"Feature","geometry":{"type":"Point","coordinates":[-64.769003,17.703488]},"properties":{"n":"Krause Lagoon Channel Light 16","s":2,"c":"r","k":"beacon"}},{"type":"Feature","geometry":{"type":"Point","coordinates":[-64.699223,17.751024]},"properties":{"n":"Christiansted Harbor Channel Light 13","s":1,"c":"g","k":"beacon"}},{"type":"Feature","geometry":{"type":"Point","coordinates":[-64.700283,17.75705]},"properties":{"n":"Christiansted Harbor Channel Light 10","s":2,"c":"r","k":"beacon"}},{"type":"Feature","geometry":{"type":"Point","coordinates":[-64.698457,17.756341]},"properties":{"n":"Christiansted Harbor Channel Light 9","s":1,"c":"g","k":"beacon"}},{"type":"Feature","geometry":{"type":"Point","coordinates":[-64.694456,17.75717]},"properties":{"n":"Christiansted Harbor Channel Light 7","s":1,"c":"g","k":"beacon"}},{"type":"Feature","geometry":{"type":"Point","coordinates":[-64.701083,17.747556]},"properties":{"n":"Christiansted Harbor Channel Daybeacon 16","s":2,"c":"r","k":"beacon"}},{"type":"Feature","geometry":{"type":"Point","coordinates":[-64.699103,17.755631]},"properties":{"n":"Christiansted Harbor Channel Light 11","s":1,"c":"g","k":"beacon"}},{"type":"Feature","geometry":{"type":"Point","coordinates":[-64.909543,17.650476]},"properties":{"n":"Southwest Cape Shoal Buoy 2","s":2,"c":"r","k":"buoy"}},{"type":"Feature","geometry":{"type":"Point","coordinates":[-64.735006,17.676281]},"properties":{"n":"Limetree Bay Channel Lighted Buoy 2","s":2,"c":"r","k":"buoy"}},{"type":"Feature","geometry":{"type":"Point","coordinates":[-64.739083,17.683416]},"properties":{"n":"Limetree Bay Channel Lighted Buoy 6","s":2,"c":"r","k":"buoy"}},{"type":"Feature","geometry":{"type":"Point","coordinates":[-64.757846,17.683337]},"properties":{"n":"Krause Lagoon Channel Lighted Buoy 3","s":1,"c":"g","k":"buoy"}},{"type":"Feature","geometry":{"type":"Point","coordinates":[-64.758131,17.685665]},"properties":{"n":"Krause Lagoon Channel Lighted Buoy 4A","s":2,"c":"r","k":"buoy"}},{"type":"Feature","geometry":{"type":"Point","coordinates":[-64.752546,17.677262]},"properties":{"n":"Krause Lagoon Channel Entrance Lighted Buoy 2","s":2,"c":"r","k":"buoy"}},{"type":"Feature","geometry":{"type":"Point","coordinates":[-64.753571,17.67659]},"properties":{"n":"Krause Lagoon Channel Entrance Lighted Buoy 1","s":1,"c":"g","k":"buoy"}},{"type":"Feature","geometry":{"type":"Point","coordinates":[-64.758131,17.688525]},"properties":{"n":"Krause Lagoon Cross Channel Lighted Buoy 1","s":1,"c":"g","k":"buoy"}},{"type":"Feature","geometry":{"type":"Point","coordinates":[-64.737323,17.675868]},"properties":{"n":"Limetree Bay Channel Lighted Buoy 1","s":1,"c":"g","k":"buoy"}},{"type":"Feature","geometry":{"type":"Point","coordinates":[-64.738073,17.677627]},"properties":{"n":"Limetree Bay Channel Lighted Buoy 3","s":1,"c":"g","k":"buoy"}},{"type":"Feature","geometry":{"type":"Point","coordinates":[-64.75399,17.690406]},"properties":{"n":"Krause Lagoon Cross Channel Lighted Buoy 5","s":1,"c":"g","k":"buoy"}},{"type":"Feature","geometry":{"type":"Point","coordinates":[-64.736473,17.678175]},"properties":{"n":"Limetree Bay Channel Lighted Buoy 4","s":2,"c":"r","k":"buoy"}},{"type":"Feature","geometry":{"type":"Point","coordinates":[-64.709956,17.750436]},"properties":{"n":"Devcon International Channel Buoy 9","s":1,"c":"g","k":"buoy"}},{"type":"Feature","geometry":{"type":"Point","coordinates":[-64.704752,17.75114]},"properties":{"n":"Devcon International Channel Buoy 3","s":1,"c":"g","k":"buoy"}},{"type":"Feature","geometry":{"type":"Point","coordinates":[-64.69675,17.753806]},"properties":{"n":"Christiansted Schooner Channel Lighted Buoy 8","s":2,"c":"r","k":"buoy"}},{"type":"Feature","geometry":{"type":"Point","coordinates":[-64.696554,17.763158]},"properties":{"n":"Christiansted Harbor Channel Lighted Buoy 1","s":1,"c":"g","k":"buoy"}},{"type":"Feature","geometry":{"type":"Point","coordinates":[-64.703021,17.753107]},"properties":{"n":"Devcon International Channel Buoy 1","s":1,"c":"g","k":"buoy"}},{"type":"Feature","geometry":{"type":"Point","coordinates":[-64.711441,17.751415]},"properties":{"n":"Devcon International Channel Buoy 10","s":2,"c":"r","k":"buoy"}},{"type":"Feature","geometry":{"type":"Point","coordinates":[-64.698083,17.75275]},"properties":{"n":"Christiansted Schooner Channel Lighted Buoy 10","s":2,"c":"r","k":"buoy"}},{"type":"Feature","geometry":{"type":"Point","coordinates":[-64.706198,17.750532]},"properties":{"n":"Devcon International Channel Buoy 4","s":2,"c":"r","k":"buoy"}},{"type":"Feature","geometry":{"type":"Point","coordinates":[-64.707682,17.749563]},"properties":{"n":"Devcon International Channel Buoy 7","s":1,"c":"g","k":"buoy"}},{"type":"Feature","geometry":{"type":"Point","coordinates":[-64.695493,17.760636]},"properties":{"n":"Christiansted Harbor Channel Lighted Buoy 3","s":1,"c":"g","k":"buoy"}},{"type":"Feature","geometry":{"type":"Point","coordinates":[-64.697611,17.752222]},"properties":{"n":"Christiansted Schooner Channel Lighted Buoy 11","s":1,"c":"g","k":"buoy"}},{"type":"Feature","geometry":{"type":"Point","coordinates":[-64.696706,17.757974]},"properties":{"n":"Christiansted Harbor Channel Buoy 8","s":2,"c":"r","k":"buoy"}},{"type":"Feature","geometry":{"type":"Point","coordinates":[-64.695444,17.75375]},"properties":{"n":"Christiansted Schooner Channel Lighted Buoy 7","s":1,"c":"g","k":"buoy"}},{"type":"Feature","geometry":{"type":"Point","coordinates":[-64.706369,17.750127]},"properties":{"n":"Devcon International Channel Buoy 5","s":1,"c":"g","k":"buoy"}},{"type":"Feature","geometry":{"type":"Point","coordinates":[-64.695912,17.75683]},"properties":{"n":"Round Reef Northeast Junction Lighted Buoy RR","s":3,"c":"","k":"buoy"}},{"type":"Feature","geometry":{"type":"Point","coordinates":[-64.70059,17.754649]},"properties":{"n":"Christiansted Harbor Channel Lighted Buoy 12","s":2,"c":"r","k":"buoy"}},{"type":"Feature","geometry":{"type":"Point","coordinates":[-64.696447,17.76025]},"properties":{"n":"Christiansted Harbor Channel Buoy 4","s":2,"c":"r","k":"buoy"}},{"type":"Feature","geometry":{"type":"Point","coordinates":[-64.706864,17.750358]},"properties":{"n":"Devcon International Channel Buoy 6","s":2,"c":"r","k":"buoy"}},{"type":"Feature","geometry":{"type":"Point","coordinates":[-64.696194,17.754667]},"properties":{"n":"Christiansted Schooner Channel Lighted Buoy 6","s":2,"c":"r","k":"buoy"}},{"type":"Feature","geometry":{"type":"Point","coordinates":[-64.695333,17.755306]},"properties":{"n":"Christiansted Schooner Channel Lighted Buoy 5","s":1,"c":"g","k":"buoy"}},{"type":"Feature","geometry":{"type":"Point","coordinates":[-64.699395,17.748763]},"properties":{"n":"Christiansted Harbor Channel Buoy 15","s":1,"c":"g","k":"buoy"}},{"type":"Feature","geometry":{"type":"Point","coordinates":[-64.695896,17.759041]},"properties":{"n":"Christiansted Harbor Channel Lighted Buoy 6","s":2,"c":"r","k":"buoy"}},{"type":"Feature","geometry":{"type":"Point","coordinates":[-64.69625,17.75325]},"properties":{"n":"Christiansted Schooner Channel Lighted Buoy 9","s":1,"c":"g","k":"buoy"}},{"type":"Feature","geometry":{"type":"Point","coordinates":[-64.703833,17.753556]},"properties":{"n":"Devcon International Channel Buoy 2","s":2,"c":"r","k":"buoy"}},{"type":"Feature","geometry":{"type":"Point","coordinates":[-64.708784,17.750503]},"properties":{"n":"Devcon International Channel Buoy 8","s":2,"c":"r","k":"buoy"}},{"type":"Feature","geometry":{"type":"Point","coordinates":[-64.701278,17.750306]},"properties":{"n":"Christiansted Harbor Channel Lighted Buoy 14","s":2,"c":"r","k":"buoy"}},{"type":"Feature","geometry":{"type":"Point","coordinates":[-65.277871,18.296118]},"properties":{"n":"Punta Carenero Buoy 12","s":2,"c":"r","k":"buoy"}},{"type":"Feature","geometry":{"type":"Point","coordinates":[-65.256684,18.280791]},"properties":{"n":"Cabezas Crespas Lighted Buoy 3","s":1,"c":"g","k":"buoy"}},{"type":"Feature","geometry":{"type":"Point","coordinates":[-65.271534,18.289359]},"properties":{"n":"Bajo Snapper Lighted Buoy 8","s":2,"c":"r","k":"buoy"}},{"type":"Feature","geometry":{"type":"Point","coordinates":[-65.275948,18.293448]},"properties":{"n":"Punta Carenero Buoy 10","s":2,"c":"r","k":"buoy"}},{"type":"Feature","geometry":{"type":"Point","coordinates":[-65.266429,18.284963]},"properties":{"n":"Bajo Grouper Buoy 5","s":1,"c":"g","k":"buoy"}},{"type":"Feature","geometry":{"type":"Point","coordinates":[-65.275215,18.277768]},"properties":{"n":"Bajo Amarillo Lighted Buoy 2","s":2,"c":"r","k":"buoy"}},{"type":"Feature","geometry":{"type":"Point","coordinates":[-65.251608,18.276791]},"properties":{"n":"Canal Del Este Buoy 2","s":2,"c":"r","k":"buoy"}},{"type":"Feature","geometry":{"type":"Point","coordinates":[-65.255018,18.283901]},"properties":{"n":"Cabezas Puercas Buoy 4","s":2,"c":"r","k":"buoy"}},{"type":"Feature","geometry":{"type":"Point","coordinates":[-65.276408,18.293221]},"properties":{"n":"Punta Colorada Lighted Buoy 9","s":1,"c":"g","k":"buoy"}},{"type":"Feature","geometry":{"type":"Point","coordinates":[-65.263164,18.285611]},"properties":{"n":"Bajo Camaron Buoy 6","s":2,"c":"r","k":"buoy"}},{"type":"Feature","geometry":{"type":"Point","coordinates":[-65.195042,18.256687]},"properties":{"n":"Bajos Grampus South Lighted Buoy 2","s":2,"c":"r","k":"buoy"}},{"type":"Feature","geometry":{"type":"Point","coordinates":[-65.280864,18.300203]},"properties":{"n":"Punta Cabras Buoy 14","s":2,"c":"r","k":"buoy"}},{"type":"Feature","geometry":{"type":"Point","coordinates":[-64.971694,18.320861]},"properties":{"n":"West Gregerie Channel Buoy 3","s":1,"c":"g","k":"buoy"}},{"type":"Feature","geometry":{"type":"Point","coordinates":[-64.976278,18.306333]},"properties":{"n":"West Gregerie Channel Lighted Buoy 2","s":2,"c":"r","k":"buoy"}},{"type":"Feature","geometry":{"type":"Point","coordinates":[-64.958399,18.321326]},"properties":{"n":"West Gregerie Channel Lighted Buoy 4","s":2,"c":"r","k":"buoy"}},{"type":"Feature","geometry":{"type":"Point","coordinates":[-64.957167,18.311083]},"properties":{"n":"Water Island Channel Lighted Buoy 3","s":1,"c":"g","k":"buoy"}},{"type":"Feature","geometry":{"type":"Point","coordinates":[-64.96175,18.31315]},"properties":{"n":"Water Island Channel Lighted Buoy 1","s":1,"c":"g","k":"buoy"}},{"type":"Feature","geometry":{"type":"Point","coordinates":[-64.955689,18.327252]},"properties":{"n":"West Gregerie Channel Lighted Buoy 5","s":1,"c":"g","k":"buoy"}},{"type":"Feature","geometry":{"type":"Point","coordinates":[-64.958733,18.311183]},"properties":{"n":"Water Island Channel Lighted Buoy 2","s":2,"c":"r","k":"buoy"}},{"type":"Feature","geometry":{"type":"Point","coordinates":[-65.828124,18.052391]},"properties":{"n":"Puerto Yabucoa Channel Breakwater Light","s":2,"c":"r","k":"beacon"}},{"type":"Feature","geometry":{"type":"Point","coordinates":[-65.830391,18.052961]},"properties":{"n":"Puerto Yabucoa Channel Light 10","s":2,"c":"r","k":"beacon"}},{"type":"Feature","geometry":{"type":"Point","coordinates":[-65.830709,18.050746]},"properties":{"n":"Puerto Yabucoa Channel Light 9","s":1,"c":"g","k":"beacon"}},{"type":"Feature","geometry":{"type":"Point","coordinates":[-65.796019,18.076864]},"properties":{"n":"Palmas del Mar Light 2","s":2,"c":"r","k":"beacon"}},{"type":"Feature","geometry":{"type":"Point","coordinates":[-65.798014,18.077728]},"properties":{"n":"Palmas del Mar Light 6","s":2,"c":"r","k":"beacon"}},{"type":"Feature","geometry":{"type":"Point","coordinates":[-65.796589,18.077]},"properties":{"n":"Palmas del Mar Light 4","s":2,"c":"r","k":"beacon"}},{"type":"Feature","geometry":{"type":"Point","coordinates":[-65.796114,18.076375]},"properties":{"n":"Palmas del Mar Light 1","s":1,"c":"g","k":"beacon"}},{"type":"Feature","geometry":{"type":"Point","coordinates":[-65.515558,18.148876]},"properties":{"n":"Vieques Naval Pier Light","s":2,"c":"r","k":"beacon"}},{"type":"Feature","geometry":{"type":"Point","coordinates":[-65.619511,18.222758]},"properties":{"n":"Roosevelt Roads Pier 3 East Light","s":2,"c":"r","k":"beacon"}},{"type":"Feature","geometry":{"type":"Point","coordinates":[-65.61969,18.223067]},"properties":{"n":"Roosevelt Roads Pier 3 East Light","s":2,"c":"r","k":"beacon"}},{"type":"Feature","geometry":{"type":"Point","coordinates":[-65.514162,18.151056]},"properties":{"n":"Vieques Naval Breakwater Light","s":2,"c":"r","k":"beacon"}},{"type":"Feature","geometry":{"type":"Point","coordinates":[-65.63081,18.290698]},"properties":{"n":"Puerto Del Rey Marina North Channel Light 4","s":2,"c":"r","k":"beacon"}},{"type":"Feature","geometry":{"type":"Point","coordinates":[-65.63194,18.289182]},"properties":{"n":"Puerto Del Rey Marina North Channel Light 5","s":1,"c":"g","k":"beacon"}},{"type":"Feature","geometry":{"type":"Point","coordinates":[-65.619784,18.227832]},"properties":{"n":"Roosevelt Roads Pier 2 East Light","s":2,"c":"r","k":"beacon"}},{"type":"Feature","geometry":{"type":"Point","coordinates":[-65.61984,18.227862]},"properties":{"n":"Roosevelt Roads Pier 2 East Light","s":2,"c":"r","k":"beacon"}},{"type":"Feature","geometry":{"type":"Point","coordinates":[-65.625278,18.357417]},"properties":{"n":"Punta Gorda East Seawall Light","s":2,"c":"r","k":"beacon"}},{"type":"Feature","geometry":{"type":"Point","coordinates":[-65.620445,18.33796]},"properties":{"n":"Isleta Marina Daybeacon 2","s":2,"c":"r","k":"beacon"}},{"type":"Feature","geometry":{"type":"Point","coordinates":[-65.619764,18.215961]},"properties":{"n":"Roosevelt Roads Harbor Channel Lighted Buoy 6","s":2,"c":"r","k":"buoy"}},{"type":"Feature","geometry":{"type":"Point","coordinates":[-65.610636,18.20302]},"properties":{"n":"Roosevelt Roads Harbor Channel Lighted Buoy 3","s":1,"c":"g","k":"buoy"}},{"type":"Feature","geometry":{"type":"Point","coordinates":[-65.606642,18.203495]},"properties":{"n":"Roosevelt Roads Harbor Channel Lighted Buoy 2","s":2,"c":"r","k":"buoy"}},{"type":"Feature","geometry":{"type":"Point","coordinates":[-65.606403,18.168355]},"properties":{"n":"Vieques Southwest Channel Lighted Buoy 2","s":2,"c":"r","k":"buoy"}},{"type":"Feature","geometry":{"type":"Point","coordinates":[-65.621871,18.214193]},"properties":{"n":"Roosevelt Roads Harbor Channel Lighted Buoy 7","s":1,"c":"g","k":"buoy"}},{"type":"Feature","geometry":{"type":"Point","coordinates":[-65.516759,18.165814]},"properties":{"n":"Radas Roosevelt Passage Lighted Buoy 3","s":1,"c":"g","k":"buoy"}},{"type":"Feature","geometry":{"type":"Point","coordinates":[-65.51856,18.171499]},"properties":{"n":"Radas Roosevelt Passage Lighted Buoy 4","s":2,"c":"r","k":"buoy"}},{"type":"Feature","geometry":{"type":"Point","coordinates":[-65.469983,18.183226]},"properties":{"n":"Radas Roosevelt Passage Lighted Buoy 1","s":1,"c":"g","k":"buoy"}},{"type":"Feature","geometry":{"type":"Point","coordinates":[-65.633316,18.29003]},"properties":{"n":"Puerto Del Ray North Channel Lighted Buoy 7","s":1,"c":"g","k":"buoy"}},{"type":"Feature","geometry":{"type":"Point","coordinates":[-65.632148,18.290496]},"properties":{"n":"Puerto Del Ray North Channel Lighted Buoy 6","s":2,"c":"r","k":"buoy"}},{"type":"Feature","geometry":{"type":"Point","coordinates":[-65.580632,18.294959]},"properties":{"n":"Bajos Largo Lighted Buoy 3","s":1,"c":"g","k":"buoy"}},{"type":"Feature","geometry":{"type":"Point","coordinates":[-65.561645,18.225801]},"properties":{"n":"Cabeza De Perro Lighted Buoy 7","s":1,"c":"g","k":"buoy"}},{"type":"Feature","geometry":{"type":"Point","coordinates":[-65.5909,18.291291]},"properties":{"n":"Punta Figueras Buoy 4","s":2,"c":"r","k":"buoy"}},{"type":"Feature","geometry":{"type":"Point","coordinates":[-65.567942,18.27029]},"properties":{"n":"Roca Lavandera Del Oeste Buoy 5","s":1,"c":"g","k":"buoy"}},{"type":"Feature","geometry":{"type":"Point","coordinates":[-65.622263,18.363631]},"properties":{"n":"Las Croabas Buoy 2","s":2,"c":"r","k":"buoy"}},{"type":"Feature","geometry":{"type":"Point","coordinates":[-65.558821,18.352714]},"properties":{"n":"Isla Palominos Lighted Buoy 2","s":2,"c":"r","k":"buoy"}},{"type":"Feature","geometry":{"type":"Point","coordinates":[-65.588687,18.314812]},"properties":{"n":"Cayo Largo Lighted Buoy 1A","s":1,"c":"g","k":"buoy"}},{"type":"Feature","geometry":{"type":"Point","coordinates":[-65.615281,18.34669]},"properties":{"n":"Fifteen-foot Spot Lighted Buoy 1","s":1,"c":"g","k":"buoy"}},{"type":"Feature","geometry":{"type":"Point","coordinates":[-65.570695,18.345539]},"properties":{"n":"Isla Palominos Marina Buoy 6","s":2,"c":"r","k":"buoy"}},{"type":"Feature","geometry":{"type":"Point","coordinates":[-65.571452,18.346518]},"properties":{"n":"Isla Palominos Marina Buoy 3","s":1,"c":"g","k":"buoy"}},{"type":"Feature","geometry":{"type":"Point","coordinates":[-65.573769,18.346518]},"properties":{"n":"Isla Palominos Marina Buoy 2","s":2,"c":"r","k":"buoy"}},{"type":"Feature","geometry":{"type":"Point","coordinates":[-65.591294,18.331292]},"properties":{"n":"Cayo Largo Buoy 1","s":1,"c":"g","k":"buoy"}},{"type":"Feature","geometry":{"type":"Point","coordinates":[-65.623549,18.346202]},"properties":{"n":"Bajo Onaway Buoy 3","s":1,"c":"g","k":"buoy"}},{"type":"Feature","geometry":{"type":"Point","coordinates":[-65.573702,18.346823]},"properties":{"n":"Isla Palominos Marina Buoy 1","s":1,"c":"g","k":"buoy"}},{"type":"Feature","geometry":{"type":"Point","coordinates":[-65.598406,18.310573]},"properties":{"n":"Isla de Ramos Buoy 2","s":2,"c":"r","k":"buoy"}},{"type":"Feature","geometry":{"type":"Point","coordinates":[-65.623032,18.363991]},"properties":{"n":"Las Croabas Bouy 3","s":1,"c":"g","k":"buoy"}},{"type":"Feature","geometry":{"type":"Point","coordinates":[-65.571669,18.346099]},"properties":{"n":"Isla Palominos Marina Buoy 4","s":2,"c":"r","k":"buoy"}},{"type":"Feature","geometry":{"type":"Point","coordinates":[-65.570388,18.345822]},"properties":{"n":"Isla Palominos Marina Buoy 5","s":1,"c":"g","k":"buoy"}},{"type":"Feature","geometry":{"type":"Point","coordinates":[-65.62238,18.363344]},"properties":{"n":"Las Croabas Buoy 1","s":1,"c":"g","k":"buoy"}},{"type":"Feature","geometry":{"type":"Point","coordinates":[-65.531244,18.340385]},"properties":{"n":"Bajo Blake South Buoy 3","s":1,"c":"g","k":"buoy"}},{"type":"Feature","geometry":{"type":"Point","coordinates":[-65.823483,18.049432]},"properties":{"n":"Puerto Yabucoa Channel Light 8","s":2,"c":"r","k":"beacon"}},{"type":"Feature","geometry":{"type":"Point","coordinates":[-65.816757,18.045974]},"properties":{"n":"Puerto Yabucoa Channel Light 6","s":2,"c":"r","k":"beacon"}},{"type":"Feature","geometry":{"type":"Point","coordinates":[-65.817605,18.044605]},"properties":{"n":"Puerto Yabucoa Channel Light 5","s":1,"c":"g","k":"beacon"}},{"type":"Feature","geometry":{"type":"Point","coordinates":[-65.824404,18.047634]},"properties":{"n":"Puerto Yabucoa Channel Light 7","s":1,"c":"g","k":"beacon"}},{"type":"Feature","geometry":{"type":"Point","coordinates":[-65.811979,18.041569]},"properties":{"n":"Puerto Yabucoa Channel Lighted Buoy 3","s":1,"c":"g","k":"buoy"}},{"type":"Feature","geometry":{"type":"Point","coordinates":[-65.809164,18.042378]},"properties":{"n":"Puerto Yabucoa Channel Lighted Buoy 2","s":2,"c":"r","k":"buoy"}},{"type":"Feature","geometry":{"type":"Point","coordinates":[-66.086176,18.443125]},"properties":{"n":"Graving Dock Channel Turning Basin Light 5","s":1,"c":"g","k":"beacon"}},{"type":"Feature","geometry":{"type":"Point","coordinates":[-66.109212,18.437229]},"properties":{"n":"Army Terminal Channel Lighted Buoy 6","s":2,"c":"r","k":"buoy"}},{"type":"Feature","geometry":{"type":"Point","coordinates":[-66.107684,18.436186]},"properties":{"n":"Army Terminal Channel Lighted Buoy 7","s":1,"c":"g","k":"buoy"}},{"type":"Feature","geometry":{"type":"Point","coordinates":[-66.09527,18.444502]},"properties":{"n":"Graving Dock Channel Lighted Buoy 2","s":2,"c":"r","k":"buoy"}},{"type":"Feature","geometry":{"type":"Point","coordinates":[-66.107083,18.448658]},"properties":{"n":"Army Terminal Channel Lighted Buoy A","s":3,"c":"","k":"buoy"}},{"type":"Feature","geometry":{"type":"Point","coordinates":[-66.089725,18.442927]},"properties":{"n":"Graving Dock Channel Lighted Buoy 4","s":2,"c":"r","k":"buoy"}},{"type":"Feature","geometry":{"type":"Point","coordinates":[-66.10962,18.446299]},"properties":{"n":"Army Terminal Channel Lighted Buoy 2","s":2,"c":"r","k":"buoy"}},{"type":"Feature","geometry":{"type":"Point","coordinates":[-66.096928,18.435628]},"properties":{"n":"Puerto Nuevo Channel Lighted Buoy 3","s":1,"c":"g","k":"buoy"}},{"type":"Feature","geometry":{"type":"Point","coordinates":[-66.10526,18.432484]},"properties":{"n":"Army Terminal Channel Turning Basin Lighted Buoy 9","s":1,"c":"g","k":"buoy"}},{"type":"Feature","geometry":{"type":"Point","coordinates":[-66.109462,18.441888]},"properties":{"n":"Army Terminal Channel Lighted Buoy 4","s":2,"c":"r","k":"buoy"}},{"type":"Feature","geometry":{"type":"Point","coordinates":[-66.089782,18.439767]},"properties":{"n":"Puerto Nuevo Channel Lighted Buoy 5","s":1,"c":"g","k":"buoy"}},{"type":"Feature","geometry":{"type":"Point","coordinates":[-66.101787,18.448128]},"properties":{"n":"Graving Dock Channel Lighted Buoy 1","s":1,"c":"g","k":"buoy"}},{"type":"Feature","geometry":{"type":"Point","coordinates":[-66.107129,18.434352]},"properties":{"n":"Army Terminal Channel Lighted Buoy 7A","s":1,"c":"g","k":"buoy"}},{"type":"Feature","geometry":{"type":"Point","coordinates":[-66.108004,18.441718]},"properties":{"n":"Army Terminal Channel Lighted Buoy 5","s":1,"c":"g","k":"buoy"}},{"type":"Feature","geometry":{"type":"Point","coordinates":[-66.094665,18.445599]},"properties":{"n":"Graving Dock Channel Lighted Buoy 3","s":1,"c":"g","k":"buoy"}},{"type":"Feature","geometry":{"type":"Point","coordinates":[-66.102394,18.432329]},"properties":{"n":"Puerto Nuevo Channel Lighted Buoy 1","s":1,"c":"g","k":"buoy"}},{"type":"Feature","geometry":{"type":"Point","coordinates":[-66.108296,18.446154]},"properties":{"n":"Army Terminal Channel Lighted Buoy 3","s":1,"c":"g","k":"buoy"}},{"type":"Feature","geometry":{"type":"Point","coordinates":[-66.126791,18.471618]},"properties":{"n":"Bahia de San Juan Lighted Buoy 3","s":1,"c":"g","k":"buoy"}},{"type":"Feature","geometry":{"type":"Point","coordinates":[-66.127315,18.46381]},"properties":{"n":"Bahia De San Juan Lighted Buoy 8","s":2,"c":"r","k":"buoy"}},{"type":"Feature","geometry":{"type":"Point","coordinates":[-66.129535,18.472166]},"properties":{"n":"Bah\u00eda de San Juan Lighted Buoy 2","s":2,"c":"r","k":"buoy"}},{"type":"Feature","geometry":{"type":"Point","coordinates":[-66.121894,18.459107]},"properties":{"n":"Bahia de San Juan Lighted Buoy 10","s":2,"c":"r","k":"buoy"}},{"type":"Feature","geometry":{"type":"Point","coordinates":[-66.111764,18.450083]},"properties":{"n":"Bahia De San Juan Lighted Buoy 14","s":2,"c":"r","k":"buoy"}},{"type":"Feature","geometry":{"type":"Point","coordinates":[-66.125909,18.466661]},"properties":{"n":"Bahia De San Juan Lighted Buoy 7","s":1,"c":"g","k":"buoy"}},{"type":"Feature","geometry":{"type":"Point","coordinates":[-66.123984,18.463957]},"properties":{"n":"Bahia De San Juan Lighted Buoy 9","s":1,"c":"g","k":"buoy"}},{"type":"Feature","geometry":{"type":"Point","coordinates":[-66.129384,18.469415]},"properties":{"n":"Bahia de San Juan Lighted Buoy 4","s":2,"c":"r","k":"buoy"}},{"type":"Feature","geometry":{"type":"Point","coordinates":[-66.117123,18.45836]},"properties":{"n":"Bahia de San Juan Lighted Buoy 11","s":1,"c":"g","k":"buoy"}},{"type":"Feature","geometry":{"type":"Point","coordinates":[-66.127129,18.469545]},"properties":{"n":"Bahia De San Juan Lighted Buoy 5","s":1,"c":"g","k":"buoy"}},{"type":"Feature","geometry":{"type":"Point","coordinates":[-66.129151,18.467279]},"properties":{"n":"Bahia De San Juan Lighted Buoy 6","s":2,"c":"r","k":"buoy"}},{"type":"Feature","geometry":{"type":"Point","coordinates":[-66.110005,18.453212]},"properties":{"n":"Bahia de San Juan Lighted Buoy 13","s":1,"c":"g","k":"buoy"}},{"type":"Feature","geometry":{"type":"Point","coordinates":[-66.161584,17.930044]},"properties":{"n":"Las Mareas Light 3","s":1,"c":"g","k":"beacon"}},{"type":"Feature","geometry":{"type":"Point","coordinates":[-66.158831,17.932076]},"properties":{"n":"Las Mareas Light 6","s":2,"c":"r","k":"beacon"}},{"type":"Feature","geometry":{"type":"Point","coordinates":[-66.16028,17.931926]},"properties":{"n":"Las Mareas Articulated Light 5","s":1,"c":"g","k":"beacon"}},{"type":"Feature","geometry":{"type":"Point","coordinates":[-66.159795,17.928506]},"properties":{"n":"Las Mareas Light 4","s":2,"c":"r","k":"beacon"}},{"type":"Feature","geometry":{"type":"Point","coordinates":[-66.157787,17.935164]},"properties":{"n":"Las Mareas Pier Light","s":2,"c":"r","k":"beacon"}},{"type":"Feature","geometry":{"type":"Point","coordinates":[-66.238501,17.924968]},"properties":{"n":"Cayo Puerca Buoy 5","s":1,"c":"g","k":"buoy"}},{"type":"Feature","geometry":{"type":"Point","coordinates":[-66.164664,17.924804]},"properties":{"n":"Las Mareas Lighted Buoy 1","s":1,"c":"g","k":"buoy"}},{"type":"Feature","geometry":{"type":"Point","coordinates":[-66.161841,17.923519]},"properties":{"n":"Las Mareas Lighted Buoy 2","s":2,"c":"r","k":"buoy"}},{"type":"Feature","geometry":{"type":"Point","coordinates":[-66.225361,17.945556]},"properties":{"n":"Aguirre Power Plant Lighted Buoy 3","s":1,"c":"g","k":"buoy"}},{"type":"Feature","geometry":{"type":"Point","coordinates":[-66.263889,17.931667]},"properties":{"n":"Bahia de Jobos Buoy 3","s":1,"c":"g","k":"buoy"}},{"type":"Feature","geometry":{"type":"Point","coordinates":[-66.27229,17.931275]},"properties":{"n":"Bahia de Jobos Buoy 2","s":2,"c":"r","k":"buoy"}},{"type":"Feature","geometry":{"type":"Point","coordinates":[-66.226722,17.946333]},"properties":{"n":"Aguirre Power Plant Lighted Buoy 5","s":1,"c":"g","k":"buoy"}},{"type":"Feature","geometry":{"type":"Point","coordinates":[-66.224431,17.946706]},"properties":{"n":"Aguirre Power Plant Lighted Buoy 4","s":2,"c":"r","k":"buoy"}},{"type":"Feature","geometry":{"type":"Point","coordinates":[-66.224952,17.949892]},"properties":{"n":"Aguirre Power Plant Lighted Buoy 8","s":2,"c":"r","k":"buoy"}},{"type":"Feature","geometry":{"type":"Point","coordinates":[-66.224344,17.948437]},"properties":{"n":"Aguirre Power Plant Lighted Buoy 6","s":2,"c":"r","k":"buoy"}},{"type":"Feature","geometry":{"type":"Point","coordinates":[-66.224639,17.942537]},"properties":{"n":"Aguirre Power Plant Lighted Buoy 1","s":1,"c":"g","k":"buoy"}},{"type":"Feature","geometry":{"type":"Point","coordinates":[-66.224197,17.943636]},"properties":{"n":"Aguirre Power Plant Lighted Buoy 2","s":2,"c":"r","k":"buoy"}},{"type":"Feature","geometry":{"type":"Point","coordinates":[-66.704974,18.479926]},"properties":{"n":"Puerto Arecibo Buoy 1","s":1,"c":"g","k":"buoy"}},{"type":"Feature","geometry":{"type":"Point","coordinates":[-66.704307,18.478036]},"properties":{"n":"Puerto Arecibo Buoy 4","s":2,"c":"r","k":"buoy"}},{"type":"Feature","geometry":{"type":"Point","coordinates":[-66.702564,18.478949]},"properties":{"n":"Puerto Arecibo Buoy 6","s":2,"c":"r","k":"buoy"}},{"type":"Feature","geometry":{"type":"Point","coordinates":[-66.706407,18.47851]},"properties":{"n":"Puerto Arecibo Buoy 2","s":2,"c":"r","k":"buoy"}},{"type":"Feature","geometry":{"type":"Point","coordinates":[-66.52916,17.88598]},"properties":{"n":"Barcaza Pier Light","s":2,"c":"r","k":"beacon"}},{"type":"Feature","geometry":{"type":"Point","coordinates":[-66.762976,17.981005]},"properties":{"n":"Punta Gotay North Mooring Dolphin Light","s":2,"c":"r","k":"beacon"}},{"type":"Feature","geometry":{"type":"Point","coordinates":[-66.764046,17.999377]},"properties":{"n":"Texaco Loading Dock Light","s":2,"c":"r","k":"beacon"}},{"type":"Feature","geometry":{"type":"Point","coordinates":[-66.765472,17.996791]},"properties":{"n":"Commonwealth Oil Refining Company North Loading Dock Lights","s":2,"c":"r","k":"beacon"}},{"type":"Feature","geometry":{"type":"Point","coordinates":[-66.762895,17.999496]},"properties":{"n":"Texaco East Mooring Dolphin Four Light","s":2,"c":"r","k":"beacon"}},{"type":"Feature","geometry":{"type":"Point","coordinates":[-66.765888,17.993585]},"properties":{"n":"Commonwealth Oil Refining Company South Loading Dock Light","s":2,"c":"r","k":"beacon"}},{"type":"Feature","geometry":{"type":"Point","coordinates":[-66.765224,17.999254]},"properties":{"n":"Texaco West Mooring Dolphin One Light","s":2,"c":"r","k":"beacon"}},{"type":"Feature","geometry":{"type":"Point","coordinates":[-66.762823,17.980194]},"properties":{"n":"Punta Gotay South Mooring Dolphin Light","s":2,"c":"r","k":"beacon"}},{"type":"Feature","geometry":{"type":"Point","coordinates":[-66.731278,17.986158]},"properties":{"n":"Bah\u00eda de Tallaboa Pier Light","s":2,"c":"r","k":"beacon"}},{"type":"Feature","geometry":{"type":"Point","coordinates":[-66.736537,17.980648]},"properties":{"n":"Bah\u00eda de Tallaboa LIGHT 7A","s":1,"c":"g","k":"beacon"}},{"type":"Feature","geometry":{"type":"Point","coordinates":[-66.767223,18.003313]},"properties":{"n":"PPG Industries Pier Light","s":2,"c":"r","k":"beacon"}},{"type":"Feature","geometry":{"type":"Point","coordinates":[-66.904163,17.920542]},"properties":{"n":"Bahia de Guanica Entrance Lighted Buoy 2","s":2,"c":"r","k":"buoy"}},{"type":"Feature","geometry":{"type":"Point","coordinates":[-66.907456,17.942862]},"properties":{"n":"Bahia de Guanica Buoy 5","s":1,"c":"g","k":"buoy"}},{"type":"Feature","geometry":{"type":"Point","coordinates":[-66.907953,17.959133]},"properties":{"n":"Bahia de Guanica Buoy 8","s":2,"c":"r","k":"buoy"}},{"type":"Feature","geometry":{"type":"Point","coordinates":[-66.908552,17.936742]},"properties":{"n":"Bahia de Guanica Buoy 3","s":1,"c":"g","k":"buoy"}},{"type":"Feature","geometry":{"type":"Point","coordinates":[-66.906981,17.936915]},"properties":{"n":"Bahia de Guanico Lighted Buoy 4","s":2,"c":"r","k":"buoy"}},{"type":"Feature","geometry":{"type":"Point","coordinates":[-66.909067,17.9578]},"properties":{"n":"Bahia de Guanica Buoy 7","s":1,"c":"g","k":"buoy"}},{"type":"Feature","geometry":{"type":"Point","coordinates":[-66.907676,17.956134]},"properties":{"n":"Bahia de Guanica Buoy 6","s":2,"c":"r","k":"buoy"}},{"type":"Feature","geometry":{"type":"Point","coordinates":[-66.910595,17.959261]},"properties":{"n":"Bahia de Guanica Buoy 9","s":1,"c":"g","k":"buoy"}},{"type":"Feature","geometry":{"type":"Point","coordinates":[-66.911126,17.960228]},"properties":{"n":"Bahia de Guanica Buoy 10","s":2,"c":"r","k":"buoy"}},{"type":"Feature","geometry":{"type":"Point","coordinates":[-66.769091,17.998414]},"properties":{"n":"PPG Industries Lighted Buoy 1","s":1,"c":"g","k":"buoy"}},{"type":"Feature","geometry":{"type":"Point","coordinates":[-66.779862,17.991636]},"properties":{"n":"Bah\u00eda de Guayanilla Buoy 9","s":1,"c":"g","k":"buoy"}},{"type":"Feature","geometry":{"type":"Point","coordinates":[-66.770999,17.980952]},"properties":{"n":"Bah\u00eda de Guayanilla Lighted Buoy 5","s":1,"c":"g","k":"buoy"}},{"type":"Feature","geometry":{"type":"Point","coordinates":[-66.765452,17.962995]},"properties":{"n":"Bah\u00eda de Guayanilla Lighted Buoy 1","s":1,"c":"g","k":"buoy"}},{"type":"Feature","geometry":{"type":"Point","coordinates":[-66.766259,17.991983]},"properties":{"n":"Bah\u00eda de Guayanilla Lighted Buoy 8","s":2,"c":"r","k":"buoy"}},{"type":"Feature","geometry":{"type":"Point","coordinates":[-66.767233,17.986711]},"properties":{"n":"Bah\u00eda de Guayanilla Lighted Buoy 6","s":2,"c":"r","k":"buoy"}},{"type":"Feature","geometry":{"type":"Point","coordinates":[-66.774683,17.986244]},"properties":{"n":"Bah\u00eda de Guayanilla Buoy 7","s":1,"c":"g","k":"buoy"}},{"type":"Feature","geometry":{"type":"Point","coordinates":[-66.762122,17.966116]},"properties":{"n":"Bah\u00eda de Guayanilla Lighted Buoy 2","s":2,"c":"r","k":"buoy"}},{"type":"Feature","geometry":{"type":"Point","coordinates":[-66.764869,17.967416]},"properties":{"n":"Bah\u00eda de Guayanilla Lighted Buoy 3","s":1,"c":"g","k":"buoy"}},{"type":"Feature","geometry":{"type":"Point","coordinates":[-66.736269,17.976195]},"properties":{"n":"Bah\u00eda de Tallaboa Lighted Buoy 6","s":2,"c":"r","k":"buoy"}},{"type":"Feature","geometry":{"type":"Point","coordinates":[-66.72792,17.978766]},"properties":{"n":"Bah\u00eda de Tallaboa Buoy 8","s":2,"c":"r","k":"buoy"}},{"type":"Feature","geometry":{"type":"Point","coordinates":[-66.736745,17.965548]},"properties":{"n":"Bah\u00eda de Tallaboa Lighted Buoy 4","s":2,"c":"r","k":"buoy"}},{"type":"Feature","geometry":{"type":"Point","coordinates":[-66.729819,17.983796]},"properties":{"n":"Bah\u00eda de Tallaboa Lighted Buoy 10","s":2,"c":"r","k":"buoy"}},{"type":"Feature","geometry":{"type":"Point","coordinates":[-66.738294,17.969996]},"properties":{"n":"Bah\u00eda de Tallaboa Lighted Buoy 5","s":1,"c":"g","k":"buoy"}},{"type":"Feature","geometry":{"type":"Point","coordinates":[-66.738308,17.961847]},"properties":{"n":"Bah\u00eda de Tallaboa Lighted Buoy 1","s":1,"c":"g","k":"buoy"}},{"type":"Feature","geometry":{"type":"Point","coordinates":[-66.735791,17.961414]},"properties":{"n":"Bah\u00eda de Tallaboa Buoy 2","s":2,"c":"r","k":"buoy"}},{"type":"Feature","geometry":{"type":"Point","coordinates":[-66.729983,17.989129]},"properties":{"n":"Bah\u00eda de Tallaboa Buoy 12","s":2,"c":"r","k":"buoy"}},{"type":"Feature","geometry":{"type":"Point","coordinates":[-66.628668,17.944536]},"properties":{"n":"Bah\u00eda de Ponce Lighted Buoy 4","s":2,"c":"r","k":"buoy"}},{"type":"Feature","geometry":{"type":"Point","coordinates":[-66.629265,17.952501]},"properties":{"n":"Bah\u00eda de Ponce Lighted Buoy 5","s":1,"c":"g","k":"buoy"}},{"type":"Feature","geometry":{"type":"Point","coordinates":[-66.631906,17.931322]},"properties":{"n":"Bah\u00eda de Ponce Lighted Buoy 2","s":2,"c":"r","k":"buoy"}},{"type":"Feature","geometry":{"type":"Point","coordinates":[-66.622257,17.963205]},"properties":{"n":"Bah\u00eda de Ponce Lighted Buoy 6","s":2,"c":"r","k":"buoy"}},{"type":"Feature","geometry":{"type":"Point","coordinates":[-66.636751,17.933237]},"properties":{"n":"Bah\u00eda de Ponce Lighted Buoy 1","s":1,"c":"g","k":"buoy"}},{"type":"Feature","geometry":{"type":"Point","coordinates":[-66.627099,17.971284]},"properties":{"n":"Bah\u00eda de Ponce Lighted Buoy 7","s":1,"c":"g","k":"buoy"}},{"type":"Feature","geometry":{"type":"Point","coordinates":[-66.76686,18.001856]},"properties":{"n":"PPG Industries Lighted Buoy 4","s":2,"c":"r","k":"buoy"}},{"type":"Feature","geometry":{"type":"Point","coordinates":[-66.767519,18.00028]},"properties":{"n":"PPG Industries Lighted Buoy 2","s":2,"c":"r","k":"buoy"}},{"type":"Feature","geometry":{"type":"Point","coordinates":[-66.767953,18.003021]},"properties":{"n":"PPG Industries Lighted Buoy 3","s":1,"c":"g","k":"buoy"}},{"type":"Feature","geometry":{"type":"Point","coordinates":[-67.176505,18.220459]},"properties":{"n":"Bahia de Mayaguez Lighted Buoy 5","s":1,"c":"g","k":"buoy"}},{"type":"Feature","geometry":{"type":"Point","coordinates":[-67.197171,18.223216]},"properties":{"n":"Bah\u00eda de Mayaguez Entrance Lighted Buoy 3","s":1,"c":"g","k":"buoy"}},{"type":"Feature","geometry":{"type":"Point","coordinates":[-67.197437,18.217034]},"properties":{"n":"Bah\u00eda de Mayaguez Entrance Lighted Buoy 4","s":2,"c":"r","k":"buoy"}},{"type":"Feature","geometry":{"type":"Point","coordinates":[-67.161333,18.215639]},"properties":{"n":"Bahia de Mayaguez Buoy 8","s":2,"c":"r","k":"buoy"}},{"type":"Feature","geometry":{"type":"Point","coordinates":[-67.159646,18.216686]},"properties":{"n":"Bahia de Mayaguez Buoy 10","s":2,"c":"r","k":"buoy"}},{"type":"Feature","geometry":{"type":"Point","coordinates":[-67.163722,18.216056]},"properties":{"n":"Bahia de Mayaguez Lighted Buoy 6","s":2,"c":"r","k":"buoy"}},{"type":"Feature","geometry":{"type":"Point","coordinates":[-67.211831,18.241264]},"properties":{"n":"Manchas Exteriores Buoy 1","s":1,"c":"g","k":"buoy"}},{"type":"Feature","geometry":{"type":"Point","coordinates":[-67.208233,18.012439]},"properties":{"n":"Bajo Enmedio South Lighted Buoy 1","s":1,"c":"g","k":"buoy"}}]}