{"type":"FeatureCollection","features":[{"type":"Feature","properties":{},"geometry":{"type":"LineString","coordinates":[[-66.129,18.4684],[-66.1267,18.4673]]}},{"type":"Feature","properties":{},"geometry":{"type":"LineString","coordinates":[[-66.129,18.4684],[-66.1284,18.4666]]}},{"type":"Feature","properties":{},"geometry":{"type":"LineString","coordinates":[[-66.129,18.4684],[-66.1284,18.4685]]}},{"type":"Feature","properties":{},"geometry":{"type":"LineString","coordinates":[[-66.129,18.4684],[-66.1278,18.4686]]}},{"type":"Feature","properties":{},"geometry":{"type":"LineString","coordinates":[[-66.129,18.4684],[-66.1279,18.4723]]}},{"type":"Feature","properties":{},"geometry":{"type":"LineString","coordinates":[[-66.129,18.4684],[-66.1285,18.4723]]}},{"type":"Feature","properties":{},"geometry":{"type":"LineString","coordinates":[[-66.129,18.4684],[-66.129,18.4724]]}},{"type":"Feature","properties":{},"geometry":{"type":"LineString","coordinates":[[-66.129,18.4684],[-66.1278,18.4669]]}},{"type":"Feature","properties":{},"geometry":{"type":"LineString","coordinates":[[-66.129,18.4684],[-66.1265,18.4657]]}},{"type":"Feature","properties":{},"geometry":{"type":"LineString","coordinates":[[-66.129,18.4684],[-66.1273,18.4671]]}},{"type":"Feature","properties":{},"geometry":{"type":"LineString","coordinates":[[-66.129,18.4684],[-66.1272,18.4687]]}},{"type":"Feature","properties":{},"geometry":{"type":"LineString","coordinates":[[-66.6239,17.9653],[-66.6262,17.9574]]}},{"type":"Feature","properties":{},"geometry":{"type":"LineString","coordinates":[[-66.6239,17.9653],[-66.622,17.9714]]}},{"type":"Feature","properties":{},"geometry":{"type":"LineString","coordinates":[[-66.6239,17.9653],[-66.6236,17.9646]]}},{"type":"Feature","properties":{},"geometry":{"type":"LineString","coordinates":[[-66.6239,17.9653],[-66.6259,17.9569]]}},{"type":"Feature","properties":{},"geometry":{"type":"LineString","coordinates":[[-66.6239,17.9653],[-66.6242,17.966]]}},{"type":"Feature","properties":{},"geometry":{"type":"LineString","coordinates":[[-66.6239,17.9653],[-66.6265,17.958]]}},{"type":"Feature","properties":{},"geometry":{"type":"LineString","coordinates":[[-66.6239,17.9653],[-66.6268,17.9585]]}},{"type":"Feature","properties":{},"geometry":{"type":"LineString","coordinates":[[-66.6239,17.9653],[-66.6245,17.9667]]}},{"type":"Feature","properties":{},"geometry":{"type":"LineString","coordinates":[[-66.6239,17.9653],[-66.6214,17.9701]]}},{"type":"Feature","properties":{},"geometry":{"type":"LineString","coordinates":[[-66.6239,17.9653],[-66.6217,17.9707]]}},{"type":"Feature","properties":{},"geometry":{"type":"LineString","coordinates":[[-66.6239,17.9653],[-66.6212,17.9694]]}},{"type":"Feature","properties":{},"geometry":{"type":"LineString","coordinates":[[-66.6262,17.9574],[-66.6285,17.9495]]}},{"type":"Feature","properties":{},"geometry":{"type":"LineString","coordinates":[[-66.6262,17.9574],[-66.6236,17.9646]]}},{"type":"Feature","properties":{},"geometry":{"type":"LineString","coordinates":[[-66.6262,17.9574],[-66.6259,17.9569]]}},{"type":"Feature","properties":{},"geometry":{"type":"LineString","coordinates":[[-66.6262,17.9574],[-66.6281,17.9491]]}},{"type":"Feature","properties":{},"geometry":{"type":"LineString","coordinates":[[-66.6262,17.9574],[-66.6242,17.966]]}},{"type":"Feature","properties":{},"geometry":{"type":"LineString","coordinates":[[-66.6262,17.9574],[-66.6265,17.958]]}},{"type":"Feature","properties":{},"geometry":{"type":"LineString","coordinates":[[-66.6262,17.9574],[-66.6288,17.9499]]}},{"type":"Feature","properties":{},"geometry":{"type":"LineString","coordinates":[[-66.6262,17.9574],[-66.6291,17.9503]]}},{"type":"Feature","properties":{},"geometry":{"type":"LineString","coordinates":[[-66.6262,17.9574],[-66.6268,17.9585]]}},{"type":"Feature","properties":{},"geometry":{"type":"LineString","coordinates":[[-66.6285,17.9495],[-66.6308,17.9416]]}},{"type":"Feature","properties":{},"geometry":{"type":"LineString","coordinates":[[-66.6285,17.9495],[-66.6259,17.9569]]}},{"type":"Feature","properties":{},"geometry":{"type":"LineString","coordinates":[[-66.6285,17.9495],[-66.6281,17.9491]]}},{"type":"Feature","properties":{},"geometry":{"type":"LineString","coordinates":[[-66.6285,17.9495],[-66.6304,17.9413]]}},{"type":"Feature","properties":{},"geometry":{"type":"LineString","coordinates":[[-66.6285,17.9495],[-66.6265,17.958]]}},{"type":"Feature","properties":{},"geometry":{"type":"LineString","coordinates":[[-66.6285,17.9495],[-66.6288,17.9499]]}},{"type":"Feature","properties":{},"geometry":{"type":"LineString","coordinates":[[-66.6285,17.9495],[-66.6311,17.9419]]}},{"type":"Feature","properties":{},"geometry":{"type":"LineString","coordinates":[[-66.6285,17.9495],[-66.6314,17.9422]]}},{"type":"Feature","properties":{},"geometry":{"type":"LineString","coordinates":[[-66.6285,17.9495],[-66.6291,17.9503]]}},{"type":"Feature","properties":{},"geometry":{"type":"LineString","coordinates":[[-66.6285,17.9495],[-66.6268,17.9585]]}},{"type":"Feature","properties":{},"geometry":{"type":"LineString","coordinates":[[-66.6308,17.9416],[-66.633,17.9337]]}},{"type":"Feature","properties":{},"geometry":{"type":"LineString","coordinates":[[-66.6308,17.9416],[-66.6281,17.9491]]}},{"type":"Feature","properties":{},"geometry":{"type":"LineString","coordinates":[[-66.6308,17.9416],[-66.6304,17.9413]]}},{"type":"Feature","properties":{},"geometry":{"type":"LineString","coordinates":[[-66.6308,17.9416],[-66.6327,17.9335]]}},{"type":"Feature","properties":{},"geometry":{"type":"LineString","coordinates":[[-66.6308,17.9416],[-66.6288,17.9499]]}},{"type":"Feature","properties":{},"geometry":{"type":"LineString","coordinates":[[-66.6308,17.9416],[-66.6311,17.9419]]}},{"type":"Feature","properties":{},"geometry":{"type":"LineString","coordinates":[[-66.6308,17.9416],[-66.6334,17.9338]]}},{"type":"Feature","properties":{},"geometry":{"type":"LineString","coordinates":[[-66.6308,17.9416],[-66.6337,17.934]]}},{"type":"Feature","properties":{},"geometry":{"type":"LineString","coordinates":[[-66.6308,17.9416],[-66.6314,17.9422]]}},{"type":"Feature","properties":{},"geometry":{"type":"LineString","coordinates":[[-66.6308,17.9416],[-66.6291,17.9503]]}},{"type":"Feature","properties":{},"geometry":{"type":"LineString","coordinates":[[-66.633,17.9337],[-66.6304,17.9413]]}},{"type":"Feature","properties":{},"geometry":{"type":"LineString","coordinates":[[-66.633,17.9337],[-66.6327,17.9335]]}},{"type":"Feature","properties":{},"geometry":{"type":"LineString","coordinates":[[-66.633,17.9337],[-66.6311,17.9419]]}},{"type":"Feature","properties":{},"geometry":{"type":"LineString","coordinates":[[-66.633,17.9337],[-66.6334,17.9338]]}},{"type":"Feature","properties":{},"geometry":{"type":"LineString","coordinates":[[-66.633,17.9337],[-66.6337,17.934]]}},{"type":"Feature","properties":{},"geometry":{"type":"LineString","coordinates":[[-66.633,17.9337],[-66.6314,17.9422]]}},{"type":"Feature","properties":{},"geometry":{"type":"LineString","coordinates":[[-67.1662,18.2177],[-67.1662,18.2182]]}},{"type":"Feature","properties":{},"geometry":{"type":"LineString","coordinates":[[-67.1662,18.2177],[-67.1661,18.2188]]}},{"type":"Feature","properties":{},"geometry":{"type":"LineString","coordinates":[[-67.1662,18.2177],[-67.1611,18.2171]]}},{"type":"Feature","properties":{},"geometry":{"type":"LineString","coordinates":[[-67.1662,18.2177],[-67.1608,18.218]]}},{"type":"Feature","properties":{},"geometry":{"type":"LineString","coordinates":[[-67.1662,18.2177],[-67.1663,18.2172]]}},{"type":"Feature","properties":{},"geometry":{"type":"LineString","coordinates":[[-67.1662,18.2177],[-67.161,18.2174]]}},{"type":"Feature","properties":{},"geometry":{"type":"LineString","coordinates":[[-67.1662,18.2177],[-67.1609,18.2177]]}},{"type":"Feature","properties":{},"geometry":{"type":"LineString","coordinates":[[-66.7055,18.4786],[-66.705,18.4793]]}},{"type":"Feature","properties":{},"geometry":{"type":"LineString","coordinates":[[-66.7055,18.4786],[-66.7028,18.479]]}},{"type":"Feature","properties":{},"geometry":{"type":"LineString","coordinates":[[-66.7055,18.4786],[-66.7025,18.4795]]}},{"type":"Feature","properties":{},"geometry":{"type":"LineString","coordinates":[[-66.7055,18.4786],[-66.7057,18.4782]]}},{"type":"Feature","properties":{},"geometry":{"type":"LineString","coordinates":[[-66.7055,18.4786],[-66.7037,18.4785]]}},{"type":"Feature","properties":{},"geometry":{"type":"LineString","coordinates":[[-66.7055,18.4786],[-66.7025,18.4799]]}},{"type":"Feature","properties":{},"geometry":{"type":"LineString","coordinates":[[-66.7055,18.4786],[-66.7052,18.479]]}},{"type":"Feature","properties":{},"geometry":{"type":"LineString","coordinates":[[-66.1117,18.4523],[-66.1168,18.4568]]}},{"type":"Feature","properties":{},"geometry":{"type":"LineString","coordinates":[[-66.1117,18.4523],[-66.1095,18.458]]}},{"type":"Feature","properties":{},"geometry":{"type":"LineString","coordinates":[[-66.1117,18.4523],[-66.108,18.4497]]}},{"type":"Feature","properties":{},"geometry":{"type":"LineString","coordinates":[[-66.1117,18.4523],[-66.1099,18.4559]]}},{"type":"Feature","properties":{},"geometry":{"type":"LineString","coordinates":[[-66.1117,18.4523],[-66.1078,18.4492]]}},{"type":"Feature","properties":{},"geometry":{"type":"LineString","coordinates":[[-66.1117,18.4523],[-66.1081,18.4502]]}},{"type":"Feature","properties":{},"geometry":{"type":"LineString","coordinates":[[-66.1117,18.4523],[-66.1121,18.4518]]}},{"type":"Feature","properties":{},"geometry":{"type":"LineString","coordinates":[[-66.1117,18.4523],[-66.1101,18.4587]]}},{"type":"Feature","properties":{},"geometry":{"type":"LineString","coordinates":[[-66.1117,18.4523],[-66.1128,18.4516]]}},{"type":"Feature","properties":{},"geometry":{"type":"LineString","coordinates":[[-66.1117,18.4523],[-66.1151,18.4513]]}},{"type":"Feature","properties":{},"geometry":{"type":"LineString","coordinates":[[-66.1117,18.4523],[-66.1115,18.4529]]}},{"type":"Feature","properties":{},"geometry":{"type":"LineString","coordinates":[[-66.1117,18.4523],[-66.1098,18.4583]]}},{"type":"Feature","properties":{},"geometry":{"type":"LineString","coordinates":[[-66.1168,18.4568],[-66.122,18.4612]]}},{"type":"Feature","properties":{},"geometry":{"type":"LineString","coordinates":[[-66.1168,18.4568],[-66.1137,18.4587]]}},{"type":"Feature","properties":{},"geometry":{"type":"LineString","coordinates":[[-66.1168,18.4568],[-66.1173,18.4563]]}},{"type":"Feature","properties":{},"geometry":{"type":"LineString","coordinates":[[-66.1168,18.4568],[-66.1128,18.4516]]}},{"type":"Feature","properties":{},"geometry":{"type":"LineString","coordinates":[[-66.1168,18.4568],[-66.1178,18.4561]]}},{"type":"Feature","properties":{},"geometry":{"type":"LineString","coordinates":[[-66.1168,18.4568],[-66.1201,18.4556]]}},{"type":"Feature","properties":{},"geometry":{"type":"LineString","coordinates":[[-66.1168,18.4568],[-66.1151,18.4513]]}},{"type":"Feature","properties":{},"geometry":{"type":"LineString","coordinates":[[-66.1168,18.4568],[-66.1115,18.4529]]}},{"type":"Feature","properties":{},"geometry":{"type":"LineString","coordinates":[[-66.1168,18.4568],[-66.1166,18.4573]]}},{"type":"Feature","properties":{},"geometry":{"type":"LineString","coordinates":[[-66.122,18.4612],[-66.1253,18.4643]]}},{"type":"Feature","properties":{},"geometry":{"type":"LineString","coordinates":[[-66.122,18.4612],[-66.1262,18.4634]]}},{"type":"Feature","properties":{},"geometry":{"type":"LineString","coordinates":[[-66.122,18.4612],[-66.1249,18.4647]]}},{"type":"Feature","properties":{},"geometry":{"type":"LineString","coordinates":[[-66.122,18.4612],[-66.1258,18.4638]]}},{"type":"Feature","properties":{},"geometry":{"type":"LineString","coordinates":[[-66.122,18.4612],[-66.1225,18.4607]]}},{"type":"Feature","properties":{},"geometry":{"type":"LineString","coordinates":[[-66.122,18.4612],[-66.1178,18.4561]]}},{"type":"Feature","properties":{},"geometry":{"type":"LineString","coordinates":[[-66.122,18.4612],[-66.1227,18.4605]]}},{"type":"Feature","properties":{},"geometry":{"type":"LineString","coordinates":[[-66.122,18.4612],[-66.1201,18.4556]]}},{"type":"Feature","properties":{},"geometry":{"type":"LineString","coordinates":[[-66.122,18.4612],[-66.1216,18.4616]]}},{"type":"Feature","properties":{},"geometry":{"type":"LineString","coordinates":[[-66.1082,18.4449],[-66.107,18.4365]]}},{"type":"Feature","properties":{},"geometry":{"type":"LineString","coordinates":[[-66.1082,18.4449],[-66.1075,18.4486]]}},{"type":"Feature","properties":{},"geometry":{"type":"LineString","coordinates":[[-66.1082,18.4449],[-66.108,18.4497]]}},{"type":"Feature","properties":{},"geometry":{"type":"LineString","coordinates":[[-66.1082,18.4449],[-66.1078,18.4492]]}},{"type":"Feature","properties":{},"geometry":{"type":"LineString","coordinates":[[-66.1082,18.4449],[-66.11,18.4452]]}},{"type":"Feature","properties":{},"geometry":{"type":"LineString","coordinates":[[-66.1082,18.4449],[-66.1081,18.4502]]}},{"type":"Feature","properties":{},"geometry":{"type":"LineString","coordinates":[[-66.1082,18.4449],[-66.1026,18.4477]]}},{"type":"Feature","properties":{},"geometry":{"type":"LineString","coordinates":[[-66.1082,18.4449],[-66.1088,18.4458]]}},{"type":"Feature","properties":{},"geometry":{"type":"LineString","coordinates":[[-66.1082,18.4449],[-66.1094,18.4455]]}},{"type":"Feature","properties":{},"geometry":{"type":"LineString","coordinates":[[-66.107,18.4365],[-66.1008,18.4336]]}},{"type":"Feature","properties":{},"geometry":{"type":"LineString","coordinates":[[-66.107,18.4365],[-66.1094,18.4306]]}},{"type":"Feature","properties":{},"geometry":{"type":"LineString","coordinates":[[-66.107,18.4365],[-66.1094,18.4365]]}},{"type":"Feature","properties":{},"geometry":{"type":"LineString","coordinates":[[-66.107,18.4365],[-66.1003,18.4335]]}},{"type":"Feature","properties":{},"geometry":{"type":"LineString","coordinates":[[-66.107,18.4365],[-66.0999,18.4333]]}},{"type":"Feature","properties":{},"geometry":{"type":"LineString","coordinates":[[-66.107,18.4365],[-66.1078,18.4309]]}},{"type":"Feature","properties":{},"geometry":{"type":"LineString","coordinates":[[-66.107,18.4365],[-66.1049,18.4312]]}},{"type":"Feature","properties":{},"geometry":{"type":"LineString","coordinates":[[-66.107,18.4365],[-66.1077,18.4368]]}},{"type":"Feature","properties":{},"geometry":{"type":"LineString","coordinates":[[-66.107,18.4365],[-66.1085,18.4366]]}},{"type":"Feature","properties":{},"geometry":{"type":"LineString","coordinates":[[-66.107,18.4365],[-66.1095,18.4353]]}},{"type":"Feature","properties":{},"geometry":{"type":"LineString","coordinates":[[-66.107,18.4365],[-66.1063,18.4306]]}},{"type":"Feature","properties":{},"geometry":{"type":"LineString","coordinates":[[-66.1095,18.458],[-66.1032,18.4602]]}},{"type":"Feature","properties":{},"geometry":{"type":"LineString","coordinates":[[-66.1095,18.458],[-66.1099,18.4559]]}},{"type":"Feature","properties":{},"geometry":{"type":"LineString","coordinates":[[-66.1095,18.458],[-66.1137,18.4587]]}},{"type":"Feature","properties":{},"geometry":{"type":"LineString","coordinates":[[-66.1095,18.458],[-66.1101,18.4587]]}},{"type":"Feature","properties":{},"geometry":{"type":"LineString","coordinates":[[-66.1095,18.458],[-66.1035,18.4607]]}},{"type":"Feature","properties":{},"geometry":{"type":"LineString","coordinates":[[-66.1095,18.458],[-66.1115,18.4529]]}},{"type":"Feature","properties":{},"geometry":{"type":"LineString","coordinates":[[-66.1095,18.458],[-66.1098,18.4583]]}},{"type":"Feature","properties":{},"geometry":{"type":"LineString","coordinates":[[-66.1095,18.458],[-66.1103,18.4592]]}},{"type":"Feature","properties":{},"geometry":{"type":"LineString","coordinates":[[-66.1095,18.458],[-66.1036,18.4612]]}},{"type":"Feature","properties":{},"geometry":{"type":"LineString","coordinates":[[-66.1095,18.458],[-66.1038,18.4618]]}},{"type":"Feature","properties":{},"geometry":{"type":"LineString","coordinates":[[-66.0884,18.4426],[-66.0876,18.4426]]}},{"type":"Feature","properties":{},"geometry":{"type":"LineString","coordinates":[[-66.0884,18.4426],[-66.0926,18.4375]]}},{"type":"Feature","properties":{},"geometry":{"type":"LineString","coordinates":[[-66.0884,18.4426],[-66.0938,18.4453]]}},{"type":"Feature","properties":{},"geometry":{"type":"LineString","coordinates":[[-66.0884,18.4426],[-66.0939,18.4457]]}},{"type":"Feature","properties":{},"geometry":{"type":"LineString","coordinates":[[-66.0884,18.4426],[-66.0891,18.4463]]}},{"type":"Feature","properties":{},"geometry":{"type":"LineString","coordinates":[[-66.0884,18.4426],[-66.0907,18.4381]]}},{"type":"Feature","properties":{},"geometry":{"type":"LineString","coordinates":[[-66.0884,18.4426],[-66.0919,18.4377]]}},{"type":"Feature","properties":{},"geometry":{"type":"LineString","coordinates":[[-66.0884,18.4426],[-66.0868,18.4427]]}},{"type":"Feature","properties":{},"geometry":{"type":"LineString","coordinates":[[-66.0884,18.4426],[-66.0909,18.4377]]}},{"type":"Feature","properties":{},"geometry":{"type":"LineString","coordinates":[[-66.0884,18.4426],[-66.0913,18.4378]]}},{"type":"Feature","properties":{},"geometry":{"type":"LineString","coordinates":[[-66.0884,18.4426],[-66.0891,18.4425]]}},{"type":"Feature","properties":{},"geometry":{"type":"LineString","coordinates":[[-66.0884,18.4426],[-66.0938,18.4449]]}},{"type":"Feature","properties":{},"geometry":{"type":"LineString","coordinates":[[-66.0884,18.4426],[-66.0938,18.4445]]}},{"type":"Feature","properties":{},"geometry":{"type":"LineString","coordinates":[[-66.1075,18.4486],[-66.1025,18.4479]]}},{"type":"Feature","properties":{},"geometry":{"type":"LineString","coordinates":[[-66.1075,18.4486],[-66.108,18.4497]]}},{"type":"Feature","properties":{},"geometry":{"type":"LineString","coordinates":[[-66.1075,18.4486],[-66.1025,18.4481]]}},{"type":"Feature","properties":{},"geometry":{"type":"LineString","coordinates":[[-66.1075,18.4486],[-66.1059,18.4514]]}},{"type":"Feature","properties":{},"geometry":{"type":"LineString","coordinates":[[-66.1075,18.4486],[-66.1078,18.4492]]}},{"type":"Feature","properties":{},"geometry":{"type":"LineString","coordinates":[[-66.1075,18.4486],[-66.11,18.4452]]}},{"type":"Feature","properties":{},"geometry":{"type":"LineString","coordinates":[[-66.1075,18.4486],[-66.1081,18.4502]]}},{"type":"Feature","properties":{},"geometry":{"type":"LineString","coordinates":[[-66.1075,18.4486],[-66.1026,18.4477]]}},{"type":"Feature","properties":{},"geometry":{"type":"LineString","coordinates":[[-66.1075,18.4486],[-66.1088,18.4458]]}},{"type":"Feature","properties":{},"geometry":{"type":"LineString","coordinates":[[-66.1075,18.4486],[-66.1094,18.4455]]}},{"type":"Feature","properties":{},"geometry":{"type":"LineString","coordinates":[[-66.1075,18.4486],[-66.1025,18.4477]]}},{"type":"Feature","properties":{},"geometry":{"type":"LineString","coordinates":[[-67.1662,18.2182],[-67.1661,18.2188]]}},{"type":"Feature","properties":{},"geometry":{"type":"LineString","coordinates":[[-67.1662,18.2182],[-67.1611,18.2171]]}},{"type":"Feature","properties":{},"geometry":{"type":"LineString","coordinates":[[-67.1662,18.2182],[-67.1608,18.218]]}},{"type":"Feature","properties":{},"geometry":{"type":"LineString","coordinates":[[-67.1662,18.2182],[-67.1663,18.2172]]}},{"type":"Feature","properties":{},"geometry":{"type":"LineString","coordinates":[[-67.1662,18.2182],[-67.161,18.2174]]}},{"type":"Feature","properties":{},"geometry":{"type":"LineString","coordinates":[[-67.1662,18.2182],[-67.1609,18.2177]]}},{"type":"Feature","properties":{},"geometry":{"type":"LineString","coordinates":[[-66.1032,18.4602],[-66.0964,18.4598]]}},{"type":"Feature","properties":{},"geometry":{"type":"LineString","coordinates":[[-66.1032,18.4602],[-66.0963,18.4606]]}},{"type":"Feature","properties":{},"geometry":{"type":"LineString","coordinates":[[-66.1032,18.4602],[-66.0964,18.4594]]}},{"type":"Feature","properties":{},"geometry":{"type":"LineString","coordinates":[[-66.1032,18.4602],[-66.1035,18.4607]]}},{"type":"Feature","properties":{},"geometry":{"type":"LineString","coordinates":[[-66.1032,18.4602],[-66.0925,18.4608]]}},{"type":"Feature","properties":{},"geometry":{"type":"LineString","coordinates":[[-66.1032,18.4602],[-66.0963,18.4602]]}},{"type":"Feature","properties":{},"geometry":{"type":"LineString","coordinates":[[-66.1032,18.4602],[-66.1098,18.4583]]}},{"type":"Feature","properties":{},"geometry":{"type":"LineString","coordinates":[[-66.1032,18.4602],[-66.1036,18.4612]]}},{"type":"Feature","properties":{},"geometry":{"type":"LineString","coordinates":[[-66.1032,18.4602],[-66.1038,18.4618]]}},{"type":"Feature","properties":{},"geometry":{"type":"LineString","coordinates":[[-66.0876,18.4426],[-66.0938,18.4453]]}},{"type":"Feature","properties":{},"geometry":{"type":"LineString","coordinates":[[-66.0876,18.4426],[-66.0939,18.4457]]}},{"type":"Feature","properties":{},"geometry":{"type":"LineString","coordinates":[[-66.0876,18.4426],[-66.0891,18.4463]]}},{"type":"Feature","properties":{},"geometry":{"type":"LineString","coordinates":[[-66.0876,18.4426],[-66.0907,18.4381]]}},{"type":"Feature","properties":{},"geometry":{"type":"LineString","coordinates":[[-66.0876,18.4426],[-66.0919,18.4377]]}},{"type":"Feature","properties":{},"geometry":{"type":"LineString","coordinates":[[-66.0876,18.4426],[-66.0868,18.4427]]}},{"type":"Feature","properties":{},"geometry":{"type":"LineString","coordinates":[[-66.0876,18.4426],[-66.0909,18.4377]]}},{"type":"Feature","properties":{},"geometry":{"type":"LineString","coordinates":[[-66.0876,18.4426],[-66.0913,18.4378]]}},{"type":"Feature","properties":{},"geometry":{"type":"LineString","coordinates":[[-66.0876,18.4426],[-66.0891,18.4425]]}},{"type":"Feature","properties":{},"geometry":{"type":"LineString","coordinates":[[-66.0876,18.4426],[-66.0938,18.4449]]}},{"type":"Feature","properties":{},"geometry":{"type":"LineString","coordinates":[[-66.0876,18.4426],[-66.0938,18.4445]]}},{"type":"Feature","properties":{},"geometry":{"type":"LineString","coordinates":[[-66.1008,18.4336],[-66.0926,18.4375]]}},{"type":"Feature","properties":{},"geometry":{"type":"LineString","coordinates":[[-66.1008,18.4336],[-66.0989,18.433]]}},{"type":"Feature","properties":{},"geometry":{"type":"LineString","coordinates":[[-66.1008,18.4336],[-66.0959,18.4348]]}},{"type":"Feature","properties":{},"geometry":{"type":"LineString","coordinates":[[-66.1008,18.4336],[-66.0992,18.4332]]}},{"type":"Feature","properties":{},"geometry":{"type":"LineString","coordinates":[[-66.1008,18.4336],[-66.1003,18.4335]]}},{"type":"Feature","properties":{},"geometry":{"type":"LineString","coordinates":[[-66.1008,18.4336],[-66.0999,18.4333]]}},{"type":"Feature","properties":{},"geometry":{"type":"LineString","coordinates":[[-66.1008,18.4336],[-66.1049,18.4312]]}},{"type":"Feature","properties":{},"geometry":{"type":"LineString","coordinates":[[-66.1008,18.4336],[-66.1063,18.4306]]}},{"type":"Feature","properties":{},"geometry":{"type":"LineString","coordinates":[[-66.0926,18.4375],[-66.0989,18.433]]}},{"type":"Feature","properties":{},"geometry":{"type":"LineString","coordinates":[[-66.0926,18.4375],[-66.0959,18.4348]]}},{"type":"Feature","properties":{},"geometry":{"type":"LineString","coordinates":[[-66.0926,18.4375],[-66.0992,18.4332]]}},{"type":"Feature","properties":{},"geometry":{"type":"LineString","coordinates":[[-66.0926,18.4375],[-66.0907,18.4381]]}},{"type":"Feature","properties":{},"geometry":{"type":"LineString","coordinates":[[-66.0926,18.4375],[-66.0919,18.4377]]}},{"type":"Feature","properties":{},"geometry":{"type":"LineString","coordinates":[[-66.0926,18.4375],[-66.0909,18.4377]]}},{"type":"Feature","properties":{},"geometry":{"type":"LineString","coordinates":[[-66.0926,18.4375],[-66.0913,18.4378]]}},{"type":"Feature","properties":{},"geometry":{"type":"LineString","coordinates":[[-66.0926,18.4375],[-66.0891,18.4425]]}},{"type":"Feature","properties":{},"geometry":{"type":"LineString","coordinates":[[-66.0926,18.4375],[-66.0938,18.4445]]}},{"type":"Feature","properties":{},"geometry":{"type":"LineString","coordinates":[[-66.622,17.9714],[-66.6186,17.9727]]}},{"type":"Feature","properties":{},"geometry":{"type":"LineString","coordinates":[[-66.622,17.9714],[-66.6236,17.9646]]}},{"type":"Feature","properties":{},"geometry":{"type":"LineString","coordinates":[[-66.622,17.9714],[-66.6182,17.9716]]}},{"type":"Feature","properties":{},"geometry":{"type":"LineString","coordinates":[[-66.622,17.9714],[-66.6242,17.966]]}},{"type":"Feature","properties":{},"geometry":{"type":"LineString","coordinates":[[-66.622,17.9714],[-66.6245,17.9667]]}},{"type":"Feature","properties":{},"geometry":{"type":"LineString","coordinates":[[-66.622,17.9714],[-66.618,17.971]]}},{"type":"Feature","properties":{},"geometry":{"type":"LineString","coordinates":[[-66.622,17.9714],[-66.6214,17.9701]]}},{"type":"Feature","properties":{},"geometry":{"type":"LineString","coordinates":[[-66.622,17.9714],[-66.6217,17.9707]]}},{"type":"Feature","properties":{},"geometry":{"type":"LineString","coordinates":[[-66.622,17.9714],[-66.6184,17.9721]]}},{"type":"Feature","properties":{},"geometry":{"type":"LineString","coordinates":[[-66.622,17.9714],[-66.6212,17.9694]]}},{"type":"Feature","properties":{},"geometry":{"type":"LineString","coordinates":[[-66.1025,18.4479],[-66.0938,18.4453]]}},{"type":"Feature","properties":{},"geometry":{"type":"LineString","coordinates":[[-66.1025,18.4479],[-66.108,18.4497]]}},{"type":"Feature","properties":{},"geometry":{"type":"LineString","coordinates":[[-66.1025,18.4479],[-66.1025,18.4481]]}},{"type":"Feature","properties":{},"geometry":{"type":"LineString","coordinates":[[-66.1025,18.4479],[-66.1059,18.4514]]}},{"type":"Feature","properties":{},"geometry":{"type":"LineString","coordinates":[[-66.1025,18.4479],[-66.1078,18.4492]]}},{"type":"Feature","properties":{},"geometry":{"type":"LineString","coordinates":[[-66.1025,18.4479],[-66.1081,18.4502]]}},{"type":"Feature","properties":{},"geometry":{"type":"LineString","coordinates":[[-66.1025,18.4479],[-66.1026,18.4477]]}},{"type":"Feature","properties":{},"geometry":{"type":"LineString","coordinates":[[-66.1025,18.4479],[-66.1025,18.4477]]}},{"type":"Feature","properties":{},"geometry":{"type":"LineString","coordinates":[[-66.0938,18.4453],[-66.0939,18.4457]]}},{"type":"Feature","properties":{},"geometry":{"type":"LineString","coordinates":[[-66.0938,18.4453],[-66.0891,18.4463]]}},{"type":"Feature","properties":{},"geometry":{"type":"LineString","coordinates":[[-66.0938,18.4453],[-66.0868,18.4427]]}},{"type":"Feature","properties":{},"geometry":{"type":"LineString","coordinates":[[-66.0938,18.4453],[-66.0891,18.4425]]}},{"type":"Feature","properties":{},"geometry":{"type":"LineString","coordinates":[[-66.0938,18.4453],[-66.0938,18.4449]]}},{"type":"Feature","properties":{},"geometry":{"type":"LineString","coordinates":[[-66.0938,18.4453],[-66.0938,18.4445]]}},{"type":"Feature","properties":{},"geometry":{"type":"LineString","coordinates":[[-66.108,18.4497],[-66.1025,18.4481]]}},{"type":"Feature","properties":{},"geometry":{"type":"LineString","coordinates":[[-66.108,18.4497],[-66.1059,18.4514]]}},{"type":"Feature","properties":{},"geometry":{"type":"LineString","coordinates":[[-66.108,18.4497],[-66.1078,18.4492]]}},{"type":"Feature","properties":{},"geometry":{"type":"LineString","coordinates":[[-66.108,18.4497],[-66.11,18.4452]]}},{"type":"Feature","properties":{},"geometry":{"type":"LineString","coordinates":[[-66.108,18.4497],[-66.1081,18.4502]]}},{"type":"Feature","properties":{},"geometry":{"type":"LineString","coordinates":[[-66.108,18.4497],[-66.1121,18.4518]]}},{"type":"Feature","properties":{},"geometry":{"type":"LineString","coordinates":[[-66.108,18.4497],[-66.1026,18.4477]]}},{"type":"Feature","properties":{},"geometry":{"type":"LineString","coordinates":[[-66.108,18.4497],[-66.1128,18.4516]]}},{"type":"Feature","properties":{},"geometry":{"type":"LineString","coordinates":[[-66.108,18.4497],[-66.1088,18.4458]]}},{"type":"Feature","properties":{},"geometry":{"type":"LineString","coordinates":[[-66.108,18.4497],[-66.1094,18.4455]]}},{"type":"Feature","properties":{},"geometry":{"type":"LineString","coordinates":[[-66.108,18.4497],[-66.1025,18.4477]]}},{"type":"Feature","properties":{},"geometry":{"type":"LineString","coordinates":[[-66.108,18.4497],[-66.1115,18.4529]]}},{"type":"Feature","properties":{},"geometry":{"type":"LineString","coordinates":[[-66.705,18.4793],[-66.7028,18.479]]}},{"type":"Feature","properties":{},"geometry":{"type":"LineString","coordinates":[[-66.705,18.4793],[-66.7025,18.4795]]}},{"type":"Feature","properties":{},"geometry":{"type":"LineString","coordinates":[[-66.705,18.4793],[-66.7057,18.4782]]}},{"type":"Feature","properties":{},"geometry":{"type":"LineString","coordinates":[[-66.705,18.4793],[-66.7037,18.4785]]}},{"type":"Feature","properties":{},"geometry":{"type":"LineString","coordinates":[[-66.705,18.4793],[-66.7025,18.4799]]}},{"type":"Feature","properties":{},"geometry":{"type":"LineString","coordinates":[[-66.705,18.4793],[-66.7052,18.479]]}},{"type":"Feature","properties":{},"geometry":{"type":"LineString","coordinates":[[-66.1094,18.4306],[-66.1094,18.4365]]}},{"type":"Feature","properties":{},"geometry":{"type":"LineString","coordinates":[[-66.1094,18.4306],[-66.1078,18.4309]]}},{"type":"Feature","properties":{},"geometry":{"type":"LineString","coordinates":[[-66.1094,18.4306],[-66.1049,18.4312]]}},{"type":"Feature","properties":{},"geometry":{"type":"LineString","coordinates":[[-66.1094,18.4306],[-66.1077,18.4368]]}},{"type":"Feature","properties":{},"geometry":{"type":"LineString","coordinates":[[-66.1094,18.4306],[-66.1085,18.4366]]}},{"type":"Feature","properties":{},"geometry":{"type":"LineString","coordinates":[[-66.1094,18.4306],[-66.1095,18.4353]]}},{"type":"Feature","properties":{},"geometry":{"type":"LineString","coordinates":[[-66.1094,18.4306],[-66.1063,18.4306]]}},{"type":"Feature","properties":{},"geometry":{"type":"LineString","coordinates":[[-66.0989,18.433],[-66.0959,18.4348]]}},{"type":"Feature","properties":{},"geometry":{"type":"LineString","coordinates":[[-66.0989,18.433],[-66.0992,18.4332]]}},{"type":"Feature","properties":{},"geometry":{"type":"LineString","coordinates":[[-66.0989,18.433],[-66.1003,18.4335]]}},{"type":"Feature","properties":{},"geometry":{"type":"LineString","coordinates":[[-66.0989,18.433],[-66.0999,18.4333]]}},{"type":"Feature","properties":{},"geometry":{"type":"LineString","coordinates":[[-66.0989,18.433],[-66.1049,18.4312]]}},{"type":"Feature","properties":{},"geometry":{"type":"LineString","coordinates":[[-66.0989,18.433],[-66.1063,18.4306]]}},{"type":"Feature","properties":{},"geometry":{"type":"LineString","coordinates":[[-66.1284,18.4765],[-66.1272,18.4764]]}},{"type":"Feature","properties":{},"geometry":{"type":"LineString","coordinates":[[-66.1284,18.4765],[-66.1279,18.4723]]}},{"type":"Feature","properties":{},"geometry":{"type":"LineString","coordinates":[[-66.1284,18.4765],[-66.1285,18.4723]]}},{"type":"Feature","properties":{},"geometry":{"type":"LineString","coordinates":[[-66.1284,18.4765],[-66.129,18.4724]]}},{"type":"Feature","properties":{},"geometry":{"type":"LineString","coordinates":[[-66.1284,18.4765],[-66.129,18.4765]]}},{"type":"Feature","properties":{},"geometry":{"type":"LineString","coordinates":[[-66.1284,18.4765],[-66.1273,18.4723]]}},{"type":"Feature","properties":{},"geometry":{"type":"LineString","coordinates":[[-66.1284,18.4765],[-66.1272,18.4687]]}},{"type":"Feature","properties":{},"geometry":{"type":"LineString","coordinates":[[-66.1284,18.4765],[-66.1278,18.4764]]}},{"type":"Feature","properties":{},"geometry":{"type":"LineString","coordinates":[[-66.1267,18.4673],[-66.1253,18.4643]]}},{"type":"Feature","properties":{},"geometry":{"type":"LineString","coordinates":[[-66.1267,18.4673],[-66.1284,18.4666]]}},{"type":"Feature","properties":{},"geometry":{"type":"LineString","coordinates":[[-66.1267,18.4673],[-66.1249,18.4647]]}},{"type":"Feature","properties":{},"geometry":{"type":"LineString","coordinates":[[-66.1267,18.4673],[-66.1284,18.4685]]}},{"type":"Feature","properties":{},"geometry":{"type":"LineString","coordinates":[[-66.1267,18.4673],[-66.1278,18.4686]]}},{"type":"Feature","properties":{},"geometry":{"type":"LineString","coordinates":[[-66.1267,18.4673],[-66.126,18.4661]]}},{"type":"Feature","properties":{},"geometry":{"type":"LineString","coordinates":[[-66.1267,18.4673],[-66.127,18.4653]]}},{"type":"Feature","properties":{},"geometry":{"type":"LineString","coordinates":[[-66.1267,18.4673],[-66.1278,18.4669]]}},{"type":"Feature","properties":{},"geometry":{"type":"LineString","coordinates":[[-66.1267,18.4673],[-66.1265,18.4657]]}},{"type":"Feature","properties":{},"geometry":{"type":"LineString","coordinates":[[-66.1267,18.4673],[-66.1273,18.4671]]}},{"type":"Feature","properties":{},"geometry":{"type":"LineString","coordinates":[[-66.1267,18.4673],[-66.1272,18.4687]]}},{"type":"Feature","properties":{},"geometry":{"type":"LineString","coordinates":[[-66.1253,18.4643],[-66.1262,18.4634]]}},{"type":"Feature","properties":{},"geometry":{"type":"LineString","coordinates":[[-66.1253,18.4643],[-66.1249,18.4647]]}},{"type":"Feature","properties":{},"geometry":{"type":"LineString","coordinates":[[-66.1253,18.4643],[-66.126,18.4661]]}},{"type":"Feature","properties":{},"geometry":{"type":"LineString","coordinates":[[-66.1253,18.4643],[-66.1258,18.4638]]}},{"type":"Feature","properties":{},"geometry":{"type":"LineString","coordinates":[[-66.1253,18.4643],[-66.1275,18.4649]]}},{"type":"Feature","properties":{},"geometry":{"type":"LineString","coordinates":[[-66.1253,18.4643],[-66.1225,18.4607]]}},{"type":"Feature","properties":{},"geometry":{"type":"LineString","coordinates":[[-66.1253,18.4643],[-66.127,18.4653]]}},{"type":"Feature","properties":{},"geometry":{"type":"LineString","coordinates":[[-66.1253,18.4643],[-66.1265,18.4657]]}},{"type":"Feature","properties":{},"geometry":{"type":"LineString","coordinates":[[-66.1253,18.4643],[-66.1227,18.4605]]}},{"type":"Feature","properties":{},"geometry":{"type":"LineString","coordinates":[[-66.1253,18.4643],[-66.1216,18.4616]]}},{"type":"Feature","properties":{},"geometry":{"type":"LineString","coordinates":[[-66.6186,17.9727],[-66.6182,17.9716]]}},{"type":"Feature","properties":{},"geometry":{"type":"LineString","coordinates":[[-66.6186,17.9727],[-66.6245,17.9667]]}},{"type":"Feature","properties":{},"geometry":{"type":"LineString","coordinates":[[-66.6186,17.9727],[-66.618,17.971]]}},{"type":"Feature","properties":{},"geometry":{"type":"LineString","coordinates":[[-66.6186,17.9727],[-66.6214,17.9701]]}},{"type":"Feature","properties":{},"geometry":{"type":"LineString","coordinates":[[-66.6186,17.9727],[-66.6217,17.9707]]}},{"type":"Feature","properties":{},"geometry":{"type":"LineString","coordinates":[[-66.6186,17.9727],[-66.6184,17.9721]]}},{"type":"Feature","properties":{},"geometry":{"type":"LineString","coordinates":[[-66.6186,17.9727],[-66.6212,17.9694]]}},{"type":"Feature","properties":{},"geometry":{"type":"LineString","coordinates":[[-66.0964,18.4598],[-66.0963,18.4606]]}},{"type":"Feature","properties":{},"geometry":{"type":"LineString","coordinates":[[-66.0964,18.4598],[-66.0964,18.4594]]}},{"type":"Feature","properties":{},"geometry":{"type":"LineString","coordinates":[[-66.0964,18.4598],[-66.1035,18.4607]]}},{"type":"Feature","properties":{},"geometry":{"type":"LineString","coordinates":[[-66.0964,18.4598],[-66.0925,18.4608]]}},{"type":"Feature","properties":{},"geometry":{"type":"LineString","coordinates":[[-66.0964,18.4598],[-66.0963,18.4602]]}},{"type":"Feature","properties":{},"geometry":{"type":"LineString","coordinates":[[-66.0964,18.4598],[-66.1036,18.4612]]}},{"type":"Feature","properties":{},"geometry":{"type":"LineString","coordinates":[[-66.0964,18.4598],[-66.1038,18.4618]]}},{"type":"Feature","properties":{},"geometry":{"type":"LineString","coordinates":[[-64.7547,17.6944],[-64.7565,17.6834]]}},{"type":"Feature","properties":{},"geometry":{"type":"LineString","coordinates":[[-64.7547,17.6944],[-64.761,17.6907]]}},{"type":"Feature","properties":{},"geometry":{"type":"LineString","coordinates":[[-64.7547,17.6944],[-64.7656,17.698]]}},{"type":"Feature","properties":{},"geometry":{"type":"LineString","coordinates":[[-64.7547,17.6944],[-64.7549,17.6894]]}},{"type":"Feature","properties":{},"geometry":{"type":"LineString","coordinates":[[-66.1262,18.4634],[-66.1249,18.4647]]}},{"type":"Feature","properties":{},"geometry":{"type":"LineString","coordinates":[[-66.1262,18.4634],[-66.126,18.4661]]}},{"type":"Feature","properties":{},"geometry":{"type":"LineString","coordinates":[[-66.1262,18.4634],[-66.1258,18.4638]]}},{"type":"Feature","properties":{},"geometry":{"type":"LineString","coordinates":[[-66.1262,18.4634],[-66.1275,18.4649]]}},{"type":"Feature","properties":{},"geometry":{"type":"LineString","coordinates":[[-66.1262,18.4634],[-66.1225,18.4607]]}},{"type":"Feature","properties":{},"geometry":{"type":"LineString","coordinates":[[-66.1262,18.4634],[-66.127,18.4653]]}},{"type":"Feature","properties":{},"geometry":{"type":"LineString","coordinates":[[-66.1262,18.4634],[-66.1278,18.4669]]}},{"type":"Feature","properties":{},"geometry":{"type":"LineString","coordinates":[[-66.1262,18.4634],[-66.1265,18.4657]]}},{"type":"Feature","properties":{},"geometry":{"type":"LineString","coordinates":[[-66.1262,18.4634],[-66.1227,18.4605]]}},{"type":"Feature","properties":{},"geometry":{"type":"LineString","coordinates":[[-66.1262,18.4634],[-66.1216,18.4616]]}},{"type":"Feature","properties":{},"geometry":{"type":"LineString","coordinates":[[-66.0963,18.4606],[-66.0964,18.4594]]}},{"type":"Feature","properties":{},"geometry":{"type":"LineString","coordinates":[[-66.0963,18.4606],[-66.1035,18.4607]]}},{"type":"Feature","properties":{},"geometry":{"type":"LineString","coordinates":[[-66.0963,18.4606],[-66.0925,18.4608]]}},{"type":"Feature","properties":{},"geometry":{"type":"LineString","coordinates":[[-66.0963,18.4606],[-66.0963,18.4602]]}},{"type":"Feature","properties":{},"geometry":{"type":"LineString","coordinates":[[-66.0963,18.4606],[-66.1036,18.4612]]}},{"type":"Feature","properties":{},"geometry":{"type":"LineString","coordinates":[[-66.0963,18.4606],[-66.1038,18.4618]]}},{"type":"Feature","properties":{},"geometry":{"type":"LineString","coordinates":[[-66.0959,18.4348],[-66.0992,18.4332]]}},{"type":"Feature","properties":{},"geometry":{"type":"LineString","coordinates":[[-66.0959,18.4348],[-66.1003,18.4335]]}},{"type":"Feature","properties":{},"geometry":{"type":"LineString","coordinates":[[-66.0959,18.4348],[-66.0919,18.4377]]}},{"type":"Feature","properties":{},"geometry":{"type":"LineString","coordinates":[[-66.0959,18.4348],[-66.0909,18.4377]]}},{"type":"Feature","properties":{},"geometry":{"type":"LineString","coordinates":[[-66.0959,18.4348],[-66.0999,18.4333]]}},{"type":"Feature","properties":{},"geometry":{"type":"LineString","coordinates":[[-66.0959,18.4348],[-66.0913,18.4378]]}},{"type":"Feature","properties":{},"geometry":{"type":"LineString","coordinates":[[-66.1284,18.4666],[-66.1284,18.4685]]}},{"type":"Feature","properties":{},"geometry":{"type":"LineString","coordinates":[[-66.1284,18.4666],[-66.1278,18.4686]]}},{"type":"Feature","properties":{},"geometry":{"type":"LineString","coordinates":[[-66.1284,18.4666],[-66.1275,18.4649]]}},{"type":"Feature","properties":{},"geometry":{"type":"LineString","coordinates":[[-66.1284,18.4666],[-66.127,18.4653]]}},{"type":"Feature","properties":{},"geometry":{"type":"LineString","coordinates":[[-66.1284,18.4666],[-66.1278,18.4669]]}},{"type":"Feature","properties":{},"geometry":{"type":"LineString","coordinates":[[-66.1284,18.4666],[-66.1273,18.4671]]}},{"type":"Feature","properties":{},"geometry":{"type":"LineString","coordinates":[[-66.1284,18.4666],[-66.1272,18.4687]]}},{"type":"Feature","properties":{},"geometry":{"type":"LineString","coordinates":[[-66.6236,17.9646],[-66.6259,17.9569]]}},{"type":"Feature","properties":{},"geometry":{"type":"LineString","coordinates":[[-66.6236,17.9646],[-66.6242,17.966]]}},{"type":"Feature","properties":{},"geometry":{"type":"LineString","coordinates":[[-66.6236,17.9646],[-66.6265,17.958]]}},{"type":"Feature","properties":{},"geometry":{"type":"LineString","coordinates":[[-66.6236,17.9646],[-66.6268,17.9585]]}},{"type":"Feature","properties":{},"geometry":{"type":"LineString","coordinates":[[-66.6236,17.9646],[-66.6245,17.9667]]}},{"type":"Feature","properties":{},"geometry":{"type":"LineString","coordinates":[[-66.6236,17.9646],[-66.6214,17.9701]]}},{"type":"Feature","properties":{},"geometry":{"type":"LineString","coordinates":[[-66.6236,17.9646],[-66.6217,17.9707]]}},{"type":"Feature","properties":{},"geometry":{"type":"LineString","coordinates":[[-66.6236,17.9646],[-66.6212,17.9694]]}},{"type":"Feature","properties":{},"geometry":{"type":"LineString","coordinates":[[-66.6259,17.9569],[-66.6281,17.9491]]}},{"type":"Feature","properties":{},"geometry":{"type":"LineString","coordinates":[[-66.6259,17.9569],[-66.6242,17.966]]}},{"type":"Feature","properties":{},"geometry":{"type":"LineString","coordinates":[[-66.6259,17.9569],[-66.6265,17.958]]}},{"type":"Feature","properties":{},"geometry":{"type":"LineString","coordinates":[[-66.6259,17.9569],[-66.6288,17.9499]]}},{"type":"Feature","properties":{},"geometry":{"type":"LineString","coordinates":[[-66.6259,17.9569],[-66.6291,17.9503]]}},{"type":"Feature","properties":{},"geometry":{"type":"LineString","coordinates":[[-66.6259,17.9569],[-66.6268,17.9585]]}},{"type":"Feature","properties":{},"geometry":{"type":"LineString","coordinates":[[-66.6281,17.9491],[-66.6304,17.9413]]}},{"type":"Feature","properties":{},"geometry":{"type":"LineString","coordinates":[[-66.6281,17.9491],[-66.6265,17.958]]}},{"type":"Feature","properties":{},"geometry":{"type":"LineString","coordinates":[[-66.6281,17.9491],[-66.6288,17.9499]]}},{"type":"Feature","properties":{},"geometry":{"type":"LineString","coordinates":[[-66.6281,17.9491],[-66.6311,17.9419]]}},{"type":"Feature","properties":{},"geometry":{"type":"LineString","coordinates":[[-66.6281,17.9491],[-66.6314,17.9422]]}},{"type":"Feature","properties":{},"geometry":{"type":"LineString","coordinates":[[-66.6281,17.9491],[-66.6291,17.9503]]}},{"type":"Feature","properties":{},"geometry":{"type":"LineString","coordinates":[[-66.6304,17.9413],[-66.6327,17.9335]]}},{"type":"Feature","properties":{},"geometry":{"type":"LineString","coordinates":[[-66.6304,17.9413],[-66.6288,17.9499]]}},{"type":"Feature","properties":{},"geometry":{"type":"LineString","coordinates":[[-66.6304,17.9413],[-66.6311,17.9419]]}},{"type":"Feature","properties":{},"geometry":{"type":"LineString","coordinates":[[-66.6304,17.9413],[-66.6334,17.9338]]}},{"type":"Feature","properties":{},"geometry":{"type":"LineString","coordinates":[[-66.6304,17.9413],[-66.6337,17.934]]}},{"type":"Feature","properties":{},"geometry":{"type":"LineString","coordinates":[[-66.6304,17.9413],[-66.6314,17.9422]]}},{"type":"Feature","properties":{},"geometry":{"type":"LineString","coordinates":[[-66.6327,17.9335],[-66.6311,17.9419]]}},{"type":"Feature","properties":{},"geometry":{"type":"LineString","coordinates":[[-66.6327,17.9335],[-66.6334,17.9338]]}},{"type":"Feature","properties":{},"geometry":{"type":"LineString","coordinates":[[-66.6327,17.9335],[-66.6337,17.934]]}},{"type":"Feature","properties":{},"geometry":{"type":"LineString","coordinates":[[-66.6327,17.9335],[-66.6314,17.9422]]}},{"type":"Feature","properties":{},"geometry":{"type":"LineString","coordinates":[[-66.7028,18.479],[-66.7025,18.4795]]}},{"type":"Feature","properties":{},"geometry":{"type":"LineString","coordinates":[[-66.7028,18.479],[-66.7057,18.4782]]}},{"type":"Feature","properties":{},"geometry":{"type":"LineString","coordinates":[[-66.7028,18.479],[-66.7037,18.4785]]}},{"type":"Feature","properties":{},"geometry":{"type":"LineString","coordinates":[[-66.7028,18.479],[-66.7025,18.4799]]}},{"type":"Feature","properties":{},"geometry":{"type":"LineString","coordinates":[[-66.7028,18.479],[-66.7052,18.479]]}},{"type":"Feature","properties":{},"geometry":{"type":"LineString","coordinates":[[-66.1272,18.4764],[-66.1279,18.4723]]}},{"type":"Feature","properties":{},"geometry":{"type":"LineString","coordinates":[[-66.1272,18.4764],[-66.1285,18.4723]]}},{"type":"Feature","properties":{},"geometry":{"type":"LineString","coordinates":[[-66.1272,18.4764],[-66.129,18.4724]]}},{"type":"Feature","properties":{},"geometry":{"type":"LineString","coordinates":[[-66.1272,18.4764],[-66.129,18.4765]]}},{"type":"Feature","properties":{},"geometry":{"type":"LineString","coordinates":[[-66.1272,18.4764],[-66.1273,18.4723]]}},{"type":"Feature","properties":{},"geometry":{"type":"LineString","coordinates":[[-66.1272,18.4764],[-66.1272,18.4687]]}},{"type":"Feature","properties":{},"geometry":{"type":"LineString","coordinates":[[-66.1272,18.4764],[-66.1278,18.4764]]}},{"type":"Feature","properties":{},"geometry":{"type":"LineString","coordinates":[[-66.7025,18.4795],[-66.7057,18.4782]]}},{"type":"Feature","properties":{},"geometry":{"type":"LineString","coordinates":[[-66.7025,18.4795],[-66.7037,18.4785]]}},{"type":"Feature","properties":{},"geometry":{"type":"LineString","coordinates":[[-66.7025,18.4795],[-66.7025,18.4799]]}},{"type":"Feature","properties":{},"geometry":{"type":"LineString","coordinates":[[-66.7025,18.4795],[-66.7052,18.479]]}},{"type":"Feature","properties":{},"geometry":{"type":"LineString","coordinates":[[-66.1249,18.4647],[-66.126,18.4661]]}},{"type":"Feature","properties":{},"geometry":{"type":"LineString","coordinates":[[-66.1249,18.4647],[-66.1258,18.4638]]}},{"type":"Feature","properties":{},"geometry":{"type":"LineString","coordinates":[[-66.1249,18.4647],[-66.1275,18.4649]]}},{"type":"Feature","properties":{},"geometry":{"type":"LineString","coordinates":[[-66.1249,18.4647],[-66.1225,18.4607]]}},{"type":"Feature","properties":{},"geometry":{"type":"LineString","coordinates":[[-66.1249,18.4647],[-66.127,18.4653]]}},{"type":"Feature","properties":{},"geometry":{"type":"LineString","coordinates":[[-66.1249,18.4647],[-66.1265,18.4657]]}},{"type":"Feature","properties":{},"geometry":{"type":"LineString","coordinates":[[-66.1249,18.4647],[-66.1227,18.4605]]}},{"type":"Feature","properties":{},"geometry":{"type":"LineString","coordinates":[[-66.1249,18.4647],[-66.1216,18.4616]]}},{"type":"Feature","properties":{},"geometry":{"type":"LineString","coordinates":[[-66.1025,18.4481],[-66.0939,18.4457]]}},{"type":"Feature","properties":{},"geometry":{"type":"LineString","coordinates":[[-66.1025,18.4481],[-66.1059,18.4514]]}},{"type":"Feature","properties":{},"geometry":{"type":"LineString","coordinates":[[-66.1025,18.4481],[-66.1078,18.4492]]}},{"type":"Feature","properties":{},"geometry":{"type":"LineString","coordinates":[[-66.1025,18.4481],[-66.1081,18.4502]]}},{"type":"Feature","properties":{},"geometry":{"type":"LineString","coordinates":[[-66.1025,18.4481],[-66.1026,18.4477]]}},{"type":"Feature","properties":{},"geometry":{"type":"LineString","coordinates":[[-66.1025,18.4481],[-66.1025,18.4477]]}},{"type":"Feature","properties":{},"geometry":{"type":"LineString","coordinates":[[-66.0939,18.4457],[-66.0891,18.4463]]}},{"type":"Feature","properties":{},"geometry":{"type":"LineString","coordinates":[[-66.0939,18.4457],[-66.0868,18.4427]]}},{"type":"Feature","properties":{},"geometry":{"type":"LineString","coordinates":[[-66.0939,18.4457],[-66.0891,18.4425]]}},{"type":"Feature","properties":{},"geometry":{"type":"LineString","coordinates":[[-66.0939,18.4457],[-66.0938,18.4449]]}},{"type":"Feature","properties":{},"geometry":{"type":"LineString","coordinates":[[-66.0939,18.4457],[-66.0938,18.4445]]}},{"type":"Feature","properties":{},"geometry":{"type":"LineString","coordinates":[[-66.1284,18.4685],[-66.1278,18.4686]]}},{"type":"Feature","properties":{},"geometry":{"type":"LineString","coordinates":[[-66.1284,18.4685],[-66.1279,18.4723]]}},{"type":"Feature","properties":{},"geometry":{"type":"LineString","coordinates":[[-66.1284,18.4685],[-66.1285,18.4723]]}},{"type":"Feature","properties":{},"geometry":{"type":"LineString","coordinates":[[-66.1284,18.4685],[-66.129,18.4724]]}},{"type":"Feature","properties":{},"geometry":{"type":"LineString","coordinates":[[-66.1284,18.4685],[-66.1273,18.4723]]}},{"type":"Feature","properties":{},"geometry":{"type":"LineString","coordinates":[[-66.1284,18.4685],[-66.1278,18.4669]]}},{"type":"Feature","properties":{},"geometry":{"type":"LineString","coordinates":[[-66.1284,18.4685],[-66.1265,18.4657]]}},{"type":"Feature","properties":{},"geometry":{"type":"LineString","coordinates":[[-66.1284,18.4685],[-66.1273,18.4671]]}},{"type":"Feature","properties":{},"geometry":{"type":"LineString","coordinates":[[-66.1284,18.4685],[-66.1272,18.4687]]}},{"type":"Feature","properties":{},"geometry":{"type":"LineString","coordinates":[[-66.1059,18.4514],[-66.1078,18.4492]]}},{"type":"Feature","properties":{},"geometry":{"type":"LineString","coordinates":[[-66.1059,18.4514],[-66.1081,18.4502]]}},{"type":"Feature","properties":{},"geometry":{"type":"LineString","coordinates":[[-66.1059,18.4514],[-66.1026,18.4477]]}},{"type":"Feature","properties":{},"geometry":{"type":"LineString","coordinates":[[-66.1059,18.4514],[-66.1088,18.4458]]}},{"type":"Feature","properties":{},"geometry":{"type":"LineString","coordinates":[[-66.1059,18.4514],[-66.1094,18.4455]]}},{"type":"Feature","properties":{},"geometry":{"type":"LineString","coordinates":[[-66.1059,18.4514],[-66.1025,18.4477]]}},{"type":"Feature","properties":{},"geometry":{"type":"LineString","coordinates":[[-66.0891,18.4463],[-66.0868,18.4427]]}},{"type":"Feature","properties":{},"geometry":{"type":"LineString","coordinates":[[-66.0891,18.4463],[-66.0891,18.4425]]}},{"type":"Feature","properties":{},"geometry":{"type":"LineString","coordinates":[[-66.0891,18.4463],[-66.0938,18.4449]]}},{"type":"Feature","properties":{},"geometry":{"type":"LineString","coordinates":[[-66.0891,18.4463],[-66.0938,18.4445]]}},{"type":"Feature","properties":{},"geometry":{"type":"LineString","coordinates":[[-66.7057,18.4782],[-66.7037,18.4785]]}},{"type":"Feature","properties":{},"geometry":{"type":"LineString","coordinates":[[-66.7057,18.4782],[-66.7025,18.4799]]}},{"type":"Feature","properties":{},"geometry":{"type":"LineString","coordinates":[[-66.7057,18.4782],[-66.7052,18.479]]}},{"type":"Feature","properties":{},"geometry":{"type":"LineString","coordinates":[[-66.6182,17.9716],[-66.6245,17.9667]]}},{"type":"Feature","properties":{},"geometry":{"type":"LineString","coordinates":[[-66.6182,17.9716],[-66.618,17.971]]}},{"type":"Feature","properties":{},"geometry":{"type":"LineString","coordinates":[[-66.6182,17.9716],[-66.6214,17.9701]]}},{"type":"Feature","properties":{},"geometry":{"type":"LineString","coordinates":[[-66.6182,17.9716],[-66.6217,17.9707]]}},{"type":"Feature","properties":{},"geometry":{"type":"LineString","coordinates":[[-66.6182,17.9716],[-66.6184,17.9721]]}},{"type":"Feature","properties":{},"geometry":{"type":"LineString","coordinates":[[-66.6182,17.9716],[-66.6212,17.9694]]}},{"type":"Feature","properties":{},"geometry":{"type":"LineString","coordinates":[[-66.6242,17.966],[-66.6265,17.958]]}},{"type":"Feature","properties":{},"geometry":{"type":"LineString","coordinates":[[-66.6242,17.966],[-66.6268,17.9585]]}},{"type":"Feature","properties":{},"geometry":{"type":"LineString","coordinates":[[-66.6242,17.966],[-66.6245,17.9667]]}},{"type":"Feature","properties":{},"geometry":{"type":"LineString","coordinates":[[-66.6242,17.966],[-66.6214,17.9701]]}},{"type":"Feature","properties":{},"geometry":{"type":"LineString","coordinates":[[-66.6242,17.966],[-66.6217,17.9707]]}},{"type":"Feature","properties":{},"geometry":{"type":"LineString","coordinates":[[-66.6242,17.966],[-66.6212,17.9694]]}},{"type":"Feature","properties":{},"geometry":{"type":"LineString","coordinates":[[-66.6265,17.958],[-66.6288,17.9499]]}},{"type":"Feature","properties":{},"geometry":{"type":"LineString","coordinates":[[-66.6265,17.958],[-66.6291,17.9503]]}},{"type":"Feature","properties":{},"geometry":{"type":"LineString","coordinates":[[-66.6265,17.958],[-66.6268,17.9585]]}},{"type":"Feature","properties":{},"geometry":{"type":"LineString","coordinates":[[-66.6265,17.958],[-66.6245,17.9667]]}},{"type":"Feature","properties":{},"geometry":{"type":"LineString","coordinates":[[-66.6288,17.9499],[-66.6311,17.9419]]}},{"type":"Feature","properties":{},"geometry":{"type":"LineString","coordinates":[[-66.6288,17.9499],[-66.6314,17.9422]]}},{"type":"Feature","properties":{},"geometry":{"type":"LineString","coordinates":[[-66.6288,17.9499],[-66.6291,17.9503]]}},{"type":"Feature","properties":{},"geometry":{"type":"LineString","coordinates":[[-66.6288,17.9499],[-66.6268,17.9585]]}},{"type":"Feature","properties":{},"geometry":{"type":"LineString","coordinates":[[-66.6311,17.9419],[-66.6334,17.9338]]}},{"type":"Feature","properties":{},"geometry":{"type":"LineString","coordinates":[[-66.6311,17.9419],[-66.6337,17.934]]}},{"type":"Feature","properties":{},"geometry":{"type":"LineString","coordinates":[[-66.6311,17.9419],[-66.6314,17.9422]]}},{"type":"Feature","properties":{},"geometry":{"type":"LineString","coordinates":[[-66.6311,17.9419],[-66.6291,17.9503]]}},{"type":"Feature","properties":{},"geometry":{"type":"LineString","coordinates":[[-66.6334,17.9338],[-66.6337,17.934]]}},{"type":"Feature","properties":{},"geometry":{"type":"LineString","coordinates":[[-66.6334,17.9338],[-66.6314,17.9422]]}},{"type":"Feature","properties":{},"geometry":{"type":"LineString","coordinates":[[-66.6337,17.934],[-66.6314,17.9422]]}},{"type":"Feature","properties":{},"geometry":{"type":"LineString","coordinates":[[-66.6314,17.9422],[-66.6291,17.9503]]}},{"type":"Feature","properties":{},"geometry":{"type":"LineString","coordinates":[[-66.6291,17.9503],[-66.6268,17.9585]]}},{"type":"Feature","properties":{},"geometry":{"type":"LineString","coordinates":[[-66.6268,17.9585],[-66.6245,17.9667]]}},{"type":"Feature","properties":{},"geometry":{"type":"LineString","coordinates":[[-66.6245,17.9667],[-66.618,17.971]]}},{"type":"Feature","properties":{},"geometry":{"type":"LineString","coordinates":[[-66.6245,17.9667],[-66.6214,17.9701]]}},{"type":"Feature","properties":{},"geometry":{"type":"LineString","coordinates":[[-66.6245,17.9667],[-66.6217,17.9707]]}},{"type":"Feature","properties":{},"geometry":{"type":"LineString","coordinates":[[-66.6245,17.9667],[-66.6184,17.9721]]}},{"type":"Feature","properties":{},"geometry":{"type":"LineString","coordinates":[[-66.6245,17.9667],[-66.6212,17.9694]]}},{"type":"Feature","properties":{},"geometry":{"type":"LineString","coordinates":[[-66.1278,18.4686],[-66.126,18.4661]]}},{"type":"Feature","properties":{},"geometry":{"type":"LineString","coordinates":[[-66.1278,18.4686],[-66.1279,18.4723]]}},{"type":"Feature","properties":{},"geometry":{"type":"LineString","coordinates":[[-66.1278,18.4686],[-66.1285,18.4723]]}},{"type":"Feature","properties":{},"geometry":{"type":"LineString","coordinates":[[-66.1278,18.4686],[-66.129,18.4724]]}},{"type":"Feature","properties":{},"geometry":{"type":"LineString","coordinates":[[-66.1278,18.4686],[-66.129,18.4765]]}},{"type":"Feature","properties":{},"geometry":{"type":"LineString","coordinates":[[-66.1278,18.4686],[-66.1273,18.4723]]}},{"type":"Feature","properties":{},"geometry":{"type":"LineString","coordinates":[[-66.1278,18.4686],[-66.1278,18.4669]]}},{"type":"Feature","properties":{},"geometry":{"type":"LineString","coordinates":[[-66.1278,18.4686],[-66.1273,18.4671]]}},{"type":"Feature","properties":{},"geometry":{"type":"LineString","coordinates":[[-66.1278,18.4686],[-66.1272,18.4687]]}},{"type":"Feature","properties":{},"geometry":{"type":"LineString","coordinates":[[-67.1661,18.2188],[-67.1611,18.2171]]}},{"type":"Feature","properties":{},"geometry":{"type":"LineString","coordinates":[[-67.1661,18.2188],[-67.1608,18.218]]}},{"type":"Feature","properties":{},"geometry":{"type":"LineString","coordinates":[[-67.1661,18.2188],[-67.1663,18.2172]]}},{"type":"Feature","properties":{},"geometry":{"type":"LineString","coordinates":[[-67.1661,18.2188],[-67.161,18.2174]]}},{"type":"Feature","properties":{},"geometry":{"type":"LineString","coordinates":[[-67.1661,18.2188],[-67.1609,18.2177]]}},{"type":"Feature","properties":{},"geometry":{"type":"LineString","coordinates":[[-67.1611,18.2171],[-67.1608,18.218]]}},{"type":"Feature","properties":{},"geometry":{"type":"LineString","coordinates":[[-67.1611,18.2171],[-67.1663,18.2172]]}},{"type":"Feature","properties":{},"geometry":{"type":"LineString","coordinates":[[-67.1611,18.2171],[-67.161,18.2174]]}},{"type":"Feature","properties":{},"geometry":{"type":"LineString","coordinates":[[-67.1611,18.2171],[-67.1609,18.2177]]}},{"type":"Feature","properties":{},"geometry":{"type":"LineString","coordinates":[[-66.1099,18.4559],[-66.1137,18.4587]]}},{"type":"Feature","properties":{},"geometry":{"type":"LineString","coordinates":[[-66.1099,18.4559],[-66.1121,18.4518]]}},{"type":"Feature","properties":{},"geometry":{"type":"LineString","coordinates":[[-66.1099,18.4559],[-66.1101,18.4587]]}},{"type":"Feature","properties":{},"geometry":{"type":"LineString","coordinates":[[-66.1099,18.4559],[-66.1128,18.4516]]}},{"type":"Feature","properties":{},"geometry":{"type":"LineString","coordinates":[[-66.1099,18.4559],[-66.1115,18.4529]]}},{"type":"Feature","properties":{},"geometry":{"type":"LineString","coordinates":[[-66.1099,18.4559],[-66.1098,18.4583]]}},{"type":"Feature","properties":{},"geometry":{"type":"LineString","coordinates":[[-66.1099,18.4559],[-66.1103,18.4592]]}},{"type":"Feature","properties":{},"geometry":{"type":"LineString","coordinates":[[-66.126,18.4661],[-66.1258,18.4638]]}},{"type":"Feature","properties":{},"geometry":{"type":"LineString","coordinates":[[-66.126,18.4661],[-66.1275,18.4649]]}},{"type":"Feature","properties":{},"geometry":{"type":"LineString","coordinates":[[-66.126,18.4661],[-66.127,18.4653]]}},{"type":"Feature","properties":{},"geometry":{"type":"LineString","coordinates":[[-66.126,18.4661],[-66.1278,18.4669]]}},{"type":"Feature","properties":{},"geometry":{"type":"LineString","coordinates":[[-66.126,18.4661],[-66.1265,18.4657]]}},{"type":"Feature","properties":{},"geometry":{"type":"LineString","coordinates":[[-66.126,18.4661],[-66.1273,18.4671]]}},{"type":"Feature","properties":{},"geometry":{"type":"LineString","coordinates":[[-66.126,18.4661],[-66.1272,18.4687]]}},{"type":"Feature","properties":{},"geometry":{"type":"LineString","coordinates":[[-67.1608,18.218],[-67.1663,18.2172]]}},{"type":"Feature","properties":{},"geometry":{"type":"LineString","coordinates":[[-67.1608,18.218],[-67.161,18.2174]]}},{"type":"Feature","properties":{},"geometry":{"type":"LineString","coordinates":[[-67.1608,18.218],[-67.1609,18.2177]]}},{"type":"Feature","properties":{},"geometry":{"type":"LineString","coordinates":[[-66.1279,18.4723],[-66.1285,18.4723]]}},{"type":"Feature","properties":{},"geometry":{"type":"LineString","coordinates":[[-66.1279,18.4723],[-66.129,18.4724]]}},{"type":"Feature","properties":{},"geometry":{"type":"LineString","coordinates":[[-66.1279,18.4723],[-66.129,18.4765]]}},{"type":"Feature","properties":{},"geometry":{"type":"LineString","coordinates":[[-66.1279,18.4723],[-66.1273,18.4723]]}},{"type":"Feature","properties":{},"geometry":{"type":"LineString","coordinates":[[-66.1279,18.4723],[-66.1272,18.4687]]}},{"type":"Feature","properties":{},"geometry":{"type":"LineString","coordinates":[[-66.1279,18.4723],[-66.1278,18.4764]]}},{"type":"Feature","properties":{},"geometry":{"type":"LineString","coordinates":[[-66.618,17.971],[-66.6214,17.9701]]}},{"type":"Feature","properties":{},"geometry":{"type":"LineString","coordinates":[[-66.618,17.971],[-66.6217,17.9707]]}},{"type":"Feature","properties":{},"geometry":{"type":"LineString","coordinates":[[-66.618,17.971],[-66.6184,17.9721]]}},{"type":"Feature","properties":{},"geometry":{"type":"LineString","coordinates":[[-66.618,17.971],[-66.6212,17.9694]]}},{"type":"Feature","properties":{},"geometry":{"type":"LineString","coordinates":[[-66.1285,18.4723],[-66.129,18.4724]]}},{"type":"Feature","properties":{},"geometry":{"type":"LineString","coordinates":[[-66.1285,18.4723],[-66.129,18.4765]]}},{"type":"Feature","properties":{},"geometry":{"type":"LineString","coordinates":[[-66.1285,18.4723],[-66.1273,18.4723]]}},{"type":"Feature","properties":{},"geometry":{"type":"LineString","coordinates":[[-66.1285,18.4723],[-66.1272,18.4687]]}},{"type":"Feature","properties":{},"geometry":{"type":"LineString","coordinates":[[-66.1285,18.4723],[-66.1278,18.4764]]}},{"type":"Feature","properties":{},"geometry":{"type":"LineString","coordinates":[[-66.0992,18.4332],[-66.0907,18.4381]]}},{"type":"Feature","properties":{},"geometry":{"type":"LineString","coordinates":[[-66.0992,18.4332],[-66.1003,18.4335]]}},{"type":"Feature","properties":{},"geometry":{"type":"LineString","coordinates":[[-66.0992,18.4332],[-66.0999,18.4333]]}},{"type":"Feature","properties":{},"geometry":{"type":"LineString","coordinates":[[-66.0992,18.4332],[-66.1049,18.4312]]}},{"type":"Feature","properties":{},"geometry":{"type":"LineString","coordinates":[[-66.0992,18.4332],[-66.1063,18.4306]]}},{"type":"Feature","properties":{},"geometry":{"type":"LineString","coordinates":[[-66.0907,18.4381],[-66.0919,18.4377]]}},{"type":"Feature","properties":{},"geometry":{"type":"LineString","coordinates":[[-66.0907,18.4381],[-66.0868,18.4427]]}},{"type":"Feature","properties":{},"geometry":{"type":"LineString","coordinates":[[-66.0907,18.4381],[-66.0909,18.4377]]}},{"type":"Feature","properties":{},"geometry":{"type":"LineString","coordinates":[[-66.0907,18.4381],[-66.0913,18.4378]]}},{"type":"Feature","properties":{},"geometry":{"type":"LineString","coordinates":[[-66.0907,18.4381],[-66.0891,18.4425]]}},{"type":"Feature","properties":{},"geometry":{"type":"LineString","coordinates":[[-66.1258,18.4638],[-66.1275,18.4649]]}},{"type":"Feature","properties":{},"geometry":{"type":"LineString","coordinates":[[-66.1258,18.4638],[-66.1225,18.4607]]}},{"type":"Feature","properties":{},"geometry":{"type":"LineString","coordinates":[[-66.1258,18.4638],[-66.127,18.4653]]}},{"type":"Feature","properties":{},"geometry":{"type":"LineString","coordinates":[[-66.1258,18.4638],[-66.1265,18.4657]]}},{"type":"Feature","properties":{},"geometry":{"type":"LineString","coordinates":[[-66.1258,18.4638],[-66.1227,18.4605]]}},{"type":"Feature","properties":{},"geometry":{"type":"LineString","coordinates":[[-66.1258,18.4638],[-66.1273,18.4671]]}},{"type":"Feature","properties":{},"geometry":{"type":"LineString","coordinates":[[-66.1258,18.4638],[-66.1216,18.4616]]}},{"type":"Feature","properties":{},"geometry":{"type":"LineString","coordinates":[[-66.6214,17.9701],[-66.6217,17.9707]]}},{"type":"Feature","properties":{},"geometry":{"type":"LineString","coordinates":[[-66.6214,17.9701],[-66.6184,17.9721]]}},{"type":"Feature","properties":{},"geometry":{"type":"LineString","coordinates":[[-66.6214,17.9701],[-66.6212,17.9694]]}},{"type":"Feature","properties":{},"geometry":{"type":"LineString","coordinates":[[-66.1275,18.4649],[-66.127,18.4653]]}},{"type":"Feature","properties":{},"geometry":{"type":"LineString","coordinates":[[-66.1275,18.4649],[-66.1278,18.4669]]}},{"type":"Feature","properties":{},"geometry":{"type":"LineString","coordinates":[[-66.1275,18.4649],[-66.1265,18.4657]]}},{"type":"Feature","properties":{},"geometry":{"type":"LineString","coordinates":[[-66.1275,18.4649],[-66.1273,18.4671]]}},{"type":"Feature","properties":{},"geometry":{"type":"LineString","coordinates":[[-66.1078,18.4492],[-66.11,18.4452]]}},{"type":"Feature","properties":{},"geometry":{"type":"LineString","coordinates":[[-66.1078,18.4492],[-66.1081,18.4502]]}},{"type":"Feature","properties":{},"geometry":{"type":"LineString","coordinates":[[-66.1078,18.4492],[-66.1121,18.4518]]}},{"type":"Feature","properties":{},"geometry":{"type":"LineString","coordinates":[[-66.1078,18.4492],[-66.1026,18.4477]]}},{"type":"Feature","properties":{},"geometry":{"type":"LineString","coordinates":[[-66.1078,18.4492],[-66.1128,18.4516]]}},{"type":"Feature","properties":{},"geometry":{"type":"LineString","coordinates":[[-66.1078,18.4492],[-66.1088,18.4458]]}},{"type":"Feature","properties":{},"geometry":{"type":"LineString","coordinates":[[-66.1078,18.4492],[-66.1094,18.4455]]}},{"type":"Feature","properties":{},"geometry":{"type":"LineString","coordinates":[[-66.1078,18.4492],[-66.1025,18.4477]]}},{"type":"Feature","properties":{},"geometry":{"type":"LineString","coordinates":[[-66.1078,18.4492],[-66.1115,18.4529]]}},{"type":"Feature","properties":{},"geometry":{"type":"LineString","coordinates":[[-66.1094,18.4365],[-66.11,18.4452]]}},{"type":"Feature","properties":{},"geometry":{"type":"LineString","coordinates":[[-66.1094,18.4365],[-66.1078,18.4309]]}},{"type":"Feature","properties":{},"geometry":{"type":"LineString","coordinates":[[-66.1094,18.4365],[-66.1049,18.4312]]}},{"type":"Feature","properties":{},"geometry":{"type":"LineString","coordinates":[[-66.1094,18.4365],[-66.1077,18.4368]]}},{"type":"Feature","properties":{},"geometry":{"type":"LineString","coordinates":[[-66.1094,18.4365],[-66.1085,18.4366]]}},{"type":"Feature","properties":{},"geometry":{"type":"LineString","coordinates":[[-66.1094,18.4365],[-66.1095,18.4353]]}},{"type":"Feature","properties":{},"geometry":{"type":"LineString","coordinates":[[-66.1094,18.4365],[-66.1063,18.4306]]}},{"type":"Feature","properties":{},"geometry":{"type":"LineString","coordinates":[[-66.11,18.4452],[-66.1081,18.4502]]}},{"type":"Feature","properties":{},"geometry":{"type":"LineString","coordinates":[[-66.11,18.4452],[-66.1121,18.4518]]}},{"type":"Feature","properties":{},"geometry":{"type":"LineString","coordinates":[[-66.11,18.4452],[-66.1088,18.4458]]}},{"type":"Feature","properties":{},"geometry":{"type":"LineString","coordinates":[[-66.11,18.4452],[-66.1094,18.4455]]}},{"type":"Feature","properties":{},"geometry":{"type":"LineString","coordinates":[[-66.1003,18.4335],[-66.0919,18.4377]]}},{"type":"Feature","properties":{},"geometry":{"type":"LineString","coordinates":[[-66.1003,18.4335],[-66.0999,18.4333]]}},{"type":"Feature","properties":{},"geometry":{"type":"LineString","coordinates":[[-66.1003,18.4335],[-66.1049,18.4312]]}},{"type":"Feature","properties":{},"geometry":{"type":"LineString","coordinates":[[-66.1003,18.4335],[-66.1063,18.4306]]}},{"type":"Feature","properties":{},"geometry":{"type":"LineString","coordinates":[[-66.0919,18.4377],[-66.0868,18.4427]]}},{"type":"Feature","properties":{},"geometry":{"type":"LineString","coordinates":[[-66.0919,18.4377],[-66.0909,18.4377]]}},{"type":"Feature","properties":{},"geometry":{"type":"LineString","coordinates":[[-66.0919,18.4377],[-66.0913,18.4378]]}},{"type":"Feature","properties":{},"geometry":{"type":"LineString","coordinates":[[-66.0919,18.4377],[-66.0891,18.4425]]}},{"type":"Feature","properties":{},"geometry":{"type":"LineString","coordinates":[[-66.0919,18.4377],[-66.0938,18.4445]]}},{"type":"Feature","properties":{},"geometry":{"type":"LineString","coordinates":[[-66.7457,17.9886],[-66.7454,17.9883]]}},{"type":"Feature","properties":{},"geometry":{"type":"LineString","coordinates":[[-66.129,18.4724],[-66.129,18.4765]]}},{"type":"Feature","properties":{},"geometry":{"type":"LineString","coordinates":[[-66.129,18.4724],[-66.1273,18.4723]]}},{"type":"Feature","properties":{},"geometry":{"type":"LineString","coordinates":[[-66.129,18.4724],[-66.1272,18.4687]]}},{"type":"Feature","properties":{},"geometry":{"type":"LineString","coordinates":[[-66.129,18.4724],[-66.1278,18.4764]]}},{"type":"Feature","properties":{},"geometry":{"type":"LineString","coordinates":[[-67.1663,18.2172],[-67.161,18.2174]]}},{"type":"Feature","properties":{},"geometry":{"type":"LineString","coordinates":[[-67.1663,18.2172],[-67.1609,18.2177]]}},{"type":"Feature","properties":{},"geometry":{"type":"LineString","coordinates":[[-66.0868,18.4427],[-66.0909,18.4377]]}},{"type":"Feature","properties":{},"geometry":{"type":"LineString","coordinates":[[-66.0868,18.4427],[-66.0913,18.4378]]}},{"type":"Feature","properties":{},"geometry":{"type":"LineString","coordinates":[[-66.0868,18.4427],[-66.0891,18.4425]]}},{"type":"Feature","properties":{},"geometry":{"type":"LineString","coordinates":[[-66.0868,18.4427],[-66.0938,18.4449]]}},{"type":"Feature","properties":{},"geometry":{"type":"LineString","coordinates":[[-66.129,18.4765],[-66.1273,18.4723]]}},{"type":"Feature","properties":{},"geometry":{"type":"LineString","coordinates":[[-66.129,18.4765],[-66.1278,18.4764]]}},{"type":"Feature","properties":{},"geometry":{"type":"LineString","coordinates":[[-66.0909,18.4377],[-66.0913,18.4378]]}},{"type":"Feature","properties":{},"geometry":{"type":"LineString","coordinates":[[-66.0909,18.4377],[-66.0891,18.4425]]}},{"type":"Feature","properties":{},"geometry":{"type":"LineString","coordinates":[[-66.0999,18.4333],[-66.0913,18.4378]]}},{"type":"Feature","properties":{},"geometry":{"type":"LineString","coordinates":[[-66.0999,18.4333],[-66.1049,18.4312]]}},{"type":"Feature","properties":{},"geometry":{"type":"LineString","coordinates":[[-66.0999,18.4333],[-66.1063,18.4306]]}},{"type":"Feature","properties":{},"geometry":{"type":"LineString","coordinates":[[-66.0913,18.4378],[-66.0891,18.4425]]}},{"type":"Feature","properties":{},"geometry":{"type":"LineString","coordinates":[[-66.1273,18.4723],[-66.1272,18.4687]]}},{"type":"Feature","properties":{},"geometry":{"type":"LineString","coordinates":[[-66.1273,18.4723],[-66.1278,18.4764]]}},{"type":"Feature","properties":{},"geometry":{"type":"LineString","coordinates":[[-66.1078,18.4309],[-66.1049,18.4312]]}},{"type":"Feature","properties":{},"geometry":{"type":"LineString","coordinates":[[-66.1078,18.4309],[-66.1077,18.4368]]}},{"type":"Feature","properties":{},"geometry":{"type":"LineString","coordinates":[[-66.1078,18.4309],[-66.1085,18.4366]]}},{"type":"Feature","properties":{},"geometry":{"type":"LineString","coordinates":[[-66.1078,18.4309],[-66.1095,18.4353]]}},{"type":"Feature","properties":{},"geometry":{"type":"LineString","coordinates":[[-66.1078,18.4309],[-66.1063,18.4306]]}},{"type":"Feature","properties":{},"geometry":{"type":"LineString","coordinates":[[-66.1081,18.4502],[-66.1121,18.4518]]}},{"type":"Feature","properties":{},"geometry":{"type":"LineString","coordinates":[[-66.1081,18.4502],[-66.1026,18.4477]]}},{"type":"Feature","properties":{},"geometry":{"type":"LineString","coordinates":[[-66.1081,18.4502],[-66.1128,18.4516]]}},{"type":"Feature","properties":{},"geometry":{"type":"LineString","coordinates":[[-66.1081,18.4502],[-66.1088,18.4458]]}},{"type":"Feature","properties":{},"geometry":{"type":"LineString","coordinates":[[-66.1081,18.4502],[-66.1094,18.4455]]}},{"type":"Feature","properties":{},"geometry":{"type":"LineString","coordinates":[[-66.1081,18.4502],[-66.1025,18.4477]]}},{"type":"Feature","properties":{},"geometry":{"type":"LineString","coordinates":[[-66.1081,18.4502],[-66.1115,18.4529]]}},{"type":"Feature","properties":{},"geometry":{"type":"LineString","coordinates":[[-66.1137,18.4587],[-66.1173,18.4563]]}},{"type":"Feature","properties":{},"geometry":{"type":"LineString","coordinates":[[-66.1137,18.4587],[-66.1101,18.4587]]}},{"type":"Feature","properties":{},"geometry":{"type":"LineString","coordinates":[[-66.1137,18.4587],[-66.1178,18.4561]]}},{"type":"Feature","properties":{},"geometry":{"type":"LineString","coordinates":[[-66.1137,18.4587],[-66.1166,18.4573]]}},{"type":"Feature","properties":{},"geometry":{"type":"LineString","coordinates":[[-66.1137,18.4587],[-66.1098,18.4583]]}},{"type":"Feature","properties":{},"geometry":{"type":"LineString","coordinates":[[-66.1137,18.4587],[-66.1103,18.4592]]}},{"type":"Feature","properties":{},"geometry":{"type":"LineString","coordinates":[[-66.1049,18.4312],[-66.1077,18.4368]]}},{"type":"Feature","properties":{},"geometry":{"type":"LineString","coordinates":[[-66.1049,18.4312],[-66.1085,18.4366]]}},{"type":"Feature","properties":{},"geometry":{"type":"LineString","coordinates":[[-66.1049,18.4312],[-66.1095,18.4353]]}},{"type":"Feature","properties":{},"geometry":{"type":"LineString","coordinates":[[-66.1049,18.4312],[-66.1063,18.4306]]}},{"type":"Feature","properties":{},"geometry":{"type":"LineString","coordinates":[[-66.1225,18.4607],[-66.1173,18.4563]]}},{"type":"Feature","properties":{},"geometry":{"type":"LineString","coordinates":[[-66.1225,18.4607],[-66.1178,18.4561]]}},{"type":"Feature","properties":{},"geometry":{"type":"LineString","coordinates":[[-66.1225,18.4607],[-66.1227,18.4605]]}},{"type":"Feature","properties":{},"geometry":{"type":"LineString","coordinates":[[-66.1225,18.4607],[-66.1201,18.4556]]}},{"type":"Feature","properties":{},"geometry":{"type":"LineString","coordinates":[[-66.1225,18.4607],[-66.1216,18.4616]]}},{"type":"Feature","properties":{},"geometry":{"type":"LineString","coordinates":[[-66.1173,18.4563],[-66.1121,18.4518]]}},{"type":"Feature","properties":{},"geometry":{"type":"LineString","coordinates":[[-66.1173,18.4563],[-66.1128,18.4516]]}},{"type":"Feature","properties":{},"geometry":{"type":"LineString","coordinates":[[-66.1173,18.4563],[-66.1178,18.4561]]}},{"type":"Feature","properties":{},"geometry":{"type":"LineString","coordinates":[[-66.1173,18.4563],[-66.1201,18.4556]]}},{"type":"Feature","properties":{},"geometry":{"type":"LineString","coordinates":[[-66.1173,18.4563],[-66.1151,18.4513]]}},{"type":"Feature","properties":{},"geometry":{"type":"LineString","coordinates":[[-66.1173,18.4563],[-66.1115,18.4529]]}},{"type":"Feature","properties":{},"geometry":{"type":"LineString","coordinates":[[-66.1173,18.4563],[-66.1166,18.4573]]}},{"type":"Feature","properties":{},"geometry":{"type":"LineString","coordinates":[[-66.1121,18.4518],[-66.1128,18.4516]]}},{"type":"Feature","properties":{},"geometry":{"type":"LineString","coordinates":[[-66.1121,18.4518],[-66.1151,18.4513]]}},{"type":"Feature","properties":{},"geometry":{"type":"LineString","coordinates":[[-66.1121,18.4518],[-66.1115,18.4529]]}},{"type":"Feature","properties":{},"geometry":{"type":"LineString","coordinates":[[-66.127,18.4653],[-66.1278,18.4669]]}},{"type":"Feature","properties":{},"geometry":{"type":"LineString","coordinates":[[-66.127,18.4653],[-66.1265,18.4657]]}},{"type":"Feature","properties":{},"geometry":{"type":"LineString","coordinates":[[-66.127,18.4653],[-66.1273,18.4671]]}},{"type":"Feature","properties":{},"geometry":{"type":"LineString","coordinates":[[-67.161,18.2174],[-67.1609,18.2177]]}},{"type":"Feature","properties":{},"geometry":{"type":"LineString","coordinates":[[-66.1278,18.4669],[-66.1265,18.4657]]}},{"type":"Feature","properties":{},"geometry":{"type":"LineString","coordinates":[[-66.1278,18.4669],[-66.1273,18.4671]]}},{"type":"Feature","properties":{},"geometry":{"type":"LineString","coordinates":[[-66.1278,18.4669],[-66.1272,18.4687]]}},{"type":"Feature","properties":{},"geometry":{"type":"LineString","coordinates":[[-64.7565,17.6834],[-64.761,17.6907]]}},{"type":"Feature","properties":{},"geometry":{"type":"LineString","coordinates":[[-64.7565,17.6834],[-64.7549,17.6894]]}},{"type":"Feature","properties":{},"geometry":{"type":"LineString","coordinates":[[-64.761,17.6907],[-64.7656,17.698]]}},{"type":"Feature","properties":{},"geometry":{"type":"LineString","coordinates":[[-64.761,17.6907],[-64.7549,17.6894]]}},{"type":"Feature","properties":{},"geometry":{"type":"LineString","coordinates":[[-64.7656,17.698],[-64.7711,17.7075],[-64.7704,17.7034],[-64.7656,17.698]]}},{"type":"Feature","properties":{},"geometry":{"type":"LineString","coordinates":[[-64.7656,17.698],[-64.7549,17.6894]]}},{"type":"Feature","properties":{},"geometry":{"type":"LineString","coordinates":[[-66.1265,18.4657],[-66.1273,18.4671]]}},{"type":"Feature","properties":{},"geometry":{"type":"LineString","coordinates":[[-66.0964,18.4594],[-66.1035,18.4607]]}},{"type":"Feature","properties":{},"geometry":{"type":"LineString","coordinates":[[-66.0964,18.4594],[-66.0925,18.4608]]}},{"type":"Feature","properties":{},"geometry":{"type":"LineString","coordinates":[[-66.0964,18.4594],[-66.0963,18.4602]]}},{"type":"Feature","properties":{},"geometry":{"type":"LineString","coordinates":[[-66.0964,18.4594],[-66.1036,18.4612]]}},{"type":"Feature","properties":{},"geometry":{"type":"LineString","coordinates":[[-66.0964,18.4594],[-66.1038,18.4618]]}},{"type":"Feature","properties":{},"geometry":{"type":"LineString","coordinates":[[-66.0891,18.4425],[-66.0938,18.4449]]}},{"type":"Feature","properties":{},"geometry":{"type":"LineString","coordinates":[[-66.0891,18.4425],[-66.0938,18.4445]]}},{"type":"Feature","properties":{},"geometry":{"type":"LineString","coordinates":[[-66.1101,18.4587],[-66.1035,18.4607]]}},{"type":"Feature","properties":{},"geometry":{"type":"LineString","coordinates":[[-66.1101,18.4587],[-66.1115,18.4529]]}},{"type":"Feature","properties":{},"geometry":{"type":"LineString","coordinates":[[-66.1101,18.4587],[-66.1166,18.4573]]}},{"type":"Feature","properties":{},"geometry":{"type":"LineString","coordinates":[[-66.1101,18.4587],[-66.1098,18.4583]]}},{"type":"Feature","properties":{},"geometry":{"type":"LineString","coordinates":[[-66.1101,18.4587],[-66.1103,18.4592]]}},{"type":"Feature","properties":{},"geometry":{"type":"LineString","coordinates":[[-66.1101,18.4587],[-66.1036,18.4612]]}},{"type":"Feature","properties":{},"geometry":{"type":"LineString","coordinates":[[-66.1101,18.4587],[-66.1038,18.4618]]}},{"type":"Feature","properties":{},"geometry":{"type":"LineString","coordinates":[[-66.1026,18.4477],[-66.0938,18.4449]]}},{"type":"Feature","properties":{},"geometry":{"type":"LineString","coordinates":[[-66.1026,18.4477],[-66.1025,18.4477]]}},{"type":"Feature","properties":{},"geometry":{"type":"LineString","coordinates":[[-66.0938,18.4449],[-66.0938,18.4445]]}},{"type":"Feature","properties":{},"geometry":{"type":"LineString","coordinates":[[-66.6217,17.9707],[-66.6184,17.9721]]}},{"type":"Feature","properties":{},"geometry":{"type":"LineString","coordinates":[[-66.6217,17.9707],[-66.6212,17.9694]]}},{"type":"Feature","properties":{},"geometry":{"type":"LineString","coordinates":[[-66.7037,18.4785],[-66.7025,18.4799]]}},{"type":"Feature","properties":{},"geometry":{"type":"LineString","coordinates":[[-66.7037,18.4785],[-66.7052,18.479]]}},{"type":"Feature","properties":{},"geometry":{"type":"LineString","coordinates":[[-66.1035,18.4607],[-66.0925,18.4608]]}},{"type":"Feature","properties":{},"geometry":{"type":"LineString","coordinates":[[-66.1035,18.4607],[-66.0963,18.4602]]}},{"type":"Feature","properties":{},"geometry":{"type":"LineString","coordinates":[[-66.1035,18.4607],[-66.1098,18.4583]]}},{"type":"Feature","properties":{},"geometry":{"type":"LineString","coordinates":[[-66.1035,18.4607],[-66.1103,18.4592]]}},{"type":"Feature","properties":{},"geometry":{"type":"LineString","coordinates":[[-66.1035,18.4607],[-66.1036,18.4612]]}},{"type":"Feature","properties":{},"geometry":{"type":"LineString","coordinates":[[-66.1035,18.4607],[-66.1038,18.4618]]}},{"type":"Feature","properties":{},"geometry":{"type":"LineString","coordinates":[[-66.1128,18.4516],[-66.1178,18.4561]]}},{"type":"Feature","properties":{},"geometry":{"type":"LineString","coordinates":[[-66.1128,18.4516],[-66.1151,18.4513]]}},{"type":"Feature","properties":{},"geometry":{"type":"LineString","coordinates":[[-66.1128,18.4516],[-66.1115,18.4529]]}},{"type":"Feature","properties":{},"geometry":{"type":"LineString","coordinates":[[-66.1178,18.4561],[-66.1227,18.4605]]}},{"type":"Feature","properties":{},"geometry":{"type":"LineString","coordinates":[[-66.1178,18.4561],[-66.1201,18.4556]]}},{"type":"Feature","properties":{},"geometry":{"type":"LineString","coordinates":[[-66.1178,18.4561],[-66.1151,18.4513]]}},{"type":"Feature","properties":{},"geometry":{"type":"LineString","coordinates":[[-66.1178,18.4561],[-66.1166,18.4573]]}},{"type":"Feature","properties":{},"geometry":{"type":"LineString","coordinates":[[-66.1227,18.4605],[-66.1201,18.4556]]}},{"type":"Feature","properties":{},"geometry":{"type":"LineString","coordinates":[[-66.1227,18.4605],[-66.1216,18.4616]]}},{"type":"Feature","properties":{},"geometry":{"type":"LineString","coordinates":[[-66.1201,18.4556],[-66.1151,18.4513]]}},{"type":"Feature","properties":{},"geometry":{"type":"LineString","coordinates":[[-66.1201,18.4556],[-66.1166,18.4573]]}},{"type":"Feature","properties":{},"geometry":{"type":"LineString","coordinates":[[-66.1201,18.4556],[-66.1216,18.4616]]}},{"type":"Feature","properties":{},"geometry":{"type":"LineString","coordinates":[[-66.1151,18.4513],[-66.1115,18.4529]]}},{"type":"Feature","properties":{},"geometry":{"type":"LineString","coordinates":[[-66.1151,18.4513],[-66.1166,18.4573]]}},{"type":"Feature","properties":{},"geometry":{"type":"LineString","coordinates":[[-66.1273,18.4671],[-66.1272,18.4687]]}},{"type":"Feature","properties":{},"geometry":{"type":"LineString","coordinates":[[-66.1088,18.4458],[-66.1077,18.4368]]}},{"type":"Feature","properties":{},"geometry":{"type":"LineString","coordinates":[[-66.1088,18.4458],[-66.1094,18.4455]]}},{"type":"Feature","properties":{},"geometry":{"type":"LineString","coordinates":[[-66.1077,18.4368],[-66.1085,18.4366]]}},{"type":"Feature","properties":{},"geometry":{"type":"LineString","coordinates":[[-66.1077,18.4368],[-66.1095,18.4353]]}},{"type":"Feature","properties":{},"geometry":{"type":"LineString","coordinates":[[-66.1077,18.4368],[-66.1063,18.4306]]}},{"type":"Feature","properties":{},"geometry":{"type":"LineString","coordinates":[[-66.1094,18.4455],[-66.1085,18.4366]]}},{"type":"Feature","properties":{},"geometry":{"type":"LineString","coordinates":[[-66.1085,18.4366],[-66.1095,18.4353]]}},{"type":"Feature","properties":{},"geometry":{"type":"LineString","coordinates":[[-66.1085,18.4366],[-66.1063,18.4306]]}},{"type":"Feature","properties":{},"geometry":{"type":"LineString","coordinates":[[-66.7025,18.4799],[-66.7052,18.479]]}},{"type":"Feature","properties":{},"geometry":{"type":"LineString","coordinates":[[-66.0938,18.4445],[-66.1025,18.4477]]}},{"type":"Feature","properties":{},"geometry":{"type":"LineString","coordinates":[[-66.1095,18.4353],[-66.1063,18.4306]]}},{"type":"Feature","properties":{},"geometry":{"type":"LineString","coordinates":[[-66.1272,18.4687],[-66.1278,18.4764]]}},{"type":"Feature","properties":{},"geometry":{"type":"LineString","coordinates":[[-66.1115,18.4529],[-66.1166,18.4573]]}},{"type":"Feature","properties":{},"geometry":{"type":"LineString","coordinates":[[-66.1115,18.4529],[-66.1098,18.4583]]}},{"type":"Feature","properties":{},"geometry":{"type":"LineString","coordinates":[[-66.1115,18.4529],[-66.1103,18.4592]]}},{"type":"Feature","properties":{},"geometry":{"type":"LineString","coordinates":[[-66.1166,18.4573],[-66.1216,18.4616]]}},{"type":"Feature","properties":{},"geometry":{"type":"LineString","coordinates":[[-66.1166,18.4573],[-66.1103,18.4592]]}},{"type":"Feature","properties":{},"geometry":{"type":"LineString","coordinates":[[-66.0925,18.4608],[-66.0963,18.4602]]}},{"type":"Feature","properties":{},"geometry":{"type":"LineString","coordinates":[[-66.0925,18.4608],[-66.1036,18.4612]]}},{"type":"Feature","properties":{},"geometry":{"type":"LineString","coordinates":[[-66.0925,18.4608],[-66.1038,18.4618]]}},{"type":"Feature","properties":{},"geometry":{"type":"LineString","coordinates":[[-66.0963,18.4602],[-66.1036,18.4612]]}},{"type":"Feature","properties":{},"geometry":{"type":"LineString","coordinates":[[-66.0963,18.4602],[-66.1038,18.4618]]}},{"type":"Feature","properties":{},"geometry":{"type":"LineString","coordinates":[[-66.6184,17.9721],[-66.6212,17.9694]]}},{"type":"Feature","properties":{},"geometry":{"type":"LineString","coordinates":[[-66.1098,18.4583],[-66.1103,18.4592]]}},{"type":"Feature","properties":{},"geometry":{"type":"LineString","coordinates":[[-66.1098,18.4583],[-66.1036,18.4612]]}},{"type":"Feature","properties":{},"geometry":{"type":"LineString","coordinates":[[-66.1098,18.4583],[-66.1038,18.4618]]}},{"type":"Feature","properties":{},"geometry":{"type":"LineString","coordinates":[[-66.1103,18.4592],[-66.1036,18.4612]]}},{"type":"Feature","properties":{},"geometry":{"type":"LineString","coordinates":[[-66.1103,18.4592],[-66.1038,18.4618]]}},{"type":"Feature","properties":{},"geometry":{"type":"LineString","coordinates":[[-66.1036,18.4612],[-66.1038,18.4618]]}}]}