{"type":"FeatureCollection","features":[{"type":"Feature","properties":{},"geometry":{"type":"Polygon","coordinates":[[[-66.95982400000003,17.850000000000023],[-66.97500000000002,17.850000000000023],[-66.97500000000002,17.852172999999993],[-66.97500000000002,17.86135009999998],[-66.97500000000002,17.86569259999999],[-66.97500000000002,17.87386650000002],[-66.97500000000002,17.878903999999977],[-66.97500000000002,17.879627200000016],[-66.97500000000002,17.8833477],[-66.97500000000002,17.891526],[-66.97500000000002,17.892457200000024],[-66.97500000000002,17.895504099999982],[-66.97500000000002,17.898459300000013],[-66.97500000000002,17.899249300000008],[-66.97500000000002,17.901385600000026],[-66.97500000000002,17.90951690000003],[-66.97500000000002,17.914369299999976],[-66.97500000000002,17.91643590000001],[-66.97500000000002,17.919612599999994],[-66.97500000000002,17.92500000000001],[-66.95553799999999,17.92500000000001],[-66.955107,17.92500000000001],[-66.9542348,17.92500000000001],[-66.9425594,17.92500000000001],[-66.94127800000001,17.92500000000001],[-66.9338636,17.92500000000001],[-66.9312979,17.92500000000001],[-66.92880079999998,17.92500000000001],[-66.92833139999999,17.92500000000001],[-66.92758140000001,17.92500000000001],[-66.92654290000002,17.92500000000001],[-66.92602119999998,17.92500000000001],[-66.92302380000001,17.92500000000001],[-66.91422369999998,17.92500000000001],[-66.91377449999999,17.92500000000001],[-66.91206419999997,17.92500000000001],[-66.89999999999998,17.92500000000001],[-66.89999999999998,17.923808699999995],[-66.89999999999998,17.922734699999978],[-66.89999999999998,17.9074885],[-66.89999999999998,17.907119899999998],[-66.89999999999998,17.906352400000003],[-66.89999999999998,17.9032191],[-66.89999999999998,17.90024310000001],[-66.89999999999998,17.897217899999987],[-66.89999999999998,17.883415000000014],[-66.89999999999998,17.8826138],[-66.89999999999998,17.881709899999976],[-66.89999999999998,17.862668499999984],[-66.89999999999998,17.862115000000017],[-66.89999999999998,17.850000000000023],[-66.94127800000001,17.850000000000023],[-66.95982400000003,17.850000000000023]]]}},{"type":"Feature","properties":{},"geometry":{"type":"Polygon","coordinates":[[[-66.84877540000002,17.850000000000023],[-66.89999999999998,17.850000000000023],[-66.89999999999998,17.862115000000017],[-66.89999999999998,17.862668499999984],[-66.89999999999998,17.881709899999976],[-66.89999999999998,17.8826138],[-66.89999999999998,17.883415000000014],[-66.89999999999998,17.897217899999987],[-66.89999999999998,17.90024310000001],[-66.89999999999998,17.9032191],[-66.89999999999998,17.906352400000003],[-66.89999999999998,17.907119899999998],[-66.89999999999998,17.9074885],[-66.89999999999998,17.922734699999978],[-66.89999999999998,17.923808699999995],[-66.89999999999998,17.92500000000001],[-66.8978075,17.92500000000001],[-66.89561800000001,17.92500000000001],[-66.88960229999998,17.92500000000001],[-66.88677150000001,17.92500000000001],[-66.88522769999997,17.92500000000001],[-66.88361839999999,17.92500000000001],[-66.8793298,17.92500000000001],[-66.87818479999999,17.92500000000001],[-66.87111470000002,17.92500000000001],[-66.86820189999997,17.92500000000001],[-66.86212599999999,17.92500000000001],[-66.85733110000001,17.92500000000001],[-66.85501640000001,17.92500000000001],[-66.84030769999998,17.92500000000001],[-66.82499999999999,17.92500000000001],[-66.82499999999999,17.91968300000002],[-66.82499999999999,17.901887999999985],[-66.82499999999999,17.90114729999999],[-66.82499999999999,17.88749999999999],[-66.82499999999999,17.874027099999978],[-66.82499999999999,17.858108800000025],[-66.82499999999999,17.850000000000023],[-66.84877540000002,17.850000000000023]]]}},{"type":"Feature","properties":{},"geometry":{"type":"Polygon","coordinates":[[[-66.95553799999999,17.92500000000001],[-66.97500000000002,17.92500000000001],[-66.97500000000002,17.92759910000001],[-66.97500000000002,17.928748100000007],[-66.97500000000002,17.932207699999992],[-66.97500000000002,17.93369469999999],[-66.97500000000002,17.943126500000005],[-66.97500000000002,17.943905400000006],[-66.97500000000002,17.950356399999976],[-66.97500000000002,18.0],[-66.94127800000001,18.0],[-66.89999999999998,18.0],[-66.89999999999998,17.949334399999998],[-66.89999999999998,17.9492295],[-66.89999999999998,17.948788400000012],[-66.89999999999998,17.948720700000024],[-66.89999999999998,17.94801749999999],[-66.89999999999998,17.947977900000012],[-66.89999999999998,17.94751150000002],[-66.89999999999998,17.946579499999984],[-66.89999999999998,17.94386800000001],[-66.89999999999998,17.9395763],[-66.89999999999998,17.93913120000002],[-66.89999999999998,17.9369782],[-66.89999999999998,17.936513100000013],[-66.89999999999998,17.93628749999999],[-66.89999999999998,17.93593900000002],[-66.89999999999998,17.93542100000002],[-66.89999999999998,17.93385649999999],[-66.89999999999998,17.933026799999993],[-66.89999999999998,17.929935],[-66.89999999999998,17.929452200000014],[-66.89999999999998,17.92500000000001],[-66.91206419999997,17.92500000000001],[-66.91377449999999,17.92500000000001],[-66.91422369999998,17.92500000000001],[-66.92302380000001,17.92500000000001],[-66.92602119999998,17.92500000000001],[-66.92654290000002,17.92500000000001],[-66.92758140000001,17.92500000000001],[-66.92833139999999,17.92500000000001],[-66.92880079999998,17.92500000000001],[-66.9312979,17.92500000000001],[-66.9338636,17.92500000000001],[-66.94127800000001,17.92500000000001],[-66.9425594,17.92500000000001],[-66.9542348,17.92500000000001],[-66.955107,17.92500000000001],[-66.95553799999999,17.92500000000001]]]}},{"type":"Feature","properties":{},"geometry":{"type":"Polygon","coordinates":[[[-66.8978075,17.92500000000001],[-66.89999999999998,17.92500000000001],[-66.89999999999998,17.929452200000014],[-66.89999999999998,17.929935],[-66.89999999999998,17.933026799999993],[-66.89999999999998,17.93385649999999],[-66.89999999999998,17.93542100000002],[-66.89999999999998,17.93593900000002],[-66.89999999999998,17.93628749999999],[-66.89999999999998,17.936513100000013],[-66.89999999999998,17.9369782],[-66.89999999999998,17.93913120000002],[-66.89999999999998,17.9395763],[-66.89999999999998,17.94386800000001],[-66.89999999999998,17.946579499999984],[-66.89999999999998,17.94751150000002],[-66.89999999999998,17.947977900000012],[-66.89999999999998,17.94801749999999],[-66.89999999999998,17.948720700000024],[-66.89999999999998,17.948788400000012],[-66.89999999999998,17.949334399999998],[-66.89999999999998,18.0],[-66.8660428,18.0],[-66.85236789999999,18.0],[-66.82499999999999,18.0],[-66.82499999999999,17.97263220000002],[-66.82499999999999,17.954991800000016],[-66.82499999999999,17.954860199999985],[-66.82499999999999,17.954721800000016],[-66.82499999999999,17.951310200000023],[-66.82499999999999,17.94004860000001],[-66.82499999999999,17.939141300000017],[-66.82499999999999,17.938354800000013],[-66.82499999999999,17.93689549999999],[-66.82499999999999,17.934649700000023],[-66.82499999999999,17.92500000000001],[-66.84030769999998,17.92500000000001],[-66.85501640000001,17.92500000000001],[-66.85733110000001,17.92500000000001],[-66.86212599999999,17.92500000000001],[-66.86820189999997,17.92500000000001],[-66.87111470000002,17.92500000000001],[-66.87818479999999,17.92500000000001],[-66.8793298,17.92500000000001],[-66.88361839999999,17.92500000000001],[-66.88522769999997,17.92500000000001],[-66.88677150000001,17.92500000000001],[-66.88960229999998,17.92500000000001],[-66.89561800000001,17.92500000000001],[-66.8978075,17.92500000000001]]]}},{"type":"Feature","properties":{},"geometry":{"type":"Polygon","coordinates":[[[-67.2653793,18.0],[-67.27499999999998,18.0],[-67.27499999999998,18.014573700000028],[-67.27499999999998,18.018858299999977],[-67.27499999999998,18.02653600000002],[-67.27499999999998,18.030781999999988],[-67.27499999999998,18.033025699999996],[-67.27499999999998,18.033229399999982],[-67.27499999999998,18.03973450000001],[-67.27499999999998,18.044178799999997],[-67.27499999999998,18.047067000000027],[-67.27499999999998,18.050497399999983],[-67.27499999999998,18.051065300000005],[-67.27499999999998,18.054553699999985],[-67.27499999999998,18.06037459999999],[-67.27499999999998,18.062055799999996],[-67.27499999999998,18.063106000000005],[-67.27499999999998,18.0703436],[-67.27499999999998,18.0708439],[-67.27499999999998,18.073980500000005],[-67.27499999999998,18.07499999999999],[-67.27376800000002,18.07499999999999],[-67.2679321,18.07499999999999],[-67.26397359999999,18.07499999999999],[-67.263416,18.07499999999999],[-67.26107580000001,18.07499999999999],[-67.26050659999999,18.07499999999999],[-67.26031469999998,18.07499999999999],[-67.25974230000003,18.07499999999999],[-67.2564132,18.07499999999999],[-67.25555989999998,18.07499999999999],[-67.25412610000001,18.07499999999999],[-67.25350600000002,18.07499999999999],[-67.2526684,18.07499999999999],[-67.25012720000001,18.07499999999999],[-67.24997509999997,18.07499999999999],[-67.24671139999998,18.07499999999999],[-67.24594660000002,18.07499999999999],[-67.24511310000003,18.07499999999999],[-67.24445980000002,18.07499999999999],[-67.24392390000003,18.07499999999999],[-67.23668830000003,18.07499999999999],[-67.2341098,18.07499999999999],[-67.22746039999998,18.07499999999999],[-67.21756090000002,18.07499999999999],[-67.21363450000001,18.07499999999999],[-67.2128323,18.07499999999999],[-67.20533690000002,18.07499999999999],[-67.20532680000002,18.07499999999999],[-67.20488440000003,18.07499999999999],[-67.2010285,18.07499999999999],[-67.20004719999997,18.07499999999999],[-67.19999999999999,18.07499999999999],[-67.19999999999999,18.07494969999999],[-67.19999999999999,18.07157430000001],[-67.19999999999999,18.071286600000008],[-67.19999999999999,18.07092369999998],[-67.19999999999999,18.066463699999986],[-67.19999999999999,18.063695199999984],[-67.19999999999999,18.06260850000001],[-67.19999999999999,18.062022300000024],[-67.19999999999999,18.060236599999996],[-67.19999999999999,18.060083700000007],[-67.19999999999999,18.060034299999984],[-67.19999999999999,18.05985340000001],[-67.19999999999999,18.057922899999994],[-67.19999999999999,18.056193399999984],[-67.19999999999999,18.0538004],[-67.19999999999999,18.052915400000018],[-67.19999999999999,18.052150299999994],[-67.19999999999999,18.050924399999985],[-67.19999999999999,18.04951410000001],[-67.19999999999999,18.04755419999998],[-67.19999999999999,18.047073099999977],[-67.19999999999999,18.046282899999994],[-67.19999999999999,18.046141299999988],[-67.19999999999999,18.040498500000012],[-67.19999999999999,18.04029969999999],[-67.19999999999999,18.040238999999985],[-67.19999999999999,18.04001340000002],[-67.19999999999999,18.039675999999986],[-67.19999999999999,18.039261399999987],[-67.19999999999999,18.038995899999975],[-67.19999999999999,18.034995700000024],[-67.19999999999999,18.034764399999972],[-67.19999999999999,18.034498299999996],[-67.19999999999999,18.03367589999999],[-67.19999999999999,18.033672799999977],[-67.19999999999999,18.032810299999994],[-67.19999999999999,18.032702299999983],[-67.19999999999999,18.03251849999998],[-67.19999999999999,18.032335999999987],[-67.19999999999999,18.03196109999999],[-67.19999999999999,18.031760099999985],[-67.19999999999999,18.031496199999992],[-67.19999999999999,18.0271568],[-67.19999999999999,18.022360900000024],[-67.19999999999999,18.021370999999988],[-67.19999999999999,18.0197091],[-67.19999999999999,18.019635300000004],[-67.19999999999999,18.018909699999995],[-67.19999999999999,18.018692999999985],[-67.19999999999999,18.018404999999973],[-67.19999999999999,18.016766700000005],[-67.19999999999999,18.014396999999974],[-67.19999999999999,18.014176399999997],[-67.19999999999999,18.014175599999987],[-67.19999999999999,18.013689399999976],[-67.19999999999999,18.009804099999997],[-67.19999999999999,18.006516299999987],[-67.19999999999999,18.005022499999995],[-67.19999999999999,18.004801900000018],[-67.19999999999999,18.004129799999987],[-67.19999999999999,18.00389469999999],[-67.19999999999999,18.003191300000026],[-67.19999999999999,18.002980700000023],[-67.19999999999999,18.001589200000012],[-67.19999999999999,18.001556400000027],[-67.19999999999999,18.0],[-67.2022809,18.0],[-67.2023117,18.0],[-67.20255420000001,18.0],[-67.20957550000003,18.0],[-67.21035030000002,18.0],[-67.21053949999998,18.0],[-67.21055849999999,18.0],[-67.2109001,18.0],[-67.21097300000002,18.0],[-67.21136109999998,18.0],[-67.21153220000002,18.0],[-67.21235919999998,18.0],[-67.21351179999999,18.0],[-67.21730880000001,18.0],[-67.21735319999999,18.0],[-67.22129100000001,18.0],[-67.22492390000002,18.0],[-67.2268214,18.0],[-67.22720270000002,18.0],[-67.22997989999999,18.0],[-67.23371450000002,18.0],[-67.23504880000002,18.0],[-67.24065030000003,18.0],[-67.24172720000001,18.0],[-67.24478729999998,18.0],[-67.2646006,18.0],[-67.2653793,18.0]]]}},{"type":"Feature","properties":{},"geometry":{"type":"Polygon","coordinates":[[[-67.16518000000002,18.0],[-67.19999999999999,18.0],[-67.19999999999999,18.001556400000027],[-67.19999999999999,18.001589200000012],[-67.19999999999999,18.002980700000023],[-67.19999999999999,18.003191300000026],[-67.19999999999999,18.00389469999999],[-67.19999999999999,18.004129799999987],[-67.19999999999999,18.004801900000018],[-67.19999999999999,18.005022499999995],[-67.19999999999999,18.006516299999987],[-67.19999999999999,18.009804099999997],[-67.19999999999999,18.013689399999976],[-67.19999999999999,18.014175599999987],[-67.19999999999999,18.014176399999997],[-67.19999999999999,18.014396999999974],[-67.19999999999999,18.016766700000005],[-67.19999999999999,18.018404999999973],[-67.19999999999999,18.018692999999985],[-67.19999999999999,18.018909699999995],[-67.19999999999999,18.019635300000004],[-67.19999999999999,18.0197091],[-67.19999999999999,18.021370999999988],[-67.19999999999999,18.022360900000024],[-67.19999999999999,18.0271568],[-67.19999999999999,18.031496199999992],[-67.19999999999999,18.031760099999985],[-67.19999999999999,18.03196109999999],[-67.19999999999999,18.032335999999987],[-67.19999999999999,18.03251849999998],[-67.19999999999999,18.032702299999983],[-67.19999999999999,18.032810299999994],[-67.19999999999999,18.033672799999977],[-67.19999999999999,18.03367589999999],[-67.19999999999999,18.034498299999996],[-67.19999999999999,18.034764399999972],[-67.19999999999999,18.034995700000024],[-67.19999999999999,18.038995899999975],[-67.19999999999999,18.039261399999987],[-67.19999999999999,18.039675999999986],[-67.19999999999999,18.04001340000002],[-67.19999999999999,18.040238999999985],[-67.19999999999999,18.04029969999999],[-67.19999999999999,18.040498500000012],[-67.19999999999999,18.046141299999988],[-67.19999999999999,18.046282899999994],[-67.19999999999999,18.047073099999977],[-67.19999999999999,18.04755419999998],[-67.19999999999999,18.04951410000001],[-67.19999999999999,18.050924399999985],[-67.19999999999999,18.052073099999973],[-67.19999999999999,18.052125100000012],[-67.19999999999999,18.052128299999993],[-67.19999999999999,18.052145600000017],[-67.19999999999999,18.052150299999994],[-67.19999999999999,18.052915400000018],[-67.19999999999999,18.060083700000007],[-67.19999999999999,18.060236599999996],[-67.19999999999999,18.062022300000024],[-67.19999999999999,18.06260850000001],[-67.19999999999999,18.063054099999988],[-67.19999999999999,18.063695199999984],[-67.19999999999999,18.066463699999986],[-67.19999999999999,18.067618299999992],[-67.19999999999999,18.07092369999998],[-67.19999999999999,18.071286600000008],[-67.19999999999999,18.07157430000001],[-67.19999999999999,18.07494969999999],[-67.19999999999999,18.07499999999999],[-67.1995359,18.07499999999999],[-67.19950440000002,18.07499999999999],[-67.19794139999999,18.07499999999999],[-67.19783690000003,18.07499999999999],[-67.1974409,18.07499999999999],[-67.19711539999997,18.07499999999999],[-67.19653390000002,18.07499999999999],[-67.1965189,18.07499999999999],[-67.19559859999998,18.07499999999999],[-67.19531,18.07499999999999],[-67.19486740000002,18.07499999999999],[-67.19481680000001,18.07499999999999],[-67.19457119999998,18.07499999999999],[-67.19453529999998,18.07499999999999],[-67.19424020000002,18.07499999999999],[-67.19421360000001,18.07499999999999],[-67.19404400000002,18.07499999999999],[-67.19367240000003,18.07499999999999],[-67.19367,18.07499999999999],[-67.19308289999998,18.07499999999999],[-67.1930107,18.07499999999999],[-67.18896269999999,18.07499999999999],[-67.18876060000002,18.07499999999999],[-67.1886705,18.07499999999999],[-67.125,18.07499999999999],[-67.125,18.0],[-67.16518000000002,18.0]]]}},{"type":"Feature","properties":{},"geometry":{"type":"Polygon","coordinates":[[[-67.27499999999998,18.1619015],[-67.27499999999998,18.1661254],[-67.27499999999998,18.167733499999997],[-67.27499999999998,18.170039599999996],[-67.27499999999998,18.1721675],[-67.27499999999998,18.181035399999985],[-67.27499999999998,18.185467000000017],[-67.27499999999998,18.20051810000001],[-67.27499999999998,18.21518900000001],[-67.27499999999998,18.225000000000023],[-67.25478720000001,18.225000000000023],[-67.25233659999998,18.225000000000023],[-67.24307549999997,18.225000000000023],[-67.232958,18.225000000000023],[-67.23126559999997,18.225000000000023],[-67.2303311,18.225000000000023],[-67.2219758,18.225000000000023],[-67.21059380000003,18.225000000000023],[-67.2017434,18.225000000000023],[-67.20143560000002,18.225000000000023],[-67.19999999999999,18.225000000000023],[-67.19999999999999,18.222759699999983],[-67.19999999999999,18.2205328],[-67.19999999999999,18.219756700000005],[-67.19999999999999,18.215960300000006],[-67.19999999999999,18.215551600000026],[-67.19999999999999,18.21426489999999],[-67.19999999999999,18.212341700000025],[-67.19999999999999,18.208986700000025],[-67.19999999999999,18.2063981],[-67.19999999999999,18.198882400000002],[-67.19999999999999,18.198466499999995],[-67.19999999999999,18.187618699999973],[-67.19999999999999,18.183604100000025],[-67.19999999999999,18.1810021],[-67.19999999999999,18.180267800000024],[-67.19999999999999,18.179084999999986],[-67.19999999999999,18.178459099999998],[-67.19999999999999,18.17811180000001],[-67.19999999999999,18.172538499999973],[-67.19999999999999,18.172116200000005],[-67.19999999999999,18.17133580000001],[-67.19999999999999,18.170094800000015],[-67.19999999999999,18.168980299999987],[-67.19999999999999,18.162402199999974],[-67.19999999999999,18.1619594],[-67.19999999999999,18.161518399999977],[-67.19999999999999,18.160654299999976],[-67.19999999999999,18.157206900000006],[-67.19999999999999,18.15479499999998],[-67.19999999999999,18.153562299999976],[-67.19999999999999,18.149999999999977],[-67.200467,18.149999999999977],[-67.20548760000003,18.149999999999977],[-67.21410739999999,18.149999999999977],[-67.21660759999997,18.149999999999977],[-67.2170193,18.149999999999977],[-67.22168970000001,18.149999999999977],[-67.2222782,18.149999999999977],[-67.22770489999999,18.149999999999977],[-67.23111590000002,18.149999999999977],[-67.23169059999998,18.149999999999977],[-67.23427329999998,18.149999999999977],[-67.23624330000001,18.149999999999977],[-67.2370234,18.149999999999977],[-67.23731379999998,18.149999999999977],[-67.24149510000001,18.149999999999977],[-67.2420707,18.149999999999977],[-67.24234949999999,18.149999999999977],[-67.24458279999999,18.149999999999977],[-67.24680319999999,18.149999999999977],[-67.25843700000001,18.149999999999977],[-67.2602756,18.149999999999977],[-67.262383,18.149999999999977],[-67.26664160000001,18.149999999999977],[-67.27499999999998,18.149999999999977],[-67.27499999999998,18.1619015]]]}},{"type":"Feature","properties":{},"geometry":{"type":"Polygon","coordinates":[[[-67.1989797,18.149999999999977],[-67.19999999999999,18.149999999999977],[-67.19999999999999,18.153562299999976],[-67.19999999999999,18.15479499999998],[-67.19999999999999,18.157206900000006],[-67.19999999999999,18.160654299999976],[-67.19999999999999,18.161518399999977],[-67.19999999999999,18.1619594],[-67.19999999999999,18.162402199999974],[-67.19999999999999,18.168980299999987],[-67.19999999999999,18.170094800000015],[-67.19999999999999,18.17133580000001],[-67.19999999999999,18.172116200000005],[-67.19999999999999,18.172538499999973],[-67.19999999999999,18.17811180000001],[-67.19999999999999,18.178459099999998],[-67.19999999999999,18.179084999999986],[-67.19999999999999,18.180267800000024],[-67.19999999999999,18.1810021],[-67.19999999999999,18.183604100000025],[-67.19999999999999,18.187618699999973],[-67.19999999999999,18.198466499999995],[-67.19999999999999,18.198882400000002],[-67.19999999999999,18.2063981],[-67.19999999999999,18.208986700000025],[-67.19999999999999,18.212341700000025],[-67.19999999999999,18.21426489999999],[-67.19999999999999,18.215551600000026],[-67.19999999999999,18.215960300000006],[-67.19999999999999,18.219756700000005],[-67.19999999999999,18.2205328],[-67.19999999999999,18.222759699999983],[-67.19999999999999,18.225000000000023],[-67.199883,18.225000000000023],[-67.19933049999997,18.225000000000023],[-67.19894049999999,18.225000000000023],[-67.19886459999998,18.225000000000023],[-67.1976846,18.225000000000023],[-67.19584200000003,18.225000000000023],[-67.19507800000002,18.225000000000023],[-67.19460559999999,18.225000000000023],[-67.1929513,18.225000000000023],[-67.18752840000002,18.225000000000023],[-67.18270389999998,18.225000000000023],[-67.17957660000002,18.225000000000023],[-67.1785342,18.225000000000023],[-67.17825579999999,18.225000000000023],[-67.17746949999997,18.225000000000023],[-67.17731980000002,18.225000000000023],[-67.17697270000002,18.225000000000023],[-67.1768346,18.225000000000023],[-67.1762928,18.225000000000023],[-67.1759581,18.225000000000023],[-67.17592059999998,18.225000000000023],[-67.17540179999997,18.225000000000023],[-67.1750323,18.225000000000023],[-67.17469249999999,18.225000000000023],[-67.17451399999999,18.225000000000023],[-67.17335500000002,18.225000000000023],[-67.17294829999997,18.225000000000023],[-67.1722408,18.225000000000023],[-67.17182309999998,18.225000000000023],[-67.1708279,18.225000000000023],[-67.17005390000003,18.225000000000023],[-67.125,18.225000000000023],[-67.125,18.20952349999999],[-67.125,18.204748300000006],[-67.125,18.15479499999998],[-67.125,18.149999999999977],[-67.17688290000001,18.149999999999977],[-67.17689330000002,18.149999999999977],[-67.17739449999999,18.149999999999977],[-67.18092919999998,18.149999999999977],[-67.19086579999998,18.149999999999977],[-67.19159100000002,18.149999999999977],[-67.19697630000002,18.149999999999977],[-67.1989797,18.149999999999977]]]}},{"type":"Feature","properties":{},"geometry":{"type":"Polygon","coordinates":[[[-67.25478720000001,18.225000000000023],[-67.27499999999998,18.225000000000023],[-67.27499999999998,18.237596999999994],[-67.27499999999998,18.24186400000002],[-67.27499999999998,18.246962199999984],[-67.27499999999998,18.251308300000005],[-67.27499999999998,18.26663880000001],[-67.27499999999998,18.267711200000008],[-67.27499999999998,18.282789400000013],[-67.27499999999998,18.286959799999977],[-67.27499999999998,18.30000000000001],[-67.27196359999999,18.30000000000001],[-67.27106149999997,18.30000000000001],[-67.26432679999999,18.30000000000001],[-67.2599631,18.30000000000001],[-67.25325029999999,18.30000000000001],[-67.253016,18.30000000000001],[-67.25153999999998,18.30000000000001],[-67.25039670000001,18.30000000000001],[-67.24982510000001,18.30000000000001],[-67.24925339999999,18.30000000000001],[-67.24723890000001,18.30000000000001],[-67.24539470000002,18.30000000000001],[-67.24538080000002,18.30000000000001],[-67.2442145,18.30000000000001],[-67.2424795,18.30000000000001],[-67.23732239999998,18.30000000000001],[-67.23641730000003,18.30000000000001],[-67.23607340000001,18.30000000000001],[-67.23537879999998,18.30000000000001],[-67.23526479999998,18.30000000000001],[-67.2350932,18.30000000000001],[-67.22693559999999,18.30000000000001],[-67.19999999999999,18.30000000000001],[-67.19999999999999,18.292479800000024],[-67.19999999999999,18.2922949],[-67.19999999999999,18.289388799999983],[-67.19999999999999,18.282364799999982],[-67.19999999999999,18.272658799999988],[-67.19999999999999,18.272426999999993],[-67.19999999999999,18.27215799999999],[-67.19999999999999,18.272111199999983],[-67.19999999999999,18.27102500000001],[-67.19999999999999,18.266986799999984],[-67.19999999999999,18.241653600000006],[-67.19999999999999,18.241514199999983],[-67.19999999999999,18.240478800000005],[-67.19999999999999,18.2339202],[-67.19999999999999,18.233665499999972],[-67.19999999999999,18.2316371],[-67.19999999999999,18.231041100000027],[-67.19999999999999,18.226584300000013],[-67.19999999999999,18.2264586],[-67.19999999999999,18.226079500000026],[-67.19999999999999,18.225188100000025],[-67.19999999999999,18.225000000000023],[-67.20143560000002,18.225000000000023],[-67.2017434,18.225000000000023],[-67.21059380000003,18.225000000000023],[-67.2219758,18.225000000000023],[-67.2303311,18.225000000000023],[-67.23126559999997,18.225000000000023],[-67.232958,18.225000000000023],[-67.24307549999997,18.225000000000023],[-67.25233659999998,18.225000000000023],[-67.25478720000001,18.225000000000023]]]}},{"type":"Feature","properties":{},"geometry":{"type":"Polygon","coordinates":[[[-67.199883,18.225000000000023],[-67.19999999999999,18.225000000000023],[-67.19999999999999,18.225188100000025],[-67.19999999999999,18.226079500000026],[-67.19999999999999,18.2264586],[-67.19999999999999,18.226584300000013],[-67.19999999999999,18.231041100000027],[-67.19999999999999,18.2316371],[-67.19999999999999,18.233665499999972],[-67.19999999999999,18.2339202],[-67.19999999999999,18.240478800000005],[-67.19999999999999,18.241514199999983],[-67.19999999999999,18.241653600000006],[-67.19999999999999,18.266986799999984],[-67.19999999999999,18.27102500000001],[-67.19999999999999,18.272111199999983],[-67.19999999999999,18.27215799999999],[-67.19999999999999,18.272426999999993],[-67.19999999999999,18.272658799999988],[-67.19999999999999,18.282364799999982],[-67.19999999999999,18.289388799999983],[-67.19999999999999,18.292479800000024],[-67.19999999999999,18.30000000000001],[-67.15365159999999,18.30000000000001],[-67.125,18.30000000000001],[-67.125,18.274227900000028],[-67.125,18.273573499999998],[-67.125,18.272426999999993],[-67.125,18.271552999999983],[-67.125,18.225000000000023],[-67.17005390000003,18.225000000000023],[-67.1708279,18.225000000000023],[-67.17182309999998,18.225000000000023],[-67.1722408,18.225000000000023],[-67.17294829999997,18.225000000000023],[-67.17335500000002,18.225000000000023],[-67.17451399999999,18.225000000000023],[-67.17469249999999,18.225000000000023],[-67.1750323,18.225000000000023],[-67.17540179999997,18.225000000000023],[-67.17592059999998,18.225000000000023],[-67.1759581,18.225000000000023],[-67.1762928,18.225000000000023],[-67.1768346,18.225000000000023],[-67.17697270000002,18.225000000000023],[-67.17731980000002,18.225000000000023],[-67.17746949999997,18.225000000000023],[-67.17825579999999,18.225000000000023],[-67.1785342,18.225000000000023],[-67.17957660000002,18.225000000000023],[-67.18270389999998,18.225000000000023],[-67.18752840000002,18.225000000000023],[-67.1929513,18.225000000000023],[-67.19460559999999,18.225000000000023],[-67.19507800000002,18.225000000000023],[-67.19584200000003,18.225000000000023],[-67.1976846,18.225000000000023],[-67.19886459999998,18.225000000000023],[-67.19894049999999,18.225000000000023],[-67.19933049999997,18.225000000000023],[-67.199883,18.225000000000023]]]}},{"type":"Feature","properties":{},"geometry":{"type":"Polygon","coordinates":[[[-66.75,18.44999999999999],[-66.75,18.4772375],[-66.75,18.477816800000028],[-66.75,18.478082500000028],[-66.75,18.478397400000006],[-66.75,18.479707099999985],[-66.75,18.483199500000012],[-66.75,18.486497799999995],[-66.75,18.487457699999993],[-66.75,18.488066500000002],[-66.75,18.496858900000007],[-66.75,18.524999999999977],[-66.74792730000001,18.524999999999977],[-66.67500000000001,18.524999999999977],[-66.67500000000001,18.511708999999996],[-66.67500000000001,18.50352620000001],[-66.67500000000001,18.49798149999998],[-66.67500000000001,18.497493399999996],[-66.67500000000001,18.4927098],[-66.67500000000001,18.49084499999998],[-66.67500000000001,18.489984100000015],[-66.67500000000001,18.489474099999995],[-66.67500000000001,18.48911670000001],[-66.67500000000001,18.488759300000027],[-66.67500000000001,18.4880445],[-66.67500000000001,18.486428400000023],[-66.67500000000001,18.477322300000026],[-66.67500000000001,18.473248899999987],[-66.67500000000001,18.463194199999975],[-66.67500000000001,18.44999999999999],[-66.75,18.44999999999999]]]}},{"type":"Feature","properties":{},"geometry":{"type":"Polygon","coordinates":[[[-66.5288562,18.44999999999999],[-66.52958480000001,18.44999999999999],[-66.60000000000002,18.44999999999999],[-66.60000000000002,18.488645099999985],[-66.60000000000002,18.489435800000024],[-66.60000000000002,18.48993039999999],[-66.60000000000002,18.490226399999983],[-66.60000000000002,18.492554299999995],[-66.60000000000002,18.495683999999983],[-66.60000000000002,18.499669799999992],[-66.60000000000002,18.50010229999998],[-66.60000000000002,18.506554100000017],[-66.60000000000002,18.51184840000002],[-66.60000000000002,18.516048099999978],[-66.60000000000002,18.524999999999977],[-66.52499999999998,18.524999999999977],[-66.52499999999998,18.50884339999999],[-66.52499999999998,18.50185160000001],[-66.52499999999998,18.49279419999999],[-66.52499999999998,18.492657199999996],[-66.52499999999998,18.487040499999978],[-66.52499999999998,18.485629899999992],[-66.52499999999998,18.485166300000003],[-66.52499999999998,18.48457159999998],[-66.52499999999998,18.481896800000015],[-66.52499999999998,18.44999999999999],[-66.5288562,18.44999999999999]]]}},{"type":"Feature","properties":{},"geometry":{"type":"Polygon","coordinates":[[[-66.7208144,17.850000000000023],[-66.75,17.850000000000023],[-66.75,17.852362700000015],[-66.75,17.897492999999997],[-66.75,17.913004],[-66.75,17.913726699999984],[-66.75,17.92500000000001],[-66.6905827,17.92500000000001],[-66.67500000000001,17.92500000000001],[-66.67500000000001,17.899818200000027],[-66.67500000000001,17.899094900000023],[-66.67500000000001,17.869305899999972],[-66.67500000000001,17.850000000000023],[-66.70263849999998,17.850000000000023],[-66.7208144,17.850000000000023]]]}},{"type":"Feature","properties":{},"geometry":{"type":"Polygon","coordinates":[[[-66.67500000000001,17.850000000000023],[-66.67500000000001,17.869305899999972],[-66.67500000000001,17.899094900000023],[-66.67500000000001,17.899818200000027],[-66.67500000000001,17.92500000000001],[-66.62769809999998,17.92500000000001],[-66.6272171,17.92500000000001],[-66.62690789999999,17.92500000000001],[-66.62464690000002,17.92500000000001],[-66.62159559999998,17.92500000000001],[-66.62133749999998,17.92500000000001],[-66.61473840000002,17.92500000000001],[-66.6078655,17.92500000000001],[-66.60000000000002,17.92500000000001],[-66.60000000000002,17.916470500000003],[-66.60000000000002,17.909559100000024],[-66.60000000000002,17.908823199999972],[-66.60000000000002,17.90400820000002],[-66.60000000000002,17.901012900000012],[-66.60000000000002,17.869305899999972],[-66.60000000000002,17.850000000000023],[-66.67500000000001,17.850000000000023]]]}},{"type":"Feature","properties":{},"geometry":{"type":"Polygon","coordinates":[[[-66.59447319999998,17.850000000000023],[-66.60000000000002,17.850000000000023],[-66.60000000000002,17.869305899999972],[-66.60000000000002,17.901012900000012],[-66.60000000000002,17.90400820000002],[-66.60000000000002,17.908823199999972],[-66.60000000000002,17.909559100000024],[-66.60000000000002,17.916470500000003],[-66.60000000000002,17.92500000000001],[-66.55267079999999,17.92500000000001],[-66.52499999999998,17.92500000000001],[-66.52499999999998,17.911845900000003],[-66.52499999999998,17.904064000000005],[-66.52499999999998,17.902989100000013],[-66.52499999999998,17.901606200000003],[-66.52499999999998,17.900775899999985],[-66.52499999999998,17.8992389],[-66.52499999999998,17.8980014],[-66.52499999999998,17.89714429999998],[-66.52499999999998,17.89677519999998],[-66.52499999999998,17.896381799999972],[-66.52499999999998,17.89569130000001],[-66.52499999999998,17.89556090000002],[-66.52499999999998,17.895031099999983],[-66.52499999999998,17.887325900000008],[-66.52499999999998,17.8868334],[-66.52499999999998,17.886516400000005],[-66.52499999999998,17.886243499999978],[-66.52499999999998,17.883035500000005],[-66.52499999999998,17.880648399999984],[-66.52499999999998,17.878376800000012],[-66.52499999999998,17.878196800000012],[-66.52499999999998,17.871629700000028],[-66.52499999999998,17.87074039999999],[-66.52499999999998,17.869305899999972],[-66.52499999999998,17.861931500000026],[-66.52499999999998,17.861109999999996],[-66.52499999999998,17.857692699999973],[-66.52499999999998,17.850000000000023],[-66.5683555,17.850000000000023],[-66.5743999,17.850000000000023],[-66.57536959999999,17.850000000000023],[-66.57843700000001,17.850000000000023],[-66.57992739999997,17.850000000000023],[-66.58030659999997,17.850000000000023],[-66.59447319999998,17.850000000000023]]]}},{"type":"Feature","properties":{},"geometry":{"type":"Polygon","coordinates":[[[-66.52254299999998,17.850000000000023],[-66.52499999999998,17.850000000000023],[-66.52499999999998,17.857692699999973],[-66.52499999999998,17.861109999999996],[-66.52499999999998,17.861931500000026],[-66.52499999999998,17.869305899999972],[-66.52499999999998,17.87074039999999],[-66.52499999999998,17.871629700000028],[-66.52499999999998,17.878196800000012],[-66.52499999999998,17.878376800000012],[-66.52499999999998,17.880648399999984],[-66.52499999999998,17.883035500000005],[-66.52499999999998,17.886243499999978],[-66.52499999999998,17.886516400000005],[-66.52499999999998,17.8868334],[-66.52499999999998,17.887325900000008],[-66.52499999999998,17.895031099999983],[-66.52499999999998,17.89556090000002],[-66.52499999999998,17.89569130000001],[-66.52499999999998,17.896381799999972],[-66.52499999999998,17.89677519999998],[-66.52499999999998,17.89714429999998],[-66.52499999999998,17.8980014],[-66.52499999999998,17.8992389],[-66.52499999999998,17.900775899999985],[-66.52499999999998,17.901606200000003],[-66.52499999999998,17.902989100000013],[-66.52499999999998,17.904064000000005],[-66.52499999999998,17.911845900000003],[-66.52499999999998,17.92500000000001],[-66.51490810000001,17.92500000000001],[-66.50791609999999,17.92500000000001],[-66.50420000000003,17.92500000000001],[-66.50049039999999,17.92500000000001],[-66.49601689999997,17.92500000000001],[-66.4789581,17.92500000000001],[-66.47064929999999,17.92500000000001],[-66.46972849999997,17.92500000000001],[-66.46681810000001,17.92500000000001],[-66.46142579999997,17.92500000000001],[-66.45986210000001,17.92500000000001],[-66.45686749999999,17.92500000000001],[-66.45597279999998,17.92500000000001],[-66.45595559999998,17.92500000000001],[-66.45528610000002,17.92500000000001],[-66.45482449999997,17.92500000000001],[-66.453799,17.92500000000001],[-66.45272599999998,17.92500000000001],[-66.45263319999998,17.92500000000001],[-66.45251389999999,17.92500000000001],[-66.45220619999998,17.92500000000001],[-66.45200940000001,17.92500000000001],[-66.45194509999999,17.92500000000001],[-66.45179389999998,17.92500000000001],[-66.44999999999999,17.92500000000001],[-66.44999999999999,17.910844999999995],[-66.44999999999999,17.904023699999982],[-66.44999999999999,17.897739399999978],[-66.44999999999999,17.897361699999976],[-66.44999999999999,17.896531600000003],[-66.44999999999999,17.89613350000002],[-66.44999999999999,17.889797999999985],[-66.44999999999999,17.886760100000004],[-66.44999999999999,17.870188900000016],[-66.44999999999999,17.869460600000025],[-66.44999999999999,17.861109999999996],[-66.44999999999999,17.850000000000023],[-66.4822221,17.850000000000023],[-66.48384370000002,17.850000000000023],[-66.51808879999999,17.850000000000023],[-66.52254299999998,17.850000000000023]]]}},{"type":"Feature","properties":{},"geometry":{"type":"Polygon","coordinates":[[[-66.77746209999998,17.92500000000001],[-66.82499999999999,17.92500000000001],[-66.82499999999999,17.934649700000023],[-66.82499999999999,17.93689549999999],[-66.82499999999999,17.938354800000013],[-66.82499999999999,17.939141300000017],[-66.82499999999999,17.94004860000001],[-66.82499999999999,17.951310200000023],[-66.82499999999999,17.954721800000016],[-66.82499999999999,17.954860199999985],[-66.82499999999999,17.954991800000016],[-66.82499999999999,17.95507759999998],[-66.82499999999999,17.97263220000002],[-66.82499999999999,18.0],[-66.78549880000003,18.0],[-66.78034200000002,18.0],[-66.7798004,18.0],[-66.77888189999999,18.0],[-66.77656409999997,18.0],[-66.77569940000001,18.0],[-66.77492760000001,18.0],[-66.77474510000002,18.0],[-66.7737141,18.0],[-66.7732466,18.0],[-66.77205550000002,18.0],[-66.7685634,18.0],[-66.76752809999999,18.0],[-66.7673792,18.0],[-66.7670943,18.0],[-66.76600200000001,18.0],[-66.76384810000002,18.0],[-66.76332059999999,18.0],[-66.7631045,18.0],[-66.76291049999998,18.0],[-66.76223759999999,18.0],[-66.76204639999997,18.0],[-66.7601813,18.0],[-66.75784240000002,18.0],[-66.75749960000002,18.0],[-66.75730140000002,18.0],[-66.75528100000002,18.0],[-66.75481939999997,18.0],[-66.75467939999999,18.0],[-66.7510077,18.0],[-66.75099039999998,18.0],[-66.75,18.0],[-66.75,17.995101299999988],[-66.75,17.994435099999976],[-66.75,17.994269599999996],[-66.75,17.993965300000013],[-66.75,17.992387500000007],[-66.75,17.988158399999975],[-66.75,17.987277399999982],[-66.75,17.986831699999982],[-66.75,17.98626109999998],[-66.75,17.983737500000018],[-66.75,17.976627099999973],[-66.75,17.976527900000008],[-66.75,17.97645399999999],[-66.75,17.975917299999992],[-66.75,17.974911399999996],[-66.75,17.974907099999996],[-66.75,17.97466129999998],[-66.75,17.97330690000001],[-66.75,17.973216100000002],[-66.75,17.973184000000003],[-66.75,17.972978000000012],[-66.75,17.972832700000026],[-66.75,17.97277170000001],[-66.75,17.972346399999992],[-66.75,17.972231000000022],[-66.75,17.97205839999998],[-66.75,17.971649300000024],[-66.75,17.970701700000006],[-66.75,17.970566399999996],[-66.75,17.970308799999998],[-66.75,17.970224299999984],[-66.75,17.97016000000002],[-66.75,17.969643700000006],[-66.75,17.969020399999977],[-66.75,17.9683091],[-66.75,17.968108299999983],[-66.75,17.967780199999993],[-66.75,17.967315999999983],[-66.75,17.96705589999999],[-66.75,17.966893000000027],[-66.75,17.96675449999998],[-66.75,17.966694599999983],[-66.75,17.966527400000018],[-66.75,17.966241000000025],[-66.75,17.964955499999974],[-66.75,17.963600100000008],[-66.75,17.963269000000025],[-66.75,17.962669000000005],[-66.75,17.96242269999999],[-66.75,17.961965399999997],[-66.75,17.96032500000001],[-66.75,17.95891419999998],[-66.75,17.95859760000002],[-66.75,17.956986500000028],[-66.75,17.956671700000015],[-66.75,17.9399722],[-66.75,17.92500000000001],[-66.77746209999998,17.92500000000001]]]}},{"type":"Feature","properties":{},"geometry":{"type":"Polygon","coordinates":[[[-66.6905827,17.92500000000001],[-66.75,17.92500000000001],[-66.75,17.9399722],[-66.75,17.956671700000015],[-66.75,17.956986500000028],[-66.75,17.95859760000002],[-66.75,17.95891419999998],[-66.75,17.96032500000001],[-66.75,17.961965399999997],[-66.75,17.96242269999999],[-66.75,17.962669000000005],[-66.75,17.963269000000025],[-66.75,17.963600100000008],[-66.75,17.964955499999974],[-66.75,17.966241000000025],[-66.75,17.966527400000018],[-66.75,17.966694599999983],[-66.75,17.96675449999998],[-66.75,17.966893000000027],[-66.75,17.96705589999999],[-66.75,17.967315999999983],[-66.75,17.967780199999993],[-66.75,17.968108299999983],[-66.75,17.9683091],[-66.75,17.969020399999977],[-66.75,17.969643700000006],[-66.75,17.97016000000002],[-66.75,17.970224299999984],[-66.75,17.970308799999998],[-66.75,17.970566399999996],[-66.75,17.970701700000006],[-66.75,17.971649300000024],[-66.75,17.97205839999998],[-66.75,17.972231000000022],[-66.75,17.972346399999992],[-66.75,17.97277170000001],[-66.75,17.972832700000026],[-66.75,17.972978000000012],[-66.75,17.973184000000003],[-66.75,17.973216100000002],[-66.75,17.97330690000001],[-66.75,17.97466129999998],[-66.75,17.974907099999996],[-66.75,17.974911399999996],[-66.75,17.975917299999992],[-66.75,17.97645399999999],[-66.75,17.976527900000008],[-66.75,17.976627099999973],[-66.75,17.983737500000018],[-66.75,17.98626109999998],[-66.75,17.986831699999982],[-66.75,17.987277399999982],[-66.75,17.988158399999975],[-66.75,17.992387500000007],[-66.75,17.993965300000013],[-66.75,17.994269599999996],[-66.75,17.994435099999976],[-66.75,17.995101299999988],[-66.75,18.0],[-66.73145169999998,18.0],[-66.73129999999998,18.0],[-66.7012694,18.0],[-66.690583,18.0],[-66.67500000000001,18.0],[-66.67500000000001,17.969253700000024],[-66.67500000000001,17.967157900000018],[-66.67500000000001,17.967117299999984],[-66.67500000000001,17.966644099999996],[-66.67500000000001,17.966100900000015],[-66.67500000000001,17.965977099999975],[-66.67500000000001,17.96490940000001],[-66.67500000000001,17.96355139999997],[-66.67500000000001,17.963211699999988],[-66.67500000000001,17.963095699999997],[-66.67500000000001,17.9611362],[-66.67500000000001,17.96088880000002],[-66.67500000000001,17.958426099999997],[-66.67500000000001,17.958287199999972],[-66.67500000000001,17.958228700000006],[-66.67500000000001,17.958212000000003],[-66.67500000000001,17.95655290000002],[-66.67500000000001,17.95646449999998],[-66.67500000000001,17.95524119999999],[-66.67500000000001,17.954717000000016],[-66.67500000000001,17.95441790000001],[-66.67500000000001,17.954316100000028],[-66.67500000000001,17.953689300000008],[-66.67500000000001,17.953512499999988],[-66.67500000000001,17.953267400000016],[-66.67500000000001,17.950153899999975],[-66.67500000000001,17.949713499999973],[-66.67500000000001,17.949554799999987],[-66.67500000000001,17.9495096],[-66.67500000000001,17.949386300000015],[-66.67500000000001,17.949267399999997],[-66.67500000000001,17.948821199999998],[-66.67500000000001,17.948574599999972],[-66.67500000000001,17.9464117],[-66.67500000000001,17.9453029],[-66.67500000000001,17.945006499999977],[-66.67500000000001,17.94495230000001],[-66.67500000000001,17.942882699999984],[-66.67500000000001,17.92500000000001],[-66.6905827,17.92500000000001]]]}},{"type":"Feature","properties":{},"geometry":{"type":"Polygon","coordinates":[[[-66.62769809999998,17.92500000000001],[-66.67500000000001,17.92500000000001],[-66.67500000000001,17.942882699999984],[-66.67500000000001,17.94495230000001],[-66.67500000000001,17.945006499999977],[-66.67500000000001,17.9453029],[-66.67500000000001,17.9464117],[-66.67500000000001,17.948574599999972],[-66.67500000000001,17.948821199999998],[-66.67500000000001,17.949267399999997],[-66.67500000000001,17.949386300000015],[-66.67500000000001,17.9495096],[-66.67500000000001,17.949554799999987],[-66.67500000000001,17.949713499999973],[-66.67500000000001,17.950153899999975],[-66.67500000000001,17.953267400000016],[-66.67500000000001,17.953512499999988],[-66.67500000000001,17.953689300000008],[-66.67500000000001,17.954316100000028],[-66.67500000000001,17.95441790000001],[-66.67500000000001,17.954717000000016],[-66.67500000000001,17.95524119999999],[-66.67500000000001,17.95646449999998],[-66.67500000000001,17.95655290000002],[-66.67500000000001,17.958212000000003],[-66.67500000000001,17.95821840000002],[-66.67500000000001,17.958228700000006],[-66.67500000000001,17.958287199999972],[-66.67500000000001,17.958426099999997],[-66.67500000000001,17.958773399999984],[-66.67500000000001,17.96088880000002],[-66.67500000000001,17.9611362],[-66.67500000000001,17.963095699999997],[-66.67500000000001,17.963211699999988],[-66.67500000000001,17.96355139999997],[-66.67500000000001,17.96490940000001],[-66.67500000000001,17.965977099999975],[-66.67500000000001,17.966100900000015],[-66.67500000000001,17.966644099999996],[-66.67500000000001,17.967117299999984],[-66.67500000000001,17.967157900000018],[-66.67500000000001,17.969253700000024],[-66.67500000000001,18.0],[-66.638893,18.0],[-66.63870630000002,18.0],[-66.61169189999998,18.0],[-66.61161270000002,18.0],[-66.60000000000002,18.0],[-66.60000000000002,17.970027399999992],[-66.60000000000002,17.9679984],[-66.60000000000002,17.967488899999978],[-66.60000000000002,17.96614740000001],[-66.60000000000002,17.966136300000016],[-66.60000000000002,17.965497900000003],[-66.60000000000002,17.963231099999973],[-66.60000000000002,17.963048000000015],[-66.60000000000002,17.96303549999999],[-66.60000000000002,17.962980000000016],[-66.60000000000002,17.962943900000027],[-66.60000000000002,17.96275750000001],[-66.60000000000002,17.962062800000012],[-66.60000000000002,17.962024299999996],[-66.60000000000002,17.96123929999999],[-66.60000000000002,17.9612209],[-66.60000000000002,17.961124100000006],[-66.60000000000002,17.960957000000008],[-66.60000000000002,17.958966799999985],[-66.60000000000002,17.953102],[-66.60000000000002,17.952658600000007],[-66.60000000000002,17.950350200000003],[-66.60000000000002,17.92500000000001],[-66.6078655,17.92500000000001],[-66.61473840000002,17.92500000000001],[-66.62133749999998,17.92500000000001],[-66.62159559999998,17.92500000000001],[-66.62464690000002,17.92500000000001],[-66.62690789999999,17.92500000000001],[-66.6272171,17.92500000000001],[-66.62769809999998,17.92500000000001]]]}},{"type":"Feature","properties":{},"geometry":{"type":"Polygon","coordinates":[[[-66.55267079999999,17.92500000000001],[-66.60000000000002,17.92500000000001],[-66.60000000000002,17.950350200000003],[-66.60000000000002,17.952658600000007],[-66.60000000000002,17.953102],[-66.60000000000002,17.958966799999985],[-66.60000000000002,17.960957000000008],[-66.60000000000002,17.961124100000006],[-66.60000000000002,17.9612209],[-66.60000000000002,17.96123929999999],[-66.60000000000002,17.962024299999996],[-66.60000000000002,17.962062800000012],[-66.60000000000002,17.96275750000001],[-66.60000000000002,17.962943900000027],[-66.60000000000002,17.962980000000016],[-66.60000000000002,17.96303549999999],[-66.60000000000002,17.963048000000015],[-66.60000000000002,17.963231099999973],[-66.60000000000002,17.965497900000003],[-66.60000000000002,17.966136300000016],[-66.60000000000002,17.96614740000001],[-66.60000000000002,17.967488899999978],[-66.60000000000002,17.9679984],[-66.60000000000002,17.970027399999992],[-66.60000000000002,18.0],[-66.52499999999998,18.0],[-66.52499999999998,17.980285100000003],[-66.52499999999998,17.979662099999985],[-66.52499999999998,17.97918659999999],[-66.52499999999998,17.977982899999972],[-66.52499999999998,17.974854800000003],[-66.52499999999998,17.969326500000022],[-66.52499999999998,17.955180900000016],[-66.52499999999998,17.948033699999996],[-66.52499999999998,17.946911399999976],[-66.52499999999998,17.935064300000022],[-66.52499999999998,17.92500000000001],[-66.55267079999999,17.92500000000001]]]}},{"type":"Feature","properties":{},"geometry":{"type":"Polygon","coordinates":[[[-66.51490810000001,17.92500000000001],[-66.52499999999998,17.92500000000001],[-66.52499999999998,17.935064300000022],[-66.52499999999998,17.946911399999976],[-66.52499999999998,17.948033699999996],[-66.52499999999998,17.955180900000016],[-66.52499999999998,17.969326500000022],[-66.52499999999998,17.974854800000003],[-66.52499999999998,17.977982899999972],[-66.52499999999998,17.97918659999999],[-66.52499999999998,17.979662099999985],[-66.52499999999998,17.980285100000003],[-66.52499999999998,18.0],[-66.50791609999999,18.0],[-66.44999999999999,18.0],[-66.44999999999999,17.982719999999972],[-66.44999999999999,17.98260110000001],[-66.44999999999999,17.98254609999998],[-66.44999999999999,17.982454200000006],[-66.44999999999999,17.981157900000028],[-66.44999999999999,17.98093110000002],[-66.44999999999999,17.979988900000023],[-66.44999999999999,17.976311599999974],[-66.44999999999999,17.97291580000001],[-66.44999999999999,17.962499999999977],[-66.44999999999999,17.948314400000015],[-66.44999999999999,17.946206200000006],[-66.44999999999999,17.943444899999974],[-66.44999999999999,17.938612200000023],[-66.44999999999999,17.937752999999987],[-66.44999999999999,17.936323200000004],[-66.44999999999999,17.935649899999987],[-66.44999999999999,17.933791999999983],[-66.44999999999999,17.933197199999995],[-66.44999999999999,17.93317589999998],[-66.44999999999999,17.93191730000001],[-66.44999999999999,17.931499299999984],[-66.44999999999999,17.93104299999999],[-66.44999999999999,17.93043510000001],[-66.44999999999999,17.930161999999996],[-66.44999999999999,17.928361999999993],[-66.44999999999999,17.927999],[-66.44999999999999,17.92737629999999],[-66.44999999999999,17.92563990000002],[-66.44999999999999,17.92500000000001],[-66.45179389999998,17.92500000000001],[-66.45194509999999,17.92500000000001],[-66.45200940000001,17.92500000000001],[-66.45220619999998,17.92500000000001],[-66.45251389999999,17.92500000000001],[-66.45263319999998,17.92500000000001],[-66.45272599999998,17.92500000000001],[-66.453799,17.92500000000001],[-66.45482449999997,17.92500000000001],[-66.45528610000002,17.92500000000001],[-66.45595559999998,17.92500000000001],[-66.45597279999998,17.92500000000001],[-66.45686749999999,17.92500000000001],[-66.45986210000001,17.92500000000001],[-66.46142579999997,17.92500000000001],[-66.46681810000001,17.92500000000001],[-66.46972849999997,17.92500000000001],[-66.47064929999999,17.92500000000001],[-66.4789581,17.92500000000001],[-66.49601689999997,17.92500000000001],[-66.50049039999999,17.92500000000001],[-66.50420000000003,17.92500000000001],[-66.50791609999999,17.92500000000001],[-66.51490810000001,17.92500000000001]]]}},{"type":"Feature","properties":{},"geometry":{"type":"Polygon","coordinates":[[[-66.75099039999998,18.0],[-66.7510077,18.0],[-66.75467939999999,18.0],[-66.75481939999997,18.0],[-66.75528100000002,18.0],[-66.75730140000002,18.0],[-66.75749960000002,18.0],[-66.75784240000002,18.0],[-66.7601813,18.0],[-66.76204639999997,18.0],[-66.76223759999999,18.0],[-66.76291049999998,18.0],[-66.7631045,18.0],[-66.76332059999999,18.0],[-66.76384810000002,18.0],[-66.76600200000001,18.0],[-66.7670943,18.0],[-66.7673792,18.0],[-66.76752809999999,18.0],[-66.7685634,18.0],[-66.77205550000002,18.0],[-66.7732466,18.0],[-66.7737141,18.0],[-66.77474510000002,18.0],[-66.77492760000001,18.0],[-66.77569940000001,18.0],[-66.77656409999997,18.0],[-66.77888189999999,18.0],[-66.7798004,18.0],[-66.78034200000002,18.0],[-66.78549880000003,18.0],[-66.82499999999999,18.0],[-66.82499999999999,18.07499999999999],[-66.75,18.07499999999999],[-66.75,18.01468890000001],[-66.75,18.000888099999997],[-66.75,18.0],[-66.75099039999998,18.0]]]}}]}