{"type":"FeatureCollection","features":[{"type":"Feature","properties":{},"geometry":{"type":"Polygon","coordinates":[[[-65.02499999999998,17.66819529999998],[-65.02499999999998,17.67371559999998],[-65.02499999999998,17.69999999999999],[-65.0050493,17.69999999999999],[-64.99130450000001,17.69999999999999],[-64.98359820000002,17.69999999999999],[-64.98228690000002,17.69999999999999],[-64.9761828,17.69999999999999],[-64.95240610000002,17.69999999999999],[-64.95158609999999,17.69999999999999],[-64.94999999999999,17.69999999999999],[-64.94999999999999,17.691623900000025],[-64.94999999999999,17.673091199999988],[-64.94999999999999,17.66085579999998],[-64.94999999999999,17.656626399999993],[-64.94999999999999,17.65629050000001],[-64.94999999999999,17.65477199999998],[-64.94999999999999,17.63928629999998],[-64.94999999999999,17.631360700000016],[-64.94999999999999,17.625],[-64.9510836,17.625],[-64.96778319999999,17.625],[-64.97687489999998,17.625],[-64.99262679999998,17.625],[-64.99638679999998,17.625],[-65.00320640000001,17.625],[-65.0091539,17.625],[-65.01660349999997,17.625],[-65.02499999999998,17.625],[-65.02499999999998,17.66819529999998]]]}},{"type":"Feature","properties":{},"geometry":{"type":"Polygon","coordinates":[[[-64.9473322,17.625],[-64.94999999999999,17.625],[-64.94999999999999,17.631360700000016],[-64.94999999999999,17.63928629999998],[-64.94999999999999,17.65477199999998],[-64.94999999999999,17.65629050000001],[-64.94999999999999,17.656626399999993],[-64.94999999999999,17.66085579999998],[-64.94999999999999,17.673091199999988],[-64.94999999999999,17.691623900000025],[-64.94999999999999,17.69999999999999],[-64.94710780000003,17.69999999999999],[-64.92265049999997,17.69999999999999],[-64.9137867,17.69999999999999],[-64.9134204,17.69999999999999],[-64.90109039999999,17.69999999999999],[-64.899628,17.69999999999999],[-64.8980345,17.69999999999999],[-64.8973312,17.69999999999999],[-64.8960897,17.69999999999999],[-64.89356909999998,17.69999999999999],[-64.89354409999999,17.69999999999999],[-64.89200499999998,17.69999999999999],[-64.88956610000002,17.69999999999999],[-64.88816930000002,17.69999999999999],[-64.88757609999999,17.69999999999999],[-64.88711790000002,17.69999999999999],[-64.8860841,17.69999999999999],[-64.8848481,17.69999999999999],[-64.875,17.69999999999999],[-64.875,17.684746800000028],[-64.875,17.683719999999994],[-64.875,17.68325040000002],[-64.875,17.679501700000003],[-64.875,17.678725499999985],[-64.875,17.6785529],[-64.875,17.67705330000001],[-64.875,17.673965099999975],[-64.875,17.664451199999974],[-64.875,17.663245200000006],[-64.875,17.661484700000017],[-64.875,17.65655479999998],[-64.875,17.655549399999984],[-64.875,17.649930400000017],[-64.875,17.63790499999999],[-64.875,17.636761499999977],[-64.875,17.634172799999988],[-64.875,17.633765799999992],[-64.875,17.631360700000016],[-64.875,17.630916800000023],[-64.875,17.630395899999996],[-64.875,17.6300971],[-64.875,17.625],[-64.8888963,17.625],[-64.89279800000003,17.625],[-64.90844099999998,17.625],[-64.9125019,17.625],[-64.91417389999998,17.625],[-64.93894289999997,17.625],[-64.9473322,17.625]]]}},{"type":"Feature","properties":{},"geometry":{"type":"Polygon","coordinates":[[[-64.875,17.6300971],[-64.875,17.630395899999996],[-64.875,17.630916800000023],[-64.875,17.631360700000016],[-64.875,17.633765799999992],[-64.875,17.634172799999988],[-64.875,17.636761499999977],[-64.875,17.63790499999999],[-64.875,17.649930400000017],[-64.875,17.655549399999984],[-64.875,17.65655479999998],[-64.875,17.661484700000017],[-64.875,17.663245200000006],[-64.875,17.664451199999974],[-64.875,17.673965099999975],[-64.875,17.67705330000001],[-64.875,17.6785529],[-64.875,17.678725499999985],[-64.875,17.679501700000003],[-64.875,17.68325040000002],[-64.875,17.683719999999994],[-64.875,17.684746800000028],[-64.875,17.69999999999999],[-64.80000000000001,17.69999999999999],[-64.80000000000001,17.694388500000002],[-64.80000000000001,17.694066099999986],[-64.80000000000001,17.693343500000026],[-64.80000000000001,17.692886799999997],[-64.80000000000001,17.680031299999996],[-64.80000000000001,17.676479900000004],[-64.80000000000001,17.670008100000018],[-64.80000000000001,17.66361840000002],[-64.80000000000001,17.649060599999984],[-64.80000000000001,17.649021100000027],[-64.80000000000001,17.644184900000027],[-64.80000000000001,17.632619799999986],[-64.80000000000001,17.625614900000016],[-64.80000000000001,17.625],[-64.80269270000002,17.625],[-64.81378410000002,17.625],[-64.8158793,17.625],[-64.81812259999998,17.625],[-64.8184794,17.625],[-64.82228459999999,17.625],[-64.83038629999999,17.625],[-64.8324796,17.625],[-64.875,17.625],[-64.875,17.6300971]]]}},{"type":"Feature","properties":{},"geometry":{"type":"Polygon","coordinates":[[[-64.79539979999998,17.625],[-64.80000000000001,17.625],[-64.80000000000001,17.625614900000016],[-64.80000000000001,17.632619799999986],[-64.80000000000001,17.644184900000027],[-64.80000000000001,17.649021100000027],[-64.80000000000001,17.649060599999984],[-64.80000000000001,17.66361840000002],[-64.80000000000001,17.670008100000018],[-64.80000000000001,17.676479900000004],[-64.80000000000001,17.680031299999996],[-64.80000000000001,17.692886799999997],[-64.80000000000001,17.693343500000026],[-64.80000000000001,17.694066099999986],[-64.80000000000001,17.694388500000002],[-64.80000000000001,17.69999999999999],[-64.78538700000001,17.69999999999999],[-64.78523999999999,17.69999999999999],[-64.77941879999997,17.69999999999999],[-64.77802600000001,17.69999999999999],[-64.77799069999998,17.69999999999999],[-64.7756559,17.69999999999999],[-64.7695622,17.69999999999999],[-64.76867570000002,17.69999999999999],[-64.76833900000003,17.69999999999999],[-64.76800850000001,17.69999999999999],[-64.76701600000001,17.69999999999999],[-64.76677790000002,17.69999999999999],[-64.76546669999999,17.69999999999999],[-64.7526479,17.69999999999999],[-64.75216599999999,17.69999999999999],[-64.7519929,17.69999999999999],[-64.75057720000001,17.69999999999999],[-64.75054510000001,17.69999999999999],[-64.75051459999997,17.69999999999999],[-64.75041140000002,17.69999999999999],[-64.75027820000003,17.69999999999999],[-64.74930119999999,17.69999999999999],[-64.7489936,17.69999999999999],[-64.74891450000001,17.69999999999999],[-64.74872099999999,17.69999999999999],[-64.7482971,17.69999999999999],[-64.74517750000001,17.69999999999999],[-64.7450981,17.69999999999999],[-64.74468539999998,17.69999999999999],[-64.74456950000001,17.69999999999999],[-64.74278900000002,17.69999999999999],[-64.7417562,17.69999999999999],[-64.74163709999999,17.69999999999999],[-64.74056300000001,17.69999999999999],[-64.7402993,17.69999999999999],[-64.73993230000002,17.69999999999999],[-64.73976859999999,17.69999999999999],[-64.73881089999998,17.69999999999999],[-64.73803679999997,17.69999999999999],[-64.73772079999998,17.69999999999999],[-64.73014599999999,17.69999999999999],[-64.73014230000001,17.69999999999999],[-64.72500000000002,17.69999999999999],[-64.72500000000002,17.6989107],[-64.72500000000002,17.697120600000005],[-64.72500000000002,17.695542699999976],[-64.72500000000002,17.690826300000026],[-64.72500000000002,17.6838793],[-64.72500000000002,17.68234940000002],[-64.72500000000002,17.67930960000001],[-64.72500000000002,17.675401599999987],[-64.72500000000002,17.67528679999998],[-64.72500000000002,17.674745799999982],[-64.72500000000002,17.673509000000024],[-64.72500000000002,17.672857899999997],[-64.72500000000002,17.67213479999998],[-64.72500000000002,17.658490400000005],[-64.72500000000002,17.64018870000001],[-64.72500000000002,17.63945289999998],[-64.72500000000002,17.625],[-64.7644085,17.625],[-64.77048409999998,17.625],[-64.7747046,17.625],[-64.78571970000002,17.625],[-64.78875010000002,17.625],[-64.7933286,17.625],[-64.79539979999998,17.625]]]}},{"type":"Feature","properties":{},"geometry":{"type":"Polygon","coordinates":[[[-65.02499999999998,17.708572000000004],[-65.02499999999998,17.739042600000005],[-65.02499999999998,17.764396499999975],[-65.02499999999998,17.774999999999977],[-65.00781510000002,17.774999999999977],[-64.9859338,17.774999999999977],[-64.97650499999997,17.774999999999977],[-64.96812240000003,17.774999999999977],[-64.95980429999997,17.774999999999977],[-64.94999999999999,17.774999999999977],[-64.94999999999999,17.769346299999995],[-64.94999999999999,17.764876300000026],[-64.94999999999999,17.760438299999976],[-64.94999999999999,17.74988639999998],[-64.94999999999999,17.744996000000015],[-64.94999999999999,17.743833300000006],[-64.94999999999999,17.713380599999994],[-64.94999999999999,17.704707799999994],[-64.94999999999999,17.70321849999999],[-64.94999999999999,17.69999999999999],[-64.95158609999999,17.69999999999999],[-64.95240610000002,17.69999999999999],[-64.9761828,17.69999999999999],[-64.98228690000002,17.69999999999999],[-64.98359820000002,17.69999999999999],[-64.99130450000001,17.69999999999999],[-65.0050493,17.69999999999999],[-65.02499999999998,17.69999999999999],[-65.02499999999998,17.708572000000004]]]}},{"type":"Feature","properties":{},"geometry":{"type":"Polygon","coordinates":[[[-64.94710780000003,17.69999999999999],[-64.94999999999999,17.69999999999999],[-64.94999999999999,17.70321849999999],[-64.94999999999999,17.704707799999994],[-64.94999999999999,17.713380599999994],[-64.94999999999999,17.743833300000006],[-64.94999999999999,17.744996000000015],[-64.94999999999999,17.74988639999998],[-64.94999999999999,17.760438299999976],[-64.94999999999999,17.764876300000026],[-64.94999999999999,17.769346299999995],[-64.94999999999999,17.774999999999977],[-64.9430585,17.774999999999977],[-64.9393981,17.774999999999977],[-64.93859220000002,17.774999999999977],[-64.937771,17.774999999999977],[-64.9325781,17.774999999999977],[-64.92845319999998,17.774999999999977],[-64.92228269999998,17.774999999999977],[-64.91888210000002,17.774999999999977],[-64.9167928,17.774999999999977],[-64.91000150000002,17.774999999999977],[-64.90752350000002,17.774999999999977],[-64.90398520000002,17.774999999999977],[-64.89944409999998,17.774999999999977],[-64.8993443,17.774999999999977],[-64.89708150000001,17.774999999999977],[-64.89639640000001,17.774999999999977],[-64.89500070000003,17.774999999999977],[-64.89416849999998,17.774999999999977],[-64.8883022,17.774999999999977],[-64.88749569999999,17.774999999999977],[-64.88386050000003,17.774999999999977],[-64.87769509999998,17.774999999999977],[-64.8759288,17.774999999999977],[-64.875,17.774999999999977],[-64.875,17.772777700000006],[-64.875,17.7723249],[-64.875,17.77155970000001],[-64.875,17.770548599999984],[-64.875,17.77023029999998],[-64.875,17.769206600000018],[-64.875,17.7691643],[-64.875,17.69999999999999],[-64.8848481,17.69999999999999],[-64.8860841,17.69999999999999],[-64.88711790000002,17.69999999999999],[-64.88757609999999,17.69999999999999],[-64.88816930000002,17.69999999999999],[-64.88956610000002,17.69999999999999],[-64.89200499999998,17.69999999999999],[-64.89354409999999,17.69999999999999],[-64.89356909999998,17.69999999999999],[-64.8960897,17.69999999999999],[-64.8973312,17.69999999999999],[-64.8980345,17.69999999999999],[-64.899628,17.69999999999999],[-64.90109039999999,17.69999999999999],[-64.9134204,17.69999999999999],[-64.9137867,17.69999999999999],[-64.92265049999997,17.69999999999999],[-64.94710780000003,17.69999999999999]]]}},{"type":"Feature","properties":{},"geometry":{"type":"Polygon","coordinates":[[[-64.875,17.7691643],[-64.875,17.769206600000018],[-64.875,17.77023029999998],[-64.875,17.770548599999984],[-64.875,17.77155970000001],[-64.875,17.7723249],[-64.875,17.772777700000006],[-64.875,17.774999999999977],[-64.8686085,17.774999999999977],[-64.86523740000001,17.774999999999977],[-64.86521649999997,17.774999999999977],[-64.86390870000002,17.774999999999977],[-64.85640130000002,17.774999999999977],[-64.8442695,17.774999999999977],[-64.83761070000003,17.774999999999977],[-64.83682010000001,17.774999999999977],[-64.83290290000002,17.774999999999977],[-64.8279604,17.774999999999977],[-64.81855769999999,17.774999999999977],[-64.81459999999998,17.774999999999977],[-64.8130835,17.774999999999977],[-64.81300099999999,17.774999999999977],[-64.8127308,17.774999999999977],[-64.81127759999998,17.774999999999977],[-64.80943180000003,17.774999999999977],[-64.80000000000001,17.774999999999977],[-64.80000000000001,17.70158620000001],[-64.80000000000001,17.701173100000005],[-64.80000000000001,17.69999999999999],[-64.875,17.69999999999999],[-64.875,17.7691643]]]}},{"type":"Feature","properties":{},"geometry":{"type":"Polygon","coordinates":[[[-64.78538700000001,17.69999999999999],[-64.80000000000001,17.69999999999999],[-64.80000000000001,17.701173100000005],[-64.80000000000001,17.70158620000001],[-64.80000000000001,17.774999999999977],[-64.76236979999999,17.774999999999977],[-64.75604600000003,17.774999999999977],[-64.7545657,17.774999999999977],[-64.75209130000002,17.774999999999977],[-64.74961159999998,17.774999999999977],[-64.74194890000001,17.774999999999977],[-64.74193760000003,17.774999999999977],[-64.74179420000002,17.774999999999977],[-64.7399514,17.774999999999977],[-64.73977869999999,17.774999999999977],[-64.7396933,17.774999999999977],[-64.7393553,17.774999999999977],[-64.73916919999999,17.774999999999977],[-64.73903990000002,17.774999999999977],[-64.73869059999998,17.774999999999977],[-64.7374446,17.774999999999977],[-64.73654959999999,17.774999999999977],[-64.73527139999999,17.774999999999977],[-64.73466439999999,17.774999999999977],[-64.73410660000002,17.774999999999977],[-64.73346320000002,17.774999999999977],[-64.73266310000002,17.774999999999977],[-64.72500000000002,17.774999999999977],[-64.72500000000002,17.768487100000016],[-64.72500000000002,17.76773700000001],[-64.72500000000002,17.766649700000016],[-64.72500000000002,17.76642290000001],[-64.72500000000002,17.76503439999999],[-64.72500000000002,17.76474189999999],[-64.72500000000002,17.764276699999982],[-64.72500000000002,17.763987499999985],[-64.72500000000002,17.763439300000016],[-64.72500000000002,17.762921000000006],[-64.72500000000002,17.76241570000002],[-64.72500000000002,17.761989099999994],[-64.72500000000002,17.761015699999973],[-64.72500000000002,17.76082580000002],[-64.72500000000002,17.759584500000017],[-64.72500000000002,17.756580100000008],[-64.72500000000002,17.756492100000003],[-64.72500000000002,17.702766800000006],[-64.72500000000002,17.70189110000001],[-64.72500000000002,17.701424599999996],[-64.72500000000002,17.69999999999999],[-64.73014230000001,17.69999999999999],[-64.73014599999999,17.69999999999999],[-64.73772079999998,17.69999999999999],[-64.73803679999997,17.69999999999999],[-64.73881089999998,17.69999999999999],[-64.73976859999999,17.69999999999999],[-64.73993230000002,17.69999999999999],[-64.7402993,17.69999999999999],[-64.74056300000001,17.69999999999999],[-64.74163709999999,17.69999999999999],[-64.7417562,17.69999999999999],[-64.74278900000002,17.69999999999999],[-64.74456950000001,17.69999999999999],[-64.74468539999998,17.69999999999999],[-64.7450981,17.69999999999999],[-64.74517750000001,17.69999999999999],[-64.7482971,17.69999999999999],[-64.74872099999999,17.69999999999999],[-64.74891450000001,17.69999999999999],[-64.7489936,17.69999999999999],[-64.74930119999999,17.69999999999999],[-64.75027820000003,17.69999999999999],[-64.75041140000002,17.69999999999999],[-64.75051459999997,17.69999999999999],[-64.75054510000001,17.69999999999999],[-64.75057720000001,17.69999999999999],[-64.7519929,17.69999999999999],[-64.75216599999999,17.69999999999999],[-64.7526479,17.69999999999999],[-64.76546669999999,17.69999999999999],[-64.76677790000002,17.69999999999999],[-64.76701600000001,17.69999999999999],[-64.76800850000001,17.69999999999999],[-64.76833900000003,17.69999999999999],[-64.76867570000002,17.69999999999999],[-64.7695622,17.69999999999999],[-64.7756559,17.69999999999999],[-64.77799069999998,17.69999999999999],[-64.77802600000001,17.69999999999999],[-64.77941879999997,17.69999999999999],[-64.78523999999999,17.69999999999999],[-64.78538700000001,17.69999999999999]]]}},{"type":"Feature","properties":{},"geometry":{"type":"Polygon","coordinates":[[[-64.7236886,17.69999999999999],[-64.72500000000002,17.69999999999999],[-64.72500000000002,17.701424599999996],[-64.72500000000002,17.70189110000001],[-64.72500000000002,17.702766800000006],[-64.72500000000002,17.756492100000003],[-64.72500000000002,17.756580100000008],[-64.72500000000002,17.759584500000017],[-64.72500000000002,17.76082580000002],[-64.72500000000002,17.761015699999973],[-64.72500000000002,17.761989099999994],[-64.72500000000002,17.76241570000002],[-64.72500000000002,17.762921000000006],[-64.72500000000002,17.763439300000016],[-64.72500000000002,17.763987499999985],[-64.72500000000002,17.764276699999982],[-64.72500000000002,17.76474189999999],[-64.72500000000002,17.76503439999999],[-64.72500000000002,17.76642290000001],[-64.72500000000002,17.766649700000016],[-64.72500000000002,17.76773700000001],[-64.72500000000002,17.768487100000016],[-64.72500000000002,17.774999999999977],[-64.71013850000003,17.774999999999977],[-64.70979940000001,17.774999999999977],[-64.70960430000002,17.774999999999977],[-64.70227890000001,17.774999999999977],[-64.696799,17.774999999999977],[-64.68808940000002,17.774999999999977],[-64.6880691,17.774999999999977],[-64.68788899999998,17.774999999999977],[-64.68724420000001,17.774999999999977],[-64.68643049999997,17.774999999999977],[-64.6861849,17.774999999999977],[-64.68393650000002,17.774999999999977],[-64.68219210000001,17.774999999999977],[-64.68117219999999,17.774999999999977],[-64.67386629999999,17.774999999999977],[-64.67077310000002,17.774999999999977],[-64.67052760000001,17.774999999999977],[-64.66449319999998,17.774999999999977],[-64.65624680000002,17.774999999999977],[-64.65519389999997,17.774999999999977],[-64.65504929999997,17.774999999999977],[-64.6542177,17.774999999999977],[-64.65395039999999,17.774999999999977],[-64.65370610000002,17.774999999999977],[-64.65344329999999,17.774999999999977],[-64.65298050000001,17.774999999999977],[-64.6527491,17.774999999999977],[-64.650893,17.774999999999977],[-64.64999999999998,17.774999999999977],[-64.64999999999998,17.773393999999996],[-64.64999999999998,17.773335299999985],[-64.64999999999998,17.770759499999997],[-64.64999999999998,17.770241199999987],[-64.64999999999998,17.764465099999995],[-64.64999999999998,17.763284199999987],[-64.64999999999998,17.762405600000022],[-64.64999999999998,17.761828400000013],[-64.64999999999998,17.76174580000003],[-64.64999999999998,17.761445400000014],[-64.64999999999998,17.738047499999993],[-64.64999999999998,17.72356930000001],[-64.64999999999998,17.71847939999998],[-64.64999999999998,17.714615400000014],[-64.64999999999998,17.712967600000013],[-64.64999999999998,17.71178950000001],[-64.64999999999998,17.701246500000025],[-64.64999999999998,17.69999999999999],[-64.67155350000002,17.69999999999999],[-64.67636010000001,17.69999999999999],[-64.67979910000003,17.69999999999999],[-64.6819845,17.69999999999999],[-64.69528989999998,17.69999999999999],[-64.69807559999998,17.69999999999999],[-64.70204660000002,17.69999999999999],[-64.70964839999999,17.69999999999999],[-64.71200800000003,17.69999999999999],[-64.71701969999998,17.69999999999999],[-64.72012489999997,17.69999999999999],[-64.72042440000001,17.69999999999999],[-64.72120710000002,17.69999999999999],[-64.72194259999998,17.69999999999999],[-64.7236886,17.69999999999999]]]}},{"type":"Feature","properties":{},"geometry":{"type":"Polygon","coordinates":[[[-64.72500000000002,17.78518730000002],[-64.72500000000002,17.800654699999996],[-64.72500000000002,17.804694799999993],[-64.72500000000002,17.830787199999975],[-64.72500000000002,17.831575799999996],[-64.72500000000002,17.850000000000023],[-64.71368719999998,17.850000000000023],[-64.64999999999998,17.850000000000023],[-64.64999999999998,17.843685600000015],[-64.64999999999998,17.842944799999998],[-64.64999999999998,17.832441500000016],[-64.64999999999998,17.804694799999993],[-64.64999999999998,17.78794399999998],[-64.64999999999998,17.78725700000001],[-64.64999999999998,17.78720770000001],[-64.64999999999998,17.786757599999987],[-64.64999999999998,17.785676299999977],[-64.64999999999998,17.785389500000008],[-64.64999999999998,17.77766459999998],[-64.64999999999998,17.774999999999977],[-64.650893,17.774999999999977],[-64.6527491,17.774999999999977],[-64.65298050000001,17.774999999999977],[-64.65344329999999,17.774999999999977],[-64.65370610000002,17.774999999999977],[-64.65395039999999,17.774999999999977],[-64.6542177,17.774999999999977],[-64.65504929999997,17.774999999999977],[-64.65519389999997,17.774999999999977],[-64.65624680000002,17.774999999999977],[-64.66449319999998,17.774999999999977],[-64.67052760000001,17.774999999999977],[-64.67077310000002,17.774999999999977],[-64.67386629999999,17.774999999999977],[-64.68117219999999,17.774999999999977],[-64.68219210000001,17.774999999999977],[-64.68393650000002,17.774999999999977],[-64.6861849,17.774999999999977],[-64.68643049999997,17.774999999999977],[-64.68724420000001,17.774999999999977],[-64.68788899999998,17.774999999999977],[-64.6880691,17.774999999999977],[-64.68808940000002,17.774999999999977],[-64.696799,17.774999999999977],[-64.70227890000001,17.774999999999977],[-64.70960430000002,17.774999999999977],[-64.70979940000001,17.774999999999977],[-64.71013850000003,17.774999999999977],[-64.72500000000002,17.774999999999977],[-64.72500000000002,17.78518730000002]]]}}]}