{"type":"FeatureCollection","features":[{"type":"Feature","properties":{},"geometry":{"type":"Polygon","coordinates":[[[-66.44999999999999,17.861109999999996],[-66.44999999999999,17.869460600000025],[-66.44999999999999,17.870188900000016],[-66.44999999999999,17.886760100000004],[-66.44999999999999,17.889797999999985],[-66.44999999999999,17.89613350000002],[-66.44999999999999,17.896531600000003],[-66.44999999999999,17.897361699999976],[-66.44999999999999,17.897739399999978],[-66.44999999999999,17.904023699999982],[-66.44999999999999,17.910844999999995],[-66.44999999999999,17.92500000000001],[-66.44787589999999,17.92500000000001],[-66.44691030000001,17.92500000000001],[-66.41181360000002,17.92500000000001],[-66.40354769999999,17.92500000000001],[-66.39190919999999,17.92500000000001],[-66.39007190000001,17.92500000000001],[-66.38969500000002,17.92500000000001],[-66.388644,17.92500000000001],[-66.38746470000001,17.92500000000001],[-66.38638159999999,17.92500000000001],[-66.385198,17.92500000000001],[-66.38458450000002,17.92500000000001],[-66.3841218,17.92500000000001],[-66.38390679999998,17.92500000000001],[-66.38372299999997,17.92500000000001],[-66.3829695,17.92500000000001],[-66.3815927,17.92500000000001],[-66.38136150000003,17.92500000000001],[-66.3812393,17.92500000000001],[-66.38115800000003,17.92500000000001],[-66.37510680000003,17.92500000000001],[-66.375,17.92500000000001],[-66.375,17.924577699999986],[-66.375,17.92436170000002],[-66.375,17.923912700000017],[-66.375,17.923224600000026],[-66.375,17.922564599999987],[-66.375,17.921269100000018],[-66.375,17.917049599999984],[-66.375,17.910153700000023],[-66.375,17.906486599999994],[-66.375,17.870494399999984],[-66.375,17.87009469999998],[-66.375,17.86975480000001],[-66.375,17.861109999999996],[-66.375,17.850000000000023],[-66.44999999999999,17.850000000000023],[-66.44999999999999,17.861109999999996]]]}},{"type":"Feature","properties":{},"geometry":{"type":"Polygon","coordinates":[[[-66.375,17.861109999999996],[-66.375,17.86975480000001],[-66.375,17.87009469999998],[-66.375,17.870494399999984],[-66.375,17.906486599999994],[-66.375,17.910153700000023],[-66.375,17.917049599999984],[-66.375,17.921269100000018],[-66.375,17.922564599999987],[-66.375,17.923224600000026],[-66.375,17.923912700000017],[-66.375,17.92436170000002],[-66.375,17.924577699999986],[-66.375,17.92500000000001],[-66.37461050000002,17.92500000000001],[-66.37451249999998,17.92500000000001],[-66.37414510000002,17.92500000000001],[-66.373674,17.92500000000001],[-66.37317330000002,17.92500000000001],[-66.37225699999999,17.92500000000001],[-66.3640762,17.92500000000001],[-66.3608203,17.92500000000001],[-66.36037199999998,17.92500000000001],[-66.35864559999999,17.92500000000001],[-66.3575419,17.92500000000001],[-66.35691020000002,17.92500000000001],[-66.3561186,17.92500000000001],[-66.35594930000002,17.92500000000001],[-66.35576689999999,17.92500000000001],[-66.3554719,17.92500000000001],[-66.35399990000002,17.92500000000001],[-66.35183439999997,17.92500000000001],[-66.35109999999997,17.92500000000001],[-66.34935209999998,17.92500000000001],[-66.3475535,17.92500000000001],[-66.34330640000002,17.92500000000001],[-66.32876279999999,17.92500000000001],[-66.32359639999999,17.92500000000001],[-66.3218665,17.92500000000001],[-66.31845959999998,17.92500000000001],[-66.31694920000001,17.92500000000001],[-66.3142603,17.92500000000001],[-66.30299000000002,17.92500000000001],[-66.30089729999997,17.92500000000001],[-66.30000000000001,17.92500000000001],[-66.30000000000001,17.885742800000003],[-66.30000000000001,17.881931899999984],[-66.30000000000001,17.8811422],[-66.30000000000001,17.869175499999983],[-66.30000000000001,17.8613603],[-66.30000000000001,17.857390199999998],[-66.30000000000001,17.850000000000023],[-66.3658474,17.850000000000023],[-66.375,17.850000000000023],[-66.375,17.861109999999996]]]}},{"type":"Feature","properties":{},"geometry":{"type":"Polygon","coordinates":[[[-66.30000000000001,17.857390199999998],[-66.30000000000001,17.8613603],[-66.30000000000001,17.869175499999983],[-66.30000000000001,17.8811422],[-66.30000000000001,17.881931899999984],[-66.30000000000001,17.885742800000003],[-66.30000000000001,17.92500000000001],[-66.29202170000002,17.92500000000001],[-66.28143019999999,17.92500000000001],[-66.27995550000003,17.92500000000001],[-66.27496609999997,17.92500000000001],[-66.27397079999997,17.92500000000001],[-66.27368100000001,17.92500000000001],[-66.27222870000003,17.92500000000001],[-66.26992330000002,17.92500000000001],[-66.26682729999999,17.92500000000001],[-66.26622129999998,17.92500000000001],[-66.26529870000002,17.92500000000001],[-66.26517209999997,17.92500000000001],[-66.26504790000001,17.92500000000001],[-66.26486110000002,17.92500000000001],[-66.26479519999998,17.92500000000001],[-66.26455240000001,17.92500000000001],[-66.26334179999998,17.92500000000001],[-66.26134400000001,17.92500000000001],[-66.26060610000002,17.92500000000001],[-66.26052479999998,17.92500000000001],[-66.2605168,17.92500000000001],[-66.26020440000002,17.92500000000001],[-66.25861579999997,17.92500000000001],[-66.24515359999998,17.92500000000001],[-66.24409509999998,17.92500000000001],[-66.24318670000002,17.92500000000001],[-66.24015789999999,17.92500000000001],[-66.23675800000001,17.92500000000001],[-66.2334222,17.92500000000001],[-66.23049049999997,17.92500000000001],[-66.22792729999998,17.92500000000001],[-66.22745550000002,17.92500000000001],[-66.22500000000002,17.92500000000001],[-66.22500000000002,17.923925600000018],[-66.22500000000002,17.919877100000008],[-66.22500000000002,17.919084699999985],[-66.22500000000002,17.918331799999976],[-66.22500000000002,17.917577499999993],[-66.22500000000002,17.9173275],[-66.22500000000002,17.916762300000016],[-66.22500000000002,17.91611929999999],[-66.22500000000002,17.91575849999998],[-66.22500000000002,17.912697900000012],[-66.22500000000002,17.912487699999986],[-66.22500000000002,17.912231799999972],[-66.22500000000002,17.911332000000016],[-66.22500000000002,17.911140400000022],[-66.22500000000002,17.91068999999999],[-66.22500000000002,17.91032009999998],[-66.22500000000002,17.910248500000023],[-66.22500000000002,17.910122699999988],[-66.22500000000002,17.909706700000015],[-66.22500000000002,17.906275100000016],[-66.22500000000002,17.88567660000001],[-66.22500000000002,17.862744700000007],[-66.22500000000002,17.862021200000015],[-66.22500000000002,17.86136019999998],[-66.22500000000002,17.850000000000023],[-66.28520839999999,17.850000000000023],[-66.28767979999998,17.850000000000023],[-66.30000000000001,17.850000000000023],[-66.30000000000001,17.857390199999998]]]}},{"type":"Feature","properties":{},"geometry":{"type":"Polygon","coordinates":[[[-66.22500000000002,17.850000000000023],[-66.22500000000002,17.86136019999998],[-66.22500000000002,17.862021200000015],[-66.22500000000002,17.862744700000007],[-66.22500000000002,17.88567660000001],[-66.22500000000002,17.906275100000016],[-66.22500000000002,17.909706700000015],[-66.22500000000002,17.910122699999988],[-66.22500000000002,17.910248500000023],[-66.22500000000002,17.91032009999998],[-66.22500000000002,17.91068999999999],[-66.22500000000002,17.911140400000022],[-66.22500000000002,17.911332000000016],[-66.22500000000002,17.912231799999972],[-66.22500000000002,17.912487699999986],[-66.22500000000002,17.912697900000012],[-66.22500000000002,17.91575849999998],[-66.22500000000002,17.91611929999999],[-66.22500000000002,17.916762300000016],[-66.22500000000002,17.9173275],[-66.22500000000002,17.917577499999993],[-66.22500000000002,17.918331799999976],[-66.22500000000002,17.919084699999985],[-66.22500000000002,17.919877100000008],[-66.22500000000002,17.923925600000018],[-66.22500000000002,17.92500000000001],[-66.2188023,17.92500000000001],[-66.21584130000002,17.92500000000001],[-66.21551119999998,17.92500000000001],[-66.21500959999997,17.92500000000001],[-66.21478939999997,17.92500000000001],[-66.21423659999999,17.92500000000001],[-66.2140455,17.92500000000001],[-66.2127936,17.92500000000001],[-66.21243340000001,17.92500000000001],[-66.21204519999998,17.92500000000001],[-66.21161339999998,17.92500000000001],[-66.2103179,17.92500000000001],[-66.21006060000002,17.92500000000001],[-66.20948349999998,17.92500000000001],[-66.20881589999999,17.92500000000001],[-66.20868869999998,17.92500000000001],[-66.2041317,17.92500000000001],[-66.20315879999998,17.92500000000001],[-66.2028123,17.92500000000001],[-66.20264980000002,17.92500000000001],[-66.2022326,17.92500000000001],[-66.20164749999998,17.92500000000001],[-66.20063929999998,17.92500000000001],[-66.20042169999999,17.92500000000001],[-66.19830969999998,17.92500000000001],[-66.19819480000001,17.92500000000001],[-66.18967730000003,17.92500000000001],[-66.1872864,17.92500000000001],[-66.17385999999999,17.92500000000001],[-66.17053329999999,17.92500000000001],[-66.16631139999998,17.92500000000001],[-66.1653035,17.92500000000001],[-66.1628351,17.92500000000001],[-66.16077710000002,17.92500000000001],[-66.15946659999997,17.92500000000001],[-66.15801069999998,17.92500000000001],[-66.14999999999998,17.92500000000001],[-66.14999999999998,17.917950299999973],[-66.14999999999998,17.916931299999987],[-66.14999999999998,17.916607999999997],[-66.14999999999998,17.914681799999983],[-66.14999999999998,17.892652699999985],[-66.14999999999998,17.89231430000001],[-66.14999999999998,17.890810499999986],[-66.14999999999998,17.89024840000002],[-66.14999999999998,17.8887929],[-66.14999999999998,17.885781199999997],[-66.14999999999998,17.882879899999978],[-66.14999999999998,17.87797649999999],[-66.14999999999998,17.877255900000023],[-66.14999999999998,17.850000000000023],[-66.22500000000002,17.850000000000023]]]}},{"type":"Feature","properties":{},"geometry":{"type":"Polygon","coordinates":[[[-66.14999999999998,17.877255900000023],[-66.14999999999998,17.87797649999999],[-66.14999999999998,17.882879899999978],[-66.14999999999998,17.885781199999997],[-66.14999999999998,17.8887929],[-66.14999999999998,17.89024840000002],[-66.14999999999998,17.890810499999986],[-66.14999999999998,17.89231430000001],[-66.14999999999998,17.892652699999985],[-66.14999999999998,17.914681799999983],[-66.14999999999998,17.916607999999997],[-66.14999999999998,17.916931299999987],[-66.14999999999998,17.917950299999973],[-66.14999999999998,17.92500000000001],[-66.1497728,17.92500000000001],[-66.14969439999999,17.92500000000001],[-66.1360517,17.92500000000001],[-66.13302800000002,17.92500000000001],[-66.12944379999999,17.92500000000001],[-66.12601130000002,17.92500000000001],[-66.12081110000003,17.92500000000001],[-66.1184053,17.92500000000001],[-66.11421080000002,17.92500000000001],[-66.11361900000003,17.92500000000001],[-66.11229639999999,17.92500000000001],[-66.08170189999998,17.92500000000001],[-66.08159289999998,17.92500000000001],[-66.07499999999999,17.92500000000001],[-66.07499999999999,17.901090899999986],[-66.07499999999999,17.898027899999988],[-66.07499999999999,17.895994299999984],[-66.07499999999999,17.89508330000001],[-66.07499999999999,17.892143299999987],[-66.07499999999999,17.89060649999999],[-66.07499999999999,17.86360000000002],[-66.07499999999999,17.850000000000023],[-66.10135930000001,17.850000000000023],[-66.11453640000002,17.850000000000023],[-66.12762409999999,17.850000000000023],[-66.14999999999998,17.850000000000023],[-66.14999999999998,17.877255900000023]]]}},{"type":"Feature","properties":{},"geometry":{"type":"Polygon","coordinates":[[[-66.44999999999999,17.92563990000002],[-66.44999999999999,17.92737629999999],[-66.44999999999999,17.927999],[-66.44999999999999,17.928361999999993],[-66.44999999999999,17.930161999999996],[-66.44999999999999,17.93043510000001],[-66.44999999999999,17.93104299999999],[-66.44999999999999,17.931499299999984],[-66.44999999999999,17.93191730000001],[-66.44999999999999,17.93317589999998],[-66.44999999999999,17.933197199999995],[-66.44999999999999,17.933791999999983],[-66.44999999999999,17.935649899999987],[-66.44999999999999,17.936323200000004],[-66.44999999999999,17.937752999999987],[-66.44999999999999,17.938612200000023],[-66.44999999999999,17.943444899999974],[-66.44999999999999,17.946206200000006],[-66.44999999999999,17.948314400000015],[-66.44999999999999,17.97291580000001],[-66.44999999999999,17.976311599999974],[-66.44999999999999,17.979988900000023],[-66.44999999999999,17.98093110000002],[-66.44999999999999,17.981157900000028],[-66.44999999999999,17.982454200000006],[-66.44999999999999,17.98254609999998],[-66.44999999999999,17.98260110000001],[-66.44999999999999,17.982719999999972],[-66.44999999999999,18.0],[-66.375,18.0],[-66.375,17.957665099999986],[-66.375,17.955519400000014],[-66.375,17.95411580000001],[-66.375,17.95387249999999],[-66.375,17.953859599999987],[-66.375,17.953503099999978],[-66.375,17.953485899999976],[-66.375,17.952033900000004],[-66.375,17.952014899999995],[-66.375,17.951865999999995],[-66.375,17.95175390000003],[-66.375,17.951660600000025],[-66.375,17.951506600000016],[-66.375,17.95089150000001],[-66.375,17.949931400000025],[-66.375,17.949324100000013],[-66.375,17.945116999999982],[-66.375,17.944386399999985],[-66.375,17.941236300000014],[-66.375,17.940270999999996],[-66.375,17.93850900000001],[-66.375,17.931868500000007],[-66.375,17.928952200000026],[-66.375,17.928591200000028],[-66.375,17.928371700000014],[-66.375,17.927863300000013],[-66.375,17.927793199999996],[-66.375,17.925157000000013],[-66.375,17.92500000000001],[-66.37510680000003,17.92500000000001],[-66.38115800000003,17.92500000000001],[-66.3812393,17.92500000000001],[-66.38136150000003,17.92500000000001],[-66.3815927,17.92500000000001],[-66.3829695,17.92500000000001],[-66.38372299999997,17.92500000000001],[-66.38390679999998,17.92500000000001],[-66.3841218,17.92500000000001],[-66.38458450000002,17.92500000000001],[-66.385198,17.92500000000001],[-66.38638159999999,17.92500000000001],[-66.38746470000001,17.92500000000001],[-66.388644,17.92500000000001],[-66.38969500000002,17.92500000000001],[-66.39007190000001,17.92500000000001],[-66.39190919999999,17.92500000000001],[-66.40354769999999,17.92500000000001],[-66.41181360000002,17.92500000000001],[-66.44691030000001,17.92500000000001],[-66.44787589999999,17.92500000000001],[-66.44999999999999,17.92500000000001],[-66.44999999999999,17.92563990000002]]]}},{"type":"Feature","properties":{},"geometry":{"type":"Polygon","coordinates":[[[-66.375,17.925157000000013],[-66.375,17.927793199999996],[-66.375,17.927863300000013],[-66.375,17.928371700000014],[-66.375,17.928591200000028],[-66.375,17.928952200000026],[-66.375,17.931868500000007],[-66.375,17.93850900000001],[-66.375,17.940270999999996],[-66.375,17.941236300000014],[-66.375,17.944386399999985],[-66.375,17.945116999999982],[-66.375,17.949324100000013],[-66.375,17.949931400000025],[-66.375,17.95089150000001],[-66.375,17.951506600000016],[-66.375,17.951660600000025],[-66.375,17.95175390000003],[-66.375,17.951865999999995],[-66.375,17.952014899999995],[-66.375,17.952033900000004],[-66.375,17.953485899999976],[-66.375,17.953503099999978],[-66.375,17.953859599999987],[-66.375,17.95387249999999],[-66.375,17.95411580000001],[-66.375,17.955519400000014],[-66.375,17.957665099999986],[-66.375,18.0],[-66.361111,18.0],[-66.30000000000001,18.0],[-66.30000000000001,17.961339899999984],[-66.30000000000001,17.955382900000018],[-66.30000000000001,17.955364599999996],[-66.30000000000001,17.95105080000002],[-66.30000000000001,17.948970499999973],[-66.30000000000001,17.94861179999998],[-66.30000000000001,17.948322899999994],[-66.30000000000001,17.94414089999998],[-66.30000000000001,17.942093999999997],[-66.30000000000001,17.941613099999984],[-66.30000000000001,17.940829099999974],[-66.30000000000001,17.939125900000022],[-66.30000000000001,17.938606800000002],[-66.30000000000001,17.938078099999984],[-66.30000000000001,17.936539900000014],[-66.30000000000001,17.936183400000004],[-66.30000000000001,17.936059999999998],[-66.30000000000001,17.934479399999987],[-66.30000000000001,17.93393739999999],[-66.30000000000001,17.93366400000002],[-66.30000000000001,17.933440500000017],[-66.30000000000001,17.932904699999995],[-66.30000000000001,17.9326097],[-66.30000000000001,17.9324704],[-66.30000000000001,17.932285700000023],[-66.30000000000001,17.93153289999998],[-66.30000000000001,17.93130050000002],[-66.30000000000001,17.92568369999998],[-66.30000000000001,17.92500000000001],[-66.30089729999997,17.92500000000001],[-66.30299000000002,17.92500000000001],[-66.3142603,17.92500000000001],[-66.31694920000001,17.92500000000001],[-66.31845959999998,17.92500000000001],[-66.3218665,17.92500000000001],[-66.32359639999999,17.92500000000001],[-66.32876279999999,17.92500000000001],[-66.34330640000002,17.92500000000001],[-66.3475535,17.92500000000001],[-66.34935209999998,17.92500000000001],[-66.35109999999997,17.92500000000001],[-66.35183439999997,17.92500000000001],[-66.35399990000002,17.92500000000001],[-66.3554719,17.92500000000001],[-66.35576689999999,17.92500000000001],[-66.35594930000002,17.92500000000001],[-66.3561186,17.92500000000001],[-66.35691020000002,17.92500000000001],[-66.3575419,17.92500000000001],[-66.35864559999999,17.92500000000001],[-66.36037199999998,17.92500000000001],[-66.3608203,17.92500000000001],[-66.3640762,17.92500000000001],[-66.37225699999999,17.92500000000001],[-66.37317330000002,17.92500000000001],[-66.373674,17.92500000000001],[-66.37414510000002,17.92500000000001],[-66.37451249999998,17.92500000000001],[-66.37461050000002,17.92500000000001],[-66.375,17.92500000000001],[-66.375,17.925157000000013]]]}},{"type":"Feature","properties":{},"geometry":{"type":"Polygon","coordinates":[[[-66.30000000000001,17.92568369999998],[-66.30000000000001,17.93130050000002],[-66.30000000000001,17.93153289999998],[-66.30000000000001,17.932285700000023],[-66.30000000000001,17.9324704],[-66.30000000000001,17.9326097],[-66.30000000000001,17.932904699999995],[-66.30000000000001,17.933440500000017],[-66.30000000000001,17.93366400000002],[-66.30000000000001,17.93393739999999],[-66.30000000000001,17.934479399999987],[-66.30000000000001,17.936059999999998],[-66.30000000000001,17.936183400000004],[-66.30000000000001,17.936539900000014],[-66.30000000000001,17.938078099999984],[-66.30000000000001,17.938606800000002],[-66.30000000000001,17.939125900000022],[-66.30000000000001,17.940829099999974],[-66.30000000000001,17.941613099999984],[-66.30000000000001,17.942093999999997],[-66.30000000000001,17.94414089999998],[-66.30000000000001,17.948322899999994],[-66.30000000000001,17.94861179999998],[-66.30000000000001,17.948970499999973],[-66.30000000000001,17.95105080000002],[-66.30000000000001,17.955364599999996],[-66.30000000000001,17.955382900000018],[-66.30000000000001,17.961339899999984],[-66.30000000000001,18.0],[-66.22500000000002,18.0],[-66.22500000000002,17.953216199999986],[-66.22500000000002,17.95290990000001],[-66.22500000000002,17.952809000000002],[-66.22500000000002,17.952517100000023],[-66.22500000000002,17.952236000000028],[-66.22500000000002,17.950863099999992],[-66.22500000000002,17.950790499999982],[-66.22500000000002,17.95069619999998],[-66.22500000000002,17.950564799999995],[-66.22500000000002,17.950341900000012],[-66.22500000000002,17.950272499999983],[-66.22500000000002,17.950133600000015],[-66.22500000000002,17.949799100000007],[-66.22500000000002,17.949726],[-66.22500000000002,17.949714400000005],[-66.22500000000002,17.949168199999974],[-66.22500000000002,17.949097400000028],[-66.22500000000002,17.934536999999978],[-66.22500000000002,17.934458600000028],[-66.22500000000002,17.934376799999995],[-66.22500000000002,17.93334809999999],[-66.22500000000002,17.932653099999982],[-66.22500000000002,17.92500000000001],[-66.22745550000002,17.92500000000001],[-66.22792729999998,17.92500000000001],[-66.23049049999997,17.92500000000001],[-66.2334222,17.92500000000001],[-66.23675800000001,17.92500000000001],[-66.24015789999999,17.92500000000001],[-66.24318670000002,17.92500000000001],[-66.24409509999998,17.92500000000001],[-66.24515359999998,17.92500000000001],[-66.25861579999997,17.92500000000001],[-66.26020440000002,17.92500000000001],[-66.2605168,17.92500000000001],[-66.26052479999998,17.92500000000001],[-66.26060610000002,17.92500000000001],[-66.26134400000001,17.92500000000001],[-66.26334179999998,17.92500000000001],[-66.26455240000001,17.92500000000001],[-66.26479519999998,17.92500000000001],[-66.26486110000002,17.92500000000001],[-66.26504790000001,17.92500000000001],[-66.26517209999997,17.92500000000001],[-66.26529870000002,17.92500000000001],[-66.26622129999998,17.92500000000001],[-66.26682729999999,17.92500000000001],[-66.26992330000002,17.92500000000001],[-66.27222870000003,17.92500000000001],[-66.27368100000001,17.92500000000001],[-66.27397079999997,17.92500000000001],[-66.27496609999997,17.92500000000001],[-66.27995550000003,17.92500000000001],[-66.28143019999999,17.92500000000001],[-66.29202170000002,17.92500000000001],[-66.30000000000001,17.92500000000001],[-66.30000000000001,17.92568369999998]]]}},{"type":"Feature","properties":{},"geometry":{"type":"Polygon","coordinates":[[[-66.2188023,17.92500000000001],[-66.22500000000002,17.92500000000001],[-66.22500000000002,17.932653099999982],[-66.22500000000002,17.93334809999999],[-66.22500000000002,17.934376799999995],[-66.22500000000002,17.934458600000028],[-66.22500000000002,17.934536999999978],[-66.22500000000002,17.949097400000028],[-66.22500000000002,17.949168199999974],[-66.22500000000002,17.949714400000005],[-66.22500000000002,17.949726],[-66.22500000000002,17.949799100000007],[-66.22500000000002,17.950133600000015],[-66.22500000000002,17.950272499999983],[-66.22500000000002,17.950341900000012],[-66.22500000000002,17.950564799999995],[-66.22500000000002,17.95069619999998],[-66.22500000000002,17.950790499999982],[-66.22500000000002,17.950863099999992],[-66.22500000000002,17.952236000000028],[-66.22500000000002,17.952517100000023],[-66.22500000000002,17.952809000000002],[-66.22500000000002,17.95290990000001],[-66.22500000000002,17.953216199999986],[-66.22500000000002,17.993861900000013],[-66.22500000000002,18.0],[-66.14999999999998,18.0],[-66.14999999999998,17.94390279999999],[-66.14999999999998,17.933329300000025],[-66.14999999999998,17.932460100000014],[-66.14999999999998,17.93182589999998],[-66.14999999999998,17.930577700000015],[-66.14999999999998,17.928782099999978],[-66.14999999999998,17.9281474],[-66.14999999999998,17.92776470000001],[-66.14999999999998,17.927114399999994],[-66.14999999999998,17.927062700000022],[-66.14999999999998,17.926897999999994],[-66.14999999999998,17.92678460000002],[-66.14999999999998,17.926627600000018],[-66.14999999999998,17.92500000000001],[-66.15801069999998,17.92500000000001],[-66.15946659999997,17.92500000000001],[-66.16077710000002,17.92500000000001],[-66.1628351,17.92500000000001],[-66.1653035,17.92500000000001],[-66.16631139999998,17.92500000000001],[-66.17053329999999,17.92500000000001],[-66.17385999999999,17.92500000000001],[-66.1872864,17.92500000000001],[-66.18967730000003,17.92500000000001],[-66.19819480000001,17.92500000000001],[-66.19830969999998,17.92500000000001],[-66.20042169999999,17.92500000000001],[-66.20063929999998,17.92500000000001],[-66.20164749999998,17.92500000000001],[-66.2022326,17.92500000000001],[-66.20264980000002,17.92500000000001],[-66.2028123,17.92500000000001],[-66.20315879999998,17.92500000000001],[-66.2041317,17.92500000000001],[-66.20868869999998,17.92500000000001],[-66.20881589999999,17.92500000000001],[-66.20948349999998,17.92500000000001],[-66.21006060000002,17.92500000000001],[-66.2103179,17.92500000000001],[-66.21161339999998,17.92500000000001],[-66.21204519999998,17.92500000000001],[-66.21243340000001,17.92500000000001],[-66.2127936,17.92500000000001],[-66.2140455,17.92500000000001],[-66.21423659999999,17.92500000000001],[-66.21478939999997,17.92500000000001],[-66.21500959999997,17.92500000000001],[-66.21551119999998,17.92500000000001],[-66.21584130000002,17.92500000000001],[-66.2188023,17.92500000000001]]]}},{"type":"Feature","properties":{},"geometry":{"type":"Polygon","coordinates":[[[-66.1497728,17.92500000000001],[-66.14999999999998,17.92500000000001],[-66.14999999999998,17.926627600000018],[-66.14999999999998,17.92678460000002],[-66.14999999999998,17.926897999999994],[-66.14999999999998,17.927062700000022],[-66.14999999999998,17.927114399999994],[-66.14999999999998,17.92776470000001],[-66.14999999999998,17.9281474],[-66.14999999999998,17.928782099999978],[-66.14999999999998,17.930577700000015],[-66.14999999999998,17.93182589999998],[-66.14999999999998,17.932460100000014],[-66.14999999999998,17.933329300000025],[-66.14999999999998,17.94390279999999],[-66.14999999999998,18.0],[-66.13302800000002,18.0],[-66.07499999999999,18.0],[-66.07499999999999,17.965642100000025],[-66.07499999999999,17.96560290000002],[-66.07499999999999,17.96521419999999],[-66.07499999999999,17.964210999999978],[-66.07499999999999,17.962830800000006],[-66.07499999999999,17.9567897],[-66.07499999999999,17.95562430000001],[-66.07499999999999,17.953949899999998],[-66.07499999999999,17.953522899999996],[-66.07499999999999,17.953073200000006],[-66.07499999999999,17.95243879999998],[-66.07499999999999,17.952014299999973],[-66.07499999999999,17.949190299999998],[-66.07499999999999,17.947990100000027],[-66.07499999999999,17.947520699999984],[-66.07499999999999,17.944505400000025],[-66.07499999999999,17.92500000000001],[-66.08159289999998,17.92500000000001],[-66.08170189999998,17.92500000000001],[-66.11229639999999,17.92500000000001],[-66.11361900000003,17.92500000000001],[-66.11421080000002,17.92500000000001],[-66.1184053,17.92500000000001],[-66.12081110000003,17.92500000000001],[-66.12601130000002,17.92500000000001],[-66.12944379999999,17.92500000000001],[-66.13302800000002,17.92500000000001],[-66.1360517,17.92500000000001],[-66.14969439999999,17.92500000000001],[-66.1497728,17.92500000000001]]]}},{"type":"Feature","properties":{},"geometry":{"type":"Polygon","coordinates":[[[-66.07499999999999,17.944505400000025],[-66.07499999999999,17.947520699999984],[-66.07499999999999,17.947990100000027],[-66.07499999999999,17.949190299999998],[-66.07499999999999,17.952014299999973],[-66.07499999999999,17.95243879999998],[-66.07499999999999,17.953073200000006],[-66.07499999999999,17.953522899999996],[-66.07499999999999,17.953949899999998],[-66.07499999999999,17.95562430000001],[-66.07499999999999,17.9567897],[-66.07499999999999,17.962830800000006],[-66.07499999999999,17.964210999999978],[-66.07499999999999,17.96521419999999],[-66.07499999999999,17.96560290000002],[-66.07499999999999,17.965642100000025],[-66.07499999999999,18.0],[-66.041361,18.0],[-66.0,18.0],[-66.0,17.979451100000006],[-66.0,17.97891249999998],[-66.0,17.974570599999993],[-66.0,17.973709900000017],[-66.0,17.970842800000014],[-66.0,17.967419300000017],[-66.0,17.965874499999984],[-66.0,17.96579059999999],[-66.0,17.95896879999998],[-66.0,17.954396900000006],[-66.0,17.945758000000012],[-66.0,17.943525299999976],[-66.0,17.94199420000001],[-66.0,17.92500000000001],[-66.041361,17.92500000000001],[-66.0445047,17.92500000000001],[-66.04585680000002,17.92500000000001],[-66.05180819999998,17.92500000000001],[-66.06191510000002,17.92500000000001],[-66.06298470000002,17.92500000000001],[-66.06317180000002,17.92500000000001],[-66.06468210000003,17.92500000000001],[-66.07499999999999,17.92500000000001],[-66.07499999999999,17.944505400000025]]]}},{"type":"Feature","properties":{},"geometry":{"type":"Polygon","coordinates":[[[-65.9498496,17.92500000000001],[-66.0,17.92500000000001],[-66.0,17.94199420000001],[-66.0,17.943525299999976],[-66.0,17.945758000000012],[-66.0,17.954396900000006],[-66.0,17.95896879999998],[-66.0,17.96579059999999],[-66.0,17.965874499999984],[-66.0,17.967419300000017],[-66.0,17.970842800000014],[-66.0,17.973709900000017],[-66.0,17.974570599999993],[-66.0,17.97891249999998],[-66.0,17.979451100000006],[-66.0,18.0],[-65.92500000000001,18.0],[-65.92500000000001,17.97659379999999],[-65.92500000000001,17.97550050000001],[-65.92500000000001,17.974881600000003],[-65.92500000000001,17.974609699999974],[-65.92500000000001,17.9740592],[-65.92500000000001,17.96958269999999],[-65.92500000000001,17.96521180000002],[-65.92500000000001,17.958146899999974],[-65.92500000000001,17.956647099999998],[-65.92500000000001,17.954802400000005],[-65.92500000000001,17.953293900000006],[-65.92500000000001,17.933324700000014],[-65.92500000000001,17.92500000000001],[-65.9498496,17.92500000000001]]]}},{"type":"Feature","properties":{},"geometry":{"type":"Polygon","coordinates":[[[-65.92077890000002,17.92500000000001],[-65.92500000000001,17.92500000000001],[-65.92500000000001,17.933324700000014],[-65.92500000000001,17.953293900000006],[-65.92500000000001,17.954802400000005],[-65.92500000000001,17.956647099999998],[-65.92500000000001,17.958146899999974],[-65.92500000000001,17.96521180000002],[-65.92500000000001,17.96958269999999],[-65.92500000000001,17.9740592],[-65.92500000000001,17.974609699999974],[-65.92500000000001,17.974881600000003],[-65.92500000000001,17.97550050000001],[-65.92500000000001,17.97659379999999],[-65.92500000000001,18.0],[-65.87704009999999,18.0],[-65.87654020000002,18.0],[-65.87623509999997,18.0],[-65.87614739999998,18.0],[-65.8753519,18.0],[-65.87025460000001,18.0],[-65.8666556,18.0],[-65.8532399,18.0],[-65.85240909999999,18.0],[-65.85199269999998,18.0],[-65.85071149999999,18.0],[-65.85000000000002,18.0],[-65.85000000000002,17.999907800000017],[-65.85000000000002,17.995890799999984],[-65.85000000000002,17.994206299999973],[-65.85000000000002,17.993967800000007],[-65.85000000000002,17.992465100000004],[-65.85000000000002,17.991927499999974],[-65.85000000000002,17.981220800000017],[-65.85000000000002,17.968193699999972],[-65.85000000000002,17.943270299999995],[-65.85000000000002,17.942487500000027],[-65.85000000000002,17.92500000000001],[-65.87461200000001,17.92500000000001],[-65.91285820000002,17.92500000000001],[-65.92077890000002,17.92500000000001]]]}},{"type":"Feature","properties":{},"geometry":{"type":"Polygon","coordinates":[[[-65.85000000000002,17.92500000000001],[-65.85000000000002,17.942487500000027],[-65.85000000000002,17.943270299999995],[-65.85000000000002,17.968193699999972],[-65.85000000000002,17.981220800000017],[-65.85000000000002,17.991927499999974],[-65.85000000000002,17.992465100000004],[-65.85000000000002,17.993967800000007],[-65.85000000000002,17.994206299999973],[-65.85000000000002,17.995890799999984],[-65.85000000000002,17.999907800000017],[-65.85000000000002,18.0],[-65.84667339999999,18.0],[-65.84050339999999,18.0],[-65.83414770000002,18.0],[-65.83330769999998,18.0],[-65.8282173,18.0],[-65.8277842,18.0],[-65.82573230000003,18.0],[-65.78273530000001,18.0],[-65.78192539999998,18.0],[-65.77499999999998,18.0],[-65.77499999999998,17.999044400000002],[-65.77499999999998,17.999011600000017],[-65.77499999999998,17.998899300000005],[-65.77499999999998,17.92500000000001],[-65.85000000000002,17.92500000000001]]]}},{"type":"Feature","properties":{},"geometry":{"type":"Polygon","coordinates":[[[-65.85000000000002,18.013192600000025],[-65.85000000000002,18.011520399999995],[-65.85000000000002,18.011059999999986],[-65.85000000000002,18.01007249999998],[-65.85000000000002,18.00986519999998],[-65.85000000000002,18.00980900000002],[-65.85000000000002,18.00717659999998],[-65.85000000000002,18.003339100000005],[-65.85000000000002,18.0025842],[-65.85000000000002,18.000862199999972],[-65.85000000000002,18.0],[-65.85071149999999,18.0],[-65.85199269999998,18.0],[-65.85240909999999,18.0],[-65.8532399,18.0],[-65.8666556,18.0],[-65.87025460000001,18.0],[-65.8753519,18.0],[-65.87614739999998,18.0],[-65.87623509999997,18.0],[-65.87654020000002,18.0],[-65.87704009999999,18.0],[-65.92500000000001,18.0],[-65.92500000000001,18.07499999999999],[-65.87461200000001,18.07499999999999],[-65.85000000000002,18.07499999999999],[-65.85000000000002,18.03635559999998],[-65.85000000000002,18.013192600000025]]]}},{"type":"Feature","properties":{},"geometry":{"type":"Polygon","coordinates":[[[-65.84667339999999,18.0],[-65.85000000000002,18.0],[-65.85000000000002,18.000862199999972],[-65.85000000000002,18.0025842],[-65.85000000000002,18.003339100000005],[-65.85000000000002,18.00717659999998],[-65.85000000000002,18.00980900000002],[-65.85000000000002,18.00986519999998],[-65.85000000000002,18.01007249999998],[-65.85000000000002,18.011059999999986],[-65.85000000000002,18.011520399999995],[-65.85000000000002,18.013192600000025],[-65.85000000000002,18.03635559999998],[-65.85000000000002,18.07499999999999],[-65.79653789999998,18.07499999999999],[-65.7964819,18.07499999999999],[-65.7954095,18.07499999999999],[-65.7953794,18.07499999999999],[-65.79481349999998,18.07499999999999],[-65.79470559999999,18.07499999999999],[-65.79453180000002,18.07499999999999],[-65.7938102,18.07499999999999],[-65.79308049999997,18.07499999999999],[-65.79212319999999,18.07499999999999],[-65.79172519999997,18.07499999999999],[-65.79104410000002,18.07499999999999],[-65.78900959999999,18.07499999999999],[-65.7885554,18.07499999999999],[-65.77684449999998,18.07499999999999],[-65.77499999999998,18.07499999999999],[-65.77499999999998,18.074323100000015],[-65.77499999999998,18.07348189999999],[-65.77499999999998,18.072669200000007],[-65.77499999999998,18.069372299999998],[-65.77499999999998,18.051163400000007],[-65.77499999999998,18.050125200000025],[-65.77499999999998,18.046140100000002],[-65.77499999999998,18.044292499999983],[-65.77499999999998,18.016263100000003],[-65.77499999999998,18.01541370000001],[-65.77499999999998,18.0],[-65.78192539999998,18.0],[-65.78273530000001,18.0],[-65.82573230000003,18.0],[-65.8277842,18.0],[-65.8282173,18.0],[-65.83330769999998,18.0],[-65.83414770000002,18.0],[-65.84050339999999,18.0],[-65.84667339999999,18.0]]]}},{"type":"Feature","properties":{},"geometry":{"type":"Polygon","coordinates":[[[-65.77499999999998,18.140227600000003],[-65.77499999999998,18.13984640000001],[-65.77499999999998,18.138213399999984],[-65.77499999999998,18.137347499999976],[-65.77499999999998,18.13405979999999],[-65.77499999999998,18.133685200000002],[-65.77499999999998,18.132707299999993],[-65.77499999999998,18.132511899999997],[-65.77499999999998,18.13248420000002],[-65.77499999999998,18.128312300000005],[-65.77499999999998,18.127884400000028],[-65.77499999999998,18.127829599999984],[-65.77499999999998,18.126412500000015],[-65.77499999999998,18.120264599999985],[-65.77499999999998,18.119867],[-65.77499999999998,18.11930159999997],[-65.77499999999998,18.119267400000012],[-65.77499999999998,18.11875409999999],[-65.77499999999998,18.118062599999973],[-65.77499999999998,18.107684000000006],[-65.77499999999998,18.105501500000003],[-65.77499999999998,18.103815699999984],[-65.77499999999998,18.1003556],[-65.77499999999998,18.099908400000004],[-65.77499999999998,18.07783740000002],[-65.77499999999998,18.07499999999999],[-65.77684449999998,18.07499999999999],[-65.7885554,18.07499999999999],[-65.78900959999999,18.07499999999999],[-65.79104410000002,18.07499999999999],[-65.79172519999997,18.07499999999999],[-65.79212319999999,18.07499999999999],[-65.79308049999997,18.07499999999999],[-65.7938102,18.07499999999999],[-65.79453180000002,18.07499999999999],[-65.79470559999999,18.07499999999999],[-65.79481349999998,18.07499999999999],[-65.7953794,18.07499999999999],[-65.7954095,18.07499999999999],[-65.7964819,18.07499999999999],[-65.79653789999998,18.07499999999999],[-65.85000000000002,18.07499999999999],[-65.85000000000002,18.149999999999977],[-65.79178239999999,18.149999999999977],[-65.77499999999998,18.149999999999977],[-65.77499999999998,18.1425663],[-65.77499999999998,18.140363200000024],[-65.77499999999998,18.140227600000003]]]}},{"type":"Feature","properties":{},"geometry":{"type":"Polygon","coordinates":[[[-65.77425260000001,18.07499999999999],[-65.77499999999998,18.07499999999999],[-65.77499999999998,18.07783740000002],[-65.77499999999998,18.099908400000004],[-65.77499999999998,18.1003556],[-65.77499999999998,18.103815699999984],[-65.77499999999998,18.105501500000003],[-65.77499999999998,18.107684000000006],[-65.77499999999998,18.118062599999973],[-65.77499999999998,18.11875409999999],[-65.77499999999998,18.119267400000012],[-65.77499999999998,18.11930159999997],[-65.77499999999998,18.119867],[-65.77499999999998,18.120264599999985],[-65.77499999999998,18.126412500000015],[-65.77499999999998,18.127829599999984],[-65.77499999999998,18.127884400000028],[-65.77499999999998,18.128312300000005],[-65.77499999999998,18.13248420000002],[-65.77499999999998,18.132511899999997],[-65.77499999999998,18.132707299999993],[-65.77499999999998,18.133685200000002],[-65.77499999999998,18.13405979999999],[-65.77499999999998,18.137347499999976],[-65.77499999999998,18.138213399999984],[-65.77499999999998,18.13984640000001],[-65.77499999999998,18.140227600000003],[-65.77499999999998,18.140363200000024],[-65.77499999999998,18.1425663],[-65.77499999999998,18.149999999999977],[-65.76559709999998,18.149999999999977],[-65.76497819999997,18.149999999999977],[-65.76452540000003,18.149999999999977],[-65.7637851,18.149999999999977],[-65.76375969999998,18.149999999999977],[-65.76336300000003,18.149999999999977],[-65.7516865,18.149999999999977],[-65.72421379999997,18.149999999999977],[-65.7174114,18.149999999999977],[-65.71590179999998,18.149999999999977],[-65.69999999999999,18.149999999999977],[-65.69999999999999,18.147693000000004],[-65.69999999999999,18.142351399999995],[-65.69999999999999,18.137044100000026],[-65.69999999999999,18.121967499999982],[-65.69999999999999,18.121121000000016],[-65.69999999999999,18.11551079999998],[-65.69999999999999,18.114574500000003],[-65.69999999999999,18.110364000000004],[-65.69999999999999,18.109904200000017],[-65.69999999999999,18.10897920000002],[-65.69999999999999,18.10863169999999],[-65.69999999999999,18.10842500000001],[-65.69999999999999,18.10811530000001],[-65.69999999999999,18.107684000000006],[-65.69999999999999,18.10650290000001],[-65.69999999999999,18.10613059999997],[-65.69999999999999,18.10441209999999],[-65.69999999999999,18.103401799999972],[-65.69999999999999,18.10250819999999],[-65.69999999999999,18.101989899999978],[-65.69999999999999,18.099403499999994],[-65.69999999999999,18.095112200000017],[-65.69999999999999,18.093406700000003],[-65.69999999999999,18.07499999999999],[-65.72953799999999,18.07499999999999],[-65.7334141,18.07499999999999],[-65.73424,18.07499999999999],[-65.73457719999999,18.07499999999999],[-65.73549220000001,18.07499999999999],[-65.73575340000002,18.07499999999999],[-65.73766499999999,18.07499999999999],[-65.7402085,18.07499999999999],[-65.74942900000002,18.07499999999999],[-65.7564069,18.07499999999999],[-65.76105740000003,18.07499999999999],[-65.76148089999998,18.07499999999999],[-65.77425260000001,18.07499999999999]]]}},{"type":"Feature","properties":{},"geometry":{"type":"Polygon","coordinates":[[[-65.69833299999999,18.07499999999999],[-65.69999999999999,18.07499999999999],[-65.69999999999999,18.093406700000003],[-65.69999999999999,18.095112200000017],[-65.69999999999999,18.099403499999994],[-65.69999999999999,18.101989899999978],[-65.69999999999999,18.10250819999999],[-65.69999999999999,18.103401799999972],[-65.69999999999999,18.10441209999999],[-65.69999999999999,18.10613059999997],[-65.69999999999999,18.10650290000001],[-65.69999999999999,18.107684000000006],[-65.69999999999999,18.10811530000001],[-65.69999999999999,18.10842500000001],[-65.69999999999999,18.10863169999999],[-65.69999999999999,18.10897920000002],[-65.69999999999999,18.109904200000017],[-65.69999999999999,18.110364000000004],[-65.69999999999999,18.114574500000003],[-65.69999999999999,18.11551079999998],[-65.69999999999999,18.121121000000016],[-65.69999999999999,18.121967499999982],[-65.69999999999999,18.137044100000026],[-65.69999999999999,18.142351399999995],[-65.69999999999999,18.147693000000004],[-65.69999999999999,18.149999999999977],[-65.69632209999997,18.149999999999977],[-65.69558919999997,18.149999999999977],[-65.69557049999997,18.149999999999977],[-65.69159250000001,18.149999999999977],[-65.68906729999998,18.149999999999977],[-65.68845320000003,18.149999999999977],[-65.67831539999997,18.149999999999977],[-65.6776964,18.149999999999977],[-65.6739723,18.149999999999977],[-65.67364470000001,18.149999999999977],[-65.6735243,18.149999999999977],[-65.67276329999999,18.149999999999977],[-65.6704115,18.149999999999977],[-65.67027139999999,18.149999999999977],[-65.66990800000002,18.149999999999977],[-65.66961579999997,18.149999999999977],[-65.66586280000001,18.149999999999977],[-65.66566089999998,18.149999999999977],[-65.65414870000001,18.149999999999977],[-65.64828169999998,18.149999999999977],[-65.64602550000001,18.149999999999977],[-65.64073020000001,18.149999999999977],[-65.64067599999998,18.149999999999977],[-65.6387014,18.149999999999977],[-65.63786499999998,18.149999999999977],[-65.63618359999998,18.149999999999977],[-65.63497130000002,18.149999999999977],[-65.63189929999999,18.149999999999977],[-65.62855589999998,18.149999999999977],[-65.6270859,18.149999999999977],[-65.62573259999999,18.149999999999977],[-65.625,18.149999999999977],[-65.625,18.149470699999995],[-65.625,18.146567300000015],[-65.625,18.143501300000025],[-65.625,18.142920000000004],[-65.625,18.141324999999995],[-65.625,18.14026610000002],[-65.625,18.137447800000018],[-65.625,18.137091899999973],[-65.625,18.13348860000002],[-65.625,18.12964469999997],[-65.625,18.122610099999974],[-65.625,18.12141200000002],[-65.625,18.120588499999997],[-65.625,18.118559000000005],[-65.625,18.11736350000001],[-65.625,18.116157699999974],[-65.625,18.1149992],[-65.625,18.114303199999995],[-65.625,18.114093700000012],[-65.625,18.113769900000023],[-65.625,18.11180250000001],[-65.625,18.111031000000025],[-65.625,18.107530300000008],[-65.625,18.106094100000007],[-65.625,18.10553379999999],[-65.625,18.10416509999999],[-65.625,18.103776200000027],[-65.625,18.100583400000005],[-65.625,18.09955100000002],[-65.625,18.08653049999998],[-65.625,18.08623],[-65.625,18.080054299999972],[-65.625,18.078508100000022],[-65.625,18.0778866],[-65.625,18.075614400000006],[-65.625,18.075047499999982],[-65.625,18.07499999999999],[-65.65348519999998,18.07499999999999],[-65.65546189999998,18.07499999999999],[-65.69833299999999,18.07499999999999]]]}},{"type":"Feature","properties":{},"geometry":{"type":"Polygon","coordinates":[[[-65.62198999999998,18.07499999999999],[-65.6228954,18.07499999999999],[-65.625,18.07499999999999],[-65.625,18.075047499999982],[-65.625,18.075614400000006],[-65.625,18.0778866],[-65.625,18.078508100000022],[-65.625,18.080054299999972],[-65.625,18.08623],[-65.625,18.08653049999998],[-65.625,18.09955100000002],[-65.625,18.100583400000005],[-65.625,18.103776200000027],[-65.625,18.10416509999999],[-65.625,18.10553379999999],[-65.625,18.106094100000007],[-65.625,18.107530300000008],[-65.625,18.111031000000025],[-65.625,18.11180250000001],[-65.625,18.113769900000023],[-65.625,18.114093700000012],[-65.625,18.114303199999995],[-65.625,18.1149992],[-65.625,18.116157699999974],[-65.625,18.11736350000001],[-65.625,18.118559000000005],[-65.625,18.120588499999997],[-65.625,18.12141200000002],[-65.625,18.122610099999974],[-65.625,18.12964469999997],[-65.625,18.13348860000002],[-65.625,18.137091899999973],[-65.625,18.137447800000018],[-65.625,18.14026610000002],[-65.625,18.141324999999995],[-65.625,18.142920000000004],[-65.625,18.143501300000025],[-65.625,18.146567300000015],[-65.625,18.149470699999995],[-65.625,18.149999999999977],[-65.62495760000002,18.149999999999977],[-65.62460650000003,18.149999999999977],[-65.62313469999998,18.149999999999977],[-65.62029990000002,18.149999999999977],[-65.6199229,18.149999999999977],[-65.619419,18.149999999999977],[-65.6193831,18.149999999999977],[-65.6182528,18.149999999999977],[-65.60613919999997,18.149999999999977],[-65.60493129999998,18.149999999999977],[-65.6035291,18.149999999999977],[-65.6024698,18.149999999999977],[-65.60041260000003,18.149999999999977],[-65.59980669999999,18.149999999999977],[-65.59896509999999,18.149999999999977],[-65.59131939999997,18.149999999999977],[-65.58831470000001,18.149999999999977],[-65.58348769999998,18.149999999999977],[-65.58059079999998,18.149999999999977],[-65.58056319999997,18.149999999999977],[-65.56954430000002,18.149999999999977],[-65.5586887,18.149999999999977],[-65.55098750000002,18.149999999999977],[-65.55075160000001,18.149999999999977],[-65.55000000000001,18.149999999999977],[-65.55000000000001,18.14930179999999],[-65.55000000000001,18.137960099999987],[-65.55000000000001,18.135188400000004],[-65.55000000000001,18.134146600000008],[-65.55000000000001,18.132802700000013],[-65.55000000000001,18.131810200000018],[-65.55000000000001,18.126307699999984],[-65.55000000000001,18.122016400000007],[-65.55000000000001,18.119377999999983],[-65.55000000000001,18.084880199999986],[-65.55000000000001,18.08439390000001],[-65.55000000000001,18.08235860000002],[-65.55000000000001,18.081625599999995],[-65.55000000000001,18.081149400000015],[-65.55000000000001,18.07990289999998],[-65.55000000000001,18.079294100000027],[-65.55000000000001,18.078432299999974],[-65.55000000000001,18.077930999999978],[-65.55000000000001,18.077131399999985],[-65.55000000000001,18.07499999999999],[-65.559099,18.07499999999999],[-65.55938500000002,18.07499999999999],[-65.56318060000001,18.07499999999999],[-65.57167729999998,18.07499999999999],[-65.59072739999999,18.07499999999999],[-65.5992642,18.07499999999999],[-65.60031670000001,18.07499999999999],[-65.61155980000001,18.07499999999999],[-65.61383510000002,18.07499999999999],[-65.62198999999998,18.07499999999999]]]}},{"type":"Feature","properties":{},"geometry":{"type":"Polygon","coordinates":[[[-65.55000000000001,18.077131399999985],[-65.55000000000001,18.077930999999978],[-65.55000000000001,18.078432299999974],[-65.55000000000001,18.079294100000027],[-65.55000000000001,18.07990289999998],[-65.55000000000001,18.081149400000015],[-65.55000000000001,18.081625599999995],[-65.55000000000001,18.08235860000002],[-65.55000000000001,18.08439390000001],[-65.55000000000001,18.084880199999986],[-65.55000000000001,18.119377999999983],[-65.55000000000001,18.122016400000007],[-65.55000000000001,18.126307699999984],[-65.55000000000001,18.131810200000018],[-65.55000000000001,18.132802700000013],[-65.55000000000001,18.134146600000008],[-65.55000000000001,18.135188400000004],[-65.55000000000001,18.137960099999987],[-65.55000000000001,18.14930179999999],[-65.55000000000001,18.149999999999977],[-65.5483979,18.149999999999977],[-65.53982769999999,18.149999999999977],[-65.52963640000002,18.149999999999977],[-65.52679840000002,18.149999999999977],[-65.52145150000001,18.149999999999977],[-65.520332,18.149999999999977],[-65.51779060000001,18.149999999999977],[-65.51626490000001,18.149999999999977],[-65.51553439999998,18.149999999999977],[-65.51463919999998,18.149999999999977],[-65.51444179999999,18.149999999999977],[-65.51401349999998,18.149999999999977],[-65.51379789999999,18.149999999999977],[-65.5134903,18.149999999999977],[-65.50993369999998,18.149999999999977],[-65.50060580000002,18.149999999999977],[-65.50035910000003,18.149999999999977],[-65.49298959999999,18.149999999999977],[-65.4917696,18.149999999999977],[-65.49118700000002,18.149999999999977],[-65.49052849999998,18.149999999999977],[-65.48981300000003,18.149999999999977],[-65.48851539999998,18.149999999999977],[-65.48834540000001,18.149999999999977],[-65.48458260000001,18.149999999999977],[-65.48301550000002,18.149999999999977],[-65.48139329999998,18.149999999999977],[-65.47813070000001,18.149999999999977],[-65.47612400000003,18.149999999999977],[-65.47500000000002,18.149999999999977],[-65.47500000000002,18.143657099999984],[-65.47500000000002,18.142683799999986],[-65.47500000000002,18.142477699999972],[-65.47500000000002,18.142162400000018],[-65.47500000000002,18.09535790000001],[-65.47500000000002,18.094485899999995],[-65.47500000000002,18.093906500000003],[-65.47500000000002,18.088384299999973],[-65.47500000000002,18.087293999999986],[-65.47500000000002,18.08717250000001],[-65.47500000000002,18.086687400000017],[-65.47500000000002,18.08491459999999],[-65.47500000000002,18.083455000000015],[-65.47500000000002,18.080658599999992],[-65.47500000000002,18.07702999999998],[-65.47500000000002,18.076681800000017],[-65.47500000000002,18.076043900000002],[-65.47500000000002,18.0759453],[-65.47500000000002,18.07525770000001],[-65.47500000000002,18.07517569999999],[-65.47500000000002,18.07499999999999],[-65.47595310000003,18.07499999999999],[-65.47602289999998,18.07499999999999],[-65.48325360000001,18.07499999999999],[-65.48401969999998,18.07499999999999],[-65.48552749999999,18.07499999999999],[-65.48659229999998,18.07499999999999],[-65.48955590000003,18.07499999999999],[-65.49111199999999,18.07499999999999],[-65.50974980000001,18.07499999999999],[-65.50992230000003,18.07499999999999],[-65.51094119999999,18.07499999999999],[-65.511122,18.07499999999999],[-65.51362410000002,18.07499999999999],[-65.5173024,18.07499999999999],[-65.51792239999997,18.07499999999999],[-65.518867,18.07499999999999],[-65.5198403,18.07499999999999],[-65.52483389999998,18.07499999999999],[-65.52583709999999,18.07499999999999],[-65.52643920000003,18.07499999999999],[-65.52738900000003,18.07499999999999],[-65.54004300000003,18.07499999999999],[-65.54050690000003,18.07499999999999],[-65.55000000000001,18.07499999999999],[-65.55000000000001,18.077131399999985]]]}},{"type":"Feature","properties":{},"geometry":{"type":"Polygon","coordinates":[[[-65.47500000000002,18.07517569999999],[-65.47500000000002,18.07525770000001],[-65.47500000000002,18.0759453],[-65.47500000000002,18.076043900000002],[-65.47500000000002,18.076681800000017],[-65.47500000000002,18.07702999999998],[-65.47500000000002,18.080658599999992],[-65.47500000000002,18.083455000000015],[-65.47500000000002,18.08491459999999],[-65.47500000000002,18.086687400000017],[-65.47500000000002,18.08717250000001],[-65.47500000000002,18.087293999999986],[-65.47500000000002,18.088384299999973],[-65.47500000000002,18.093906500000003],[-65.47500000000002,18.094485899999995],[-65.47500000000002,18.09535790000001],[-65.47500000000002,18.142162400000018],[-65.47500000000002,18.142477699999972],[-65.47500000000002,18.142683799999986],[-65.47500000000002,18.143657099999984],[-65.47500000000002,18.149999999999977],[-65.46840459999999,18.149999999999977],[-65.46556570000001,18.149999999999977],[-65.4560138,18.149999999999977],[-65.45407569999998,18.149999999999977],[-65.45223470000002,18.149999999999977],[-65.45086959999998,18.149999999999977],[-65.44746800000001,18.149999999999977],[-65.446053,18.149999999999977],[-65.44584709999998,18.149999999999977],[-65.44559299999997,18.149999999999977],[-65.4452407,18.149999999999977],[-65.44502619999997,18.149999999999977],[-65.44486389999997,18.149999999999977],[-65.44456609999997,18.149999999999977],[-65.44417449999997,18.149999999999977],[-65.4439231,18.149999999999977],[-65.438583,18.149999999999977],[-65.43555500000002,18.149999999999977],[-65.40444860000002,18.149999999999977],[-65.39999999999998,18.149999999999977],[-65.39999999999998,18.143382400000007],[-65.39999999999998,18.10826559999998],[-65.39999999999998,18.106849599999975],[-65.39999999999998,18.101500699999974],[-65.39999999999998,18.09380090000002],[-65.39999999999998,18.083681800000022],[-65.39999999999998,18.083263499999987],[-65.39999999999998,18.07499999999999],[-65.43555500000002,18.07499999999999],[-65.438583,18.07499999999999],[-65.47500000000002,18.07499999999999],[-65.47500000000002,18.07517569999999]]]}},{"type":"Feature","properties":{},"geometry":{"type":"Polygon","coordinates":[[[-65.69999999999999,18.183796200000018],[-65.69999999999999,18.182386699999995],[-65.69999999999999,18.18227280000002],[-65.69999999999999,18.182065899999998],[-65.69999999999999,18.181811299999993],[-65.69999999999999,18.181780800000013],[-65.69999999999999,18.181518799999992],[-65.69999999999999,18.180683999999985],[-65.69999999999999,18.176595799999973],[-65.69999999999999,18.172705800000017],[-65.69999999999999,18.165859300000022],[-65.69999999999999,18.149999999999977],[-65.71590179999998,18.149999999999977],[-65.7174114,18.149999999999977],[-65.72421379999997,18.149999999999977],[-65.7516865,18.149999999999977],[-65.76336300000003,18.149999999999977],[-65.76375969999998,18.149999999999977],[-65.7637851,18.149999999999977],[-65.76452540000003,18.149999999999977],[-65.76497819999997,18.149999999999977],[-65.76559709999998,18.149999999999977],[-65.77499999999998,18.149999999999977],[-65.77499999999998,18.21255000000002],[-65.77499999999998,18.225000000000023],[-65.74943230000002,18.225000000000023],[-65.69999999999999,18.225000000000023],[-65.69999999999999,18.21255000000002],[-65.69999999999999,18.185576700000013],[-65.69999999999999,18.183796200000018]]]}},{"type":"Feature","properties":{},"geometry":{"type":"Polygon","coordinates":[[[-65.69632209999997,18.149999999999977],[-65.69999999999999,18.149999999999977],[-65.69999999999999,18.165859300000022],[-65.69999999999999,18.172705800000017],[-65.69999999999999,18.176595799999973],[-65.69999999999999,18.180683999999985],[-65.69999999999999,18.181518799999992],[-65.69999999999999,18.181780800000013],[-65.69999999999999,18.181811299999993],[-65.69999999999999,18.182065899999998],[-65.69999999999999,18.18227280000002],[-65.69999999999999,18.182386699999995],[-65.69999999999999,18.183796200000018],[-65.69999999999999,18.185576700000013],[-65.69999999999999,18.21255000000002],[-65.69999999999999,18.225000000000023],[-65.64680499999997,18.225000000000023],[-65.64056419999997,18.225000000000023],[-65.6400266,18.225000000000023],[-65.63894160000001,18.225000000000023],[-65.63860779999999,18.225000000000023],[-65.63856240000001,18.225000000000023],[-65.6380145,18.225000000000023],[-65.63787880000001,18.225000000000023],[-65.63759119999997,18.225000000000023],[-65.63452339999998,18.225000000000023],[-65.6338637,18.225000000000023],[-65.63380560000002,18.225000000000023],[-65.6337332,18.225000000000023],[-65.63333879999999,18.225000000000023],[-65.63224500000001,18.225000000000023],[-65.6260484,18.225000000000023],[-65.62522389999998,18.225000000000023],[-65.62502410000002,18.225000000000023],[-65.625,18.225000000000023],[-65.625,18.222979899999984],[-65.625,18.215404700000022],[-65.625,18.215397800000005],[-65.625,18.215192000000002],[-65.625,18.215015100000016],[-65.625,18.213983999999982],[-65.625,18.209835399999974],[-65.625,18.20873499999999],[-65.625,18.206338399999993],[-65.625,18.20488690000002],[-65.625,18.204303900000014],[-65.625,18.202518399999974],[-65.625,18.201157599999988],[-65.625,18.200688500000012],[-65.625,18.19977449999999],[-65.625,18.19950990000001],[-65.625,18.19840290000002],[-65.625,18.19217329999998],[-65.625,18.19139389999998],[-65.625,18.191064600000004],[-65.625,18.189573300000006],[-65.625,18.187484100000006],[-65.625,18.186360999999977],[-65.625,18.18620470000002],[-65.625,18.180904699999985],[-65.625,18.178681499999982],[-65.625,18.176642000000015],[-65.625,18.17491799999999],[-65.625,18.172911699999986],[-65.625,18.172784700000022],[-65.625,18.16654920000002],[-65.625,18.164961300000016],[-65.625,18.159316999999987],[-65.625,18.15502520000001],[-65.625,18.15187179999998],[-65.625,18.150953700000002],[-65.625,18.150202700000023],[-65.625,18.15004479999999],[-65.625,18.149999999999977],[-65.62573259999999,18.149999999999977],[-65.6270859,18.149999999999977],[-65.62855589999998,18.149999999999977],[-65.63189929999999,18.149999999999977],[-65.63497130000002,18.149999999999977],[-65.63618359999998,18.149999999999977],[-65.63786499999998,18.149999999999977],[-65.6387014,18.149999999999977],[-65.64067599999998,18.149999999999977],[-65.64073020000001,18.149999999999977],[-65.64602550000001,18.149999999999977],[-65.64828169999998,18.149999999999977],[-65.65414870000001,18.149999999999977],[-65.66566089999998,18.149999999999977],[-65.66586280000001,18.149999999999977],[-65.66961579999997,18.149999999999977],[-65.66990800000002,18.149999999999977],[-65.67027139999999,18.149999999999977],[-65.6704115,18.149999999999977],[-65.67276329999999,18.149999999999977],[-65.6735243,18.149999999999977],[-65.67364470000001,18.149999999999977],[-65.6739723,18.149999999999977],[-65.6776964,18.149999999999977],[-65.67831539999997,18.149999999999977],[-65.68845320000003,18.149999999999977],[-65.68906729999998,18.149999999999977],[-65.69159250000001,18.149999999999977],[-65.69557049999997,18.149999999999977],[-65.69558919999997,18.149999999999977],[-65.69632209999997,18.149999999999977]]]}},{"type":"Feature","properties":{},"geometry":{"type":"Polygon","coordinates":[[[-65.62495760000002,18.149999999999977],[-65.625,18.149999999999977],[-65.625,18.15004479999999],[-65.625,18.150202700000023],[-65.625,18.150953700000002],[-65.625,18.15187179999998],[-65.625,18.15502520000001],[-65.625,18.159316999999987],[-65.625,18.164961300000016],[-65.625,18.16654920000002],[-65.625,18.172784700000022],[-65.625,18.172911699999986],[-65.625,18.17491799999999],[-65.625,18.176642000000015],[-65.625,18.178681499999982],[-65.625,18.180904699999985],[-65.625,18.18620470000002],[-65.625,18.186360999999977],[-65.625,18.187484100000006],[-65.625,18.189573300000006],[-65.625,18.191064600000004],[-65.625,18.19139389999998],[-65.625,18.19217329999998],[-65.625,18.19840290000002],[-65.625,18.19950990000001],[-65.625,18.19977449999999],[-65.625,18.200688500000012],[-65.625,18.201157599999988],[-65.625,18.202518399999974],[-65.625,18.204303900000014],[-65.625,18.20488690000002],[-65.625,18.206338399999993],[-65.625,18.20873499999999],[-65.625,18.209835399999974],[-65.625,18.213983999999982],[-65.625,18.215015100000016],[-65.625,18.215192000000002],[-65.625,18.215397800000005],[-65.625,18.215404700000022],[-65.625,18.222979899999984],[-65.625,18.225000000000023],[-65.62442040000002,18.225000000000023],[-65.6231353,18.225000000000023],[-65.62260889999999,18.225000000000023],[-65.6198824,18.225000000000023],[-65.61727619999999,18.225000000000023],[-65.6169332,18.225000000000023],[-65.60681679999999,18.225000000000023],[-65.60647390000003,18.225000000000023],[-65.6062814,18.225000000000023],[-65.60612320000001,18.225000000000023],[-65.60587550000002,18.225000000000023],[-65.60575110000002,18.225000000000023],[-65.60515850000002,18.225000000000023],[-65.60478440000003,18.225000000000023],[-65.60460870000003,18.225000000000023],[-65.60349459999998,18.225000000000023],[-65.5967508,18.225000000000023],[-65.59650019999998,18.225000000000023],[-65.59644750000001,18.225000000000023],[-65.5962156,18.225000000000023],[-65.59548740000002,18.225000000000023],[-65.59515809999999,18.225000000000023],[-65.59501669999997,18.225000000000023],[-65.59262050000001,18.225000000000023],[-65.59221200000002,18.225000000000023],[-65.59211590000001,18.225000000000023],[-65.59205250000002,18.225000000000023],[-65.59190230000002,18.225000000000023],[-65.59147530000001,18.225000000000023],[-65.59138239999999,18.225000000000023],[-65.58930600000002,18.225000000000023],[-65.58929469999998,18.225000000000023],[-65.58829800000001,18.225000000000023],[-65.58284379999998,18.225000000000023],[-65.5819826,18.225000000000023],[-65.58157720000003,18.225000000000023],[-65.58111580000002,18.225000000000023],[-65.57969270000001,18.225000000000023],[-65.57896290000002,18.225000000000023],[-65.57717530000002,18.225000000000023],[-65.57655399999999,18.225000000000023],[-65.5738988,18.225000000000023],[-65.57232049999999,18.225000000000023],[-65.57004979999999,18.225000000000023],[-65.56761770000003,18.225000000000023],[-65.56682330000001,18.225000000000023],[-65.56655999999998,18.225000000000023],[-65.5655777,18.225000000000023],[-65.5632961,18.225000000000023],[-65.56144239999998,18.225000000000023],[-65.56072339999997,18.225000000000023],[-65.56038480000001,18.225000000000023],[-65.5583436,18.225000000000023],[-65.5572765,18.225000000000023],[-65.55679320000002,18.225000000000023],[-65.5561553,18.225000000000023],[-65.55203929999999,18.225000000000023],[-65.55040100000002,18.225000000000023],[-65.55000000000001,18.225000000000023],[-65.55000000000001,18.224508300000025],[-65.55000000000001,18.223931800000003],[-65.55000000000001,18.219600800000023],[-65.55000000000001,18.217740400000025],[-65.55000000000001,18.217486399999984],[-65.55000000000001,18.21700820000001],[-65.55000000000001,18.21609860000001],[-65.55000000000001,18.214320199999975],[-65.55000000000001,18.21135179999999],[-65.55000000000001,18.210699499999976],[-65.55000000000001,18.209732099999997],[-65.55000000000001,18.207371500000022],[-65.55000000000001,18.205270999999982],[-65.55000000000001,18.204838800000005],[-65.55000000000001,18.199346400000024],[-65.55000000000001,18.194673899999998],[-65.55000000000001,18.192661299999997],[-65.55000000000001,18.18782140000002],[-65.55000000000001,18.187413900000024],[-65.55000000000001,18.186854200000028],[-65.55000000000001,18.186791900000003],[-65.55000000000001,18.184037100000012],[-65.55000000000001,18.17563819999998],[-65.55000000000001,18.172821],[-65.55000000000001,18.17185999999998],[-65.55000000000001,18.17049689999999],[-65.55000000000001,18.16784100000001],[-65.55000000000001,18.16091940000001],[-65.55000000000001,18.15996419999999],[-65.55000000000001,18.159254499999975],[-65.55000000000001,18.159148200000004],[-65.55000000000001,18.157659799999976],[-65.55000000000001,18.154608699999983],[-65.55000000000001,18.153883599999972],[-65.55000000000001,18.150311999999985],[-65.55000000000001,18.149999999999977],[-65.55075160000001,18.149999999999977],[-65.55098750000002,18.149999999999977],[-65.5586887,18.149999999999977],[-65.56954430000002,18.149999999999977],[-65.58056319999997,18.149999999999977],[-65.58059079999998,18.149999999999977],[-65.58348769999998,18.149999999999977],[-65.58831470000001,18.149999999999977],[-65.59131939999997,18.149999999999977],[-65.59896509999999,18.149999999999977],[-65.59980669999999,18.149999999999977],[-65.60041260000003,18.149999999999977],[-65.6024698,18.149999999999977],[-65.6035291,18.149999999999977],[-65.60493129999998,18.149999999999977],[-65.60613919999997,18.149999999999977],[-65.6182528,18.149999999999977],[-65.6193831,18.149999999999977],[-65.619419,18.149999999999977],[-65.6199229,18.149999999999977],[-65.62029990000002,18.149999999999977],[-65.62313469999998,18.149999999999977],[-65.62460650000003,18.149999999999977],[-65.62495760000002,18.149999999999977]]]}},{"type":"Feature","properties":{},"geometry":{"type":"Polygon","coordinates":[[[-65.51553439999998,18.149999999999977],[-65.51626490000001,18.149999999999977],[-65.51779060000001,18.149999999999977],[-65.520332,18.149999999999977],[-65.52145150000001,18.149999999999977],[-65.52679840000002,18.149999999999977],[-65.52963640000002,18.149999999999977],[-65.53982769999999,18.149999999999977],[-65.5483979,18.149999999999977],[-65.55000000000001,18.149999999999977],[-65.55000000000001,18.150311999999985],[-65.55000000000001,18.153883599999972],[-65.55000000000001,18.154608699999983],[-65.55000000000001,18.157659799999976],[-65.55000000000001,18.159148200000004],[-65.55000000000001,18.159254499999975],[-65.55000000000001,18.15996419999999],[-65.55000000000001,18.16091940000001],[-65.55000000000001,18.16784100000001],[-65.55000000000001,18.17049689999999],[-65.55000000000001,18.17185999999998],[-65.55000000000001,18.172821],[-65.55000000000001,18.17563819999998],[-65.55000000000001,18.184037100000012],[-65.55000000000001,18.186791900000003],[-65.55000000000001,18.186854200000028],[-65.55000000000001,18.187413900000024],[-65.55000000000001,18.18782140000002],[-65.55000000000001,18.192661299999997],[-65.55000000000001,18.194673899999998],[-65.55000000000001,18.199346400000024],[-65.55000000000001,18.204838800000005],[-65.55000000000001,18.205270999999982],[-65.55000000000001,18.207371500000022],[-65.55000000000001,18.209732099999997],[-65.55000000000001,18.210699499999976],[-65.55000000000001,18.21135179999999],[-65.55000000000001,18.214320199999975],[-65.55000000000001,18.21609860000001],[-65.55000000000001,18.21700820000001],[-65.55000000000001,18.217486399999984],[-65.55000000000001,18.217740400000025],[-65.55000000000001,18.219600800000023],[-65.55000000000001,18.223931800000003],[-65.55000000000001,18.224508300000025],[-65.55000000000001,18.225000000000023],[-65.54922479999999,18.225000000000023],[-65.5489667,18.225000000000023],[-65.5483337,18.225000000000023],[-65.54755929999999,18.225000000000023],[-65.54566399999999,18.225000000000023],[-65.54350970000002,18.225000000000023],[-65.54258679999998,18.225000000000023],[-65.54149489999998,18.225000000000023],[-65.5403981,18.225000000000023],[-65.53912530000002,18.225000000000023],[-65.5379896,18.225000000000023],[-65.5356382,18.225000000000023],[-65.53481369999997,18.225000000000023],[-65.53477720000001,18.225000000000023],[-65.5333794,18.225000000000023],[-65.53091749999999,18.225000000000023],[-65.53049119999997,18.225000000000023],[-65.52918019999998,18.225000000000023],[-65.52882979999998,18.225000000000023],[-65.52802509999998,18.225000000000023],[-65.5278798,18.225000000000023],[-65.52691220000003,18.225000000000023],[-65.52677390000002,18.225000000000023],[-65.52574829999998,18.225000000000023],[-65.52513579999999,18.225000000000023],[-65.52457390000001,18.225000000000023],[-65.52446049999998,18.225000000000023],[-65.52399509999998,18.225000000000023],[-65.52392759999998,18.225000000000023],[-65.52364799999998,18.225000000000023],[-65.5233212,18.225000000000023],[-65.5231829,18.225000000000023],[-65.52295570000001,18.225000000000023],[-65.52190789999997,18.225000000000023],[-65.52164390000002,18.225000000000023],[-65.52124939999999,18.225000000000023],[-65.52099349999997,18.225000000000023],[-65.52009520000001,18.225000000000023],[-65.51940669999999,18.225000000000023],[-65.51637,18.225000000000023],[-65.5155234,18.225000000000023],[-65.51174359999999,18.225000000000023],[-65.51125239999999,18.225000000000023],[-65.5105656,18.225000000000023],[-65.5102867,18.225000000000023],[-65.50995269999999,18.225000000000023],[-65.50970430000001,18.225000000000023],[-65.50868919999999,18.225000000000023],[-65.50811340000001,18.225000000000023],[-65.50744900000001,18.225000000000023],[-65.5007531,18.225000000000023],[-65.4945267,18.225000000000023],[-65.49398129999997,18.225000000000023],[-65.49355300000002,18.225000000000023],[-65.49333519999999,18.225000000000023],[-65.49204650000001,18.225000000000023],[-65.48802899999998,18.225000000000023],[-65.48538500000001,18.225000000000023],[-65.48334069999999,18.225000000000023],[-65.48321900000002,18.225000000000023],[-65.4822805,18.225000000000023],[-65.48193550000002,18.225000000000023],[-65.48085500000002,18.225000000000023],[-65.47500000000002,18.225000000000023],[-65.47500000000002,18.224060699999995],[-65.47500000000002,18.223199099999988],[-65.47500000000002,18.222470999999985],[-65.47500000000002,18.216820299999995],[-65.47500000000002,18.213835200000005],[-65.47500000000002,18.212920399999973],[-65.47500000000002,18.202636700000028],[-65.47500000000002,18.20194429999998],[-65.47500000000002,18.19539279999998],[-65.47500000000002,18.19389940000002],[-65.47500000000002,18.1874904],[-65.47500000000002,18.18463509999998],[-65.47500000000002,18.183687799999973],[-65.47500000000002,18.180075199999976],[-65.47500000000002,18.179185000000018],[-65.47500000000002,18.177796100000023],[-65.47500000000002,18.175433699999985],[-65.47500000000002,18.17393179999999],[-65.47500000000002,18.173075200000028],[-65.47500000000002,18.153952800000013],[-65.47500000000002,18.15168010000002],[-65.47500000000002,18.149999999999977],[-65.47612400000003,18.149999999999977],[-65.47813070000001,18.149999999999977],[-65.48139329999998,18.149999999999977],[-65.48301550000002,18.149999999999977],[-65.48458260000001,18.149999999999977],[-65.48834540000001,18.149999999999977],[-65.48851539999998,18.149999999999977],[-65.48981300000003,18.149999999999977],[-65.49052849999998,18.149999999999977],[-65.49118700000002,18.149999999999977],[-65.4917696,18.149999999999977],[-65.49298959999999,18.149999999999977],[-65.50035910000003,18.149999999999977],[-65.50060580000002,18.149999999999977],[-65.50993369999998,18.149999999999977],[-65.5134903,18.149999999999977],[-65.51379789999999,18.149999999999977],[-65.51401349999998,18.149999999999977],[-65.51444179999999,18.149999999999977],[-65.51463919999998,18.149999999999977],[-65.51553439999998,18.149999999999977]]]}},{"type":"Feature","properties":{},"geometry":{"type":"Polygon","coordinates":[[[-65.47500000000002,18.15168010000002],[-65.47500000000002,18.153952800000013],[-65.47500000000002,18.173075200000028],[-65.47500000000002,18.17393179999999],[-65.47500000000002,18.175433699999985],[-65.47500000000002,18.177796100000023],[-65.47500000000002,18.179185000000018],[-65.47500000000002,18.180075199999976],[-65.47500000000002,18.183687799999973],[-65.47500000000002,18.18463509999998],[-65.47500000000002,18.1874904],[-65.47500000000002,18.19389940000002],[-65.47500000000002,18.19539279999998],[-65.47500000000002,18.20194429999998],[-65.47500000000002,18.202636700000028],[-65.47500000000002,18.212920399999973],[-65.47500000000002,18.213835200000005],[-65.47500000000002,18.216820299999995],[-65.47500000000002,18.222470999999985],[-65.47500000000002,18.223199099999988],[-65.47500000000002,18.224060699999995],[-65.47500000000002,18.225000000000023],[-65.4748128,18.225000000000023],[-65.47430659999998,18.225000000000023],[-65.47378220000002,18.225000000000023],[-65.467152,18.225000000000023],[-65.4652322,18.225000000000023],[-65.44716970000002,18.225000000000023],[-65.438583,18.225000000000023],[-65.43555500000002,18.225000000000023],[-65.39999999999998,18.225000000000023],[-65.39999999999998,18.212606100000016],[-65.39999999999998,18.21188330000001],[-65.39999999999998,18.194610300000022],[-65.39999999999998,18.18310919999999],[-65.39999999999998,18.172195199999976],[-65.39999999999998,18.171372299999973],[-65.39999999999998,18.16331150000002],[-65.39999999999998,18.16265199999998],[-65.39999999999998,18.16181549999999],[-65.39999999999998,18.160977600000024],[-65.39999999999998,18.15805130000001],[-65.39999999999998,18.153809599999988],[-65.39999999999998,18.149999999999977],[-65.40444860000002,18.149999999999977],[-65.43196719999997,18.149999999999977],[-65.43555500000002,18.149999999999977],[-65.438583,18.149999999999977],[-65.4439231,18.149999999999977],[-65.44417449999997,18.149999999999977],[-65.44456609999997,18.149999999999977],[-65.44486389999997,18.149999999999977],[-65.44502619999997,18.149999999999977],[-65.4452407,18.149999999999977],[-65.44559299999997,18.149999999999977],[-65.44584709999998,18.149999999999977],[-65.446053,18.149999999999977],[-65.44746800000001,18.149999999999977],[-65.45086959999998,18.149999999999977],[-65.45223470000002,18.149999999999977],[-65.45407569999998,18.149999999999977],[-65.4560138,18.149999999999977],[-65.46556570000001,18.149999999999977],[-65.46840459999999,18.149999999999977],[-65.47500000000002,18.149999999999977],[-65.47500000000002,18.15168010000002]]]}},{"type":"Feature","properties":{},"geometry":{"type":"Polygon","coordinates":[[[-65.625,18.243219699999997],[-65.625,18.241360999999984],[-65.625,18.23774880000002],[-65.625,18.23760900000002],[-65.625,18.232846400000028],[-65.625,18.2313939],[-65.625,18.231205699999975],[-65.625,18.231023499999992],[-65.625,18.23040789999999],[-65.625,18.2297557],[-65.625,18.229227100000003],[-65.625,18.22895970000002],[-65.625,18.2283362],[-65.625,18.227784600000007],[-65.625,18.227086499999984],[-65.625,18.22669300000001],[-65.625,18.225206500000013],[-65.625,18.225032899999974],[-65.625,18.225000000000023],[-65.62502410000002,18.225000000000023],[-65.62522389999998,18.225000000000023],[-65.6260484,18.225000000000023],[-65.63224500000001,18.225000000000023],[-65.63333879999999,18.225000000000023],[-65.6337332,18.225000000000023],[-65.63380560000002,18.225000000000023],[-65.6338637,18.225000000000023],[-65.63452339999998,18.225000000000023],[-65.63759119999997,18.225000000000023],[-65.63787880000001,18.225000000000023],[-65.6380145,18.225000000000023],[-65.63856240000001,18.225000000000023],[-65.63860779999999,18.225000000000023],[-65.63894160000001,18.225000000000023],[-65.6400266,18.225000000000023],[-65.64056419999997,18.225000000000023],[-65.64680499999997,18.225000000000023],[-65.69999999999999,18.225000000000023],[-65.69999999999999,18.255],[-65.625,18.255],[-65.625,18.243219699999997]]]}},{"type":"Feature","properties":{},"geometry":{"type":"Polygon","coordinates":[[[-65.55000000000001,18.254481800000008],[-65.55000000000001,18.253544999999974],[-65.55000000000001,18.252146200000027],[-65.55000000000001,18.25172570000001],[-65.55000000000001,18.250861299999997],[-65.55000000000001,18.250680199999977],[-65.55000000000001,18.250186100000008],[-65.55000000000001,18.249840199999994],[-65.55000000000001,18.248684400000002],[-65.55000000000001,18.248455799999988],[-65.55000000000001,18.244633899999997],[-65.55000000000001,18.243068300000004],[-65.55000000000001,18.24071620000001],[-65.55000000000001,18.240427699999998],[-65.55000000000001,18.23945409999999],[-65.55000000000001,18.237844699999982],[-65.55000000000001,18.23705769999998],[-65.55000000000001,18.235788200000002],[-65.55000000000001,18.23543330000001],[-65.55000000000001,18.23395640000001],[-65.55000000000001,18.233075999999983],[-65.55000000000001,18.231474400000025],[-65.55000000000001,18.230828599999995],[-65.55000000000001,18.227659399999993],[-65.55000000000001,18.227001400000006],[-65.55000000000001,18.225000000000023],[-65.55040100000002,18.225000000000023],[-65.55203929999999,18.225000000000023],[-65.5561553,18.225000000000023],[-65.55679320000002,18.225000000000023],[-65.5572765,18.225000000000023],[-65.5583436,18.225000000000023],[-65.56038480000001,18.225000000000023],[-65.56072339999997,18.225000000000023],[-65.56144239999998,18.225000000000023],[-65.5632961,18.225000000000023],[-65.5655777,18.225000000000023],[-65.56655999999998,18.225000000000023],[-65.56682330000001,18.225000000000023],[-65.56761770000003,18.225000000000023],[-65.57004979999999,18.225000000000023],[-65.57232049999999,18.225000000000023],[-65.5738988,18.225000000000023],[-65.57655399999999,18.225000000000023],[-65.57717530000002,18.225000000000023],[-65.57896290000002,18.225000000000023],[-65.57969270000001,18.225000000000023],[-65.58111580000002,18.225000000000023],[-65.58157720000003,18.225000000000023],[-65.5819826,18.225000000000023],[-65.58284379999998,18.225000000000023],[-65.58829800000001,18.225000000000023],[-65.58929469999998,18.225000000000023],[-65.58930600000002,18.225000000000023],[-65.59138239999999,18.225000000000023],[-65.59147530000001,18.225000000000023],[-65.59190230000002,18.225000000000023],[-65.59205250000002,18.225000000000023],[-65.59211590000001,18.225000000000023],[-65.59221200000002,18.225000000000023],[-65.59262050000001,18.225000000000023],[-65.59501669999997,18.225000000000023],[-65.59515809999999,18.225000000000023],[-65.59548740000002,18.225000000000023],[-65.5962156,18.225000000000023],[-65.59644750000001,18.225000000000023],[-65.59650019999998,18.225000000000023],[-65.5967508,18.225000000000023],[-65.60349459999998,18.225000000000023],[-65.60460870000003,18.225000000000023],[-65.60478440000003,18.225000000000023],[-65.60515850000002,18.225000000000023],[-65.60575110000002,18.225000000000023],[-65.60587550000002,18.225000000000023],[-65.60612320000001,18.225000000000023],[-65.6062814,18.225000000000023],[-65.60647390000003,18.225000000000023],[-65.60681679999999,18.225000000000023],[-65.6169332,18.225000000000023],[-65.61727619999999,18.225000000000023],[-65.6198824,18.225000000000023],[-65.62208240000001,18.225000000000023],[-65.62260889999999,18.225000000000023],[-65.6231353,18.225000000000023],[-65.62442040000002,18.225000000000023],[-65.625,18.225000000000023],[-65.625,18.225032899999974],[-65.625,18.225206500000013],[-65.625,18.22669300000001],[-65.625,18.227086499999984],[-65.625,18.227784600000007],[-65.625,18.2283362],[-65.625,18.22895970000002],[-65.625,18.229227100000003],[-65.625,18.2297557],[-65.625,18.23040789999999],[-65.625,18.231023499999992],[-65.625,18.231205699999975],[-65.625,18.2313939],[-65.625,18.232846400000028],[-65.625,18.23760900000002],[-65.625,18.23774880000002],[-65.625,18.241360999999984],[-65.625,18.243219699999997],[-65.625,18.255],[-65.55000000000001,18.255],[-65.55000000000001,18.254481800000008]]]}},{"type":"Feature","properties":{},"geometry":{"type":"Polygon","coordinates":[[[-65.47500000000002,18.253544999999974],[-65.47500000000002,18.249139800000023],[-65.47500000000002,18.23522539999999],[-65.47500000000002,18.234253200000012],[-65.47500000000002,18.22754550000002],[-65.47500000000002,18.225000000000023],[-65.48085500000002,18.225000000000023],[-65.48193550000002,18.225000000000023],[-65.4822805,18.225000000000023],[-65.48321900000002,18.225000000000023],[-65.48334069999999,18.225000000000023],[-65.48538500000001,18.225000000000023],[-65.48802899999998,18.225000000000023],[-65.49204650000001,18.225000000000023],[-65.49333519999999,18.225000000000023],[-65.49355300000002,18.225000000000023],[-65.49398129999997,18.225000000000023],[-65.4945267,18.225000000000023],[-65.5007531,18.225000000000023],[-65.50744900000001,18.225000000000023],[-65.50811340000001,18.225000000000023],[-65.50868919999999,18.225000000000023],[-65.50970430000001,18.225000000000023],[-65.50995269999999,18.225000000000023],[-65.5102867,18.225000000000023],[-65.5105656,18.225000000000023],[-65.51125239999999,18.225000000000023],[-65.51174359999999,18.225000000000023],[-65.5155234,18.225000000000023],[-65.51637,18.225000000000023],[-65.51940669999999,18.225000000000023],[-65.52009520000001,18.225000000000023],[-65.52099349999997,18.225000000000023],[-65.52124939999999,18.225000000000023],[-65.52164390000002,18.225000000000023],[-65.52190789999997,18.225000000000023],[-65.52295570000001,18.225000000000023],[-65.5231829,18.225000000000023],[-65.5233212,18.225000000000023],[-65.52364799999998,18.225000000000023],[-65.52392759999998,18.225000000000023],[-65.52399509999998,18.225000000000023],[-65.52446049999998,18.225000000000023],[-65.52457390000001,18.225000000000023],[-65.52513579999999,18.225000000000023],[-65.52574829999998,18.225000000000023],[-65.52677390000002,18.225000000000023],[-65.52691220000003,18.225000000000023],[-65.5278798,18.225000000000023],[-65.52802509999998,18.225000000000023],[-65.52882979999998,18.225000000000023],[-65.52918019999998,18.225000000000023],[-65.53049119999997,18.225000000000023],[-65.53091749999999,18.225000000000023],[-65.5333794,18.225000000000023],[-65.53477720000001,18.225000000000023],[-65.53481369999997,18.225000000000023],[-65.5356382,18.225000000000023],[-65.5379896,18.225000000000023],[-65.53912530000002,18.225000000000023],[-65.5403981,18.225000000000023],[-65.54149489999998,18.225000000000023],[-65.54258679999998,18.225000000000023],[-65.54350970000002,18.225000000000023],[-65.54566399999999,18.225000000000023],[-65.54755929999999,18.225000000000023],[-65.5483337,18.225000000000023],[-65.5489667,18.225000000000023],[-65.54922479999999,18.225000000000023],[-65.55000000000001,18.225000000000023],[-65.55000000000001,18.227001400000006],[-65.55000000000001,18.227659399999993],[-65.55000000000001,18.230828599999995],[-65.55000000000001,18.231474400000025],[-65.55000000000001,18.233075999999983],[-65.55000000000001,18.23395640000001],[-65.55000000000001,18.23543330000001],[-65.55000000000001,18.235788200000002],[-65.55000000000001,18.23705769999998],[-65.55000000000001,18.237844699999982],[-65.55000000000001,18.23945409999999],[-65.55000000000001,18.240427699999998],[-65.55000000000001,18.24071620000001],[-65.55000000000001,18.243068300000004],[-65.55000000000001,18.244633899999997],[-65.55000000000001,18.248455799999988],[-65.55000000000001,18.248684400000002],[-65.55000000000001,18.249840199999994],[-65.55000000000001,18.250186100000008],[-65.55000000000001,18.250680199999977],[-65.55000000000001,18.250861299999997],[-65.55000000000001,18.25172570000001],[-65.55000000000001,18.252146200000027],[-65.55000000000001,18.253544999999974],[-65.55000000000001,18.254481800000008],[-65.55000000000001,18.255],[-65.47500000000002,18.255],[-65.47500000000002,18.253544999999974]]]}},{"type":"Feature","properties":{},"geometry":{"type":"Polygon","coordinates":[[[-66.55267079999999,17.92500000000001],[-66.52499999999998,17.92500000000001],[-66.52499999999998,17.911845900000003],[-66.52499999999998,17.904064000000005],[-66.52499999999998,17.902989100000013],[-66.52499999999998,17.901606200000003],[-66.52499999999998,17.900775899999985],[-66.52499999999998,17.8992389],[-66.52499999999998,17.8980014],[-66.52499999999998,17.89714429999998],[-66.52499999999998,17.89677519999998],[-66.52499999999998,17.896381799999972],[-66.52499999999998,17.89569130000001],[-66.52499999999998,17.89556090000002],[-66.52499999999998,17.895031099999983],[-66.52499999999998,17.887325900000008],[-66.52499999999998,17.8868334],[-66.52499999999998,17.886516400000005],[-66.52499999999998,17.886243499999978],[-66.52499999999998,17.883035500000005],[-66.52499999999998,17.880648399999984],[-66.52499999999998,17.878376800000012],[-66.52499999999998,17.878196800000012],[-66.52499999999998,17.871629700000028],[-66.52499999999998,17.87074039999999],[-66.52499999999998,17.869305899999972],[-66.52499999999998,17.861931500000026],[-66.52499999999998,17.861109999999996],[-66.52499999999998,17.857692699999973],[-66.52499999999998,17.850000000000023],[-66.55499999999999,17.850000000000023],[-66.55499999999999,17.92500000000001],[-66.55267079999999,17.92500000000001]]]}},{"type":"Feature","properties":{},"geometry":{"type":"Polygon","coordinates":[[[-66.52254299999998,17.850000000000023],[-66.52499999999998,17.850000000000023],[-66.52499999999998,17.857692699999973],[-66.52499999999998,17.861109999999996],[-66.52499999999998,17.861931500000026],[-66.52499999999998,17.869305899999972],[-66.52499999999998,17.87074039999999],[-66.52499999999998,17.871629700000028],[-66.52499999999998,17.878196800000012],[-66.52499999999998,17.878376800000012],[-66.52499999999998,17.880648399999984],[-66.52499999999998,17.883035500000005],[-66.52499999999998,17.886243499999978],[-66.52499999999998,17.886516400000005],[-66.52499999999998,17.8868334],[-66.52499999999998,17.887325900000008],[-66.52499999999998,17.895031099999983],[-66.52499999999998,17.89556090000002],[-66.52499999999998,17.89569130000001],[-66.52499999999998,17.896381799999972],[-66.52499999999998,17.89677519999998],[-66.52499999999998,17.89714429999998],[-66.52499999999998,17.8980014],[-66.52499999999998,17.8992389],[-66.52499999999998,17.900775899999985],[-66.52499999999998,17.901606200000003],[-66.52499999999998,17.902989100000013],[-66.52499999999998,17.904064000000005],[-66.52499999999998,17.911845900000003],[-66.52499999999998,17.92500000000001],[-66.51490810000001,17.92500000000001],[-66.50791609999999,17.92500000000001],[-66.50420000000003,17.92500000000001],[-66.50049039999999,17.92500000000001],[-66.49601689999997,17.92500000000001],[-66.4789581,17.92500000000001],[-66.47064929999999,17.92500000000001],[-66.46972849999997,17.92500000000001],[-66.46681810000001,17.92500000000001],[-66.46142579999997,17.92500000000001],[-66.45986210000001,17.92500000000001],[-66.45686749999999,17.92500000000001],[-66.45597279999998,17.92500000000001],[-66.45595559999998,17.92500000000001],[-66.45528610000002,17.92500000000001],[-66.45482449999997,17.92500000000001],[-66.453799,17.92500000000001],[-66.45272599999998,17.92500000000001],[-66.45263319999998,17.92500000000001],[-66.45251389999999,17.92500000000001],[-66.45220619999998,17.92500000000001],[-66.45200940000001,17.92500000000001],[-66.45194509999999,17.92500000000001],[-66.45179389999998,17.92500000000001],[-66.44999999999999,17.92500000000001],[-66.44999999999999,17.910844999999995],[-66.44999999999999,17.904023699999982],[-66.44999999999999,17.897739399999978],[-66.44999999999999,17.897361699999976],[-66.44999999999999,17.896531600000003],[-66.44999999999999,17.89613350000002],[-66.44999999999999,17.889797999999985],[-66.44999999999999,17.886760100000004],[-66.44999999999999,17.870188900000016],[-66.44999999999999,17.869460600000025],[-66.44999999999999,17.861109999999996],[-66.44999999999999,17.850000000000023],[-66.4822221,17.850000000000023],[-66.48384370000002,17.850000000000023],[-66.51808879999999,17.850000000000023],[-66.52254299999998,17.850000000000023]]]}},{"type":"Feature","properties":{},"geometry":{"type":"Polygon","coordinates":[[[-66.52499999999998,18.0],[-66.52499999999998,17.980285100000003],[-66.52499999999998,17.979662099999985],[-66.52499999999998,17.97918659999999],[-66.52499999999998,17.977982899999972],[-66.52499999999998,17.974854800000003],[-66.52499999999998,17.969326500000022],[-66.52499999999998,17.955180900000016],[-66.52499999999998,17.948033699999996],[-66.52499999999998,17.946911399999976],[-66.52499999999998,17.935064300000022],[-66.52499999999998,17.92500000000001],[-66.55267079999999,17.92500000000001],[-66.55499999999999,17.92500000000001],[-66.55499999999999,18.0],[-66.52499999999998,18.0]]]}},{"type":"Feature","properties":{},"geometry":{"type":"Polygon","coordinates":[[[-66.51490810000001,17.92500000000001],[-66.52499999999998,17.92500000000001],[-66.52499999999998,17.935064300000022],[-66.52499999999998,17.946911399999976],[-66.52499999999998,17.948033699999996],[-66.52499999999998,17.955180900000016],[-66.52499999999998,17.969326500000022],[-66.52499999999998,17.974854800000003],[-66.52499999999998,17.977982899999972],[-66.52499999999998,17.97918659999999],[-66.52499999999998,17.979662099999985],[-66.52499999999998,17.980285100000003],[-66.52499999999998,18.0],[-66.50791609999999,18.0],[-66.44999999999999,18.0],[-66.44999999999999,17.982719999999972],[-66.44999999999999,17.98260110000001],[-66.44999999999999,17.98254609999998],[-66.44999999999999,17.982454200000006],[-66.44999999999999,17.981157900000028],[-66.44999999999999,17.98093110000002],[-66.44999999999999,17.979988900000023],[-66.44999999999999,17.976311599999974],[-66.44999999999999,17.97291580000001],[-66.44999999999999,17.962499999999977],[-66.44999999999999,17.948314400000015],[-66.44999999999999,17.946206200000006],[-66.44999999999999,17.943444899999974],[-66.44999999999999,17.938612200000023],[-66.44999999999999,17.937752999999987],[-66.44999999999999,17.936323200000004],[-66.44999999999999,17.935649899999987],[-66.44999999999999,17.933791999999983],[-66.44999999999999,17.933197199999995],[-66.44999999999999,17.93317589999998],[-66.44999999999999,17.93191730000001],[-66.44999999999999,17.931499299999984],[-66.44999999999999,17.93104299999999],[-66.44999999999999,17.93043510000001],[-66.44999999999999,17.930161999999996],[-66.44999999999999,17.928361999999993],[-66.44999999999999,17.927999],[-66.44999999999999,17.92737629999999],[-66.44999999999999,17.92563990000002],[-66.44999999999999,17.92500000000001],[-66.45179389999998,17.92500000000001],[-66.45194509999999,17.92500000000001],[-66.45200940000001,17.92500000000001],[-66.45220619999998,17.92500000000001],[-66.45251389999999,17.92500000000001],[-66.45263319999998,17.92500000000001],[-66.45272599999998,17.92500000000001],[-66.453799,17.92500000000001],[-66.45482449999997,17.92500000000001],[-66.45528610000002,17.92500000000001],[-66.45595559999998,17.92500000000001],[-66.45597279999998,17.92500000000001],[-66.45686749999999,17.92500000000001],[-66.45986210000001,17.92500000000001],[-66.46142579999997,17.92500000000001],[-66.46681810000001,17.92500000000001],[-66.46972849999997,17.92500000000001],[-66.47064929999999,17.92500000000001],[-66.4789581,17.92500000000001],[-66.49601689999997,17.92500000000001],[-66.50049039999999,17.92500000000001],[-66.50420000000003,17.92500000000001],[-66.50791609999999,17.92500000000001],[-66.51490810000001,17.92500000000001]]]}}]}