{"type":"FeatureCollection","features":[{"type":"Feature","properties":{},"geometry":{"type":"Polygon","coordinates":[[[-76.14978719999999,37.80000000000001],[-76.1574741,37.80000000000001],[-76.15775710000003,37.80000000000001],[-76.15951180000002,37.80000000000001],[-76.1613974,37.80000000000001],[-76.16228569999998,37.80000000000001],[-76.19403670000003,37.80000000000001],[-76.19965819999999,37.80000000000001],[-76.19965819999999,37.808286899999985],[-76.19965819999999,37.80874299999999],[-76.19965819999999,37.85628320000001],[-76.19965819999999,37.85643809999999],[-76.19965819999999,37.86850720000001],[-76.19965819999999,37.86939760000001],[-76.19965819999999,37.87129729999998],[-76.19965819999999,37.87136149999998],[-76.19965819999999,37.87607600000001],[-76.19965819999999,37.876339099999996],[-76.19965819999999,37.87847199999999],[-76.19965819999999,37.87903829999999],[-76.19965819999999,37.88466749999998],[-76.19965819999999,37.8848974],[-76.19965819999999,37.88558610000001],[-76.19965819999999,37.89494239999999],[-76.19965819999999,37.9000643],[-76.19965819999999,37.90076019999998],[-76.19965819999999,37.901030100000014],[-76.19965819999999,37.90200249999998],[-76.19965819999999,37.902542700000026],[-76.19965819999999,37.90295680000003],[-76.19965819999999,37.90495279999999],[-76.19965819999999,37.905366000000015],[-76.19965819999999,37.90566080000002],[-76.19965819999999,37.90626379999998],[-76.19965819999999,37.935],[-76.14500000000001,37.935],[-76.14500000000001,37.80000000000001],[-76.14978719999999,37.80000000000001]]]}},{"type":"Feature","properties":{},"geometry":{"type":"Polygon","coordinates":[[[-76.1502451,37.5],[-76.16213800000003,37.5],[-76.18703210000001,37.5],[-76.19849019999998,37.5],[-76.1993195,37.5],[-76.19999999999999,37.5],[-76.19999999999999,37.5317326],[-76.19999999999999,37.539943300000004],[-76.19999999999999,37.54046119999998],[-76.19999999999999,37.542873799999995],[-76.19999999999999,37.543675399999984],[-76.19999999999999,37.54605939999999],[-76.19999999999999,37.54731939999999],[-76.19999999999999,37.558741699999985],[-76.19999999999999,37.5711627],[-76.19999999999999,37.57357330000002],[-76.19999999999999,37.57499999999999],[-76.19974029999997,37.57499999999999],[-76.19527920000002,37.57499999999999],[-76.19304749999998,37.57499999999999],[-76.16213800000003,37.57499999999999],[-76.1584876,37.57499999999999],[-76.1454675,37.57499999999999],[-76.14500000000001,37.57499999999999],[-76.14500000000001,37.5],[-76.1502451,37.5]]]}},{"type":"Feature","properties":{},"geometry":{"type":"Polygon","coordinates":[[[-76.1454675,37.57499999999999],[-76.1584876,37.57499999999999],[-76.16213800000003,37.57499999999999],[-76.19304749999998,37.57499999999999],[-76.19527920000002,37.57499999999999],[-76.19974029999997,37.57499999999999],[-76.19999999999999,37.57499999999999],[-76.19999999999999,37.57576180000001],[-76.19999999999999,37.579813100000024],[-76.19999999999999,37.59616360000001],[-76.19999999999999,37.59709350000003],[-76.19999999999999,37.611604],[-76.19999999999999,37.61701620000002],[-76.19999999999999,37.64999999999998],[-76.1924161,37.64999999999998],[-76.19116659999997,37.64999999999998],[-76.18293410000001,37.64999999999998],[-76.17436959999998,37.64999999999998],[-76.15306299999997,37.64999999999998],[-76.14500000000001,37.64999999999998],[-76.14500000000001,37.57499999999999],[-76.1454675,37.57499999999999]]]}},{"type":"Feature","properties":{},"geometry":{"type":"Polygon","coordinates":[[[-76.15306299999997,37.64999999999998],[-76.17436959999998,37.64999999999998],[-76.18293410000001,37.64999999999998],[-76.19116659999997,37.64999999999998],[-76.1924161,37.64999999999998],[-76.19999999999999,37.64999999999998],[-76.19999999999999,37.678850899999986],[-76.19999999999999,37.68161700000002],[-76.19999999999999,37.687244299999975],[-76.19999999999999,37.702245000000005],[-76.19999999999999,37.71935669999999],[-76.19999999999999,37.72500000000002],[-76.19965819999999,37.72500000000002],[-76.19575789999999,37.72500000000002],[-76.19345729999998,37.72500000000002],[-76.17645190000002,37.72500000000002],[-76.17643429999998,37.72500000000002],[-76.1606486,37.72500000000002],[-76.14500000000001,37.72500000000002],[-76.14500000000001,37.64999999999998],[-76.15306299999997,37.64999999999998]]]}},{"type":"Feature","properties":{},"geometry":{"type":"Polygon","coordinates":[[[-76.1606486,37.72500000000002],[-76.17643429999998,37.72500000000002],[-76.17645190000002,37.72500000000002],[-76.19345729999998,37.72500000000002],[-76.19575789999999,37.72500000000002],[-76.19965819999999,37.72500000000002],[-76.19999999999999,37.72500000000002],[-76.19999999999999,37.75859380000003],[-76.19999999999999,37.768418499999996],[-76.19999999999999,37.78807230000001],[-76.19999999999999,37.78833980000002],[-76.19999999999999,37.80000000000001],[-76.19965819999999,37.80000000000001],[-76.19403670000003,37.80000000000001],[-76.16228569999998,37.80000000000001],[-76.1613974,37.80000000000001],[-76.15951180000002,37.80000000000001],[-76.15775710000003,37.80000000000001],[-76.1574741,37.80000000000001],[-76.14978719999999,37.80000000000001],[-76.14500000000001,37.80000000000001],[-76.14500000000001,37.72500000000002],[-76.1606486,37.72500000000002]]]}},{"type":"Feature","properties":{},"geometry":{"type":"Polygon","coordinates":[[[-76.19999999999999,37.933333300000015],[-76.19999999999999,37.905851900000016],[-76.19999999999999,37.90304409999999],[-76.19999999999999,37.90270270000002],[-76.19999999999999,37.902077899999995],[-76.19999999999999,37.90107519999998],[-76.19999999999999,37.9004807],[-76.19999999999999,37.90026519999998],[-76.19999999999999,37.88493870000002],[-76.19999999999999,37.88473090000002],[-76.19999999999999,37.884470299999975],[-76.19999999999999,37.878991600000006],[-76.19999999999999,37.87847199999999],[-76.20137190000003,37.87847199999999],[-76.20380599999999,37.87847199999999],[-76.21666679999998,37.87847199999999],[-76.21768559999998,37.87847199999999],[-76.2213122,37.87847199999999],[-76.2219637,37.87847199999999],[-76.2244197,37.87847199999999],[-76.23313300000001,37.87847199999999],[-76.23599999999999,37.87847199999999],[-76.24047780000001,37.87847199999999],[-76.24183979999998,37.87847199999999],[-76.243135,37.87847199999999],[-76.24537049999998,37.87847199999999],[-76.25755570000001,37.87847199999999],[-76.26025859999999,37.87847199999999],[-76.27335090000003,37.87847199999999],[-76.2738223,37.87847199999999],[-76.2742002,37.87847199999999],[-76.27470849999997,37.87847199999999],[-76.27613960000002,37.87847199999999],[-76.2769012,37.87847199999999],[-76.27704670000003,37.87847199999999],[-76.28037330000001,37.87847199999999],[-76.29861490000002,37.87847199999999],[-76.29900190000001,37.87847199999999],[-76.3032867,37.87847199999999],[-76.30368399999998,37.87847199999999],[-76.330239,37.87847199999999],[-76.5160917,37.87847199999999],[-76.54873400000002,37.87847199999999],[-76.58108299999998,37.87847199999999],[-76.58108299999998,37.90916290000001],[-76.58108299999998,37.935],[-76.19999999999999,37.935],[-76.19999999999999,37.933333300000015]]]}},{"type":"Feature","properties":{},"geometry":{"type":"Polygon","coordinates":[[[-76.52704699999998,37.857885599999975],[-76.52704699999998,37.87847199999999],[-76.44076560000002,37.87847199999999],[-76.44054299999999,37.87847199999999],[-76.43815160000003,37.87847199999999],[-76.43734940000002,37.87847199999999],[-76.43690859999998,37.87847199999999],[-76.43677359999998,37.87847199999999],[-76.39343159999999,37.87847199999999],[-76.39228789999999,37.87847199999999],[-76.30368399999998,37.87847199999999],[-76.30317609999997,37.87847199999999],[-76.29900190000001,37.87847199999999],[-76.29861490000002,37.87847199999999],[-76.28037330000001,37.87847199999999],[-76.2769012,37.87847199999999],[-76.27613960000002,37.87847199999999],[-76.27470849999997,37.87847199999999],[-76.2742002,37.87847199999999],[-76.27335090000003,37.87847199999999],[-76.25755570000001,37.87847199999999],[-76.24537049999998,37.87847199999999],[-76.243135,37.87847199999999],[-76.24183979999998,37.87847199999999],[-76.24047780000001,37.87847199999999],[-76.23599999999999,37.87847199999999],[-76.23313300000001,37.87847199999999],[-76.2244197,37.87847199999999],[-76.2213122,37.87847199999999],[-76.21768559999998,37.87847199999999],[-76.21666679999998,37.87847199999999],[-76.20137190000003,37.87847199999999],[-76.19999999999999,37.87847199999999],[-76.19999999999999,37.87602900000002],[-76.19999999999999,37.87107420000001],[-76.19999999999999,37.86979789999998],[-76.19999999999999,37.86820719999997],[-76.19999999999999,37.85583079999998],[-76.19999999999999,37.807401500000026],[-76.19999999999999,37.80000000000001],[-76.21893669999997,37.80000000000001],[-76.22717740000002,37.80000000000001],[-76.22940410000001,37.80000000000001],[-76.23192640000002,37.80000000000001],[-76.24088599999999,37.80000000000001],[-76.2528542,37.80000000000001],[-76.2799311,37.80000000000001],[-76.2850818,37.80000000000001],[-76.29153330000003,37.80000000000001],[-76.29272470000001,37.80000000000001],[-76.30115460000002,37.80000000000001],[-76.302459,37.80000000000001],[-76.3075551,37.80000000000001],[-76.3149972,37.80000000000001],[-76.31609739999999,37.80000000000001],[-76.31792660000002,37.80000000000001],[-76.31875000000002,37.80000000000001],[-76.33974460000002,37.80000000000001],[-76.34030109999998,37.80000000000001],[-76.34053130000001,37.80000000000001],[-76.34148199999998,37.80000000000001],[-76.34560529999999,37.80000000000001],[-76.35084369999998,37.80000000000001],[-76.35470020000002,37.80000000000001],[-76.46601470000002,37.80000000000001],[-76.5,37.80000000000001],[-76.52704699999998,37.80000000000001],[-76.52704699999998,37.857885599999975]]]}},{"type":"Feature","properties":{},"geometry":{"type":"Polygon","coordinates":[[[-76.63757040000002,37.86499479999998],[-76.63686150000001,37.86435770000003],[-76.62545210000002,37.85410359999997],[-76.62499709999997,37.853694700000005],[-76.58419300000003,37.81702250000001],[-76.58381450000002,37.816682300000025],[-76.58351160000001,37.816410099999985],[-76.58248459999999,37.815487099999984],[-76.5822043,37.81523520000002],[-76.58138889999998,37.814502300000015],[-76.5811157,37.81425680000001],[-76.56525260000001,37.80000000000001],[-76.61719720000002,37.80000000000001],[-76.61790389999999,37.80000000000001],[-76.62656329999999,37.80000000000001],[-76.64849299999997,37.80000000000001],[-76.65397680000001,37.80000000000001],[-76.655,37.80000000000001],[-76.655,37.8806594587376],[-76.63757040000002,37.86499479999998]]]}}]}