{"type":"FeatureCollection","features":[{"type":"Feature","properties":{},"geometry":{"type":"Polygon","coordinates":[[[-66.14194739999999,18.375],[-66.14999999999998,18.375],[-66.14999999999998,18.39985869999998],[-66.14999999999998,18.411708299999987],[-66.14999999999998,18.444347100000016],[-66.14999999999998,18.444443799999988],[-66.14999999999998,18.44473579999999],[-66.14999999999998,18.446765599999992],[-66.14999999999998,18.44999999999999],[-66.14034370000002,18.44999999999999],[-66.139389,18.44999999999999],[-66.1391183,18.44999999999999],[-66.13686949999999,18.44999999999999],[-66.1312021,18.44999999999999],[-66.130941,18.44999999999999],[-66.1307855,18.44999999999999],[-66.1302273,18.44999999999999],[-66.12948390000003,18.44999999999999],[-66.12763389999998,18.44999999999999],[-66.12761160000002,18.44999999999999],[-66.12671189999998,18.44999999999999],[-66.12515990000003,18.44999999999999],[-66.12404479999998,18.44999999999999],[-66.12085080000003,18.44999999999999],[-66.11949629999998,18.44999999999999],[-66.1194049,18.44999999999999],[-66.1178094,18.44999999999999],[-66.11642219999999,18.44999999999999],[-66.1147272,18.44999999999999],[-66.11157580000003,18.44999999999999],[-66.1113856,18.44999999999999],[-66.11051509999999,18.44999999999999],[-66.10937589999997,18.44999999999999],[-66.109283,18.44999999999999],[-66.1090653,18.44999999999999],[-66.10828329999998,18.44999999999999],[-66.1070302,18.44999999999999],[-66.10595760000001,18.44999999999999],[-66.10461379999998,18.44999999999999],[-66.10460289999997,18.44999999999999],[-66.10156490000003,18.44999999999999],[-66.10031329999998,18.44999999999999],[-66.09964930000001,18.44999999999999],[-66.0992602,18.44999999999999],[-66.0985384,18.44999999999999],[-66.09846750000003,18.44999999999999],[-66.09835550000003,18.44999999999999],[-66.09831659999998,18.44999999999999],[-66.09821360000001,18.44999999999999],[-66.09811029999997,18.44999999999999],[-66.09770739999999,18.44999999999999],[-66.09761279999998,18.44999999999999],[-66.0972782,18.44999999999999],[-66.08921930000002,18.44999999999999],[-66.08878299999998,18.44999999999999],[-66.08811639999999,18.44999999999999],[-66.08782250000002,18.44999999999999],[-66.0874938,18.44999999999999],[-66.0871644,18.44999999999999],[-66.08621599999998,18.44999999999999],[-66.07499999999999,18.44999999999999],[-66.07499999999999,18.44252990000001],[-66.07499999999999,18.442510200000015],[-66.07499999999999,18.44171460000001],[-66.07499999999999,18.438246900000024],[-66.07499999999999,18.438211500000023],[-66.07499999999999,18.437675800000022],[-66.07499999999999,18.436372300000016],[-66.07499999999999,18.42365669999998],[-66.07499999999999,18.413026300000013],[-66.07499999999999,18.412867800000015],[-66.07499999999999,18.411708299999987],[-66.07499999999999,18.375511300000028],[-66.07499999999999,18.375],[-66.14194739999999,18.375]]]}},{"type":"Feature","properties":{},"geometry":{"type":"Polygon","coordinates":[[[-66.03832840000001,18.375],[-66.07499999999999,18.375],[-66.07499999999999,18.375511300000028],[-66.07499999999999,18.411708299999987],[-66.07499999999999,18.412867800000015],[-66.07499999999999,18.413026300000013],[-66.07499999999999,18.42365669999998],[-66.07499999999999,18.436372300000016],[-66.07499999999999,18.437675800000022],[-66.07499999999999,18.438211500000023],[-66.07499999999999,18.438246900000024],[-66.07499999999999,18.44171460000001],[-66.07499999999999,18.442510200000015],[-66.07499999999999,18.44252990000001],[-66.07499999999999,18.44999999999999],[-66.06592760000001,18.44999999999999],[-66.03663210000002,18.44999999999999],[-66.03657529999998,18.44999999999999],[-66.03612149999998,18.44999999999999],[-66.035998,18.44999999999999],[-66.03591870000002,18.44999999999999],[-66.0323631,18.44999999999999],[-66.03120710000002,18.44999999999999],[-66.02664970000001,18.44999999999999],[-66.02602990000003,18.44999999999999],[-66.02537690000003,18.44999999999999],[-66.0248095,18.44999999999999],[-66.02470260000001,18.44999999999999],[-66.02266930000002,18.44999999999999],[-66.02236629999999,18.44999999999999],[-66.0201351,18.44999999999999],[-66.01966420000002,18.44999999999999],[-66.01961360000001,18.44999999999999],[-66.01924359999998,18.44999999999999],[-66.01899800000001,18.44999999999999],[-66.0185252,18.44999999999999],[-66.01829700000002,18.44999999999999],[-66.01823839999997,18.44999999999999],[-66.01600919999998,18.44999999999999],[-66.01507179999999,18.44999999999999],[-66.01435609999999,18.44999999999999],[-66.01424079999998,18.44999999999999],[-66.01389660000001,18.44999999999999],[-66.0133257,18.44999999999999],[-66.00686409999997,18.44999999999999],[-66.00249150000002,18.44999999999999],[-66.0,18.44999999999999],[-66.0,18.448573699999997],[-66.0,18.448192699999993],[-66.0,18.447924399999977],[-66.0,18.447779700000012],[-66.0,18.445066699999984],[-66.0,18.444497599999977],[-66.0,18.43373680000002],[-66.0,18.433323400000006],[-66.0,18.427272399999993],[-66.0,18.42563560000002],[-66.0,18.423333300000024],[-66.0,18.417652499999974],[-66.0,18.398243499999978],[-66.0,18.385296900000014],[-66.0,18.375],[-66.03146279999999,18.375],[-66.03832840000001,18.375]]]}},{"type":"Feature","properties":{},"geometry":{"type":"Polygon","coordinates":[[[-65.97823729999999,18.375],[-66.0,18.375],[-66.0,18.385296900000014],[-66.0,18.398243499999978],[-66.0,18.417652499999974],[-66.0,18.423333300000024],[-66.0,18.42563560000002],[-66.0,18.427272399999993],[-66.0,18.433323400000006],[-66.0,18.43373680000002],[-66.0,18.444497599999977],[-66.0,18.445066699999984],[-66.0,18.447779700000012],[-66.0,18.447924399999977],[-66.0,18.448192699999993],[-66.0,18.448573699999997],[-66.0,18.44999999999999],[-65.99786540000002,18.44999999999999],[-65.99770919999997,18.44999999999999],[-65.99727660000002,18.44999999999999],[-65.9970849,18.44999999999999],[-65.99201420000003,18.44999999999999],[-65.9920007,18.44999999999999],[-65.9916045,18.44999999999999],[-65.98936279999998,18.44999999999999],[-65.98703929999999,18.44999999999999],[-65.98701519999997,18.44999999999999],[-65.97824070000001,18.44999999999999],[-65.97500000000002,18.44999999999999],[-65.96610420000002,18.44999999999999],[-65.96514539999998,18.44999999999999],[-65.9587333,18.44999999999999],[-65.9495268,18.44999999999999],[-65.9450038,18.44999999999999],[-65.94149750000003,18.44999999999999],[-65.9381391,18.44999999999999],[-65.9378845,18.44999999999999],[-65.93632489999999,18.44999999999999],[-65.93172950000002,18.44999999999999],[-65.92950630000001,18.44999999999999],[-65.92500000000001,18.44999999999999],[-65.92500000000001,18.444787099999985],[-65.92500000000001,18.443040800000006],[-65.92500000000001,18.425663699999973],[-65.92500000000001,18.385624800000016],[-65.92500000000001,18.38480609999999],[-65.92500000000001,18.375],[-65.95107869999998,18.375],[-65.9516438,18.375],[-65.97823729999999,18.375]]]}},{"type":"Feature","properties":{},"geometry":{"type":"Polygon","coordinates":[[[-66.1958333,18.44999999999999],[-66.22500000000002,18.44999999999999],[-66.22500000000002,18.45803219999999],[-66.22500000000002,18.458782100000008],[-66.22500000000002,18.466987700000004],[-66.22500000000002,18.46705700000001],[-66.22500000000002,18.468100800000002],[-66.22500000000002,18.470026299999972],[-66.22500000000002,18.480878200000006],[-66.22500000000002,18.483699899999976],[-66.22500000000002,18.488192200000015],[-66.22500000000002,18.494914300000005],[-66.22500000000002,18.49499880000002],[-66.22500000000002,18.50245030000002],[-66.22500000000002,18.51290640000002],[-66.22500000000002,18.524999999999977],[-66.2017922,18.524999999999977],[-66.1958333,18.524999999999977],[-66.1941481,18.524999999999977],[-66.17507,18.524999999999977],[-66.14999999999998,18.524999999999977],[-66.14999999999998,18.524728600000003],[-66.14999999999998,18.5175208],[-66.14999999999998,18.517328299999974],[-66.14999999999998,18.50103200000001],[-66.14999999999998,18.49886909999998],[-66.14999999999998,18.486899199999982],[-66.14999999999998,18.485111000000018],[-66.14999999999998,18.48279580000002],[-66.14999999999998,18.481503900000007],[-66.14999999999998,18.480107999999973],[-66.14999999999998,18.479928400000006],[-66.14999999999998,18.47953819999998],[-66.14999999999998,18.47808359999999],[-66.14999999999998,18.476459999999975],[-66.14999999999998,18.476130000000012],[-66.14999999999998,18.475617100000022],[-66.14999999999998,18.475261999999987],[-66.14999999999998,18.47500739999998],[-66.14999999999998,18.470166199999994],[-66.14999999999998,18.46822689999999],[-66.14999999999998,18.46719250000001],[-66.14999999999998,18.464087099999972],[-66.14999999999998,18.460155299999997],[-66.14999999999998,18.45800270000001],[-66.14999999999998,18.457847700000002],[-66.14999999999998,18.45766359999999],[-66.14999999999998,18.457571400000006],[-66.14999999999998,18.457571099999996],[-66.14999999999998,18.456999300000007],[-66.14999999999998,18.45650330000001],[-66.14999999999998,18.44999999999999],[-66.15702019999998,18.44999999999999],[-66.15722260000001,18.44999999999999],[-66.15752880000002,18.44999999999999],[-66.16105019999998,18.44999999999999],[-66.16126489999999,18.44999999999999],[-66.16251340000002,18.44999999999999],[-66.1627216,18.44999999999999],[-66.16620890000002,18.44999999999999],[-66.17036940000003,18.44999999999999],[-66.17056730000002,18.44999999999999],[-66.18795599999999,18.44999999999999],[-66.18814370000001,18.44999999999999],[-66.19413759999998,18.44999999999999],[-66.19469279999998,18.44999999999999],[-66.1958333,18.44999999999999]]]}},{"type":"Feature","properties":{},"geometry":{"type":"Polygon","coordinates":[[[-66.14034370000002,18.44999999999999],[-66.14999999999998,18.44999999999999],[-66.14999999999998,18.45650330000001],[-66.14999999999998,18.456999300000007],[-66.14999999999998,18.457571099999996],[-66.14999999999998,18.457571400000006],[-66.14999999999998,18.45766359999999],[-66.14999999999998,18.457847700000002],[-66.14999999999998,18.45800270000001],[-66.14999999999998,18.460155299999997],[-66.14999999999998,18.464087099999972],[-66.14999999999998,18.46719250000001],[-66.14999999999998,18.46822689999999],[-66.14999999999998,18.470166199999994],[-66.14999999999998,18.47500739999998],[-66.14999999999998,18.475261999999987],[-66.14999999999998,18.475617100000022],[-66.14999999999998,18.476130000000012],[-66.14999999999998,18.476459999999975],[-66.14999999999998,18.47808359999999],[-66.14999999999998,18.47953819999998],[-66.14999999999998,18.479928400000006],[-66.14999999999998,18.480107999999973],[-66.14999999999998,18.481503900000007],[-66.14999999999998,18.48279580000002],[-66.14999999999998,18.485111000000018],[-66.14999999999998,18.486899199999982],[-66.14999999999998,18.49886909999998],[-66.14999999999998,18.50103200000001],[-66.14999999999998,18.517328299999974],[-66.14999999999998,18.5175208],[-66.14999999999998,18.524728600000003],[-66.14999999999998,18.524999999999977],[-66.13137760000001,18.524999999999977],[-66.10006659999999,18.524999999999977],[-66.08968670000002,18.524999999999977],[-66.07654059999999,18.524999999999977],[-66.07499999999999,18.524999999999977],[-66.07499999999999,18.51891039999998],[-66.07499999999999,18.518158900000003],[-66.07499999999999,18.51666019999999],[-66.07499999999999,18.50744279999998],[-66.07499999999999,18.498930299999984],[-66.07499999999999,18.488861799999995],[-66.07499999999999,18.485143400000027],[-66.07499999999999,18.485111000000018],[-66.07499999999999,18.48466989999997],[-66.07499999999999,18.47786450000001],[-66.07499999999999,18.4731716],[-66.07499999999999,18.47305879999999],[-66.07499999999999,18.472867399999984],[-66.07499999999999,18.47137600000002],[-66.07499999999999,18.470754399999976],[-66.07499999999999,18.468509200000028],[-66.07499999999999,18.467213300000026],[-66.07499999999999,18.46661929999999],[-66.07499999999999,18.466470500000014],[-66.07499999999999,18.465788099999997],[-66.07499999999999,18.464960099999985],[-66.07499999999999,18.464680299999998],[-66.07499999999999,18.464313199999992],[-66.07499999999999,18.463916900000015],[-66.07499999999999,18.46338800000001],[-66.07499999999999,18.46326929999998],[-66.07499999999999,18.46298680000001],[-66.07499999999999,18.462303899999995],[-66.07499999999999,18.46070689999999],[-66.07499999999999,18.459755599999994],[-66.07499999999999,18.45956080000002],[-66.07499999999999,18.459484099999997],[-66.07499999999999,18.459472699999992],[-66.07499999999999,18.45928090000001],[-66.07499999999999,18.459093900000028],[-66.07499999999999,18.458944599999995],[-66.07499999999999,18.44999999999999],[-66.08621599999998,18.44999999999999],[-66.0871644,18.44999999999999],[-66.0874938,18.44999999999999],[-66.08782250000002,18.44999999999999],[-66.08811639999999,18.44999999999999],[-66.08878299999998,18.44999999999999],[-66.08921930000002,18.44999999999999],[-66.0972782,18.44999999999999],[-66.09761279999998,18.44999999999999],[-66.09770739999999,18.44999999999999],[-66.09811029999997,18.44999999999999],[-66.09821360000001,18.44999999999999],[-66.09831659999998,18.44999999999999],[-66.09835550000003,18.44999999999999],[-66.09846750000003,18.44999999999999],[-66.0985384,18.44999999999999],[-66.0992602,18.44999999999999],[-66.09964930000001,18.44999999999999],[-66.10031329999998,18.44999999999999],[-66.10156490000003,18.44999999999999],[-66.10460289999997,18.44999999999999],[-66.10461379999998,18.44999999999999],[-66.10595760000001,18.44999999999999],[-66.1070302,18.44999999999999],[-66.10828329999998,18.44999999999999],[-66.1090653,18.44999999999999],[-66.109283,18.44999999999999],[-66.10937589999997,18.44999999999999],[-66.11051509999999,18.44999999999999],[-66.1113856,18.44999999999999],[-66.11157580000003,18.44999999999999],[-66.1147272,18.44999999999999],[-66.11642219999999,18.44999999999999],[-66.1178094,18.44999999999999],[-66.1194049,18.44999999999999],[-66.11949629999998,18.44999999999999],[-66.12085080000003,18.44999999999999],[-66.12404479999998,18.44999999999999],[-66.12515990000003,18.44999999999999],[-66.12671189999998,18.44999999999999],[-66.12761160000002,18.44999999999999],[-66.12763389999998,18.44999999999999],[-66.12948390000003,18.44999999999999],[-66.1302273,18.44999999999999],[-66.1307855,18.44999999999999],[-66.130941,18.44999999999999],[-66.1312021,18.44999999999999],[-66.13686949999999,18.44999999999999],[-66.1391183,18.44999999999999],[-66.139389,18.44999999999999],[-66.14034370000002,18.44999999999999]]]}},{"type":"Feature","properties":{},"geometry":{"type":"Polygon","coordinates":[[[-66.06592760000001,18.44999999999999],[-66.07499999999999,18.44999999999999],[-66.07499999999999,18.458944599999995],[-66.07499999999999,18.459093900000028],[-66.07499999999999,18.45928090000001],[-66.07499999999999,18.459472699999992],[-66.07499999999999,18.459484099999997],[-66.07499999999999,18.45956080000002],[-66.07499999999999,18.459755599999994],[-66.07499999999999,18.46070689999999],[-66.07499999999999,18.462303899999995],[-66.07499999999999,18.46298680000001],[-66.07499999999999,18.46326929999998],[-66.07499999999999,18.46338800000001],[-66.07499999999999,18.463916900000015],[-66.07499999999999,18.464313199999992],[-66.07499999999999,18.464680299999998],[-66.07499999999999,18.464960099999985],[-66.07499999999999,18.465788099999997],[-66.07499999999999,18.466470500000014],[-66.07499999999999,18.46661929999999],[-66.07499999999999,18.467213300000026],[-66.07499999999999,18.468509200000028],[-66.07499999999999,18.470754399999976],[-66.07499999999999,18.47137600000002],[-66.07499999999999,18.472867399999984],[-66.07499999999999,18.47305879999999],[-66.07499999999999,18.4731716],[-66.07499999999999,18.47786450000001],[-66.07499999999999,18.48466989999997],[-66.07499999999999,18.485111000000018],[-66.07499999999999,18.485143400000027],[-66.07499999999999,18.488861799999995],[-66.07499999999999,18.498930299999984],[-66.07499999999999,18.50744279999998],[-66.07499999999999,18.51666019999999],[-66.07499999999999,18.518158900000003],[-66.07499999999999,18.51891039999998],[-66.07499999999999,18.524999999999977],[-66.0576297,18.524999999999977],[-66.0507427,18.524999999999977],[-66.04437109999998,18.524999999999977],[-66.038499,18.524999999999977],[-66.02534550000001,18.524999999999977],[-66.01325279999998,18.524999999999977],[-66.0,18.524999999999977],[-66.0,18.515730700000006],[-66.0,18.515008000000023],[-66.0,18.514067099999977],[-66.0,18.500676899999974],[-66.0,18.493918500000007],[-66.0,18.48588189999998],[-66.0,18.484758100000022],[-66.0,18.477055500000006],[-66.0,18.476313800000014],[-66.0,18.475935600000014],[-66.0,18.469976400000007],[-66.0,18.467820200000006],[-66.0,18.466531900000007],[-66.0,18.46648859999999],[-66.0,18.4660748],[-66.0,18.46572020000002],[-66.0,18.46570730000002],[-66.0,18.46525079999998],[-66.0,18.464233400000012],[-66.0,18.464101500000027],[-66.0,18.463146499999993],[-66.0,18.462823000000014],[-66.0,18.462151699999993],[-66.0,18.461864600000013],[-66.0,18.46069990000001],[-66.0,18.455237099999977],[-66.0,18.45496609999998],[-66.0,18.4527789],[-66.0,18.44999999999999],[-66.00249150000002,18.44999999999999],[-66.00686409999997,18.44999999999999],[-66.0133257,18.44999999999999],[-66.01389660000001,18.44999999999999],[-66.01424079999998,18.44999999999999],[-66.01435609999999,18.44999999999999],[-66.01507179999999,18.44999999999999],[-66.01600919999998,18.44999999999999],[-66.01823839999997,18.44999999999999],[-66.01829700000002,18.44999999999999],[-66.0185252,18.44999999999999],[-66.01899800000001,18.44999999999999],[-66.01924359999998,18.44999999999999],[-66.01961360000001,18.44999999999999],[-66.01966420000002,18.44999999999999],[-66.0201351,18.44999999999999],[-66.02236629999999,18.44999999999999],[-66.02266930000002,18.44999999999999],[-66.02470260000001,18.44999999999999],[-66.0248095,18.44999999999999],[-66.02537690000003,18.44999999999999],[-66.02602990000003,18.44999999999999],[-66.02664970000001,18.44999999999999],[-66.03120710000002,18.44999999999999],[-66.0323631,18.44999999999999],[-66.03591870000002,18.44999999999999],[-66.035998,18.44999999999999],[-66.03612149999998,18.44999999999999],[-66.03657529999998,18.44999999999999],[-66.03663210000002,18.44999999999999],[-66.06592760000001,18.44999999999999]]]}},{"type":"Feature","properties":{},"geometry":{"type":"Polygon","coordinates":[[[-65.99786540000002,18.44999999999999],[-66.0,18.44999999999999],[-66.0,18.4527789],[-66.0,18.45496609999998],[-66.0,18.455237099999977],[-66.0,18.46069990000001],[-66.0,18.461864600000013],[-66.0,18.462151699999993],[-66.0,18.462823000000014],[-66.0,18.463146499999993],[-66.0,18.464101500000027],[-66.0,18.464233400000012],[-66.0,18.46525079999998],[-66.0,18.46570730000002],[-66.0,18.46572020000002],[-66.0,18.4660748],[-66.0,18.46648859999999],[-66.0,18.466531900000007],[-66.0,18.467820200000006],[-66.0,18.469976400000007],[-66.0,18.475935600000014],[-66.0,18.476313800000014],[-66.0,18.477055500000006],[-66.0,18.484758100000022],[-66.0,18.48588189999998],[-66.0,18.493918500000007],[-66.0,18.500676899999974],[-66.0,18.514067099999977],[-66.0,18.515008000000023],[-66.0,18.515730700000006],[-66.0,18.524999999999977],[-65.9946347,18.524999999999977],[-65.9945793,18.524999999999977],[-65.991757,18.524999999999977],[-65.98796670000002,18.524999999999977],[-65.98338330000001,18.524999999999977],[-65.97500000000002,18.524999999999977],[-65.96565040000002,18.524999999999977],[-65.96246680000002,18.524999999999977],[-65.9532375,18.524999999999977],[-65.92500000000001,18.524999999999977],[-65.92500000000001,18.524345700000026],[-65.92500000000001,18.504027199999996],[-65.92500000000001,18.503391399999998],[-65.92500000000001,18.503288699999985],[-65.92500000000001,18.485809800000027],[-65.92500000000001,18.480145600000014],[-65.92500000000001,18.46377210000003],[-65.92500000000001,18.463443299999994],[-65.92500000000001,18.459115800000006],[-65.92500000000001,18.454751999999985],[-65.92500000000001,18.452728999999977],[-65.92500000000001,18.44999999999999],[-65.92950630000001,18.44999999999999],[-65.93172950000002,18.44999999999999],[-65.93632489999999,18.44999999999999],[-65.9378845,18.44999999999999],[-65.9381391,18.44999999999999],[-65.94149750000003,18.44999999999999],[-65.9450038,18.44999999999999],[-65.9495268,18.44999999999999],[-65.9587333,18.44999999999999],[-65.96514539999998,18.44999999999999],[-65.96610420000002,18.44999999999999],[-65.97500000000002,18.44999999999999],[-65.97824070000001,18.44999999999999],[-65.98701519999997,18.44999999999999],[-65.98703929999999,18.44999999999999],[-65.98936279999998,18.44999999999999],[-65.9916045,18.44999999999999],[-65.9920007,18.44999999999999],[-65.99201420000003,18.44999999999999],[-65.9970849,18.44999999999999],[-65.99727660000002,18.44999999999999],[-65.99770919999997,18.44999999999999],[-65.99786540000002,18.44999999999999]]]}},{"type":"Feature","properties":{},"geometry":{"type":"Polygon","coordinates":[[[-66.2017922,18.524999999999977],[-66.22500000000002,18.524999999999977],[-66.22500000000002,18.53274570000002],[-66.22500000000002,18.53349800000001],[-66.22500000000002,18.557675599999982],[-66.22500000000002,18.600000000000023],[-66.1800859,18.600000000000023],[-66.14999999999998,18.600000000000023],[-66.14999999999998,18.570600500000012],[-66.14999999999998,18.566666699999985],[-66.14999999999998,18.55205269999999],[-66.14999999999998,18.52545140000001],[-66.14999999999998,18.524999999999977],[-66.17507,18.524999999999977],[-66.1941481,18.524999999999977],[-66.1958333,18.524999999999977],[-66.2017922,18.524999999999977]]]}},{"type":"Feature","properties":{},"geometry":{"type":"Polygon","coordinates":[[[-66.13137760000001,18.524999999999977],[-66.14999999999998,18.524999999999977],[-66.14999999999998,18.52545140000001],[-66.14999999999998,18.55205269999999],[-66.14999999999998,18.566666699999985],[-66.14999999999998,18.570600500000012],[-66.14999999999998,18.600000000000023],[-66.1181393,18.600000000000023],[-66.10467590000002,18.600000000000023],[-66.08213649999999,18.600000000000023],[-66.07499999999999,18.600000000000023],[-66.07499999999999,18.566666699999985],[-66.07499999999999,18.55240279999998],[-66.07499999999999,18.53285599999998],[-66.07499999999999,18.524999999999977],[-66.07654059999999,18.524999999999977],[-66.08968670000002,18.524999999999977],[-66.10006659999999,18.524999999999977],[-66.13137760000001,18.524999999999977]]]}},{"type":"Feature","properties":{},"geometry":{"type":"Polygon","coordinates":[[[-66.0576297,18.524999999999977],[-66.07499999999999,18.524999999999977],[-66.07499999999999,18.53285599999998],[-66.07499999999999,18.55240279999998],[-66.07499999999999,18.566666699999985],[-66.07499999999999,18.600000000000023],[-66.04548490000002,18.600000000000023],[-66.02434670000002,18.600000000000023],[-66.01577579999997,18.600000000000023],[-66.01467020000001,18.600000000000023],[-66.00809090000001,18.600000000000023],[-66.0,18.600000000000023],[-66.0,18.566666699999985],[-66.0,18.564295000000016],[-66.0,18.55626799999999],[-66.0,18.55442690000001],[-66.0,18.552374999999984],[-66.0,18.539466500000003],[-66.0,18.524999999999977],[-66.01325279999998,18.524999999999977],[-66.02534550000001,18.524999999999977],[-66.038499,18.524999999999977],[-66.04437109999998,18.524999999999977],[-66.0507427,18.524999999999977],[-66.0576297,18.524999999999977]]]}},{"type":"Feature","properties":{},"geometry":{"type":"Polygon","coordinates":[[[-65.9946347,18.524999999999977],[-66.0,18.524999999999977],[-66.0,18.539466500000003],[-66.0,18.552374999999984],[-66.0,18.55442690000001],[-66.0,18.55626799999999],[-66.0,18.564295000000016],[-66.0,18.566666699999985],[-66.0,18.600000000000023],[-65.9980089,18.600000000000023],[-65.99724179999998,18.600000000000023],[-65.9896756,18.600000000000023],[-65.92500000000001,18.600000000000023],[-65.92500000000001,18.59219330000002],[-65.92500000000001,18.56155799999999],[-65.92500000000001,18.54871509999998],[-65.92500000000001,18.540738499999975],[-65.92500000000001,18.524999999999977],[-65.9532375,18.524999999999977],[-65.96246680000002,18.524999999999977],[-65.96565040000002,18.524999999999977],[-65.97500000000002,18.524999999999977],[-65.98338330000001,18.524999999999977],[-65.98796670000002,18.524999999999977],[-65.991757,18.524999999999977],[-65.9945793,18.524999999999977],[-65.9946347,18.524999999999977]]]}}]}