{"type":"FeatureCollection","features":[{"type":"Feature","properties":{},"geometry":{"type":"Polygon","coordinates":[[[-81.13265740000003,32.02499999999998],[-81.07499999999999,32.02499999999998],[-81.07499999999999,32.073533199999986],[-81.07499999999999,32.07486399999999],[-81.07499999999999,32.077970300000004],[-81.07499999999999,32.07803230000002],[-81.07499999999999,32.07839180000002],[-81.07499999999999,32.078771399999994],[-81.07499999999999,32.079169999999976],[-81.07499999999999,32.07956810000002],[-81.07499999999999,32.07994289999999],[-81.07499999999999,32.08012489999999],[-81.07499999999999,32.0803075],[-81.07499999999999,32.08042840000002],[-81.07499999999999,32.092654400000015],[-81.07499999999999,32.09345539999998],[-81.07499999999999,32.095517900000004],[-81.07499999999999,32.09584890000002],[-81.07499999999999,32.09784029999997],[-81.07499999999999,32.09819679999998],[-81.07499999999999,32.09834480000001],[-81.07499999999999,32.09948029999998],[-81.07499999999999,32.09968070000002],[-81.07499999999999,32.10000000000002],[-81.0754933,32.10000000000002],[-81.07583679999999,32.10000000000002],[-81.0806354,32.10000000000002],[-81.08161260000003,32.10000000000002],[-81.0838766,32.10000000000002],[-81.08488640000002,32.10000000000002],[-81.0892111,32.10000000000002],[-81.0904296,32.10000000000002],[-81.09060099999999,32.10000000000002],[-81.09315409999999,32.10000000000002],[-81.09648149999998,32.10000000000002],[-81.10076190000001,32.10000000000002],[-81.10954199999998,32.10000000000002],[-81.10987340000003,32.10000000000002],[-81.11009510000002,32.10000000000002],[-81.1103766,32.10000000000002],[-81.11072100000001,32.10000000000002],[-81.11123909999998,32.10000000000002],[-81.1118133,32.10000000000002],[-81.11238680000002,32.10000000000002],[-81.11290229999997,32.10000000000002],[-81.113855,32.10000000000002],[-81.1142021,32.10000000000002],[-81.12128960000001,32.10000000000002],[-81.12184079999997,32.10000000000002],[-81.12191339999998,32.10000000000002],[-81.12271879999997,32.10000000000002],[-81.1285916,32.10000000000002],[-81.14138050000003,32.10000000000002],[-81.1429799,32.10000000000002],[-81.14322959999998,32.10000000000002],[-81.14982850000001,32.10000000000002],[-81.14999999999998,32.10000000000002],[-81.14999999999998,32.087976200000014],[-81.14999999999998,32.08627560000002],[-81.14999999999998,32.049190599999974],[-81.14999999999998,32.033553600000005],[-81.14999999999998,32.02707570000001],[-81.14999999999998,32.02499999999998],[-81.14982850000001,32.02499999999998],[-81.13265740000003,32.02499999999998]]]}},{"type":"Feature","properties":{},"geometry":{"type":"Polygon","coordinates":[[[-81.0469157,32.02499999999998],[-81.04690190000002,32.02499999999998],[-81.04657370000001,32.02499999999998],[-81.04616220000003,32.02499999999998],[-81.04576500000002,32.02499999999998],[-81.04476740000001,32.02499999999998],[-81.04475309999998,32.02499999999998],[-81.0442721,32.02499999999998],[-81.04422369999997,32.02499999999998],[-81.04174719999997,32.02499999999998],[-81.03754900000001,32.02499999999998],[-81.0373798,32.02499999999998],[-81.03686190000002,32.02499999999998],[-81.0357156,32.02499999999998],[-81.0340612,32.02499999999998],[-81.031634,32.02499999999998],[-81.02292979999999,32.02499999999998],[-81.0226442,32.02499999999998],[-81.0210444,32.02499999999998],[-81.02032159999999,32.02499999999998],[-81.01970560000001,32.02499999999998],[-81.01900640000002,32.02499999999998],[-81.01803710000002,32.02499999999998],[-81.01788019999998,32.02499999999998],[-81.01746200000002,32.02499999999998],[-81.0141547,32.02499999999998],[-81.0136101,32.02499999999998],[-81.0004932,32.02499999999998],[-81,32.02499999999998],[-81,32.0258192],[-81,32.026244899999995],[-81,32.04614409999999],[-81,32.046191799999974],[-81,32.04634900000002],[-81,32.046992999999986],[-81,32.04759680000001],[-81,32.05695420000001],[-81,32.05722309999999],[-81,32.06165950000002],[-81,32.0654007],[-81,32.065984000000014],[-81,32.066119300000025],[-81,32.06678479999999],[-81,32.06714299999999],[-81,32.06746829999997],[-81,32.0766299],[-81,32.077343499999984],[-81,32.0773471],[-81,32.07872149999997],[-81,32.08093200000002],[-81,32.08240719999998],[-81,32.083119599999975],[-81,32.08374309999999],[-81,32.08957959999998],[-81,32.091982299999984],[-81,32.09521510000002],[-81,32.0962414],[-81,32.09676880000001],[-81,32.097078899999985],[-81,32.097239],[-81,32.0976038],[-81,32.09820109999998],[-81,32.0988342],[-81,32.09947599999998],[-81,32.10000000000002],[-81.00112510000002,32.10000000000002],[-81.00243590000002,32.10000000000002],[-81.0037294,32.10000000000002],[-81.00586779999998,32.10000000000002],[-81.00718849999998,32.10000000000002],[-81.00882050000001,32.10000000000002],[-81.01000169999998,32.10000000000002],[-81.01198249999999,32.10000000000002],[-81.0131015,32.10000000000002],[-81.01422050000002,32.10000000000002],[-81.0142492,32.10000000000002],[-81.0153396,32.10000000000002],[-81.0158222,32.10000000000002],[-81.01636330000002,32.10000000000002],[-81.01664090000003,32.10000000000002],[-81.0171957,32.10000000000002],[-81.0432748,32.10000000000002],[-81.0727602,32.10000000000002],[-81.07499999999999,32.10000000000002],[-81.07499999999999,32.09968070000002],[-81.07499999999999,32.09948029999998],[-81.07499999999999,32.09834480000001],[-81.07499999999999,32.09819679999998],[-81.07499999999999,32.09784029999997],[-81.07499999999999,32.09584890000002],[-81.07499999999999,32.095517900000004],[-81.07499999999999,32.09345539999998],[-81.07499999999999,32.092654400000015],[-81.07499999999999,32.08042840000002],[-81.07499999999999,32.0803075],[-81.07499999999999,32.08012489999999],[-81.07499999999999,32.07994289999999],[-81.07499999999999,32.07956810000002],[-81.07499999999999,32.079169999999976],[-81.07499999999999,32.078771399999994],[-81.07499999999999,32.07839180000002],[-81.07499999999999,32.07803230000002],[-81.07499999999999,32.077970300000004],[-81.07499999999999,32.07486399999999],[-81.07499999999999,32.073533199999986],[-81.07499999999999,32.02499999999998],[-81.04767989999999,32.02499999999998],[-81.0469157,32.02499999999998]]]}},{"type":"Feature","properties":{},"geometry":{"type":"Polygon","coordinates":[[[-80.9979141,32.02499999999998],[-80.9974919,32.02499999999998],[-80.99662649999999,32.02499999999998],[-80.99205419999998,32.02499999999998],[-80.9908077,32.02499999999998],[-80.9898761,32.02499999999998],[-80.98598129999999,32.02499999999998],[-80.98560090000001,32.02499999999998],[-80.98077819999997,32.02499999999998],[-80.98067040000001,32.02499999999998],[-80.98039160000002,32.02499999999998],[-80.97960619999998,32.02499999999998],[-80.97921989999998,32.02499999999998],[-80.97841269999998,32.02499999999998],[-80.97817629999997,32.02499999999998],[-80.9759388,32.02499999999998],[-80.95629889999998,32.02499999999998],[-80.95283219999999,32.02499999999998],[-80.9417886,32.02499999999998],[-80.9412767,32.02499999999998],[-80.94108039999998,32.02499999999998],[-80.9409511,32.02499999999998],[-80.94049719999998,32.02499999999998],[-80.93985859999998,32.02499999999998],[-80.93962110000001,32.02499999999998],[-80.9394145,32.02499999999998],[-80.9392512,32.02499999999998],[-80.93898309999997,32.02499999999998],[-80.92947290000001,32.02499999999998],[-80.9289637,32.02499999999998],[-80.92833969999998,32.02499999999998],[-80.92768860000001,32.02499999999998],[-80.92737779999999,32.02499999999998],[-80.92669569999998,32.02499999999998],[-80.92660269999999,32.02499999999998],[-80.9262541,32.02499999999998],[-80.92500000000001,32.02499999999998],[-80.92500000000001,32.02564669999998],[-80.92500000000001,32.025665000000004],[-80.92500000000001,32.026207],[-80.92500000000001,32.026768300000015],[-80.92500000000001,32.0272908],[-80.92500000000001,32.02749210000002],[-80.92500000000001,32.03021050000001],[-80.92500000000001,32.030244700000026],[-80.92500000000001,32.03041330000002],[-80.92500000000001,32.031538599999976],[-80.92500000000001,32.03351780000003],[-80.92500000000001,32.03457070000002],[-80.92500000000001,32.03531909999998],[-80.92500000000001,32.03683649999999],[-80.92500000000001,32.036867400000006],[-80.92500000000001,32.03710810000001],[-80.92500000000001,32.038228600000025],[-80.92500000000001,32.038465900000006],[-80.92500000000001,32.03902390000002],[-80.92500000000001,32.03930129999998],[-80.92500000000001,32.04000610000003],[-80.92500000000001,32.04047270000001],[-80.92500000000001,32.040946399999996],[-80.92500000000001,32.0409535],[-80.92500000000001,32.04145490000002],[-80.92500000000001,32.04189939999998],[-80.92500000000001,32.042826400000024],[-80.92500000000001,32.043238900000006],[-80.92500000000001,32.043859499999996],[-80.92500000000001,32.0444038],[-80.92500000000001,32.04464180000002],[-80.92500000000001,32.0457371],[-80.92500000000001,32.04607609999999],[-80.92500000000001,32.050077699999974],[-80.92500000000001,32.0506527],[-80.92500000000001,32.06241649999998],[-80.92500000000001,32.06264349999998],[-80.92500000000001,32.08452089999997],[-80.92500000000001,32.084527200000025],[-80.92500000000001,32.0852223],[-80.92500000000001,32.08542019999999],[-80.92500000000001,32.08731749999998],[-80.92500000000001,32.08748889999998],[-80.92500000000001,32.087964899999974],[-80.92500000000001,32.088251300000024],[-80.92500000000001,32.088518599999986],[-80.92500000000001,32.08936699999998],[-80.92500000000001,32.0895385],[-80.92500000000001,32.090230899999995],[-80.92500000000001,32.10000000000002],[-80.9263479,32.10000000000002],[-80.9276949,32.10000000000002],[-80.9463326,32.10000000000002],[-80.94756109999997,32.10000000000002],[-80.94895330000003,32.10000000000002],[-80.94952080000002,32.10000000000002],[-80.95768980000003,32.10000000000002],[-80.95796209999997,32.10000000000002],[-80.97952459999999,32.10000000000002],[-80.9964804,32.10000000000002],[-80.9975551,32.10000000000002],[-80.9976117,32.10000000000002],[-80.99782090000002,32.10000000000002],[-80.99834090000002,32.10000000000002],[-80.99838140000003,32.10000000000002],[-80.9986791,32.10000000000002],[-80.99897720000001,32.10000000000002],[-80.99984330000001,32.10000000000002],[-81,32.10000000000002],[-81,32.09947599999998],[-81,32.0988342],[-81,32.09820109999998],[-81,32.0976038],[-81,32.097239],[-81,32.097078899999985],[-81,32.09676880000001],[-81,32.0962414],[-81,32.09521510000002],[-81,32.091982299999984],[-81,32.08957959999998],[-81,32.08374309999999],[-81,32.083119599999975],[-81,32.08240719999998],[-81,32.08093200000002],[-81,32.07872149999997],[-81,32.0773471],[-81,32.077343499999984],[-81,32.0766299],[-81,32.06746829999997],[-81,32.06714299999999],[-81,32.06678479999999],[-81,32.066119300000025],[-81,32.065984000000014],[-81,32.0654007],[-81,32.06165950000002],[-81,32.05722309999999],[-81,32.05695420000001],[-81,32.04759680000001],[-81,32.046992999999986],[-81,32.04634900000002],[-81,32.046191799999974],[-81,32.04614409999999],[-81,32.026244899999995],[-81,32.0258192],[-81,32.02499999999998],[-80.99842999999998,32.02499999999998],[-80.9979141,32.02499999999998]]]}},{"type":"Feature","properties":{},"geometry":{"type":"Polygon","coordinates":[[[-80.92397790000001,32.02499999999998],[-80.92373379999998,32.02499999999998],[-80.9236995,32.02499999999998],[-80.92319759999998,32.02499999999998],[-80.92310839999999,32.02499999999998],[-80.92196150000001,32.02499999999998],[-80.92116390000001,32.02499999999998],[-80.9195593,32.02499999999998],[-80.91879139999998,32.02499999999998],[-80.91531350000002,32.02499999999998],[-80.91273819999998,32.02499999999998],[-80.9107363,32.02499999999998],[-80.90944760000002,32.02499999999998],[-80.90715449999999,32.02499999999998],[-80.90312080000001,32.02499999999998],[-80.90000099999997,32.02499999999998],[-80.89910359999999,32.02499999999998],[-80.89861880000001,32.02499999999998],[-80.89732270000002,32.02499999999998],[-80.89702449999999,32.02499999999998],[-80.89613939999998,32.02499999999998],[-80.8960844,32.02499999999998],[-80.88805389999999,32.02499999999998],[-80.88801319999999,32.02499999999998],[-80.88782959999998,32.02499999999998],[-80.88758719999998,32.02499999999998],[-80.88479219999999,32.02499999999998],[-80.88455950000002,32.02499999999998],[-80.88355940000002,32.02499999999998],[-80.88159789999997,32.02499999999998],[-80.87623960000002,32.02499999999998],[-80.87491879999999,32.02499999999998],[-80.86881929999998,32.02499999999998],[-80.8678979,32.02499999999998],[-80.86733939999999,32.02499999999998],[-80.86479200000002,32.02499999999998],[-80.86132120000002,32.02499999999998],[-80.86025860000001,32.02499999999998],[-80.85922870000002,32.02499999999998],[-80.857822,32.02499999999998],[-80.85701039999998,32.02499999999998],[-80.85633389999998,32.02499999999998],[-80.85548720000003,32.02499999999998],[-80.85000000000002,32.02499999999998],[-80.85000000000002,32.02803349999999],[-80.85000000000002,32.02927199999999],[-80.85000000000002,32.02953710000003],[-80.85000000000002,32.03136660000001],[-80.85000000000002,32.03158560000003],[-80.85000000000002,32.03172810000001],[-80.85000000000002,32.0326718],[-80.85000000000002,32.03441270000002],[-80.85000000000002,32.03521740000002],[-80.85000000000002,32.035834799999975],[-80.85000000000002,32.0363787],[-80.85000000000002,32.0370241],[-80.85000000000002,32.037398800000005],[-80.85000000000002,32.03777459999998],[-80.85000000000002,32.037884399999996],[-80.85000000000002,32.038151400000004],[-80.85000000000002,32.03852869999997],[-80.85000000000002,32.03988459999999],[-80.85000000000002,32.04034309999997],[-80.85000000000002,32.0411881],[-80.85000000000002,32.041328599999986],[-80.85000000000002,32.04138549999999],[-80.85000000000002,32.04157300000003],[-80.85000000000002,32.04166249999997],[-80.85000000000002,32.044082300000014],[-80.85000000000002,32.04542709999998],[-80.85000000000002,32.047211800000014],[-80.85000000000002,32.04806960000002],[-80.85000000000002,32.049777500000005],[-80.85000000000002,32.06035639999999],[-80.85000000000002,32.06328239999999],[-80.85000000000002,32.06592069999999],[-80.85000000000002,32.06666799999999],[-80.85000000000002,32.071612200000004],[-80.85000000000002,32.08462789999999],[-80.85000000000002,32.10000000000002],[-80.85846120000002,32.10000000000002],[-80.85915670000003,32.10000000000002],[-80.89517740000002,32.10000000000002],[-80.89667750000001,32.10000000000002],[-80.89904150000001,32.10000000000002],[-80.9006493,32.10000000000002],[-80.90118380000001,32.10000000000002],[-80.9015827,32.10000000000002],[-80.901793,32.10000000000002],[-80.9105548,32.10000000000002],[-80.910954,32.10000000000002],[-80.91399439999998,32.10000000000002],[-80.9146791,32.10000000000002],[-80.9231772,32.10000000000002],[-80.9242883,32.10000000000002],[-80.92500000000001,32.10000000000002],[-80.92500000000001,32.090230899999995],[-80.92500000000001,32.089538600000026],[-80.92500000000001,32.08936699999998],[-80.92500000000001,32.088518599999986],[-80.92500000000001,32.088251300000024],[-80.92500000000001,32.087964899999974],[-80.92500000000001,32.08748889999998],[-80.92500000000001,32.08731749999998],[-80.92500000000001,32.08542019999999],[-80.92500000000001,32.0852223],[-80.92500000000001,32.084527200000025],[-80.92500000000001,32.08452089999997],[-80.92500000000001,32.06264349999998],[-80.92500000000001,32.06241649999998],[-80.92500000000001,32.0506527],[-80.92500000000001,32.050077699999974],[-80.92500000000001,32.04607609999999],[-80.92500000000001,32.0457371],[-80.92500000000001,32.04464180000002],[-80.92500000000001,32.0444038],[-80.92500000000001,32.043859499999996],[-80.92500000000001,32.043238900000006],[-80.92500000000001,32.042826400000024],[-80.92500000000001,32.04189939999998],[-80.92500000000001,32.04145490000002],[-80.92500000000001,32.0409535],[-80.92500000000001,32.040946399999996],[-80.92500000000001,32.04047270000001],[-80.92500000000001,32.04000610000003],[-80.92500000000001,32.03930129999998],[-80.92500000000001,32.03902390000002],[-80.92500000000001,32.038465900000006],[-80.92500000000001,32.038228600000025],[-80.92500000000001,32.03710810000001],[-80.92500000000001,32.036867400000006],[-80.92500000000001,32.03683649999999],[-80.92500000000001,32.03531909999998],[-80.92500000000001,32.03457070000002],[-80.92500000000001,32.03351780000003],[-80.92500000000001,32.031538599999976],[-80.92500000000001,32.03041330000002],[-80.92500000000001,32.030244700000026],[-80.92500000000001,32.03021050000001],[-80.92500000000001,32.02749210000002],[-80.92500000000001,32.0272908],[-80.92500000000001,32.026768300000015],[-80.92500000000001,32.026207],[-80.92500000000001,32.025665000000004],[-80.92500000000001,32.02564669999998],[-80.92500000000001,32.02499999999998],[-80.92435310000002,32.02499999999998],[-80.92397790000001,32.02499999999998]]]}},{"type":"Feature","properties":{},"geometry":{"type":"Polygon","coordinates":[[[-81.14999999999998,32.10000000000002],[-81.14999999999998,32.14166899999998],[-81.14999999999998,32.14500670000001],[-81.14999999999998,32.14726109999998],[-81.14999999999998,32.14758499999999],[-81.14999999999998,32.148030000000006],[-81.14999999999998,32.14833340000001],[-81.14999999999998,32.14838320000001],[-81.14999999999998,32.14844799999997],[-81.14999999999998,32.14878540000001],[-81.14999999999998,32.15152840000002],[-81.14999999999998,32.15161899999998],[-81.14999999999998,32.15168560000001],[-81.14999999999998,32.1517518],[-81.14999999999998,32.15181209999997],[-81.14999999999998,32.152101800000025],[-81.14999999999998,32.15227809999999],[-81.14999999999998,32.15245900000002],[-81.14999999999998,32.15264079999997],[-81.14999999999998,32.15283840000001],[-81.14999999999998,32.152964],[-81.14999999999998,32.153005500000006],[-81.14999999999998,32.15326859999999],[-81.14999999999998,32.15359330000001],[-81.14999999999998,32.15392509999998],[-81.14999999999998,32.161742600000025],[-81.14999999999998,32.161857399999974],[-81.14999999999998,32.16546840000001],[-81.14999999999998,32.16564260000001],[-81.14999999999998,32.17448159999998],[-81.14999999999998,32.174737100000016],[-81.14999999999998,32.17500000000001],[-81.15210589999998,32.17500000000001],[-81.15234779999997,32.17500000000001],[-81.15283360000001,32.17500000000001],[-81.15302910000003,32.17500000000001],[-81.1534383,32.17500000000001],[-81.15442789999997,32.17500000000001],[-81.1559724,32.17500000000001],[-81.15628670000001,32.17500000000001],[-81.15643920000002,32.17500000000001],[-81.15780619999998,32.17500000000001],[-81.15881460000003,32.17500000000001],[-81.15900210000001,32.17500000000001],[-81.1591282,32.17500000000001],[-81.1604155,32.17500000000001],[-81.16713320000002,32.17500000000001],[-81.22500000000002,32.17500000000001],[-81.22500000000002,32.10000000000002],[-81.14999999999998,32.10000000000002]]]}},{"type":"Feature","properties":{},"geometry":{"type":"Polygon","coordinates":[[[-81.14322959999998,32.10000000000002],[-81.1429799,32.10000000000002],[-81.14138050000003,32.10000000000002],[-81.1285916,32.10000000000002],[-81.12271879999997,32.10000000000002],[-81.12191339999998,32.10000000000002],[-81.12184079999997,32.10000000000002],[-81.12128960000001,32.10000000000002],[-81.1142021,32.10000000000002],[-81.113855,32.10000000000002],[-81.11290229999997,32.10000000000002],[-81.11238680000002,32.10000000000002],[-81.1118133,32.10000000000002],[-81.11123909999998,32.10000000000002],[-81.11072100000001,32.10000000000002],[-81.1103766,32.10000000000002],[-81.11009510000002,32.10000000000002],[-81.10987340000003,32.10000000000002],[-81.10954199999998,32.10000000000002],[-81.10076190000001,32.10000000000002],[-81.09648149999998,32.10000000000002],[-81.09315409999999,32.10000000000002],[-81.09060099999999,32.10000000000002],[-81.0904296,32.10000000000002],[-81.0892111,32.10000000000002],[-81.08488640000002,32.10000000000002],[-81.0838766,32.10000000000002],[-81.08161260000003,32.10000000000002],[-81.0806354,32.10000000000002],[-81.07583679999999,32.10000000000002],[-81.0754933,32.10000000000002],[-81.07499999999999,32.10000000000002],[-81.07499999999999,32.10108170000001],[-81.07499999999999,32.11350809999999],[-81.07499999999999,32.12982410000001],[-81.07499999999999,32.1367224],[-81.07499999999999,32.13685600000002],[-81.07499999999999,32.13723190000002],[-81.07499999999999,32.1373638],[-81.07499999999999,32.14353399999999],[-81.07499999999999,32.157532],[-81.07499999999999,32.161621500000024],[-81.07499999999999,32.17500000000001],[-81.08189060000001,32.17500000000001],[-81.0820708,32.17500000000001],[-81.08448609999999,32.17500000000001],[-81.10946050000001,32.17500000000001],[-81.11017980000003,32.17500000000001],[-81.1106423,32.17500000000001],[-81.1107912,32.17500000000001],[-81.11832379999998,32.17500000000001],[-81.1190421,32.17500000000001],[-81.11972630000002,32.17500000000001],[-81.12000410000002,32.17500000000001],[-81.1202753,32.17500000000001],[-81.12084099999998,32.17500000000001],[-81.12166359999998,32.17500000000001],[-81.12214490000002,32.17500000000001],[-81.12441239999998,32.17500000000001],[-81.12455670000003,32.17500000000001],[-81.12784440000001,32.17500000000001],[-81.1279341,32.17500000000001],[-81.13470690000003,32.17500000000001],[-81.13562100000001,32.17500000000001],[-81.13575459999998,32.17500000000001],[-81.14063850000002,32.17500000000001],[-81.1428333,32.17500000000001],[-81.14523430000003,32.17500000000001],[-81.1453702,32.17500000000001],[-81.14692489999999,32.17500000000001],[-81.14793880000002,32.17500000000001],[-81.14803119999999,32.17500000000001],[-81.14842970000001,32.17500000000001],[-81.14999999999998,32.17500000000001],[-81.14999999999998,32.174737100000016],[-81.14999999999998,32.17448159999998],[-81.14999999999998,32.16564260000001],[-81.14999999999998,32.16546840000001],[-81.14999999999998,32.161857399999974],[-81.14999999999998,32.161742600000025],[-81.14999999999998,32.15392509999998],[-81.14999999999998,32.15359330000001],[-81.14999999999998,32.15326859999999],[-81.14999999999998,32.153005500000006],[-81.14999999999998,32.152964],[-81.14999999999998,32.15283840000001],[-81.14999999999998,32.15264079999997],[-81.14999999999998,32.15245900000002],[-81.14999999999998,32.15227809999999],[-81.14999999999998,32.152101800000025],[-81.14999999999998,32.15181209999997],[-81.14999999999998,32.1517518],[-81.14999999999998,32.15168560000001],[-81.14999999999998,32.15161899999998],[-81.14999999999998,32.15152840000002],[-81.14999999999998,32.14878540000001],[-81.14999999999998,32.14844799999997],[-81.14999999999998,32.14838320000001],[-81.14999999999998,32.148030000000006],[-81.14999999999998,32.14758499999999],[-81.14999999999998,32.14726109999998],[-81.14999999999998,32.14166899999998],[-81.14999999999998,32.12392569999997],[-81.14999999999998,32.12387610000002],[-81.14999999999998,32.1238424],[-81.14999999999998,32.11054089999999],[-81.14999999999998,32.10000000000002],[-81.14982850000001,32.10000000000002],[-81.14322959999998,32.10000000000002]]]}},{"type":"Feature","properties":{},"geometry":{"type":"Polygon","coordinates":[[[-81.0432748,32.10000000000002],[-81.0171957,32.10000000000002],[-81.01664090000003,32.10000000000002],[-81.01636330000002,32.10000000000002],[-81.0158222,32.10000000000002],[-81.0153396,32.10000000000002],[-81.0142492,32.10000000000002],[-81.01422050000002,32.10000000000002],[-81.0131015,32.10000000000002],[-81.01198249999999,32.10000000000002],[-81.01000169999998,32.10000000000002],[-81.00882050000001,32.10000000000002],[-81.00718849999998,32.10000000000002],[-81.00586779999998,32.10000000000002],[-81.0037294,32.10000000000002],[-81.00243590000002,32.10000000000002],[-81.00112510000002,32.10000000000002],[-81,32.10000000000002],[-81,32.10007539999998],[-81,32.1006155],[-81,32.10083159999999],[-81,32.10101750000001],[-81,32.10110209999999],[-81,32.10113239999998],[-81,32.10125069999998],[-81,32.101988199999994],[-81,32.15752939999999],[-81,32.17500000000001],[-81.07499999999999,32.17500000000001],[-81.07499999999999,32.161621500000024],[-81.07499999999999,32.157532],[-81.07499999999999,32.14353399999999],[-81.07499999999999,32.1373638],[-81.07499999999999,32.13723190000002],[-81.07499999999999,32.13685600000002],[-81.07499999999999,32.1367224],[-81.07499999999999,32.12982410000001],[-81.07499999999999,32.11350809999999],[-81.07499999999999,32.10108170000001],[-81.07499999999999,32.10000000000002],[-81.0727602,32.10000000000002],[-81.0432748,32.10000000000002]]]}},{"type":"Feature","properties":{},"geometry":{"type":"Polygon","coordinates":[[[-80.99897720000001,32.10000000000002],[-80.9986791,32.10000000000002],[-80.99838140000003,32.10000000000002],[-80.99834090000002,32.10000000000002],[-80.99782090000002,32.10000000000002],[-80.9976117,32.10000000000002],[-80.9975551,32.10000000000002],[-80.9964804,32.10000000000002],[-80.97952459999999,32.10000000000002],[-80.95796209999997,32.10000000000002],[-80.95768980000003,32.10000000000002],[-80.94952080000002,32.10000000000002],[-80.94895330000003,32.10000000000002],[-80.94756109999997,32.10000000000002],[-80.9463326,32.10000000000002],[-80.9276949,32.10000000000002],[-80.9263479,32.10000000000002],[-80.92500000000001,32.10000000000002],[-80.92500000000001,32.10006069999997],[-80.92500000000001,32.1002077],[-80.92500000000001,32.10169259999998],[-80.92500000000001,32.10217299999999],[-80.92500000000001,32.10221309999997],[-80.92500000000001,32.10373809999999],[-80.92500000000001,32.103817100000015],[-80.92500000000001,32.116799800000024],[-80.92500000000001,32.11794759999998],[-80.92500000000001,32.11899299999999],[-80.92500000000001,32.11954100000003],[-80.92500000000001,32.11959890000003],[-80.92500000000001,32.11973130000001],[-80.92500000000001,32.123262899999986],[-80.92500000000001,32.1239832],[-80.92500000000001,32.12459150000001],[-80.92500000000001,32.12552899999997],[-80.92500000000001,32.125708599999996],[-80.92500000000001,32.12655640000003],[-80.92500000000001,32.12977760000001],[-80.92500000000001,32.130429100000015],[-80.92500000000001,32.13271739999999],[-80.92500000000001,32.13531549999999],[-80.92500000000001,32.13722489999998],[-80.92500000000001,32.137726999999984],[-80.92500000000001,32.14020720000002],[-80.92500000000001,32.14022460000001],[-80.92500000000001,32.141901099999984],[-80.92500000000001,32.14198909999999],[-80.92500000000001,32.142152599999974],[-80.92500000000001,32.142425600000024],[-80.92500000000001,32.146746199999995],[-80.92500000000001,32.1473221],[-80.92500000000001,32.14906789999998],[-80.92500000000001,32.14920940000002],[-80.92500000000001,32.15092120000003],[-80.92500000000001,32.15117299999997],[-80.92500000000001,32.15172510000002],[-80.92500000000001,32.15752939999999],[-80.92500000000001,32.17500000000001],[-80.94320679999998,32.17500000000001],[-80.9529627,32.17500000000001],[-80.95466809999999,32.17500000000001],[-80.95552759999998,32.17500000000001],[-80.95777750000002,32.17500000000001],[-80.95984629999998,32.17500000000001],[-80.96080490000003,32.17500000000001],[-80.96286959999998,32.17500000000001],[-80.96888410000003,32.17500000000001],[-80.97280719999998,32.17500000000001],[-81,32.17500000000001],[-81,32.15752939999999],[-81,32.101988199999994],[-81,32.10125069999998],[-81,32.10113239999998],[-81,32.10110209999999],[-81,32.10101750000001],[-81,32.10083159999999],[-81,32.1006155],[-81,32.10007539999998],[-81,32.10000000000002],[-80.99984330000001,32.10000000000002],[-80.99897720000001,32.10000000000002]]]}},{"type":"Feature","properties":{},"geometry":{"type":"Polygon","coordinates":[[[-80.9231772,32.10000000000002],[-80.9146791,32.10000000000002],[-80.91399439999998,32.10000000000002],[-80.910954,32.10000000000002],[-80.9105548,32.10000000000002],[-80.901793,32.10000000000002],[-80.9015827,32.10000000000002],[-80.90118380000001,32.10000000000002],[-80.9006493,32.10000000000002],[-80.89904150000001,32.10000000000002],[-80.89667750000001,32.10000000000002],[-80.89517740000002,32.10000000000002],[-80.85915670000003,32.10000000000002],[-80.85846120000002,32.10000000000002],[-80.85000000000002,32.10000000000002],[-80.85000000000002,32.10649219999999],[-80.85000000000002,32.10709480000003],[-80.85000000000002,32.11317020000001],[-80.85000000000002,32.113609800000006],[-80.85000000000002,32.1165062],[-80.85000000000002,32.1166824],[-80.85000000000002,32.141435],[-80.85000000000002,32.14529399999998],[-80.85000000000002,32.14560740000002],[-80.85000000000002,32.14610649999997],[-80.85000000000002,32.14654730000001],[-80.85000000000002,32.14809709999997],[-80.85000000000002,32.14884410000002],[-80.85000000000002,32.14902940000002],[-80.85000000000002,32.149053700000024],[-80.85000000000002,32.15063190000001],[-80.85000000000002,32.15202879999998],[-80.85000000000002,32.1523823],[-80.85000000000002,32.15241880000002],[-80.85000000000002,32.1524498],[-80.85000000000002,32.152780699999994],[-80.85000000000002,32.16656039999998],[-80.85000000000002,32.17500000000001],[-80.8594746,32.17500000000001],[-80.86022730000002,32.17500000000001],[-80.86086569999998,32.17500000000001],[-80.86252359999997,32.17500000000001],[-80.86259890000002,32.17500000000001],[-80.862978,32.17500000000001],[-80.8673157,32.17500000000001],[-80.87113870000002,32.17500000000001],[-80.87325340000001,32.17500000000001],[-80.87485229999999,32.17500000000001],[-80.88290610000001,32.17500000000001],[-80.88319580000001,32.17500000000001],[-80.88814780000001,32.17500000000001],[-80.8891231,32.17500000000001],[-80.89235389999999,32.17500000000001],[-80.89291530000003,32.17500000000001],[-80.92500000000001,32.17500000000001],[-80.92500000000001,32.15752939999999],[-80.92500000000001,32.15172510000002],[-80.92500000000001,32.15117299999997],[-80.92500000000001,32.15092120000003],[-80.92500000000001,32.14920940000002],[-80.92500000000001,32.14906789999998],[-80.92500000000001,32.1473221],[-80.92500000000001,32.146746199999995],[-80.92500000000001,32.142425600000024],[-80.92500000000001,32.142152599999974],[-80.92500000000001,32.14198909999999],[-80.92500000000001,32.141901099999984],[-80.92500000000001,32.14022460000001],[-80.92500000000001,32.14020720000002],[-80.92500000000001,32.137726999999984],[-80.92500000000001,32.13722489999998],[-80.92500000000001,32.13531549999999],[-80.92500000000001,32.13271739999999],[-80.92500000000001,32.130429100000015],[-80.92500000000001,32.12977760000001],[-80.92500000000001,32.12655640000003],[-80.92500000000001,32.125708599999996],[-80.92500000000001,32.12552899999997],[-80.92500000000001,32.12459150000001],[-80.92500000000001,32.1239832],[-80.92500000000001,32.123262899999986],[-80.92500000000001,32.11973130000001],[-80.92500000000001,32.11959890000003],[-80.92500000000001,32.11954100000003],[-80.92500000000001,32.11899299999999],[-80.92500000000001,32.11794759999998],[-80.92500000000001,32.116799800000024],[-80.92500000000001,32.103817100000015],[-80.92500000000001,32.10373809999999],[-80.92500000000001,32.10221309999997],[-80.92500000000001,32.10217299999999],[-80.92500000000001,32.10169259999998],[-80.92500000000001,32.1002077],[-80.92500000000001,32.10006069999997],[-80.92500000000001,32.10000000000002],[-80.9242883,32.10000000000002],[-80.9231772,32.10000000000002]]]}},{"type":"Feature","properties":{},"geometry":{"type":"Polygon","coordinates":[[[-81.14999999999998,32.2705416],[-81.14999999999998,32.32499999999999],[-81.22500000000002,32.32499999999999],[-81.22500000000002,32.25],[-81.16224940000001,32.25],[-81.15650319999997,32.25],[-81.15399639999998,32.25],[-81.15395380000001,32.25],[-81.14999999999998,32.25],[-81.14999999999998,32.25432569999998],[-81.14999999999998,32.256101899999976],[-81.14999999999998,32.2569972],[-81.14999999999998,32.25702519999999],[-81.14999999999998,32.25732679999999],[-81.14999999999998,32.2702893],[-81.14999999999998,32.2705416]]]}},{"type":"Feature","properties":{},"geometry":{"type":"Polygon","coordinates":[[[-81.14803219999999,32.25],[-81.14725779999998,32.25],[-81.14609789999997,32.25],[-81.14531979999998,32.25],[-81.120543,32.25],[-81.11649720000003,32.25],[-81.07499999999999,32.25],[-81.07499999999999,32.32499999999999],[-81.11649720000003,32.32499999999999],[-81.13021120000002,32.32499999999999],[-81.1304619,32.32499999999999],[-81.13240239999999,32.32499999999999],[-81.13556449999999,32.32499999999999],[-81.13702419999998,32.32499999999999],[-81.14999999999998,32.32499999999999],[-81.14999999999998,32.2705416],[-81.14999999999998,32.2702893],[-81.14999999999998,32.25732679999999],[-81.14999999999998,32.25702519999999],[-81.14999999999998,32.256101899999976],[-81.14999999999998,32.25432569999998],[-81.14999999999998,32.25],[-81.14888280000002,32.25],[-81.14803219999999,32.25]]]}},{"type":"Feature","properties":{},"geometry":{"type":"Polygon","coordinates":[[[-81.18599999999998,32.39999999999998],[-81.22500000000002,32.39999999999998],[-81.22500000000002,32.32499999999999],[-81.14999999999998,32.32499999999999],[-81.14999999999998,32.33356250000003],[-81.14999999999998,32.3338114],[-81.14999999999998,32.33991550000002],[-81.14999999999998,32.340082499999994],[-81.14999999999998,32.34268070000002],[-81.14999999999998,32.34300250000001],[-81.14999999999998,32.34300459999997],[-81.14999999999998,32.34314519999998],[-81.14999999999998,32.343401700000015],[-81.14999999999998,32.34356220000001],[-81.14999999999998,32.343725800000016],[-81.14999999999998,32.34512810000001],[-81.14999999999998,32.345488699999976],[-81.14999999999998,32.3456865],[-81.14999999999998,32.39999999999998],[-81.184618,32.39999999999998],[-81.18599999999998,32.39999999999998]]]}},{"type":"Feature","properties":{},"geometry":{"type":"Polygon","coordinates":[[[-81.14999999999998,32.32499999999999],[-81.13702419999998,32.32499999999999],[-81.13556449999999,32.32499999999999],[-81.13240239999999,32.32499999999999],[-81.1304619,32.32499999999999],[-81.13021120000002,32.32499999999999],[-81.11649720000003,32.32499999999999],[-81.07499999999999,32.32499999999999],[-81.07499999999999,32.39999999999998],[-81.11649720000003,32.39999999999998],[-81.14999999999998,32.39999999999998],[-81.14999999999998,32.3456865],[-81.14999999999998,32.345488699999976],[-81.14999999999998,32.34512810000001],[-81.14999999999998,32.343725800000016],[-81.14999999999998,32.34356220000001],[-81.14999999999998,32.343401700000015],[-81.14999999999998,32.34314519999998],[-81.14999999999998,32.34300459999997],[-81.14999999999998,32.34300250000001],[-81.14999999999998,32.34268070000002],[-81.14999999999998,32.340082499999994],[-81.14999999999998,32.33991550000002],[-81.14999999999998,32.3338114],[-81.14999999999998,32.33356250000003],[-81.14999999999998,32.32499999999999]]]}},{"type":"Feature","properties":{},"geometry":{"type":"Polygon","coordinates":[[[-81.15650319999997,32.25],[-81.16224940000001,32.25],[-81.22500000000002,32.25],[-81.22500000000002,32.17500000000001],[-81.16713320000002,32.17500000000001],[-81.1604155,32.17500000000001],[-81.1591282,32.17500000000001],[-81.15900210000001,32.17500000000001],[-81.15881460000003,32.17500000000001],[-81.15780619999998,32.17500000000001],[-81.15643920000002,32.17500000000001],[-81.15628670000001,32.17500000000001],[-81.1559724,32.17500000000001],[-81.15442789999997,32.17500000000001],[-81.1534383,32.17500000000001],[-81.15302910000003,32.17500000000001],[-81.15283360000001,32.17500000000001],[-81.15234779999997,32.17500000000001],[-81.15210589999998,32.17500000000001],[-81.14999999999998,32.17500000000001],[-81.14999999999998,32.1762665],[-81.14999999999998,32.176355899999976],[-81.14999999999998,32.17649210000002],[-81.14999999999998,32.1766432],[-81.14999999999998,32.17680139999999],[-81.14999999999998,32.17754389999999],[-81.14999999999998,32.17949659999999],[-81.14999999999998,32.17961559999998],[-81.14999999999998,32.17982949999998],[-81.14999999999998,32.180113000000006],[-81.14999999999998,32.18044709999998],[-81.14999999999998,32.18101439999998],[-81.14999999999998,32.181074799999976],[-81.14999999999998,32.18155489999998],[-81.14999999999998,32.1815929],[-81.14999999999998,32.18805459999999],[-81.14999999999998,32.18810330000002],[-81.14999999999998,32.19085480000001],[-81.14999999999998,32.191000299999985],[-81.14999999999998,32.1937514],[-81.14999999999998,32.1961154],[-81.14999999999998,32.196341099999984],[-81.14999999999998,32.19639960000001],[-81.14999999999998,32.19728140000001],[-81.14999999999998,32.19804640000001],[-81.14999999999998,32.20022490000002],[-81.14999999999998,32.201911499999994],[-81.14999999999998,32.202432999999985],[-81.14999999999998,32.20252850000003],[-81.14999999999998,32.202586999999994],[-81.14999999999998,32.203103399999975],[-81.14999999999998,32.20533519999998],[-81.14999999999998,32.2065561],[-81.14999999999998,32.20788520000002],[-81.14999999999998,32.208688600000016],[-81.14999999999998,32.20985289999999],[-81.14999999999998,32.2110783],[-81.14999999999998,32.21332860000001],[-81.14999999999998,32.2143691],[-81.14999999999998,32.215234399999986],[-81.14999999999998,32.21554400000002],[-81.14999999999998,32.21594299999998],[-81.14999999999998,32.21594329999999],[-81.14999999999998,32.216436199999976],[-81.14999999999998,32.21667120000001],[-81.14999999999998,32.21673500000003],[-81.14999999999998,32.21692860000002],[-81.14999999999998,32.220802400000025],[-81.14999999999998,32.221133899999984],[-81.14999999999998,32.22122059999998],[-81.14999999999998,32.222081100000025],[-81.14999999999998,32.22227040000001],[-81.14999999999998,32.222862899999996],[-81.14999999999998,32.2236145],[-81.14999999999998,32.22395990000001],[-81.14999999999998,32.22416449999997],[-81.14999999999998,32.22422940000001],[-81.14999999999998,32.22454040000002],[-81.14999999999998,32.224606800000004],[-81.14999999999998,32.224782000000005],[-81.14999999999998,32.22503280000001],[-81.14999999999998,32.225224200000014],[-81.14999999999998,32.233309599999984],[-81.14999999999998,32.233437200000026],[-81.14999999999998,32.233891099999994],[-81.14999999999998,32.23444030000002],[-81.14999999999998,32.23516810000001],[-81.14999999999998,32.23586039999998],[-81.14999999999998,32.236336600000016],[-81.14999999999998,32.23648480000003],[-81.14999999999998,32.238154399999985],[-81.14999999999998,32.238273400000026],[-81.14999999999998,32.24787980000002],[-81.14999999999998,32.2480142],[-81.14999999999998,32.24905890000002],[-81.14999999999998,32.24920589999999],[-81.14999999999998,32.24938759999998],[-81.14999999999998,32.24957699999999],[-81.14999999999998,32.25],[-81.15395380000001,32.25],[-81.15399639999998,32.25],[-81.15650319999997,32.25]]]}},{"type":"Feature","properties":{},"geometry":{"type":"Polygon","coordinates":[[[-81.14999999999998,32.17500000000001],[-81.14842970000001,32.17500000000001],[-81.14803119999999,32.17500000000001],[-81.14793880000002,32.17500000000001],[-81.14692489999999,32.17500000000001],[-81.1453702,32.17500000000001],[-81.14523430000003,32.17500000000001],[-81.1428333,32.17500000000001],[-81.14063850000002,32.17500000000001],[-81.13575459999998,32.17500000000001],[-81.13562100000001,32.17500000000001],[-81.13470690000003,32.17500000000001],[-81.1279341,32.17500000000001],[-81.12784440000001,32.17500000000001],[-81.12455670000003,32.17500000000001],[-81.12441239999998,32.17500000000001],[-81.12214490000002,32.17500000000001],[-81.12166359999998,32.17500000000001],[-81.12084099999998,32.17500000000001],[-81.1202753,32.17500000000001],[-81.12000410000002,32.17500000000001],[-81.11972630000002,32.17500000000001],[-81.1190421,32.17500000000001],[-81.11832379999998,32.17500000000001],[-81.1107912,32.17500000000001],[-81.1106423,32.17500000000001],[-81.11017980000003,32.17500000000001],[-81.10946050000001,32.17500000000001],[-81.0820708,32.17500000000001],[-81.08189060000001,32.17500000000001],[-81.07499999999999,32.17500000000001],[-81.07499999999999,32.25],[-81.11649720000003,32.25],[-81.120543,32.25],[-81.14531979999998,32.25],[-81.14609789999997,32.25],[-81.14725779999998,32.25],[-81.14803219999999,32.25],[-81.14888280000002,32.25],[-81.14999999999998,32.25],[-81.14999999999998,32.24957699999999],[-81.14999999999998,32.24938759999998],[-81.14999999999998,32.24920589999999],[-81.14999999999998,32.24905890000002],[-81.14999999999998,32.2480142],[-81.14999999999998,32.24787980000002],[-81.14999999999998,32.238273400000026],[-81.14999999999998,32.238154399999985],[-81.14999999999998,32.23648480000003],[-81.14999999999998,32.236336600000016],[-81.14999999999998,32.23586039999998],[-81.14999999999998,32.23516810000001],[-81.14999999999998,32.23444030000002],[-81.14999999999998,32.233891099999994],[-81.14999999999998,32.233437200000026],[-81.14999999999998,32.233309599999984],[-81.14999999999998,32.225224200000014],[-81.14999999999998,32.22503280000001],[-81.14999999999998,32.224782000000005],[-81.14999999999998,32.224606800000004],[-81.14999999999998,32.22454040000002],[-81.14999999999998,32.22422940000001],[-81.14999999999998,32.22416449999997],[-81.14999999999998,32.22395990000001],[-81.14999999999998,32.2236145],[-81.14999999999998,32.222862899999996],[-81.14999999999998,32.22227040000001],[-81.14999999999998,32.222081100000025],[-81.14999999999998,32.22122059999998],[-81.14999999999998,32.221133899999984],[-81.14999999999998,32.220802400000025],[-81.14999999999998,32.21692860000002],[-81.14999999999998,32.21673500000003],[-81.14999999999998,32.21667120000001],[-81.14999999999998,32.216436199999976],[-81.14999999999998,32.21594329999999],[-81.14999999999998,32.21554400000002],[-81.14999999999998,32.215234399999986],[-81.14999999999998,32.2143691],[-81.14999999999998,32.21332860000001],[-81.14999999999998,32.2110783],[-81.14999999999998,32.20985289999999],[-81.14999999999998,32.208688600000016],[-81.14999999999998,32.20788520000002],[-81.14999999999998,32.2065561],[-81.14999999999998,32.20533519999998],[-81.14999999999998,32.203103399999975],[-81.14999999999998,32.202586999999994],[-81.14999999999998,32.20252850000003],[-81.14999999999998,32.202432999999985],[-81.14999999999998,32.201911499999994],[-81.14999999999998,32.20022490000002],[-81.14999999999998,32.19804640000001],[-81.14999999999998,32.19728140000001],[-81.14999999999998,32.19639960000001],[-81.14999999999998,32.196341099999984],[-81.14999999999998,32.1961154],[-81.14999999999998,32.1937514],[-81.14999999999998,32.191000299999985],[-81.14999999999998,32.19085480000001],[-81.14999999999998,32.18810330000002],[-81.14999999999998,32.18805459999999],[-81.14999999999998,32.1815929],[-81.14999999999998,32.18155489999998],[-81.14999999999998,32.181074799999976],[-81.14999999999998,32.18101439999998],[-81.14999999999998,32.18044709999998],[-81.14999999999998,32.180113000000006],[-81.14999999999998,32.17982949999998],[-81.14999999999998,32.17961559999998],[-81.14999999999998,32.17949659999999],[-81.14999999999998,32.17754389999999],[-81.14999999999998,32.17680139999999],[-81.14999999999998,32.1766432],[-81.14999999999998,32.17649210000002],[-81.14999999999998,32.176355899999976],[-81.14999999999998,32.1762665],[-81.14999999999998,32.17500000000001]]]}}]}