{"type":"FeatureCollection","features":[{"type":"Feature","properties":{},"geometry":{"type":"Polygon","coordinates":[[[-80.8037807,32.02499999999998],[-80.7979383,32.02499999999998],[-80.78704929999998,32.02499999999998],[-80.77499999999998,32.02499999999998],[-80.77499999999998,32.02456560000002],[-80.77499999999998,32.02379189999999],[-80.77499999999998,32.01611869999999],[-80.77499999999998,32.0157208],[-80.77499999999998,32.01546710000002],[-80.77499999999998,32.010710500000016],[-80.77499999999998,32.00496900000002],[-80.77499999999998,32.004545699999994],[-80.77499999999998,31.999182700000006],[-80.77499999999998,31.995],[-80.80499999999999,31.995],[-80.80499999999999,32.02499999999998],[-80.8037807,32.02499999999998]]]}},{"type":"Feature","properties":{},"geometry":{"type":"Polygon","coordinates":[[[-80.77499999999998,31.999182700000006],[-80.77499999999998,32.004545699999994],[-80.77499999999998,32.00496900000002],[-80.77499999999998,32.010710500000016],[-80.77499999999998,32.01546710000002],[-80.77499999999998,32.0157208],[-80.77499999999998,32.01611869999999],[-80.77499999999998,32.02379189999999],[-80.77499999999998,32.02456560000002],[-80.77499999999998,32.02499999999998],[-80.76877409999997,32.02499999999998],[-80.76003859999997,32.02499999999998],[-80.75942370000001,32.02499999999998],[-80.74953640000001,32.02499999999998],[-80.71687429999997,32.02499999999998],[-80.69999999999999,32.02499999999998],[-80.69999999999999,31.99869639999997],[-80.69999999999999,31.995],[-80.77499999999998,31.995],[-80.77499999999998,31.999182700000006]]]}},{"type":"Feature","properties":{},"geometry":{"type":"Polygon","coordinates":[[[-80.80194649999999,32.10000000000002],[-80.7864836,32.10000000000002],[-80.77499999999998,32.10000000000002],[-80.77499999999998,32.08965260000002],[-80.77499999999998,32.07279089999997],[-80.77499999999998,32.070701799999995],[-80.77499999999998,32.06672200000003],[-80.77499999999998,32.06666799999999],[-80.77499999999998,32.060764800000015],[-80.77499999999998,32.044854999999984],[-80.77499999999998,32.031001],[-80.77499999999998,32.02856969999999],[-80.77499999999998,32.02499999999998],[-80.78704929999998,32.02499999999998],[-80.7979383,32.02499999999998],[-80.8037807,32.02499999999998],[-80.80499999999999,32.02499999999998],[-80.80499999999999,32.10000000000002],[-80.80194649999999,32.10000000000002]]]}},{"type":"Feature","properties":{},"geometry":{"type":"Polygon","coordinates":[[[-80.76877409999997,32.02499999999998],[-80.77499999999998,32.02499999999998],[-80.77499999999998,32.02856969999999],[-80.77499999999998,32.031001],[-80.77499999999998,32.044854999999984],[-80.77499999999998,32.060764800000015],[-80.77499999999998,32.06672200000003],[-80.77499999999998,32.070701799999995],[-80.77499999999998,32.07279089999997],[-80.77499999999998,32.08965260000002],[-80.77499999999998,32.10000000000002],[-80.72533170000003,32.10000000000002],[-80.72177069999998,32.10000000000002],[-80.72116039999997,32.10000000000002],[-80.71408580000002,32.10000000000002],[-80.7132863,32.10000000000002],[-80.70767599999999,32.10000000000002],[-80.70452790000002,32.10000000000002],[-80.70226400000001,32.10000000000002],[-80.70084250000002,32.10000000000002],[-80.69999999999999,32.10000000000002],[-80.69999999999999,32.09952070000003],[-80.69999999999999,32.098702600000024],[-80.69999999999999,32.09579600000001],[-80.69999999999999,32.09542290000002],[-80.69999999999999,32.0804526],[-80.69999999999999,32.07541889999999],[-80.69999999999999,32.07409790000003],[-80.69999999999999,32.07218979999999],[-80.69999999999999,32.06847859999999],[-80.69999999999999,32.047925599999985],[-80.69999999999999,32.02499999999998],[-80.71687429999997,32.02499999999998],[-80.74953640000001,32.02499999999998],[-80.75942370000001,32.02499999999998],[-80.76003859999997,32.02499999999998],[-80.76877409999997,32.02499999999998]]]}},{"type":"Feature","properties":{},"geometry":{"type":"Polygon","coordinates":[[[-80.80495880000001,32.17500000000001],[-80.8047406,32.17500000000001],[-80.80030850000003,32.17500000000001],[-80.7984682,32.17500000000001],[-80.79833480000002,32.17500000000001],[-80.79770409999998,32.17500000000001],[-80.79722800000002,32.17500000000001],[-80.79489419999999,32.17500000000001],[-80.79024270000002,32.17500000000001],[-80.7898088,32.17500000000001],[-80.78909279999999,32.17500000000001],[-80.78865710000002,32.17500000000001],[-80.78749490000001,32.17500000000001],[-80.78733469999997,32.17500000000001],[-80.78703339999998,32.17500000000001],[-80.78496810000001,32.17500000000001],[-80.78443270000002,32.17500000000001],[-80.7815066,32.17500000000001],[-80.77552550000001,32.17500000000001],[-80.77499999999998,32.17500000000001],[-80.77499999999998,32.15748980000001],[-80.77499999999998,32.141993000000014],[-80.77499999999998,32.14087810000001],[-80.77499999999998,32.129168400000026],[-80.77499999999998,32.1281841],[-80.77499999999998,32.12714820000002],[-80.77499999999998,32.107610299999976],[-80.77499999999998,32.10000000000002],[-80.7864836,32.10000000000002],[-80.80194649999999,32.10000000000002],[-80.80499999999999,32.10000000000002],[-80.80499999999999,32.17500000000001],[-80.80495880000001,32.17500000000001]]]}},{"type":"Feature","properties":{},"geometry":{"type":"Polygon","coordinates":[[[-80.72533170000003,32.10000000000002],[-80.77499999999998,32.10000000000002],[-80.77499999999998,32.107610299999976],[-80.77499999999998,32.12714820000002],[-80.77499999999998,32.1281841],[-80.77499999999998,32.129168400000026],[-80.77499999999998,32.14087810000001],[-80.77499999999998,32.141993000000014],[-80.77499999999998,32.15748980000001],[-80.77499999999998,32.17500000000001],[-80.76660020000003,32.17500000000001],[-80.76591359999998,32.17500000000001],[-80.76542460000002,32.17500000000001],[-80.7651798,32.17500000000001],[-80.76152400000001,32.17500000000001],[-80.76127980000001,32.17500000000001],[-80.76044460000003,32.17500000000001],[-80.75575909999998,32.17500000000001],[-80.75531799999999,32.17500000000001],[-80.75461050000001,32.17500000000001],[-80.75384780000002,32.17500000000001],[-80.70866740000002,32.17500000000001],[-80.70787280000002,32.17500000000001],[-80.70703279999998,32.17500000000001],[-80.69999999999999,32.17500000000001],[-80.69999999999999,32.1083304],[-80.69999999999999,32.10787909999999],[-80.69999999999999,32.10000000000002],[-80.70084250000002,32.10000000000002],[-80.70226400000001,32.10000000000002],[-80.70452790000002,32.10000000000002],[-80.70767599999999,32.10000000000002],[-80.7132863,32.10000000000002],[-80.71408580000002,32.10000000000002],[-80.72116039999997,32.10000000000002],[-80.72177069999998,32.10000000000002],[-80.72533170000003,32.10000000000002]]]}},{"type":"Feature","properties":{},"geometry":{"type":"Polygon","coordinates":[[[-80.69999999999999,31.99869639999997],[-80.69999999999999,32.02499999999998],[-80.64668,32.02499999999998],[-80.625,32.02499999999998],[-80.625,31.995],[-80.69999999999999,31.995],[-80.69999999999999,31.99869639999997]]]}},{"type":"Feature","properties":{},"geometry":{"type":"Polygon","coordinates":[[[-80.625,32.02499999999998],[-80.62294789999999,32.02499999999998],[-80.55000000000001,32.02499999999998],[-80.55000000000001,32.011918200000025],[-80.55000000000001,32.0116405],[-80.55000000000001,32.01123580000001],[-80.55000000000001,32.00009449999999],[-80.55000000000001,31.995],[-80.625,31.995],[-80.625,32.02499999999998]]]}},{"type":"Feature","properties":{},"geometry":{"type":"Polygon","coordinates":[[[-80.64668,32.02499999999998],[-80.69999999999999,32.02499999999998],[-80.69999999999999,32.047925599999985],[-80.69999999999999,32.06847859999999],[-80.69999999999999,32.07218979999999],[-80.69999999999999,32.07409790000003],[-80.69999999999999,32.07541889999999],[-80.69999999999999,32.0804526],[-80.69999999999999,32.09542290000002],[-80.69999999999999,32.09579600000001],[-80.69999999999999,32.098702600000024],[-80.69999999999999,32.09952070000003],[-80.69999999999999,32.10000000000002],[-80.65856439999999,32.10000000000002],[-80.6352733,32.10000000000002],[-80.63214290000002,32.10000000000002],[-80.62716319999998,32.10000000000002],[-80.625,32.10000000000002],[-80.625,32.09854569999999],[-80.625,32.08151779999997],[-80.625,32.07148969999997],[-80.625,32.06666799999999],[-80.625,32.0473604],[-80.625,32.030252399999995],[-80.625,32.02499999999998],[-80.64668,32.02499999999998]]]}},{"type":"Feature","properties":{},"geometry":{"type":"Polygon","coordinates":[[[-80.62294789999999,32.02499999999998],[-80.625,32.02499999999998],[-80.625,32.030252399999995],[-80.625,32.0473604],[-80.625,32.06666799999999],[-80.625,32.07148969999997],[-80.625,32.08151779999997],[-80.625,32.09854569999999],[-80.625,32.10000000000002],[-80.62435729999999,32.10000000000002],[-80.62063690000002,32.10000000000002],[-80.61880389999999,32.10000000000002],[-80.61712410000001,32.10000000000002],[-80.61487310000001,32.10000000000002],[-80.61319209999999,32.10000000000002],[-80.6113168,32.10000000000002],[-80.60919899999999,32.10000000000002],[-80.60603680000003,32.10000000000002],[-80.60461020000002,32.10000000000002],[-80.6023778,32.10000000000002],[-80.59423679999998,32.10000000000002],[-80.58760519999998,32.10000000000002],[-80.58603799999997,32.10000000000002],[-80.5856326,32.10000000000002],[-80.58522720000002,32.10000000000002],[-80.58482170000002,32.10000000000002],[-80.58441599999998,32.10000000000002],[-80.5834716,32.10000000000002],[-80.5831076,32.10000000000002],[-80.58083699999997,32.10000000000002],[-80.57711619999998,32.10000000000002],[-80.57604830000002,32.10000000000002],[-80.55000000000001,32.10000000000002],[-80.55000000000001,32.06666799999999],[-80.55000000000001,32.02499999999998],[-80.62294789999999,32.02499999999998]]]}},{"type":"Feature","properties":{},"geometry":{"type":"Polygon","coordinates":[[[-80.65856439999999,32.10000000000002],[-80.69999999999999,32.10000000000002],[-80.69999999999999,32.10787909999999],[-80.69999999999999,32.1083304],[-80.69999999999999,32.17500000000001],[-80.63457799999998,32.17500000000001],[-80.625,32.17500000000001],[-80.625,32.16949979999998],[-80.625,32.1622605],[-80.625,32.148057800000004],[-80.625,32.14763749999997],[-80.625,32.134551999999985],[-80.625,32.11547610000002],[-80.625,32.10718750000001],[-80.625,32.102442499999995],[-80.625,32.1006663],[-80.625,32.10000000000002],[-80.62716319999998,32.10000000000002],[-80.63214290000002,32.10000000000002],[-80.6352733,32.10000000000002],[-80.65856439999999,32.10000000000002]]]}},{"type":"Feature","properties":{},"geometry":{"type":"Polygon","coordinates":[[[-80.625,32.1006663],[-80.625,32.102442499999995],[-80.625,32.10718750000001],[-80.625,32.11547610000002],[-80.625,32.134551999999985],[-80.625,32.14763749999997],[-80.625,32.148057800000004],[-80.625,32.1622605],[-80.625,32.16949979999998],[-80.625,32.17500000000001],[-80.62376260000002,32.17500000000001],[-80.61494879999998,32.17500000000001],[-80.61206229999999,32.17500000000001],[-80.59760290000003,32.17500000000001],[-80.59713399999998,32.17500000000001],[-80.5966646,32.17500000000001],[-80.59619359999999,32.17500000000001],[-80.59572350000002,32.17500000000001],[-80.58323510000002,32.17500000000001],[-80.58283999999998,32.17500000000001],[-80.57962880000002,32.17500000000001],[-80.5778891,32.17500000000001],[-80.57565390000002,32.17500000000001],[-80.56310439999999,32.17500000000001],[-80.56247680000001,32.17500000000001],[-80.55047239999999,32.17500000000001],[-80.55000000000001,32.17500000000001],[-80.55000000000001,32.1721326],[-80.55000000000001,32.163654699999995],[-80.55000000000001,32.16067709999999],[-80.55000000000001,32.1526116],[-80.55000000000001,32.122574199999974],[-80.55000000000001,32.11967770000001],[-80.55000000000001,32.1188004],[-80.55000000000001,32.1075644],[-80.55000000000001,32.10000000000002],[-80.57604830000002,32.10000000000002],[-80.57711619999998,32.10000000000002],[-80.58083699999997,32.10000000000002],[-80.5831076,32.10000000000002],[-80.5834716,32.10000000000002],[-80.58441599999998,32.10000000000002],[-80.58482170000002,32.10000000000002],[-80.58522720000002,32.10000000000002],[-80.5856326,32.10000000000002],[-80.58603799999997,32.10000000000002],[-80.58760519999998,32.10000000000002],[-80.59423679999998,32.10000000000002],[-80.6023778,32.10000000000002],[-80.60461020000002,32.10000000000002],[-80.60603680000003,32.10000000000002],[-80.60919899999999,32.10000000000002],[-80.6113168,32.10000000000002],[-80.61319209999999,32.10000000000002],[-80.61487310000001,32.10000000000002],[-80.61712410000001,32.10000000000002],[-80.61880389999999,32.10000000000002],[-80.62063690000002,32.10000000000002],[-80.62435729999999,32.10000000000002],[-80.625,32.10000000000002],[-80.625,32.1006663]]]}},{"type":"Feature","properties":{},"geometry":{"type":"Polygon","coordinates":[[[-80.80488739999998,32.25],[-80.8047573,32.25],[-80.8032895,32.25],[-80.80323370000002,32.25],[-80.80002480000002,32.25],[-80.79899449999999,32.25],[-80.79135910000002,32.25],[-80.78916470000001,32.25],[-80.7889849,32.25],[-80.78887900000001,32.25],[-80.7887814,32.25],[-80.78838439999998,32.25],[-80.78764100000001,32.25],[-80.78737849999999,32.25],[-80.78676050000001,32.25],[-80.78657859999998,32.25],[-80.78645649999999,32.25],[-80.78525819999999,32.25],[-80.78517720000002,32.25],[-80.7850492,32.25],[-80.7850267,32.25],[-80.7844662,32.25],[-80.78362920000001,32.25],[-80.78361130000002,32.25],[-80.78221259999998,32.25],[-80.78203029999997,32.25],[-80.781568,32.25],[-80.7803902,32.25],[-80.780054,32.25],[-80.77772779999998,32.25],[-80.77754870000001,32.25],[-80.77719880000001,32.25],[-80.77608980000002,32.25],[-80.7756827,32.25],[-80.77526740000002,32.25],[-80.77521760000002,32.25],[-80.77499999999998,32.25],[-80.77499999999998,32.24975490000003],[-80.77499999999998,32.24964840000001],[-80.77499999999998,32.24643370000001],[-80.77499999999998,32.246306300000015],[-80.77499999999998,32.24568190000002],[-80.77499999999998,32.24566920000001],[-80.77499999999998,32.24521470000002],[-80.77499999999998,32.24493819999998],[-80.77499999999998,32.244679099999985],[-80.77499999999998,32.24457239999998],[-80.77499999999998,32.241919800000005],[-80.77499999999998,32.241910399999995],[-80.77499999999998,32.23424290000003],[-80.77499999999998,32.2339331],[-80.77499999999998,32.22710619999998],[-80.77499999999998,32.226690899999994],[-80.77499999999998,32.2261575],[-80.77499999999998,32.225493099999994],[-80.77499999999998,32.22504529999998],[-80.77499999999998,32.22478180000002],[-80.77499999999998,32.22450020000002],[-80.77499999999998,32.22371529999998],[-80.77499999999998,32.22231579999999],[-80.77499999999998,32.22227190000001],[-80.77499999999998,32.22198930000002],[-80.77499999999998,32.2217976],[-80.77499999999998,32.21398110000001],[-80.77499999999998,32.2116077],[-80.77499999999998,32.21101570000002],[-80.77499999999998,32.21049340000002],[-80.77499999999998,32.20888930000001],[-80.77499999999998,32.20809409999998],[-80.77499999999998,32.20804650000002],[-80.77499999999998,32.20728200000002],[-80.77499999999998,32.20683889999998],[-80.77499999999998,32.20560899999998],[-80.77499999999998,32.205369099999984],[-80.77499999999998,32.202767300000005],[-80.77499999999998,32.202484500000025],[-80.77499999999998,32.20161430000002],[-80.77499999999998,32.2008161],[-80.77499999999998,32.20045449999998],[-80.77499999999998,32.1957592],[-80.77499999999998,32.19542519999999],[-80.77499999999998,32.18179220000002],[-80.77499999999998,32.181634299999985],[-80.77499999999998,32.18118440000001],[-80.77499999999998,32.180836699999986],[-80.77499999999998,32.18078459999998],[-80.77499999999998,32.17996549999998],[-80.77499999999998,32.1783403],[-80.77499999999998,32.17552710000001],[-80.77499999999998,32.17500000000001],[-80.77552550000001,32.17500000000001],[-80.7815066,32.17500000000001],[-80.78443270000002,32.17500000000001],[-80.78496810000001,32.17500000000001],[-80.78703339999998,32.17500000000001],[-80.78733469999997,32.17500000000001],[-80.78749490000001,32.17500000000001],[-80.78865710000002,32.17500000000001],[-80.78909279999999,32.17500000000001],[-80.7898088,32.17500000000001],[-80.79024270000002,32.17500000000001],[-80.79489419999999,32.17500000000001],[-80.79722800000002,32.17500000000001],[-80.79770409999998,32.17500000000001],[-80.79833480000002,32.17500000000001],[-80.7984682,32.17500000000001],[-80.80030850000003,32.17500000000001],[-80.8047406,32.17500000000001],[-80.80495880000001,32.17500000000001],[-80.80499999999999,32.17500000000001],[-80.80499999999999,32.25],[-80.80488739999998,32.25]]]}},{"type":"Feature","properties":{},"geometry":{"type":"Polygon","coordinates":[[[-80.7651798,32.17500000000001],[-80.76542460000002,32.17500000000001],[-80.76591359999998,32.17500000000001],[-80.76660020000003,32.17500000000001],[-80.77499999999998,32.17500000000001],[-80.77499999999998,32.17552710000001],[-80.77499999999998,32.17810780000002],[-80.77499999999998,32.17827540000002],[-80.77499999999998,32.1783403],[-80.77499999999998,32.17996549999998],[-80.77499999999998,32.18076359999998],[-80.77499999999998,32.18078459999998],[-80.77499999999998,32.180836699999986],[-80.77499999999998,32.18118440000001],[-80.77499999999998,32.181634299999985],[-80.77499999999998,32.18179220000002],[-80.77499999999998,32.19542519999999],[-80.77499999999998,32.1957592],[-80.77499999999998,32.20045449999998],[-80.77499999999998,32.2008161],[-80.77499999999998,32.20161430000002],[-80.77499999999998,32.202484500000025],[-80.77499999999998,32.202767300000005],[-80.77499999999998,32.205369099999984],[-80.77499999999998,32.20560899999998],[-80.77499999999998,32.20683889999998],[-80.77499999999998,32.20728200000002],[-80.77499999999998,32.20804650000002],[-80.77499999999998,32.20809409999998],[-80.77499999999998,32.20888930000001],[-80.77499999999998,32.21049340000002],[-80.77499999999998,32.2105469],[-80.77499999999998,32.21101570000002],[-80.77499999999998,32.2116077],[-80.77499999999998,32.21170860000001],[-80.77499999999998,32.21398110000001],[-80.77499999999998,32.2217976],[-80.77499999999998,32.22198930000002],[-80.77499999999998,32.22227190000001],[-80.77499999999998,32.22231579999999],[-80.77499999999998,32.22371529999998],[-80.77499999999998,32.22450020000002],[-80.77499999999998,32.22469050000001],[-80.77499999999998,32.22478180000002],[-80.77499999999998,32.22504529999998],[-80.77499999999998,32.225493099999994],[-80.77499999999998,32.2261575],[-80.77499999999998,32.226690899999994],[-80.77499999999998,32.22710619999998],[-80.77499999999998,32.227460399999984],[-80.77499999999998,32.23390469999998],[-80.77499999999998,32.2339331],[-80.77499999999998,32.241919800000005],[-80.77499999999998,32.24457239999998],[-80.77499999999998,32.244679099999985],[-80.77499999999998,32.24521470000002],[-80.77499999999998,32.24568190000002],[-80.77499999999998,32.24643370000001],[-80.77499999999998,32.24964840000001],[-80.77499999999998,32.24975490000003],[-80.77499999999998,32.25],[-80.774225,32.25],[-80.77325919999998,32.25],[-80.76531720000003,32.25],[-80.76482479999999,32.25],[-80.7617042,32.25],[-80.75586629999998,32.25],[-80.75522360000002,32.25],[-80.75511340000003,32.25],[-80.75398050000001,32.25],[-80.75357919999999,32.25],[-80.7535509,32.25],[-80.75351710000001,32.25],[-80.7534475,32.25],[-80.7531904,32.25],[-80.75276070000001,32.25],[-80.7526201,32.25],[-80.75254239999998,32.25],[-80.75047189999998,32.25],[-80.75009519999998,32.25],[-80.74884359999999,32.25],[-80.74835059999998,32.25],[-80.7483067,32.25],[-80.7481967,32.25],[-80.74817259999998,32.25],[-80.74802089999997,32.25],[-80.74644260000002,32.25],[-80.74637109999998,32.25],[-80.74569980000001,32.25],[-80.74544959999997,32.25],[-80.74125099999998,32.25],[-80.74089780000003,32.25],[-80.69999999999999,32.25],[-80.69999999999999,32.20294059999998],[-80.69999999999999,32.202779899999996],[-80.69999999999999,32.19342390000003],[-80.69999999999999,32.19163529999997],[-80.69999999999999,32.19162080000001],[-80.69999999999999,32.191577600000016],[-80.69999999999999,32.19003070000002],[-80.69999999999999,32.187723300000016],[-80.69999999999999,32.18752469999998],[-80.69999999999999,32.18735889999999],[-80.69999999999999,32.18629709999999],[-80.69999999999999,32.18550040000002],[-80.69999999999999,32.17500000000001],[-80.70703279999998,32.17500000000001],[-80.70787280000002,32.17500000000001],[-80.70866740000002,32.17500000000001],[-80.70868239999999,32.17500000000001],[-80.70911489999997,32.17500000000001],[-80.71003560000003,32.17500000000001],[-80.75384780000002,32.17500000000001],[-80.75461050000001,32.17500000000001],[-80.75531799999999,32.17500000000001],[-80.75575909999998,32.17500000000001],[-80.76044460000003,32.17500000000001],[-80.76127980000001,32.17500000000001],[-80.76152400000001,32.17500000000001],[-80.7651798,32.17500000000001]]]}},{"type":"Feature","properties":{},"geometry":{"type":"Polygon","coordinates":[[[-80.69999999999999,32.18550040000002],[-80.69999999999999,32.18629709999999],[-80.69999999999999,32.18735889999999],[-80.69999999999999,32.19003070000002],[-80.69999999999999,32.191577600000016],[-80.69999999999999,32.19162080000001],[-80.69999999999999,32.19163529999997],[-80.69999999999999,32.19342390000003],[-80.69999999999999,32.202779899999996],[-80.69999999999999,32.20294059999998],[-80.69999999999999,32.25],[-80.69961419999998,32.25],[-80.69789370000001,32.25],[-80.69732060000001,32.25],[-80.69331060000002,32.25],[-80.68990079999998,32.25],[-80.68929630000002,32.25],[-80.68879049999998,32.25],[-80.6607105,32.25],[-80.64980859999997,32.25],[-80.64934449999998,32.25],[-80.64887479999999,32.25],[-80.64839690000002,32.25],[-80.64792829999999,32.25],[-80.63850259999998,32.25],[-80.63791329999998,32.25],[-80.63707110000001,32.25],[-80.6337337,32.25],[-80.63315770000003,32.25],[-80.63270449999999,32.25],[-80.625,32.25],[-80.625,32.247494200000006],[-80.625,32.246673999999985],[-80.625,32.2392696],[-80.625,32.2351984],[-80.625,32.23469269999998],[-80.625,32.23425659999998],[-80.625,32.2340054],[-80.625,32.233819900000015],[-80.625,32.233290899999986],[-80.625,32.2330374],[-80.625,32.23236830000002],[-80.625,32.22453730000001],[-80.625,32.2244781],[-80.625,32.224425499999995],[-80.625,32.2170782],[-80.625,32.216400299999975],[-80.625,32.215703899999994],[-80.625,32.215029300000026],[-80.625,32.21435930000001],[-80.625,32.1839645],[-80.625,32.17500000000001],[-80.63457799999998,32.17500000000001],[-80.69999999999999,32.17500000000001],[-80.69999999999999,32.18550040000002]]]}},{"type":"Feature","properties":{},"geometry":{"type":"Polygon","coordinates":[[[-80.625,32.1839645],[-80.625,32.21435930000001],[-80.625,32.215029300000026],[-80.625,32.215703899999994],[-80.625,32.216400299999975],[-80.625,32.2170782],[-80.625,32.224425499999995],[-80.625,32.2244781],[-80.625,32.22453730000001],[-80.625,32.23236830000002],[-80.625,32.2330374],[-80.625,32.233290899999986],[-80.625,32.233819900000015],[-80.625,32.2340054],[-80.625,32.23425659999998],[-80.625,32.23469269999998],[-80.625,32.2351984],[-80.625,32.2392696],[-80.625,32.246673999999985],[-80.625,32.247494200000006],[-80.625,32.25],[-80.6230539,32.25],[-80.62136229999999,32.25],[-80.60848199999998,32.25],[-80.60331120000001,32.25],[-80.5971821,32.25],[-80.59288980000002,32.25],[-80.5920544,32.25],[-80.59200099999998,32.25],[-80.59191290000001,32.25],[-80.5878672,32.25],[-80.56917470000002,32.25],[-80.55000000000001,32.25],[-80.55000000000001,32.24953210000001],[-80.55000000000001,32.241391799999974],[-80.55000000000001,32.236435700000015],[-80.55000000000001,32.23427179999999],[-80.55000000000001,32.22119329999998],[-80.55000000000001,32.21293600000001],[-80.55000000000001,32.21140029999998],[-80.55000000000001,32.208500500000014],[-80.55000000000001,32.205898400000024],[-80.55000000000001,32.190176099999974],[-80.55000000000001,32.189355999999975],[-80.55000000000001,32.17500000000001],[-80.55047239999999,32.17500000000001],[-80.56247680000001,32.17500000000001],[-80.56310439999999,32.17500000000001],[-80.57565390000002,32.17500000000001],[-80.5778891,32.17500000000001],[-80.57962880000002,32.17500000000001],[-80.58283999999998,32.17500000000001],[-80.58323510000002,32.17500000000001],[-80.59572350000002,32.17500000000001],[-80.59619359999999,32.17500000000001],[-80.5966646,32.17500000000001],[-80.59713399999998,32.17500000000001],[-80.59760290000003,32.17500000000001],[-80.61206229999999,32.17500000000001],[-80.61494879999998,32.17500000000001],[-80.62376260000002,32.17500000000001],[-80.625,32.17500000000001],[-80.625,32.1839645]]]}},{"type":"Feature","properties":{},"geometry":{"type":"Polygon","coordinates":[[[-80.77499999999998,32.251742999999976],[-80.77499999999998,32.25201290000001],[-80.77499999999998,32.252824799999985],[-80.77499999999998,32.2529806],[-80.77499999999998,32.25436880000001],[-80.77499999999998,32.25564109999999],[-80.77499999999998,32.256070299999976],[-80.77499999999998,32.25620509999999],[-80.77499999999998,32.256458699999996],[-80.77499999999998,32.2584248],[-80.77499999999998,32.25860920000002],[-80.77499999999998,32.25933259999999],[-80.77499999999998,32.260593400000005],[-80.77499999999998,32.2611038],[-80.77499999999998,32.261752100000024],[-80.77499999999998,32.262839799999995],[-80.77499999999998,32.26592440000002],[-80.77499999999998,32.267441899999994],[-80.77499999999998,32.2679071],[-80.77499999999998,32.26814539999998],[-80.77499999999998,32.269021099999975],[-80.77499999999998,32.27300810000003],[-80.77499999999998,32.273538599999995],[-80.77499999999998,32.278819999999996],[-80.77499999999998,32.27908609999997],[-80.77499999999998,32.27959379999999],[-80.77499999999998,32.279953999999975],[-80.77499999999998,32.280746799999974],[-80.77499999999998,32.28416920000001],[-80.77499999999998,32.28554200000002],[-80.77499999999998,32.287956099999974],[-80.77499999999998,32.289255200000014],[-80.77499999999998,32.291864499999974],[-80.77499999999998,32.29234170000001],[-80.77499999999998,32.29273330000001],[-80.77499999999998,32.29439480000002],[-80.77499999999998,32.294584199999974],[-80.77499999999998,32.295351100000005],[-80.77499999999998,32.296225100000015],[-80.77499999999998,32.29786919999998],[-80.77499999999998,32.29829760000001],[-80.77499999999998,32.30475419999999],[-80.77499999999998,32.3056143],[-80.77499999999998,32.30588260000002],[-80.77499999999998,32.306356100000016],[-80.77499999999998,32.30864330000003],[-80.77499999999998,32.312434499999995],[-80.77499999999998,32.31355500000001],[-80.77499999999998,32.31392540000002],[-80.77499999999998,32.3163242],[-80.77499999999998,32.3168402],[-80.77499999999998,32.317126099999996],[-80.77499999999998,32.324953600000015],[-80.77499999999998,32.32499999999999],[-80.77418360000001,32.32499999999999],[-80.77335590000001,32.32499999999999],[-80.77094779999999,32.32499999999999],[-80.77042189999997,32.32499999999999],[-80.76955349999997,32.32499999999999],[-80.76863049999997,32.32499999999999],[-80.76813800000002,32.32499999999999],[-80.753896,32.32499999999999],[-80.75373739999998,32.32499999999999],[-80.75351979999999,32.32499999999999],[-80.750565,32.32499999999999],[-80.74955160000002,32.32499999999999],[-80.74883449999999,32.32499999999999],[-80.74797460000002,32.32499999999999],[-80.7453016,32.32499999999999],[-80.7446147,32.32499999999999],[-80.73829119999999,32.32499999999999],[-80.73256279999998,32.32499999999999],[-80.7317979,32.32499999999999],[-80.7311406,32.32499999999999],[-80.72139240000001,32.32499999999999],[-80.7204403,32.32499999999999],[-80.7197693,32.32499999999999],[-80.71873199999999,32.32499999999999],[-80.71784609999997,32.32499999999999],[-80.71353010000001,32.32499999999999],[-80.71294,32.32499999999999],[-80.71251890000002,32.32499999999999],[-80.7114115,32.32499999999999],[-80.70953800000001,32.32499999999999],[-80.70806499999998,32.32499999999999],[-80.70371979999999,32.32499999999999],[-80.70325960000002,32.32499999999999],[-80.70279649999998,32.32499999999999],[-80.70175260000002,32.32499999999999],[-80.70025299999998,32.32499999999999],[-80.69999999999999,32.32499999999999],[-80.69999999999999,32.32496020000002],[-80.69999999999999,32.321775100000025],[-80.69999999999999,32.314833299999975],[-80.69999999999999,32.314169400000026],[-80.69999999999999,32.31240220000001],[-80.69999999999999,32.309400600000004],[-80.69999999999999,32.308858799999996],[-80.69999999999999,32.3058638],[-80.69999999999999,32.30519340000001],[-80.69999999999999,32.2901435],[-80.69999999999999,32.289768400000014],[-80.69999999999999,32.288306999999975],[-80.69999999999999,32.2880763],[-80.69999999999999,32.27330710000001],[-80.69999999999999,32.26705900000002],[-80.69999999999999,32.266878599999984],[-80.69999999999999,32.26643339999998],[-80.69999999999999,32.2661152],[-80.69999999999999,32.26561609999999],[-80.69999999999999,32.26410279999999],[-80.69999999999999,32.262137300000006],[-80.69999999999999,32.26196060000001],[-80.69999999999999,32.25781310000002],[-80.69999999999999,32.25747819999998],[-80.69999999999999,32.2571863],[-80.69999999999999,32.25472450000001],[-80.69999999999999,32.25152050000003],[-80.69999999999999,32.2510661],[-80.69999999999999,32.25054010000002],[-80.69999999999999,32.25],[-80.74089780000003,32.25],[-80.74125099999998,32.25],[-80.74544959999997,32.25],[-80.74637109999998,32.25],[-80.74644260000002,32.25],[-80.74802089999997,32.25],[-80.7481967,32.25],[-80.7483067,32.25],[-80.75009519999998,32.25],[-80.75047189999998,32.25],[-80.75254239999998,32.25],[-80.7526201,32.25],[-80.75276070000001,32.25],[-80.7531904,32.25],[-80.7534475,32.25],[-80.7535509,32.25],[-80.75357919999999,32.25],[-80.75398050000001,32.25],[-80.75511340000003,32.25],[-80.75522360000002,32.25],[-80.75586629999998,32.25],[-80.7617042,32.25],[-80.76482479999999,32.25],[-80.76531720000003,32.25],[-80.77325919999998,32.25],[-80.774225,32.25],[-80.77499999999998,32.25],[-80.77499999999998,32.251742999999976]]]}},{"type":"Feature","properties":{},"geometry":{"type":"Polygon","coordinates":[[[-80.69789370000001,32.25],[-80.69961419999998,32.25],[-80.69999999999999,32.25],[-80.69999999999999,32.25054010000002],[-80.69999999999999,32.2510661],[-80.69999999999999,32.25152050000003],[-80.69999999999999,32.25472450000001],[-80.69999999999999,32.2571863],[-80.69999999999999,32.25747819999998],[-80.69999999999999,32.25781310000002],[-80.69999999999999,32.26196060000001],[-80.69999999999999,32.262137300000006],[-80.69999999999999,32.26410279999999],[-80.69999999999999,32.26561609999999],[-80.69999999999999,32.2661152],[-80.69999999999999,32.26643339999998],[-80.69999999999999,32.266878599999984],[-80.69999999999999,32.26705900000002],[-80.69999999999999,32.27330710000001],[-80.69999999999999,32.2880763],[-80.69999999999999,32.288306999999975],[-80.69999999999999,32.289768400000014],[-80.69999999999999,32.2901435],[-80.69999999999999,32.30519340000001],[-80.69999999999999,32.3058638],[-80.69999999999999,32.308858799999996],[-80.69999999999999,32.309400600000004],[-80.69999999999999,32.31240220000001],[-80.69999999999999,32.314169400000026],[-80.69999999999999,32.314833299999975],[-80.69999999999999,32.321775100000025],[-80.69999999999999,32.32496020000002],[-80.69999999999999,32.32499999999999],[-80.69995310000002,32.32499999999999],[-80.69954369999999,32.32499999999999],[-80.6990538,32.32499999999999],[-80.6987628,32.32499999999999],[-80.69726480000003,32.32499999999999],[-80.6925956,32.32499999999999],[-80.69245769999998,32.32499999999999],[-80.69015480000002,32.32499999999999],[-80.68780179999999,32.32499999999999],[-80.6734439,32.32499999999999],[-80.66947090000002,32.32499999999999],[-80.66872009999997,32.32499999999999],[-80.66832499999998,32.32499999999999],[-80.66780740000002,32.32499999999999],[-80.66401819999999,32.32499999999999],[-80.66394380000003,32.32499999999999],[-80.6635,32.32499999999999],[-80.66326859999998,32.32499999999999],[-80.66279479999997,32.32499999999999],[-80.66268380000002,32.32499999999999],[-80.66244590000002,32.32499999999999],[-80.6618891,32.32499999999999],[-80.6612126,32.32499999999999],[-80.66071060000002,32.32499999999999],[-80.65996339999998,32.32499999999999],[-80.65942000000001,32.32499999999999],[-80.6548363,32.32499999999999],[-80.65458100000001,32.32499999999999],[-80.65429269999998,32.32499999999999],[-80.65407060000001,32.32499999999999],[-80.65381530000002,32.32499999999999],[-80.64872309999998,32.32499999999999],[-80.64849509999999,32.32499999999999],[-80.64823059999998,32.32499999999999],[-80.64820470000001,32.32499999999999],[-80.64696579999998,32.32499999999999],[-80.64664269999997,32.32499999999999],[-80.64551510000001,32.32499999999999],[-80.64525070000002,32.32499999999999],[-80.64431769999999,32.32499999999999],[-80.64367650000003,32.32499999999999],[-80.642132,32.32499999999999],[-80.625,32.32499999999999],[-80.625,32.31389569999999],[-80.625,32.311736800000006],[-80.625,32.30964879999999],[-80.625,32.308850199999995],[-80.625,32.30846200000002],[-80.625,32.3074446],[-80.625,32.30624119999999],[-80.625,32.30616149999997],[-80.625,32.30230069999999],[-80.625,32.30027869999998],[-80.625,32.29938279999999],[-80.625,32.298114999999996],[-80.625,32.29771679999999],[-80.625,32.29728019999999],[-80.625,32.29717419999997],[-80.625,32.29547170000001],[-80.625,32.29511000000002],[-80.625,32.2950467],[-80.625,32.294469100000015],[-80.625,32.293342499999994],[-80.625,32.291251999999986],[-80.625,32.29108439999999],[-80.625,32.29091440000002],[-80.625,32.2902469],[-80.625,32.285555199999976],[-80.625,32.285233300000016],[-80.625,32.28353449999997],[-80.625,32.2831362],[-80.625,32.28145840000002],[-80.625,32.28054880000002],[-80.625,32.27929310000002],[-80.625,32.275132799999994],[-80.625,32.274920099999974],[-80.625,32.273686999999995],[-80.625,32.270637799999975],[-80.625,32.2702008],[-80.625,32.26756260000002],[-80.625,32.26734699999997],[-80.625,32.261273500000016],[-80.625,32.25794639999998],[-80.625,32.25699880000002],[-80.625,32.2508029],[-80.625,32.25053969999999],[-80.625,32.25],[-80.63270449999999,32.25],[-80.63315770000003,32.25],[-80.6337337,32.25],[-80.63707110000001,32.25],[-80.63791329999998,32.25],[-80.63850259999998,32.25],[-80.64792829999999,32.25],[-80.64839690000002,32.25],[-80.64887479999999,32.25],[-80.64934449999998,32.25],[-80.64980859999997,32.25],[-80.6607105,32.25],[-80.68879049999998,32.25],[-80.68929630000002,32.25],[-80.68990079999998,32.25],[-80.69331060000002,32.25],[-80.69732060000001,32.25],[-80.69789370000001,32.25]]]}},{"type":"Feature","properties":{},"geometry":{"type":"Polygon","coordinates":[[[-80.66780740000002,32.32499999999999],[-80.66832499999998,32.32499999999999],[-80.66872009999997,32.32499999999999],[-80.66947090000002,32.32499999999999],[-80.6734439,32.32499999999999],[-80.68780179999999,32.32499999999999],[-80.69015480000002,32.32499999999999],[-80.69245769999998,32.32499999999999],[-80.6925956,32.32499999999999],[-80.69726480000003,32.32499999999999],[-80.6987628,32.32499999999999],[-80.6990538,32.32499999999999],[-80.69954369999999,32.32499999999999],[-80.69995310000002,32.32499999999999],[-80.69999999999999,32.32499999999999],[-80.69999999999999,32.32517250000001],[-80.69999999999999,32.32714329999999],[-80.69999999999999,32.32784370000002],[-80.69999999999999,32.33126199999998],[-80.69999999999999,32.331429300000025],[-80.69999999999999,32.332704999999976],[-80.69999999999999,32.33271960000002],[-80.69999999999999,32.33375819999998],[-80.69999999999999,32.34009229999998],[-80.69999999999999,32.342562999999984],[-80.69999999999999,32.34699549999999],[-80.69999999999999,32.347263199999986],[-80.69999999999999,32.34808290000001],[-80.69999999999999,32.34870999999998],[-80.69999999999999,32.34886],[-80.69999999999999,32.34906790000002],[-80.69999999999999,32.350708399999974],[-80.69999999999999,32.35088400000001],[-80.69999999999999,32.351338699999985],[-80.69999999999999,32.35784990000002],[-80.69999999999999,32.35884779999998],[-80.69999999999999,32.359567200000015],[-80.69999999999999,32.35973790000003],[-80.69999999999999,32.361259399999994],[-80.69999999999999,32.3615413],[-80.69999999999999,32.37442379999999],[-80.69999999999999,32.37468209999997],[-80.69999999999999,32.37616730000002],[-80.69999999999999,32.376878999999974],[-80.69999999999999,32.377151000000026],[-80.69999999999999,32.37738150000001],[-80.69999999999999,32.37868980000002],[-80.69999999999999,32.37960800000002],[-80.69999999999999,32.38063169999998],[-80.69999999999999,32.39306110000001],[-80.69999999999999,32.39999999999998],[-80.68027540000003,32.39999999999998],[-80.67785279999998,32.39999999999998],[-80.67780620000002,32.39999999999998],[-80.6775025,32.39999999999998],[-80.67634249999998,32.39999999999998],[-80.67456809999999,32.39999999999998],[-80.673901,32.39999999999998],[-80.67382320000002,32.39999999999998],[-80.6711712,32.39999999999998],[-80.66974920000001,32.39999999999998],[-80.6691922,32.39999999999998],[-80.6691189,32.39999999999998],[-80.66790129999998,32.39999999999998],[-80.66772709999998,32.39999999999998],[-80.65970700000003,32.39999999999998],[-80.65763379999999,32.39999999999998],[-80.65630750000003,32.39999999999998],[-80.65587449999998,32.39999999999998],[-80.65536300000002,32.39999999999998],[-80.65530000000001,32.39999999999998],[-80.6550373,32.39999999999998],[-80.6543509,32.39999999999998],[-80.65339540000002,32.39999999999998],[-80.6532441,32.39999999999998],[-80.64890300000002,32.39999999999998],[-80.64797809999999,32.39999999999998],[-80.6471219,32.39999999999998],[-80.64664679999998,32.39999999999998],[-80.64601270000003,32.39999999999998],[-80.64458689999998,32.39999999999998],[-80.6416499,32.39999999999998],[-80.64046990000003,32.39999999999998],[-80.64038529999999,32.39999999999998],[-80.63916749999999,32.39999999999998],[-80.63864009999998,32.39999999999998],[-80.63833210000001,32.39999999999998],[-80.63577880000003,32.39999999999998],[-80.63434619999998,32.39999999999998],[-80.63400000000001,32.39999999999998],[-80.63328150000001,32.39999999999998],[-80.63215860000003,32.39999999999998],[-80.625,32.39999999999998],[-80.625,32.39597900000001],[-80.625,32.395202600000005],[-80.625,32.39365839999999],[-80.625,32.392155100000025],[-80.625,32.39158800000001],[-80.625,32.39087840000002],[-80.625,32.3907696],[-80.625,32.390650900000026],[-80.625,32.38915830000002],[-80.625,32.38493799999998],[-80.625,32.38472250000001],[-80.625,32.38447600000001],[-80.625,32.38375239999999],[-80.625,32.38217359999999],[-80.625,32.37830650000001],[-80.625,32.378067999999985],[-80.625,32.377829399999996],[-80.625,32.37750110000002],[-80.625,32.37707390000003],[-80.625,32.37689110000002],[-80.625,32.36995009999998],[-80.625,32.368750499999976],[-80.625,32.36855489999999],[-80.625,32.36591379999999],[-80.625,32.36400600000002],[-80.625,32.3633456],[-80.625,32.36085379999997],[-80.625,32.32499999999999],[-80.642132,32.32499999999999],[-80.64367650000003,32.32499999999999],[-80.64431769999999,32.32499999999999],[-80.64525070000002,32.32499999999999],[-80.64551510000001,32.32499999999999],[-80.64664269999997,32.32499999999999],[-80.64696579999998,32.32499999999999],[-80.64820470000001,32.32499999999999],[-80.64823059999998,32.32499999999999],[-80.64849509999999,32.32499999999999],[-80.64872309999998,32.32499999999999],[-80.65381530000002,32.32499999999999],[-80.65407060000001,32.32499999999999],[-80.65429269999998,32.32499999999999],[-80.65458100000001,32.32499999999999],[-80.6548363,32.32499999999999],[-80.65942000000001,32.32499999999999],[-80.65996339999998,32.32499999999999],[-80.66071060000002,32.32499999999999],[-80.6612126,32.32499999999999],[-80.6618891,32.32499999999999],[-80.66244590000002,32.32499999999999],[-80.66268380000002,32.32499999999999],[-80.66279479999997,32.32499999999999],[-80.66326859999998,32.32499999999999],[-80.6635,32.32499999999999],[-80.66394380000003,32.32499999999999],[-80.66401819999999,32.32499999999999],[-80.66780740000002,32.32499999999999]]]}},{"type":"Feature","properties":{},"geometry":{"type":"Polygon","coordinates":[[[-80.68027540000003,32.39999999999998],[-80.69999999999999,32.39999999999998],[-80.69999999999999,32.40742719999997],[-80.69999999999999,32.407894699999986],[-80.69999999999999,32.40823990000001],[-80.69999999999999,32.41133930000001],[-80.69999999999999,32.414079500000014],[-80.69999999999999,32.41446050000002],[-80.69999999999999,32.41462389999998],[-80.69999999999999,32.41492640000001],[-80.69999999999999,32.415289400000006],[-80.69999999999999,32.4154681],[-80.69999999999999,32.415852400000006],[-80.69999999999999,32.4168555],[-80.69999999999999,32.418908199999976],[-80.69999999999999,32.41907579999997],[-80.69999999999999,32.4199802],[-80.69999999999999,32.42100629999999],[-80.69999999999999,32.42239549999999],[-80.69999999999999,32.42313919999998],[-80.69999999999999,32.42473810000001],[-80.69999999999999,32.425187300000005],[-80.69999999999999,32.42614830000002],[-80.69999999999999,32.427295000000015],[-80.69999999999999,32.42804869999998],[-80.69999999999999,32.42812909999998],[-80.69999999999999,32.42849000000001],[-80.69999999999999,32.42867690000003],[-80.69999999999999,32.4290628],[-80.69999999999999,32.429082300000005],[-80.69999999999999,32.429477599999984],[-80.69999999999999,32.430505600000004],[-80.69999999999999,32.431631400000015],[-80.69999999999999,32.43367519999998],[-80.69999999999999,32.433988399999976],[-80.69999999999999,32.435345100000006],[-80.69999999999999,32.43552540000002],[-80.69999999999999,32.43556369999999],[-80.69999999999999,32.435637299999996],[-80.69999999999999,32.436663099999976],[-80.69999999999999,32.43781530000001],[-80.69999999999999,32.43861199999998],[-80.69999999999999,32.438875800000005],[-80.69999999999999,32.438975500000026],[-80.69999999999999,32.440761399999985],[-80.69999999999999,32.4410082],[-80.69999999999999,32.44572290000002],[-80.69999999999999,32.44601499999999],[-80.69999999999999,32.44635979999998],[-80.69999999999999,32.4508098],[-80.69999999999999,32.45183159999999],[-80.69999999999999,32.45203959999998],[-80.69999999999999,32.45315240000002],[-80.69999999999999,32.4534726],[-80.69999999999999,32.45411089999999],[-80.69999999999999,32.45450599999998],[-80.69999999999999,32.4560955],[-80.69999999999999,32.4605679],[-80.69999999999999,32.46627719999998],[-80.69999999999999,32.46764830000001],[-80.69999999999999,32.473504100000014],[-80.69999999999999,32.47500000000002],[-80.6952033,32.47500000000002],[-80.69341329999997,32.47500000000002],[-80.69319050000001,32.47500000000002],[-80.69283330000002,32.47500000000002],[-80.69245710000001,32.47500000000002],[-80.69221119999997,32.47500000000002],[-80.69200080000002,32.47500000000002],[-80.6915816,32.47500000000002],[-80.6913659,32.47500000000002],[-80.69134810000003,32.47500000000002],[-80.6911948,32.47500000000002],[-80.6910484,32.47500000000002],[-80.69063840000001,32.47500000000002],[-80.69023340000001,32.47500000000002],[-80.68943530000001,32.47500000000002],[-80.6885241,32.47500000000002],[-80.68671769999997,32.47500000000002],[-80.6851964,32.47500000000002],[-80.66186679999998,32.47500000000002],[-80.66160339999999,32.47500000000002],[-80.66118719999997,32.47500000000002],[-80.6606241,32.47500000000002],[-80.65940979999999,32.47500000000002],[-80.65862199999998,32.47500000000002],[-80.65827580000001,32.47500000000002],[-80.625,32.47500000000002],[-80.625,32.470277599999974],[-80.625,32.46870519999999],[-80.625,32.4669389],[-80.625,32.46685400000001],[-80.625,32.46654319999999],[-80.625,32.46450970000001],[-80.625,32.46345029999998],[-80.625,32.460244999999986],[-80.625,32.45896260000001],[-80.625,32.456300699999986],[-80.625,32.4328994],[-80.625,32.430536200000006],[-80.625,32.43039190000002],[-80.625,32.42291110000002],[-80.625,32.422698500000024],[-80.625,32.422009],[-80.625,32.42170229999999],[-80.625,32.4168555],[-80.625,32.416726600000004],[-80.625,32.4163236],[-80.625,32.41572480000002],[-80.625,32.41441750000001],[-80.625,32.413865699999974],[-80.625,32.41003979999999],[-80.625,32.40992139999997],[-80.625,32.40949089999998],[-80.625,32.40833759999998],[-80.625,32.40787210000002],[-80.625,32.407783600000016],[-80.625,32.4071424],[-80.625,32.40370180000002],[-80.625,32.40319169999998],[-80.625,32.39999999999998],[-80.63215860000003,32.39999999999998],[-80.63328150000001,32.39999999999998],[-80.63400000000001,32.39999999999998],[-80.63434619999998,32.39999999999998],[-80.63577880000003,32.39999999999998],[-80.63833210000001,32.39999999999998],[-80.63864009999998,32.39999999999998],[-80.63916749999999,32.39999999999998],[-80.64046990000003,32.39999999999998],[-80.6416499,32.39999999999998],[-80.64458689999998,32.39999999999998],[-80.64601270000003,32.39999999999998],[-80.64664679999998,32.39999999999998],[-80.6471219,32.39999999999998],[-80.64890300000002,32.39999999999998],[-80.6532441,32.39999999999998],[-80.65339540000002,32.39999999999998],[-80.6543509,32.39999999999998],[-80.6550373,32.39999999999998],[-80.65530000000001,32.39999999999998],[-80.65536300000002,32.39999999999998],[-80.65630750000003,32.39999999999998],[-80.65763379999999,32.39999999999998],[-80.65970700000003,32.39999999999998],[-80.66772709999998,32.39999999999998],[-80.66790129999998,32.39999999999998],[-80.6691189,32.39999999999998],[-80.66974920000001,32.39999999999998],[-80.67382320000002,32.39999999999998],[-80.673901,32.39999999999998],[-80.67456809999999,32.39999999999998],[-80.67634249999998,32.39999999999998],[-80.6775025,32.39999999999998],[-80.67785279999998,32.39999999999998],[-80.68027540000003,32.39999999999998]]]}},{"type":"Feature","properties":{},"geometry":{"type":"Polygon","coordinates":[[[-80.6952033,32.47500000000002],[-80.69999999999999,32.47500000000002],[-80.69999999999999,32.484832299999994],[-80.69999999999999,32.485467400000005],[-80.69999999999999,32.48571340000001],[-80.69999999999999,32.48861049999999],[-80.69999999999999,32.488804800000025],[-80.69999999999999,32.489326500000004],[-80.69999999999999,32.48940449999998],[-80.69999999999999,32.49349059999997],[-80.69999999999999,32.494089599999995],[-80.69999999999999,32.494591300000025],[-80.69999999999999,32.50495919999997],[-80.69999999999999,32.50525219999997],[-80.69999999999999,32.50562530000002],[-80.69999999999999,32.50700380000001],[-80.69999999999999,32.509966099999986],[-80.69999999999999,32.509980900000016],[-80.69999999999999,32.513730899999985],[-80.69999999999999,32.5137732],[-80.69999999999999,32.5140897],[-80.69999999999999,32.514519500000006],[-80.69999999999999,32.51510710000002],[-80.69999999999999,32.51588429999998],[-80.69999999999999,32.516321500000004],[-80.69999999999999,32.5201677],[-80.69999999999999,32.520520999999974],[-80.69999999999999,32.52167850000001],[-80.69999999999999,32.5218117],[-80.69999999999999,32.523431000000016],[-80.69999999999999,32.52527090000001],[-80.69999999999999,32.52563040000001],[-80.69999999999999,32.526476600000024],[-80.69999999999999,32.529527099999996],[-80.69999999999999,32.52985719999998],[-80.69999999999999,32.530235300000015],[-80.69999999999999,32.53419689999998],[-80.69999999999999,32.536268800000016],[-80.69999999999999,32.536781399999995],[-80.69999999999999,32.5371136],[-80.69999999999999,32.537422100000015],[-80.69999999999999,32.53790470000001],[-80.69999999999999,32.54141279999999],[-80.69999999999999,32.5455786],[-80.69999999999999,32.54592409999998],[-80.69999999999999,32.54759489999998],[-80.69999999999999,32.55000000000001],[-80.6930317,32.55000000000001],[-80.69102779999997,32.55000000000001],[-80.68844569999999,32.55000000000001],[-80.6880243,32.55000000000001],[-80.68700689999997,32.55000000000001],[-80.68646150000001,32.55000000000001],[-80.67184359999999,32.55000000000001],[-80.67138039999998,32.55000000000001],[-80.65889520000002,32.55000000000001],[-80.65622159999998,32.55000000000001],[-80.6531248,32.55000000000001],[-80.63369840000001,32.55000000000001],[-80.63046020000002,32.55000000000001],[-80.63043620000002,32.55000000000001],[-80.62809679999998,32.55000000000001],[-80.62628000000001,32.55000000000001],[-80.6261169,32.55000000000001],[-80.625,32.55000000000001],[-80.625,32.54991990000002],[-80.625,32.54954959999998],[-80.625,32.54922019999998],[-80.625,32.549185799999975],[-80.625,32.54744529999999],[-80.625,32.5422499],[-80.625,32.54159729999998],[-80.625,32.5411613],[-80.625,32.54028820000002],[-80.625,32.53909169999997],[-80.625,32.53236879999997],[-80.625,32.52925670000002],[-80.625,32.528911100000016],[-80.625,32.52609840000002],[-80.625,32.525253099999986],[-80.625,32.52452820000002],[-80.625,32.52424389999999],[-80.625,32.52373640000002],[-80.625,32.5218223],[-80.625,32.52105799999998],[-80.625,32.5183275],[-80.625,32.51814810000002],[-80.625,32.51050570000001],[-80.625,32.50814270000001],[-80.625,32.50800559999999],[-80.625,32.5078762],[-80.625,32.50776000000002],[-80.625,32.5074017],[-80.625,32.504409099999975],[-80.625,32.50316120000002],[-80.625,32.50286310000001],[-80.625,32.50153820000003],[-80.625,32.497183500000006],[-80.625,32.47500000000002],[-80.65827580000001,32.47500000000002],[-80.65862199999998,32.47500000000002],[-80.65940979999999,32.47500000000002],[-80.6606241,32.47500000000002],[-80.66118719999997,32.47500000000002],[-80.66160339999999,32.47500000000002],[-80.66186679999998,32.47500000000002],[-80.6851964,32.47500000000002],[-80.68671769999997,32.47500000000002],[-80.6885241,32.47500000000002],[-80.68943530000001,32.47500000000002],[-80.69023340000001,32.47500000000002],[-80.69063840000001,32.47500000000002],[-80.6910484,32.47500000000002],[-80.6911948,32.47500000000002],[-80.69134810000003,32.47500000000002],[-80.6913659,32.47500000000002],[-80.6915816,32.47500000000002],[-80.69200080000002,32.47500000000002],[-80.69221119999997,32.47500000000002],[-80.69245710000001,32.47500000000002],[-80.69283330000002,32.47500000000002],[-80.69319050000001,32.47500000000002],[-80.69341329999997,32.47500000000002],[-80.6952033,32.47500000000002]]]}},{"type":"Feature","properties":{},"geometry":{"type":"Polygon","coordinates":[[[-80.625,32.497183500000006],[-80.625,32.50153820000003],[-80.625,32.50286310000001],[-80.625,32.50316120000002],[-80.625,32.504409099999975],[-80.625,32.5074017],[-80.625,32.50776000000002],[-80.625,32.5078762],[-80.625,32.50800559999999],[-80.625,32.50814270000001],[-80.625,32.51050570000001],[-80.625,32.51814810000002],[-80.625,32.5183275],[-80.625,32.52105799999998],[-80.625,32.5218223],[-80.625,32.52373640000002],[-80.625,32.52424389999999],[-80.625,32.52452820000002],[-80.625,32.525253099999986],[-80.625,32.52609840000002],[-80.625,32.528911100000016],[-80.625,32.52925670000002],[-80.625,32.53236879999997],[-80.625,32.53909169999997],[-80.625,32.54028820000002],[-80.625,32.5411613],[-80.625,32.54159729999998],[-80.625,32.5422499],[-80.625,32.54744529999999],[-80.625,32.549185799999975],[-80.625,32.54922019999998],[-80.625,32.54954959999998],[-80.625,32.54991990000002],[-80.625,32.55000000000001],[-80.62421920000003,32.55000000000001],[-80.6241991,32.55000000000001],[-80.61342739999998,32.55000000000001],[-80.60757180000002,32.55000000000001],[-80.60609720000002,32.55000000000001],[-80.59576779999998,32.55000000000001],[-80.5937657,32.55000000000001],[-80.59292340000002,32.55000000000001],[-80.58967130000002,32.55000000000001],[-80.5894245,32.55000000000001],[-80.58926229999997,32.55000000000001],[-80.58862149999999,32.55000000000001],[-80.58745190000002,32.55000000000001],[-80.58634189999998,32.55000000000001],[-80.581524,32.55000000000001],[-80.58127280000002,32.55000000000001],[-80.58061429999998,32.55000000000001],[-80.5797048,32.55000000000001],[-80.57948160000001,32.55000000000001],[-80.57785860000001,32.55000000000001],[-80.57740999999999,32.55000000000001],[-80.57659430000001,32.55000000000001],[-80.56655210000002,32.55000000000001],[-80.56213359999998,32.55000000000001],[-80.5551724,32.55000000000001],[-80.55494959999999,32.55000000000001],[-80.55325060000001,32.55000000000001],[-80.55312789999999,32.55000000000001],[-80.55000000000001,32.55000000000001],[-80.55000000000001,32.54889250000002],[-80.55000000000001,32.54459880000002],[-80.55000000000001,32.544269499999984],[-80.55000000000001,32.5417281],[-80.55000000000001,32.541464899999994],[-80.55000000000001,32.5411474],[-80.55000000000001,32.540812800000026],[-80.55000000000001,32.535707],[-80.55000000000001,32.533683999999994],[-80.55000000000001,32.532504700000004],[-80.55000000000001,32.53215269999998],[-80.55000000000001,32.520597099999975],[-80.55000000000001,32.520400300000006],[-80.55000000000001,32.51263110000002],[-80.55000000000001,32.512409400000024],[-80.55000000000001,32.51096050000001],[-80.55000000000001,32.51081770000002],[-80.55000000000001,32.510233099999994],[-80.55000000000001,32.50957169999998],[-80.55000000000001,32.50950710000001],[-80.55000000000001,32.50896160000002],[-80.55000000000001,32.50770419999998],[-80.55000000000001,32.50725240000003],[-80.55000000000001,32.50654500000002],[-80.55000000000001,32.5023554],[-80.55000000000001,32.50131929999998],[-80.55000000000001,32.49894219999999],[-80.55000000000001,32.498833400000024],[-80.55000000000001,32.49869330000001],[-80.55000000000001,32.4965373],[-80.55000000000001,32.495185100000015],[-80.55000000000001,32.494642999999996],[-80.55000000000001,32.4895793],[-80.55000000000001,32.48850140000002],[-80.55000000000001,32.48787520000002],[-80.55000000000001,32.48676790000002],[-80.55000000000001,32.48595690000002],[-80.55000000000001,32.481838100000004],[-80.55000000000001,32.48130600000002],[-80.55000000000001,32.480418199999974],[-80.55000000000001,32.47764219999999],[-80.55000000000001,32.47560499999997],[-80.55000000000001,32.47500000000002],[-80.55048249999999,32.47500000000002],[-80.55095299999999,32.47500000000002],[-80.55150300000003,32.47500000000002],[-80.5690406,32.47500000000002],[-80.57016379999999,32.47500000000002],[-80.57073980000001,32.47500000000002],[-80.57140279999999,32.47500000000002],[-80.5737006,32.47500000000002],[-80.576818,32.47500000000002],[-80.57716670000002,32.47500000000002],[-80.57749209999997,32.47500000000002],[-80.57816630000002,32.47500000000002],[-80.57852029999998,32.47500000000002],[-80.5790647,32.47500000000002],[-80.57949150000002,32.47500000000002],[-80.58011440000001,32.47500000000002],[-80.59607269999998,32.47500000000002],[-80.5981428,32.47500000000002],[-80.59842129999998,32.47500000000002],[-80.59858459999998,32.47500000000002],[-80.59883300000001,32.47500000000002],[-80.60005530000001,32.47500000000002],[-80.60064260000001,32.47500000000002],[-80.60261409999998,32.47500000000002],[-80.60356769999999,32.47500000000002],[-80.6039389,32.47500000000002],[-80.60605529999998,32.47500000000002],[-80.60646070000001,32.47500000000002],[-80.6094774,32.47500000000002],[-80.60970650000002,32.47500000000002],[-80.60990670000001,32.47500000000002],[-80.61099480000001,32.47500000000002],[-80.61116870000001,32.47500000000002],[-80.61463939999999,32.47500000000002],[-80.61509480000001,32.47500000000002],[-80.61556280000002,32.47500000000002],[-80.61573190000001,32.47500000000002],[-80.61619669999999,32.47500000000002],[-80.61707410000002,32.47500000000002],[-80.61722099999997,32.47500000000002],[-80.61797150000001,32.47500000000002],[-80.61847949999998,32.47500000000002],[-80.625,32.47500000000002],[-80.625,32.497183500000006]]]}},{"type":"Feature","properties":{},"geometry":{"type":"Polygon","coordinates":[[[-80.55000000000001,32.47560499999997],[-80.55000000000001,32.47764219999999],[-80.55000000000001,32.480418199999974],[-80.55000000000001,32.48130600000002],[-80.55000000000001,32.481838100000004],[-80.55000000000001,32.48595690000002],[-80.55000000000001,32.48676790000002],[-80.55000000000001,32.48787520000002],[-80.55000000000001,32.48850140000002],[-80.55000000000001,32.4895793],[-80.55000000000001,32.494642999999996],[-80.55000000000001,32.495185100000015],[-80.55000000000001,32.4965373],[-80.55000000000001,32.49869330000001],[-80.55000000000001,32.498833400000024],[-80.55000000000001,32.49894219999999],[-80.55000000000001,32.50131929999998],[-80.55000000000001,32.5023554],[-80.55000000000001,32.50654500000002],[-80.55000000000001,32.50725240000003],[-80.55000000000001,32.50770419999998],[-80.55000000000001,32.50896160000002],[-80.55000000000001,32.50950710000001],[-80.55000000000001,32.50957169999998],[-80.55000000000001,32.510233099999994],[-80.55000000000001,32.51081770000002],[-80.55000000000001,32.51096050000001],[-80.55000000000001,32.512409400000024],[-80.55000000000001,32.51263110000002],[-80.55000000000001,32.520400300000006],[-80.55000000000001,32.520597099999975],[-80.55000000000001,32.53215269999998],[-80.55000000000001,32.532504700000004],[-80.55000000000001,32.533683999999994],[-80.55000000000001,32.535707],[-80.55000000000001,32.540812800000026],[-80.55000000000001,32.5411474],[-80.55000000000001,32.541464899999994],[-80.55000000000001,32.5417281],[-80.55000000000001,32.544269499999984],[-80.55000000000001,32.54459880000002],[-80.55000000000001,32.54889250000002],[-80.55000000000001,32.55000000000001],[-80.54692569999997,32.55000000000001],[-80.54630309999999,32.55000000000001],[-80.5459596,32.55000000000001],[-80.54348850000002,32.55000000000001],[-80.5433256,32.55000000000001],[-80.54229249999997,32.55000000000001],[-80.54165460000002,32.55000000000001],[-80.53924009999997,32.55000000000001],[-80.5381481,32.55000000000001],[-80.52495579999999,32.55000000000001],[-80.52432340000001,32.55000000000001],[-80.52159499999999,32.55000000000001],[-80.52084680000002,32.55000000000001],[-80.5169201,32.55000000000001],[-80.5136018,32.55000000000001],[-80.51232779999998,32.55000000000001],[-80.50801810000002,32.55000000000001],[-80.507319,32.55000000000001],[-80.491916,32.55000000000001],[-80.4755515,32.55000000000001],[-80.47500000000002,32.55000000000001],[-80.47500000000002,32.54993519999999],[-80.47500000000002,32.53849539999999],[-80.47500000000002,32.53846859999999],[-80.47500000000002,32.53645030000001],[-80.47500000000002,32.536331099999984],[-80.47500000000002,32.5358382],[-80.47500000000002,32.535790899999995],[-80.47500000000002,32.534000100000014],[-80.47500000000002,32.53160009999999],[-80.47500000000002,32.53142989999998],[-80.47500000000002,32.5308761],[-80.47500000000002,32.530675299999984],[-80.47500000000002,32.527303500000016],[-80.47500000000002,32.52709679999998],[-80.47500000000002,32.52156639999998],[-80.47500000000002,32.52103290000002],[-80.47500000000002,32.51992539999998],[-80.47500000000002,32.519215799999984],[-80.47500000000002,32.518993799999976],[-80.47500000000002,32.51896099999999],[-80.47500000000002,32.51876820000001],[-80.47500000000002,32.51848380000001],[-80.47500000000002,32.51815850000003],[-80.47500000000002,32.51527299999998],[-80.47500000000002,32.51496279999998],[-80.47500000000002,32.51324119999998],[-80.47500000000002,32.511629200000016],[-80.47500000000002,32.51127980000001],[-80.47500000000002,32.5068617],[-80.47500000000002,32.5061144],[-80.47500000000002,32.50523909999998],[-80.47500000000002,32.5048271],[-80.47500000000002,32.502608699999996],[-80.47500000000002,32.50235070000002],[-80.47500000000002,32.49681850000002],[-80.47500000000002,32.496057199999996],[-80.47500000000002,32.4927227],[-80.47500000000002,32.49237049999999],[-80.47500000000002,32.49203449999999],[-80.47500000000002,32.47744590000002],[-80.47500000000002,32.4769038],[-80.47500000000002,32.476475100000016],[-80.47500000000002,32.47556100000003],[-80.47500000000002,32.47500000000002],[-80.47544049999999,32.47500000000002],[-80.47977709999998,32.47500000000002],[-80.48100699999998,32.47500000000002],[-80.48146680000002,32.47500000000002],[-80.48155960000003,32.47500000000002],[-80.4826774,32.47500000000002],[-80.49202550000001,32.47500000000002],[-80.4932033,32.47500000000002],[-80.49856410000001,32.47500000000002],[-80.50016340000002,32.47500000000002],[-80.5009953,32.47500000000002],[-80.50133649999998,32.47500000000002],[-80.5023205,32.47500000000002],[-80.505135,32.47500000000002],[-80.5084473,32.47500000000002],[-80.50991060000001,32.47500000000002],[-80.51232779999998,32.47500000000002],[-80.51361550000001,32.47500000000002],[-80.514655,32.47500000000002],[-80.52045859999998,32.47500000000002],[-80.52096890000001,32.47500000000002],[-80.52165559999997,32.47500000000002],[-80.52174910000002,32.47500000000002],[-80.52923670000001,32.47500000000002],[-80.52966149999997,32.47500000000002],[-80.53048560000002,32.47500000000002],[-80.53088450000001,32.47500000000002],[-80.5332244,32.47500000000002],[-80.53365300000002,32.47500000000002],[-80.54377119999998,32.47500000000002],[-80.544059,32.47500000000002],[-80.54477329999997,32.47500000000002],[-80.54506700000002,32.47500000000002],[-80.54540070000002,32.47500000000002],[-80.5460951,32.47500000000002],[-80.5465049,32.47500000000002],[-80.54762340000002,32.47500000000002],[-80.54905910000002,32.47500000000002],[-80.55000000000001,32.47500000000002],[-80.55000000000001,32.47560499999997]]]}},{"type":"Feature","properties":{},"geometry":{"type":"Polygon","coordinates":[[[-80.4742683,32.47500000000002],[-80.47500000000002,32.47500000000002],[-80.47500000000002,32.4750037],[-80.47500000000002,32.4750904],[-80.47500000000002,32.47556100000003],[-80.47500000000002,32.476475100000016],[-80.47500000000002,32.476515199999994],[-80.47500000000002,32.476749600000005],[-80.47500000000002,32.4769038],[-80.47500000000002,32.47700680000003],[-80.47500000000002,32.4773017],[-80.47500000000002,32.47744590000002],[-80.47500000000002,32.477792299999976],[-80.47500000000002,32.477980100000025],[-80.47500000000002,32.47874539999998],[-80.47500000000002,32.48052519999999],[-80.47500000000002,32.48256509999999],[-80.47500000000002,32.485439299999996],[-80.47500000000002,32.48751140000002],[-80.47500000000002,32.49044950000001],[-80.47500000000002,32.49101949999999],[-80.47500000000002,32.49123300000002],[-80.47500000000002,32.49203449999999],[-80.47500000000002,32.49211200000002],[-80.47500000000002,32.49249709999998],[-80.47500000000002,32.492689799999994],[-80.47500000000002,32.496057199999996],[-80.47500000000002,32.49681850000002],[-80.47500000000002,32.50235070000002],[-80.47500000000002,32.502608699999996],[-80.47500000000002,32.5048271],[-80.47500000000002,32.50523909999998],[-80.47500000000002,32.5061144],[-80.47500000000002,32.5068617],[-80.47500000000002,32.51127980000001],[-80.47500000000002,32.511629200000016],[-80.47500000000002,32.51324119999998],[-80.47500000000002,32.51496279999998],[-80.47500000000002,32.51527299999998],[-80.47500000000002,32.51815850000003],[-80.47500000000002,32.51848380000001],[-80.47500000000002,32.5187803],[-80.47500000000002,32.518850799999996],[-80.47500000000002,32.51896099999999],[-80.47500000000002,32.518993799999976],[-80.47500000000002,32.519215799999984],[-80.47500000000002,32.519500600000015],[-80.47500000000002,32.51984349999998],[-80.47500000000002,32.520719299999996],[-80.47500000000002,32.52103290000002],[-80.47500000000002,32.52156639999998],[-80.47500000000002,32.52709679999998],[-80.47500000000002,32.527303500000016],[-80.47500000000002,32.530675299999984],[-80.47500000000002,32.5308761],[-80.47500000000002,32.53142989999998],[-80.47500000000002,32.53160009999999],[-80.47500000000002,32.534000100000014],[-80.47500000000002,32.535790899999995],[-80.47500000000002,32.5358382],[-80.47500000000002,32.536331099999984],[-80.47500000000002,32.53645030000001],[-80.47500000000002,32.53846859999999],[-80.47500000000002,32.53849539999999],[-80.47500000000002,32.54993519999999],[-80.47500000000002,32.55000000000001],[-80.4748712,32.55000000000001],[-80.47414329999998,32.55000000000001],[-80.4558743,32.55000000000001],[-80.454793,32.55000000000001],[-80.45460550000001,32.55000000000001],[-80.4531323,32.55000000000001],[-80.452943,32.55000000000001],[-80.45250290000001,32.55000000000001],[-80.45228479999997,32.55000000000001],[-80.4417454,32.55000000000001],[-80.42494950000003,32.55000000000001],[-80.42251470000002,32.55000000000001],[-80.42154970000001,32.55000000000001],[-80.42145110000001,32.55000000000001],[-80.4212541,32.55000000000001],[-80.4207323,32.55000000000001],[-80.42033850000001,32.55000000000001],[-80.42000739999997,32.55000000000001],[-80.4198672,32.55000000000001],[-80.4186982,32.55000000000001],[-80.41771240000003,32.55000000000001],[-80.41528779999999,32.55000000000001],[-80.4142913,32.55000000000001],[-80.4103958,32.55000000000001],[-80.4094404,32.55000000000001],[-80.40924139999998,32.55000000000001],[-80.39999999999998,32.55000000000001],[-80.39999999999998,32.54585689999999],[-80.39999999999998,32.543756099999996],[-80.39999999999998,32.543738700000006],[-80.39999999999998,32.5432242],[-80.39999999999998,32.542706399999986],[-80.39999999999998,32.54116670000002],[-80.39999999999998,32.539442399999984],[-80.39999999999998,32.53888740000002],[-80.39999999999998,32.53741600000001],[-80.39999999999998,32.537309300000004],[-80.39999999999998,32.536750900000015],[-80.39999999999998,32.53661629999999],[-80.39999999999998,32.53529950000001],[-80.39999999999998,32.535041999999976],[-80.39999999999998,32.5342455],[-80.39999999999998,32.53415180000002],[-80.39999999999998,32.5339386],[-80.39999999999998,32.53364260000001],[-80.39999999999998,32.53005280000002],[-80.39999999999998,32.52727549999997],[-80.39999999999998,32.52711959999999],[-80.39999999999998,32.526944300000025],[-80.39999999999998,32.523723099999984],[-80.39999999999998,32.523380799999984],[-80.39999999999998,32.52303230000001],[-80.39999999999998,32.522530399999994],[-80.39999999999998,32.522349099999985],[-80.39999999999998,32.51706789999997],[-80.39999999999998,32.51677410000002],[-80.39999999999998,32.516553499999986],[-80.39999999999998,32.51623489999997],[-80.39999999999998,32.51551460000002],[-80.39999999999998,32.514536599999985],[-80.39999999999998,32.50998579999998],[-80.39999999999998,32.49659730000002],[-80.39999999999998,32.495451],[-80.39999999999998,32.490025100000025],[-80.39999999999998,32.48925800000001],[-80.39999999999998,32.488197000000014],[-80.39999999999998,32.48716949999999],[-80.39999999999998,32.48618190000002],[-80.39999999999998,32.48555010000001],[-80.39999999999998,32.48164129999998],[-80.39999999999998,32.481256099999996],[-80.39999999999998,32.47788270000001],[-80.39999999999998,32.475667199999975],[-80.39999999999998,32.475294899999994],[-80.39999999999998,32.47500000000002],[-80.40034910000003,32.47500000000002],[-80.40143719999998,32.47500000000002],[-80.4027102,32.47500000000002],[-80.40488800000003,32.47500000000002],[-80.40570009999999,32.47500000000002],[-80.40946689999998,32.47500000000002],[-80.4110948,32.47500000000002],[-80.41824589999999,32.47500000000002],[-80.41897230000001,32.47500000000002],[-80.41966730000001,32.47500000000002],[-80.4199888,32.47500000000002],[-80.42232860000001,32.47500000000002],[-80.42509369999999,32.47500000000002],[-80.4269112,32.47500000000002],[-80.42809310000001,32.47500000000002],[-80.42930869999998,32.47500000000002],[-80.42984389999998,32.47500000000002],[-80.4306029,32.47500000000002],[-80.43122390000002,32.47500000000002],[-80.43128180000002,32.47500000000002],[-80.43145479999998,32.47500000000002],[-80.43384730000002,32.47500000000002],[-80.4342565,32.47500000000002],[-80.438512,32.47500000000002],[-80.4390282,32.47500000000002],[-80.4401507,32.47500000000002],[-80.4404864,32.47500000000002],[-80.4559835,32.47500000000002],[-80.45974660000002,32.47500000000002],[-80.4617465,32.47500000000002],[-80.46194350000002,32.47500000000002],[-80.46560490000002,32.47500000000002],[-80.46706490000003,32.47500000000002],[-80.47284180000003,32.47500000000002],[-80.47365029999997,32.47500000000002],[-80.4742683,32.47500000000002]]]}},{"type":"Feature","properties":{},"geometry":{"type":"Polygon","coordinates":[[[-80.39995470000002,32.47500000000002],[-80.39999999999998,32.47500000000002],[-80.39999999999998,32.475294899999994],[-80.39999999999998,32.475667199999975],[-80.39999999999998,32.47788270000001],[-80.39999999999998,32.481256099999996],[-80.39999999999998,32.48164129999998],[-80.39999999999998,32.48555010000001],[-80.39999999999998,32.48618190000002],[-80.39999999999998,32.48716949999999],[-80.39999999999998,32.488197000000014],[-80.39999999999998,32.48925800000001],[-80.39999999999998,32.490025100000025],[-80.39999999999998,32.495451],[-80.39999999999998,32.49659730000002],[-80.39999999999998,32.50998579999998],[-80.39999999999998,32.514536599999985],[-80.39999999999998,32.51551460000002],[-80.39999999999998,32.51623489999997],[-80.39999999999998,32.516553499999986],[-80.39999999999998,32.51677410000002],[-80.39999999999998,32.51706789999997],[-80.39999999999998,32.522349099999985],[-80.39999999999998,32.522530399999994],[-80.39999999999998,32.52303230000001],[-80.39999999999998,32.523380799999984],[-80.39999999999998,32.523723099999984],[-80.39999999999998,32.526944300000025],[-80.39999999999998,32.52711959999999],[-80.39999999999998,32.52727549999997],[-80.39999999999998,32.53005280000002],[-80.39999999999998,32.53364260000001],[-80.39999999999998,32.5339386],[-80.39999999999998,32.53415180000002],[-80.39999999999998,32.5342455],[-80.39999999999998,32.535041999999976],[-80.39999999999998,32.53529950000001],[-80.39999999999998,32.53661629999999],[-80.39999999999998,32.536750900000015],[-80.39999999999998,32.537309300000004],[-80.39999999999998,32.53741600000001],[-80.39999999999998,32.53888740000002],[-80.39999999999998,32.539442399999984],[-80.39999999999998,32.54116670000002],[-80.39999999999998,32.542706399999986],[-80.39999999999998,32.5432242],[-80.39999999999998,32.543738700000006],[-80.39999999999998,32.543756099999996],[-80.39999999999998,32.54585689999999],[-80.39999999999998,32.55000000000001],[-80.39526289999998,32.55000000000001],[-80.3918969,32.55000000000001],[-80.38915809999997,32.55000000000001],[-80.38897050000003,32.55000000000001],[-80.38393509999997,32.55000000000001],[-80.38118170000001,32.55000000000001],[-80.37512099999998,32.55000000000001],[-80.3744034,32.55000000000001],[-80.37260759999998,32.55000000000001],[-80.37214130000001,32.55000000000001],[-80.3686174,32.55000000000001],[-80.35155320000001,32.55000000000001],[-80.35105650000003,32.55000000000001],[-80.34626559999998,32.55000000000001],[-80.3460829,32.55000000000001],[-80.34553469999997,32.55000000000001],[-80.3452752,32.55000000000001],[-80.34487910000001,32.55000000000001],[-80.34422289999998,32.55000000000001],[-80.3439957,32.55000000000001],[-80.34356839999998,32.55000000000001],[-80.33711770000002,32.55000000000001],[-80.32499999999999,32.55000000000001],[-80.32499999999999,32.54514130000001],[-80.32499999999999,32.54167369999999],[-80.32499999999999,32.54113130000002],[-80.32499999999999,32.53858309999998],[-80.32499999999999,32.538028699999984],[-80.32499999999999,32.535021900000004],[-80.32499999999999,32.53468029999999],[-80.32499999999999,32.5343517],[-80.32499999999999,32.52969780000001],[-80.32499999999999,32.52840459999999],[-80.32499999999999,32.524570100000005],[-80.32499999999999,32.523966599999994],[-80.32499999999999,32.52036659999999],[-80.32499999999999,32.51915330000003],[-80.32499999999999,32.51848030000002],[-80.32499999999999,32.51760300000001],[-80.32499999999999,32.51749109999997],[-80.32499999999999,32.512805800000024],[-80.32499999999999,32.505855499999996],[-80.32499999999999,32.50463610000003],[-80.32499999999999,32.50305639999999],[-80.32499999999999,32.499654299999975],[-80.32499999999999,32.49551939999998],[-80.32499999999999,32.49522680000001],[-80.32499999999999,32.49424950000002],[-80.32499999999999,32.494168100000024],[-80.32499999999999,32.493518900000026],[-80.32499999999999,32.49340000000001],[-80.32499999999999,32.48917340000003],[-80.32499999999999,32.488084800000024],[-80.32499999999999,32.482648100000006],[-80.32499999999999,32.482279300000016],[-80.32499999999999,32.482057999999995],[-80.32499999999999,32.480572300000006],[-80.32499999999999,32.47721480000001],[-80.32499999999999,32.476160300000004],[-80.32499999999999,32.47591990000001],[-80.32499999999999,32.47567950000001],[-80.32499999999999,32.47500000000002],[-80.32739350000003,32.47500000000002],[-80.33068170000001,32.47500000000002],[-80.3328735,32.47500000000002],[-80.33409239999997,32.47500000000002],[-80.3352486,32.47500000000002],[-80.3353439,32.47500000000002],[-80.33616,32.47500000000002],[-80.33727449999998,32.47500000000002],[-80.338886,32.47500000000002],[-80.34045099999997,32.47500000000002],[-80.34256240000002,32.47500000000002],[-80.35004020000002,32.47500000000002],[-80.35056250000002,32.47500000000002],[-80.38242739999998,32.47500000000002],[-80.3883753,32.47500000000002],[-80.38850159999998,32.47500000000002],[-80.39573730000001,32.47500000000002],[-80.3965159,32.47500000000002],[-80.39752620000002,32.47500000000002],[-80.39859339999998,32.47500000000002],[-80.39951589999998,32.47500000000002],[-80.39995470000002,32.47500000000002]]]}},{"type":"Feature","properties":{},"geometry":{"type":"Polygon","coordinates":[[[-80.39999999999998,32.59274640000001],[-80.39999999999998,32.59137479999998],[-80.39999999999998,32.59109790000002],[-80.39999999999998,32.59020600000002],[-80.39999999999998,32.58888289999999],[-80.39999999999998,32.587651600000015],[-80.39999999999998,32.584619499999974],[-80.39999999999998,32.57009640000001],[-80.39999999999998,32.569879300000025],[-80.39999999999998,32.563225999999986],[-80.39999999999998,32.56274689999998],[-80.39999999999998,32.5622851],[-80.39999999999998,32.562033499999984],[-80.39999999999998,32.56114250000002],[-80.39999999999998,32.56020790000002],[-80.39999999999998,32.5601168],[-80.39999999999998,32.55963179999998],[-80.39999999999998,32.559459300000015],[-80.39999999999998,32.5593394],[-80.39999999999998,32.559081900000024],[-80.39999999999998,32.5589531],[-80.39999999999998,32.55849310000002],[-80.39999999999998,32.5583944],[-80.39999999999998,32.554202799999985],[-80.39999999999998,32.55397579999999],[-80.39999999999998,32.55000000000001],[-80.40924139999998,32.55000000000001],[-80.4094404,32.55000000000001],[-80.4103958,32.55000000000001],[-80.4142913,32.55000000000001],[-80.41528779999999,32.55000000000001],[-80.41771240000003,32.55000000000001],[-80.4186982,32.55000000000001],[-80.4198672,32.55000000000001],[-80.42000739999997,32.55000000000001],[-80.42033850000001,32.55000000000001],[-80.4207323,32.55000000000001],[-80.4212541,32.55000000000001],[-80.42145110000001,32.55000000000001],[-80.42154970000001,32.55000000000001],[-80.42251470000002,32.55000000000001],[-80.42494950000003,32.55000000000001],[-80.4417454,32.55000000000001],[-80.45228479999997,32.55000000000001],[-80.45250290000001,32.55000000000001],[-80.452943,32.55000000000001],[-80.4531323,32.55000000000001],[-80.45460550000001,32.55000000000001],[-80.454793,32.55000000000001],[-80.4558743,32.55000000000001],[-80.47414329999998,32.55000000000001],[-80.4748712,32.55000000000001],[-80.47500000000002,32.55000000000001],[-80.47500000000002,32.550544],[-80.47500000000002,32.550789899999984],[-80.47500000000002,32.55244099999999],[-80.47500000000002,32.55277960000001],[-80.47500000000002,32.572376899999995],[-80.47500000000002,32.5725635],[-80.47500000000002,32.57543930000003],[-80.47500000000002,32.58557489999998],[-80.47500000000002,32.589792699999975],[-80.47500000000002,32.60016059999998],[-80.47500000000002,32.60059380000001],[-80.47500000000002,32.605000000000004],[-80.39999999999998,32.605000000000004],[-80.39999999999998,32.59274640000001]]]}},{"type":"Feature","properties":{},"geometry":{"type":"Polygon","coordinates":[[[-80.32499999999999,32.603933299999994],[-80.32499999999999,32.60259079999997],[-80.32499999999999,32.6012475],[-80.32499999999999,32.59455059999999],[-80.32499999999999,32.594265699999994],[-80.32499999999999,32.59306409999999],[-80.32499999999999,32.58992460000002],[-80.32499999999999,32.58873160000002],[-80.32499999999999,32.5737853],[-80.32499999999999,32.573608999999976],[-80.32499999999999,32.556899699999974],[-80.32499999999999,32.5562946],[-80.32499999999999,32.55507979999999],[-80.32499999999999,32.55489890000001],[-80.32499999999999,32.55285170000002],[-80.32499999999999,32.55000000000001],[-80.33711770000002,32.55000000000001],[-80.34356839999998,32.55000000000001],[-80.3439957,32.55000000000001],[-80.34422289999998,32.55000000000001],[-80.34487910000001,32.55000000000001],[-80.3452752,32.55000000000001],[-80.34553469999997,32.55000000000001],[-80.3460829,32.55000000000001],[-80.34626559999998,32.55000000000001],[-80.35105650000003,32.55000000000001],[-80.35155320000001,32.55000000000001],[-80.3686174,32.55000000000001],[-80.37214130000001,32.55000000000001],[-80.37260759999998,32.55000000000001],[-80.3744034,32.55000000000001],[-80.37512099999998,32.55000000000001],[-80.38118170000001,32.55000000000001],[-80.38393509999997,32.55000000000001],[-80.38897050000003,32.55000000000001],[-80.38915809999997,32.55000000000001],[-80.3918969,32.55000000000001],[-80.39526289999998,32.55000000000001],[-80.39999999999998,32.55000000000001],[-80.39999999999998,32.55397579999999],[-80.39999999999998,32.554202799999985],[-80.39999999999998,32.5583944],[-80.39999999999998,32.55849310000002],[-80.39999999999998,32.5589531],[-80.39999999999998,32.559081900000024],[-80.39999999999998,32.5593394],[-80.39999999999998,32.559459300000015],[-80.39999999999998,32.5601168],[-80.39999999999998,32.56114250000002],[-80.39999999999998,32.562033499999984],[-80.39999999999998,32.5622851],[-80.39999999999998,32.56274689999998],[-80.39999999999998,32.563225999999986],[-80.39999999999998,32.569879300000025],[-80.39999999999998,32.57009640000001],[-80.39999999999998,32.584619499999974],[-80.39999999999998,32.587651600000015],[-80.39999999999998,32.58888289999999],[-80.39999999999998,32.59020600000002],[-80.39999999999998,32.59109790000002],[-80.39999999999998,32.59137479999998],[-80.39999999999998,32.59274640000001],[-80.39999999999998,32.605000000000004],[-80.32499999999999,32.605000000000004],[-80.32499999999999,32.603933299999994]]]}},{"type":"Feature","properties":{},"geometry":{"type":"Polygon","coordinates":[[[-80.25,32.60396480000003],[-80.25,32.6030356],[-80.25,32.6028503],[-80.25,32.601836400000025],[-80.25,32.60153559999998],[-80.25,32.59575430000001],[-80.25,32.594613400000014],[-80.25,32.594211299999984],[-80.25,32.593825200000026],[-80.25,32.593152799999984],[-80.25,32.591808800000024],[-80.25,32.5673913],[-80.25,32.565448],[-80.25,32.564866600000016],[-80.25,32.563263500000005],[-80.25,32.562688200000025],[-80.25,32.56206300000002],[-80.25,32.5611667],[-80.25,32.56080639999999],[-80.25,32.559810700000014],[-80.25,32.55814800000002],[-80.25,32.55769670000001],[-80.25,32.55447579999998],[-80.25,32.55231500000002],[-80.25,32.55000000000001],[-80.30953499999998,32.55000000000001],[-80.32499999999999,32.55000000000001],[-80.32499999999999,32.55285170000002],[-80.32499999999999,32.55489890000001],[-80.32499999999999,32.55507979999999],[-80.32499999999999,32.5562946],[-80.32499999999999,32.556899699999974],[-80.32499999999999,32.573608999999976],[-80.32499999999999,32.5737853],[-80.32499999999999,32.58873160000002],[-80.32499999999999,32.58992460000002],[-80.32499999999999,32.59306409999999],[-80.32499999999999,32.594265699999994],[-80.32499999999999,32.59455059999999],[-80.32499999999999,32.6012475],[-80.32499999999999,32.60259079999997],[-80.32499999999999,32.603933299999994],[-80.32499999999999,32.605000000000004],[-80.25,32.605000000000004],[-80.25,32.60396480000003]]]}},{"type":"Feature","properties":{},"geometry":{"type":"Polygon","coordinates":[[[-80.1961015,32.55000000000001],[-80.1971954,32.55000000000001],[-80.21598469999998,32.55000000000001],[-80.21781179999999,32.55000000000001],[-80.2180285,32.55000000000001],[-80.218954,32.55000000000001],[-80.21913080000002,32.55000000000001],[-80.21956110000002,32.55000000000001],[-80.22152829999999,32.55000000000001],[-80.22694999999999,32.55000000000001],[-80.23018050000002,32.55000000000001],[-80.24778099999997,32.55000000000001],[-80.24817150000001,32.55000000000001],[-80.25,32.55000000000001],[-80.25,32.55231500000002],[-80.25,32.55447579999998],[-80.25,32.55769670000001],[-80.25,32.55814800000002],[-80.25,32.559810700000014],[-80.25,32.56080639999999],[-80.25,32.5611667],[-80.25,32.56206300000002],[-80.25,32.562688200000025],[-80.25,32.563263500000005],[-80.25,32.564866600000016],[-80.25,32.565448],[-80.25,32.5673913],[-80.25,32.591808800000024],[-80.25,32.593152799999984],[-80.25,32.593825200000026],[-80.25,32.594211299999984],[-80.25,32.594613400000014],[-80.25,32.59575430000001],[-80.25,32.60153559999998],[-80.25,32.601836400000025],[-80.25,32.6028503],[-80.25,32.6030356],[-80.25,32.60396480000003],[-80.25,32.605000000000004],[-80.19500000000001,32.605000000000004],[-80.19500000000001,32.55000000000001],[-80.1961015,32.55000000000001]]]}}]}