{"type":"FeatureCollection","features":[{"type":"Feature","properties":{},"geometry":{"type":"Polygon","coordinates":[[[-77.5330194,34.42026299999998],[-77.5330194,34.423129200000005],[-77.5330194,34.42500000000001],[-77.53021530000001,34.42500000000001],[-77.5251409,34.42500000000001],[-77.49335239999999,34.42500000000001],[-77.47500000000002,34.42500000000001],[-77.43917099999999,34.42500000000001],[-77.43835150000001,34.42500000000001],[-77.39999999999998,34.42500000000001],[-77.39999999999998,34.443148399999984],[-77.39999999999998,34.443557399999975],[-77.39999999999998,34.48669669999998],[-77.39999999999998,34.48709910000002],[-77.39999999999998,34.48980999999998],[-77.39999999999998,34.498033299999975],[-77.39999999999998,34.49823909999998],[-77.39999999999998,34.49940720000001],[-77.39999999999998,34.5],[-77.39870439999999,34.5],[-77.39722210000002,34.5],[-77.39548739999998,34.5],[-77.38041390000001,34.5],[-77.3651183,34.5],[-77.35562929999998,34.5],[-77.35488889999999,34.5],[-77.35289890000001,34.5],[-77.33405269999997,34.5],[-77.32499999999999,34.5],[-77.27778419999999,34.5],[-77.27702160000001,34.5],[-77.25142240000002,34.5],[-77.25,34.5],[-77.25,34.51712520000001],[-77.25,34.517564600000014],[-77.25,34.5647065],[-77.25,34.573312199999975],[-77.25,34.57499999999999],[-77.24613069999998,34.57499999999999],[-77.24179950000001,34.57499999999999],[-77.23922010000001,34.57499999999999],[-77.2367117,34.57499999999999],[-77.2335979,34.57499999999999],[-77.23301950000001,34.57499999999999],[-77.23301950000001,34.57481919999998],[-77.23301950000001,34.52927349999999],[-77.23301950000001,34.52880759999999],[-77.23301950000001,34.489620100000025],[-77.23301950000001,34.4168305],[-77.38043970000001,34.4168305],[-77.45363680000003,34.4168305],[-77.4543569,34.4168305],[-77.48268539999998,34.4168305],[-77.5330194,34.4168305],[-77.5330194,34.42026299999998]]]}},{"type":"Feature","properties":{},"geometry":{"type":"Polygon","coordinates":[[[-77.85000000000002,34.27499999999998],[-77.800772,34.27499999999998],[-77.79800940000001,34.27499999999998],[-77.79766660000001,34.27499999999998],[-77.79342980000001,34.27499999999998],[-77.79034410000003,34.27499999999998],[-77.78706219999998,34.27499999999998],[-77.77630870000002,34.27499999999998],[-77.77554889999999,34.27499999999998],[-77.77499999999998,34.27499999999998],[-77.77499999999998,34.27314260000003],[-77.77499999999998,34.2727481],[-77.77499999999998,34.27242269999999],[-77.77499999999998,34.271855800000026],[-77.77499999999998,34.26100409999998],[-77.77499999999998,34.25954840000003],[-77.77499999999998,34.258293400000014],[-77.77499999999998,34.25813249999999],[-77.77499999999998,34.25791099999998],[-77.77499999999998,34.2577182],[-77.77499999999998,34.25743010000002],[-77.77499999999998,34.256491400000016],[-77.77499999999998,34.256073000000015],[-77.77499999999998,34.255064300000015],[-77.77499999999998,34.25287880000002],[-77.77499999999998,34.2521423],[-77.77499999999998,34.251041199999975],[-77.77499999999998,34.250855100000024],[-77.77499999999998,34.25034629999999],[-77.77499999999998,34.248468],[-77.77499999999998,34.247262999999975],[-77.77499999999998,34.24593390000001],[-77.77499999999998,34.24566149999998],[-77.77499999999998,34.244924000000026],[-77.77499999999998,34.244394],[-77.77499999999998,34.2439043],[-77.77499999999998,34.24365949999998],[-77.77499999999998,34.243058399999995],[-77.77499999999998,34.24275510000001],[-77.77499999999998,34.242285100000004],[-77.77499999999998,34.24042559999998],[-77.77499999999998,34.239914999999996],[-77.77499999999998,34.23801930000002],[-77.77499999999998,34.2373192],[-77.77499999999998,34.23630739999999],[-77.77499999999998,34.23576489999999],[-77.77499999999998,34.23343310000001],[-77.77499999999998,34.23261280000003],[-77.77499999999998,34.23215970000001],[-77.77499999999998,34.23064019999998],[-77.77499999999998,34.2305154],[-77.77499999999998,34.229726200000016],[-77.77499999999998,34.22854460000002],[-77.77499999999998,34.224999999999994],[-77.85000000000002,34.224999999999994],[-77.85000000000002,34.27499999999998]]]}},{"type":"Feature","properties":{},"geometry":{"type":"Polygon","coordinates":[[[-77.77499999999998,34.22854460000002],[-77.77499999999998,34.229726200000016],[-77.77499999999998,34.2305154],[-77.77499999999998,34.23064019999998],[-77.77499999999998,34.23215970000001],[-77.77499999999998,34.23261280000003],[-77.77499999999998,34.23343310000001],[-77.77499999999998,34.23576489999999],[-77.77499999999998,34.23630739999999],[-77.77499999999998,34.2373192],[-77.77499999999998,34.23801930000002],[-77.77499999999998,34.239914999999996],[-77.77499999999998,34.24042559999998],[-77.77499999999998,34.242285100000004],[-77.77499999999998,34.24275510000001],[-77.77499999999998,34.243058399999995],[-77.77499999999998,34.24365949999998],[-77.77499999999998,34.2439043],[-77.77499999999998,34.244394],[-77.77499999999998,34.244924000000026],[-77.77499999999998,34.24566149999998],[-77.77499999999998,34.24593390000001],[-77.77499999999998,34.247262999999975],[-77.77499999999998,34.248468],[-77.77499999999998,34.25034629999999],[-77.77499999999998,34.250855100000024],[-77.77499999999998,34.251041199999975],[-77.77499999999998,34.2521423],[-77.77499999999998,34.25287880000002],[-77.77499999999998,34.255064300000015],[-77.77499999999998,34.256073000000015],[-77.77499999999998,34.256491400000016],[-77.77499999999998,34.25743010000002],[-77.77499999999998,34.2577182],[-77.77499999999998,34.25791099999998],[-77.77499999999998,34.25813249999999],[-77.77499999999998,34.258293400000014],[-77.77499999999998,34.25954840000003],[-77.77499999999998,34.26100409999998],[-77.77499999999998,34.271855800000026],[-77.77499999999998,34.27242269999999],[-77.77499999999998,34.2727481],[-77.77499999999998,34.27314260000003],[-77.77499999999998,34.27499999999998],[-77.77353470000003,34.27499999999998],[-77.77301920000002,34.27499999999998],[-77.76234920000002,34.27499999999998],[-77.76194520000001,34.27499999999998],[-77.76139790000002,34.27499999999998],[-77.76097870000001,34.27499999999998],[-77.76049410000002,34.27499999999998],[-77.7603676,34.27499999999998],[-77.7599717,34.27499999999998],[-77.75979030000002,34.27499999999998],[-77.75961009999997,34.27499999999998],[-77.75820199999998,34.27499999999998],[-77.75766049999999,34.27499999999998],[-77.75588620000002,34.27499999999998],[-77.75480879999998,34.27499999999998],[-77.75442650000002,34.27499999999998],[-77.7542947,34.27499999999998],[-77.753446,34.27499999999998],[-77.753175,34.27499999999998],[-77.75248099999999,34.27499999999998],[-77.74915720000001,34.27499999999998],[-77.74881210000001,34.27499999999998],[-77.74478599999998,34.27499999999998],[-77.74342560000002,34.27499999999998],[-77.74276709999998,34.27499999999998],[-77.74253879999998,34.27499999999998],[-77.7422909,34.27499999999998],[-77.74196810000001,34.27499999999998],[-77.74132780000002,34.27499999999998],[-77.74093729999998,34.27499999999998],[-77.7398076,34.27499999999998],[-77.7394519,34.27499999999998],[-77.7369579,34.27499999999998],[-77.73613769999997,34.27499999999998],[-77.73594129999998,34.27499999999998],[-77.73574289999999,34.27499999999998],[-77.73430669999999,34.27499999999998],[-77.73345599999999,34.27499999999998],[-77.7324774,34.27499999999998],[-77.72163619999998,34.27499999999998],[-77.71777200000002,34.27499999999998],[-77.69999999999999,34.27499999999998],[-77.69999999999999,34.2491028],[-77.69999999999999,34.23358009999998],[-77.69999999999999,34.23295580000001],[-77.69999999999999,34.23261830000001],[-77.69999999999999,34.224999999999994],[-77.77499999999998,34.224999999999994],[-77.77499999999998,34.22854460000002]]]}},{"type":"Feature","properties":{},"geometry":{"type":"Polygon","coordinates":[[[-77.77353470000003,34.27499999999998],[-77.77499999999998,34.27499999999998],[-77.77499999999998,34.27581930000002],[-77.77499999999998,34.27622059999999],[-77.77499999999998,34.35000000000002],[-77.7071004,34.35000000000002],[-77.70625660000002,34.35000000000002],[-77.70563399999998,34.35000000000002],[-77.70312689999997,34.35000000000002],[-77.69999999999999,34.35000000000002],[-77.69999999999999,34.34616679999999],[-77.69999999999999,34.34564979999999],[-77.69999999999999,34.34433610000002],[-77.69999999999999,34.344166099999995],[-77.69999999999999,34.34394850000001],[-77.69999999999999,34.343862899999976],[-77.69999999999999,34.34345719999999],[-77.69999999999999,34.34229090000002],[-77.69999999999999,34.340584999999976],[-77.69999999999999,34.3376983],[-77.69999999999999,34.33725579999998],[-77.69999999999999,34.33631889999998],[-77.69999999999999,34.336249699999996],[-77.69999999999999,34.336138800000015],[-77.69999999999999,34.33564030000002],[-77.69999999999999,34.33421929999997],[-77.69999999999999,34.3288144],[-77.69999999999999,34.3285133],[-77.69999999999999,34.3271105],[-77.69999999999999,34.32603590000002],[-77.69999999999999,34.325620500000014],[-77.69999999999999,34.32373660000002],[-77.69999999999999,34.32364630000001],[-77.69999999999999,34.3210282],[-77.69999999999999,34.32064559999998],[-77.69999999999999,34.316366500000015],[-77.69999999999999,34.31561629999999],[-77.69999999999999,34.31273119999997],[-77.69999999999999,34.31225119999999],[-77.69999999999999,34.30958670000001],[-77.69999999999999,34.30884809999998],[-77.69999999999999,34.30837200000002],[-77.69999999999999,34.3042959],[-77.69999999999999,34.30389250000002],[-77.69999999999999,34.3031838],[-77.69999999999999,34.298763099999974],[-77.69999999999999,34.29153580000002],[-77.69999999999999,34.288973399999975],[-77.69999999999999,34.27499999999998],[-77.71777200000002,34.27499999999998],[-77.72163619999998,34.27499999999998],[-77.7324774,34.27499999999998],[-77.73345599999999,34.27499999999998],[-77.73430669999999,34.27499999999998],[-77.73574289999999,34.27499999999998],[-77.73594129999998,34.27499999999998],[-77.73613769999997,34.27499999999998],[-77.7369579,34.27499999999998],[-77.7394519,34.27499999999998],[-77.7398076,34.27499999999998],[-77.74093729999998,34.27499999999998],[-77.74132780000002,34.27499999999998],[-77.74196810000001,34.27499999999998],[-77.7422909,34.27499999999998],[-77.74253879999998,34.27499999999998],[-77.74276709999998,34.27499999999998],[-77.74342560000002,34.27499999999998],[-77.74478599999998,34.27499999999998],[-77.74881210000001,34.27499999999998],[-77.74915720000001,34.27499999999998],[-77.75248099999999,34.27499999999998],[-77.753175,34.27499999999998],[-77.753446,34.27499999999998],[-77.7542947,34.27499999999998],[-77.75442650000002,34.27499999999998],[-77.75480879999998,34.27499999999998],[-77.75588620000002,34.27499999999998],[-77.75766049999999,34.27499999999998],[-77.75820199999998,34.27499999999998],[-77.75961009999997,34.27499999999998],[-77.75979030000002,34.27499999999998],[-77.7599717,34.27499999999998],[-77.7603676,34.27499999999998],[-77.76049410000002,34.27499999999998],[-77.76097870000001,34.27499999999998],[-77.76139790000002,34.27499999999998],[-77.76194520000001,34.27499999999998],[-77.76234920000002,34.27499999999998],[-77.77301920000002,34.27499999999998],[-77.77353470000003,34.27499999999998]]]}},{"type":"Feature","properties":{},"geometry":{"type":"Polygon","coordinates":[[[-77.67228599999999,34.27499999999998],[-77.69999999999999,34.27499999999998],[-77.69999999999999,34.288973399999975],[-77.69999999999999,34.29153580000002],[-77.69999999999999,34.298763099999974],[-77.69999999999999,34.3031838],[-77.69999999999999,34.30389250000002],[-77.69999999999999,34.3042959],[-77.69999999999999,34.30837200000002],[-77.69999999999999,34.30884809999998],[-77.69999999999999,34.30958670000001],[-77.69999999999999,34.31225119999999],[-77.69999999999999,34.31273119999997],[-77.69999999999999,34.31561629999999],[-77.69999999999999,34.316366500000015],[-77.69999999999999,34.32064559999998],[-77.69999999999999,34.3210282],[-77.69999999999999,34.32364630000001],[-77.69999999999999,34.32373660000002],[-77.69999999999999,34.325620500000014],[-77.69999999999999,34.32603590000002],[-77.69999999999999,34.3271105],[-77.69999999999999,34.3285133],[-77.69999999999999,34.3288144],[-77.69999999999999,34.33421929999997],[-77.69999999999999,34.33564030000002],[-77.69999999999999,34.336138800000015],[-77.69999999999999,34.336249699999996],[-77.69999999999999,34.33631889999998],[-77.69999999999999,34.33725579999998],[-77.69999999999999,34.3376983],[-77.69999999999999,34.340584999999976],[-77.69999999999999,34.34229090000002],[-77.69999999999999,34.34345719999999],[-77.69999999999999,34.343862899999976],[-77.69999999999999,34.34394850000001],[-77.69999999999999,34.344166099999995],[-77.69999999999999,34.34433610000002],[-77.69999999999999,34.34564979999999],[-77.69999999999999,34.34616679999999],[-77.69999999999999,34.35000000000002],[-77.69319439999998,34.35000000000002],[-77.69090770000003,34.35000000000002],[-77.6900718,34.35000000000002],[-77.68979910000002,34.35000000000002],[-77.6895556,34.35000000000002],[-77.68878690000003,34.35000000000002],[-77.68781790000003,34.35000000000002],[-77.6873511,34.35000000000002],[-77.6805986,34.35000000000002],[-77.6799029,34.35000000000002],[-77.67710399999999,34.35000000000002],[-77.6725419,34.35000000000002],[-77.6723407,34.35000000000002],[-77.67143470000002,34.35000000000002],[-77.67096529999998,34.35000000000002],[-77.6707197,34.35000000000002],[-77.67000339999998,34.35000000000002],[-77.66973380000002,34.35000000000002],[-77.6691027,34.35000000000002],[-77.66902540000001,34.35000000000002],[-77.66873850000002,34.35000000000002],[-77.66823240000002,34.35000000000002],[-77.66790659999998,34.35000000000002],[-77.66495689999999,34.35000000000002],[-77.66392489999998,34.35000000000002],[-77.66324880000002,34.35000000000002],[-77.663115,34.35000000000002],[-77.66269060000002,34.35000000000002],[-77.66083809999998,34.35000000000002],[-77.66041389999998,34.35000000000002],[-77.66036639999999,34.35000000000002],[-77.6576321,34.35000000000002],[-77.6575618,34.35000000000002],[-77.6573505,34.35000000000002],[-77.65701919999998,34.35000000000002],[-77.6566942,34.35000000000002],[-77.65491909999997,34.35000000000002],[-77.6545984,34.35000000000002],[-77.6542981,34.35000000000002],[-77.65419079999998,34.35000000000002],[-77.65392409999998,34.35000000000002],[-77.64879730000001,34.35000000000002],[-77.6483063,34.35000000000002],[-77.64651839999999,34.35000000000002],[-77.64560369999998,34.35000000000002],[-77.64532539999999,34.35000000000002],[-77.64426650000001,34.35000000000002],[-77.6396947,34.35000000000002],[-77.63684510000002,34.35000000000002],[-77.63475599999998,34.35000000000002],[-77.63293729999998,34.35000000000002],[-77.62935590000001,34.35000000000002],[-77.625,34.35000000000002],[-77.625,34.347942699999976],[-77.625,34.319186],[-77.625,34.30123600000002],[-77.625,34.300815399999976],[-77.625,34.27499999999998],[-77.65497349999998,34.27499999999998],[-77.65551449999998,34.27499999999998],[-77.67228599999999,34.27499999999998]]]}},{"type":"Feature","properties":{},"geometry":{"type":"Polygon","coordinates":[[[-77.625,34.39306920000001],[-77.625,34.391430000000014],[-77.625,34.39111300000002],[-77.625,34.39069469999998],[-77.625,34.39032259999999],[-77.625,34.39016099999998],[-77.625,34.39000060000001],[-77.625,34.389705400000025],[-77.625,34.389133800000025],[-77.625,34.3868592],[-77.625,34.3866261],[-77.625,34.3825511],[-77.625,34.3813255],[-77.625,34.380581199999995],[-77.625,34.38014659999999],[-77.625,34.37977269999999],[-77.625,34.376478399999996],[-77.625,34.374751600000025],[-77.625,34.37412949999998],[-77.625,34.3740995],[-77.625,34.3739286],[-77.625,34.37319680000002],[-77.625,34.37311749999998],[-77.625,34.37258480000003],[-77.625,34.3678587],[-77.625,34.36708490000001],[-77.625,34.36695700000001],[-77.625,34.3658939],[-77.625,34.3644137],[-77.625,34.364268200000026],[-77.625,34.362301100000025],[-77.625,34.355671099999995],[-77.625,34.35000000000002],[-77.62935590000001,34.35000000000002],[-77.63293729999998,34.35000000000002],[-77.63475599999998,34.35000000000002],[-77.63684510000002,34.35000000000002],[-77.6396947,34.35000000000002],[-77.64426650000001,34.35000000000002],[-77.64532539999999,34.35000000000002],[-77.64560369999998,34.35000000000002],[-77.64651839999999,34.35000000000002],[-77.6483063,34.35000000000002],[-77.64879730000001,34.35000000000002],[-77.65392409999998,34.35000000000002],[-77.65419079999998,34.35000000000002],[-77.6542981,34.35000000000002],[-77.6545984,34.35000000000002],[-77.65491909999997,34.35000000000002],[-77.6566942,34.35000000000002],[-77.65701919999998,34.35000000000002],[-77.6573505,34.35000000000002],[-77.6575618,34.35000000000002],[-77.6576321,34.35000000000002],[-77.66036639999999,34.35000000000002],[-77.66041389999998,34.35000000000002],[-77.66083809999998,34.35000000000002],[-77.66269060000002,34.35000000000002],[-77.663115,34.35000000000002],[-77.66324880000002,34.35000000000002],[-77.66392489999998,34.35000000000002],[-77.66495689999999,34.35000000000002],[-77.66790659999998,34.35000000000002],[-77.66823240000002,34.35000000000002],[-77.66873850000002,34.35000000000002],[-77.66902540000001,34.35000000000002],[-77.6691027,34.35000000000002],[-77.66973380000002,34.35000000000002],[-77.67000339999998,34.35000000000002],[-77.6707197,34.35000000000002],[-77.67096529999998,34.35000000000002],[-77.67143470000002,34.35000000000002],[-77.6723407,34.35000000000002],[-77.6725419,34.35000000000002],[-77.67710399999999,34.35000000000002],[-77.6799029,34.35000000000002],[-77.6805986,34.35000000000002],[-77.6873511,34.35000000000002],[-77.68781790000003,34.35000000000002],[-77.68878690000003,34.35000000000002],[-77.6895556,34.35000000000002],[-77.68979910000002,34.35000000000002],[-77.6900718,34.35000000000002],[-77.69090770000003,34.35000000000002],[-77.69319439999998,34.35000000000002],[-77.69588979999997,34.35000000000002],[-77.69999999999999,34.35000000000002],[-77.69999999999999,34.42500000000001],[-77.625,34.42500000000001],[-77.625,34.416112999999996],[-77.625,34.393428099999994],[-77.625,34.39306920000001]]]}},{"type":"Feature","properties":{},"geometry":{"type":"Polygon","coordinates":[[[-77.62238339999999,34.35000000000002],[-77.625,34.35000000000002],[-77.625,34.355671099999995],[-77.625,34.362301100000025],[-77.625,34.364268200000026],[-77.625,34.3644137],[-77.625,34.3658939],[-77.625,34.36695700000001],[-77.625,34.36708490000001],[-77.625,34.3678587],[-77.625,34.37258480000003],[-77.625,34.37311749999998],[-77.625,34.37319680000002],[-77.625,34.3739286],[-77.625,34.3740995],[-77.625,34.37412949999998],[-77.625,34.374751600000025],[-77.625,34.376478399999996],[-77.625,34.37977269999999],[-77.625,34.38014659999999],[-77.625,34.380581199999995],[-77.625,34.3813255],[-77.625,34.3825511],[-77.625,34.3866261],[-77.625,34.3868592],[-77.625,34.389133800000025],[-77.625,34.389705400000025],[-77.625,34.39000060000001],[-77.625,34.39016099999998],[-77.625,34.39032259999999],[-77.625,34.39069469999998],[-77.625,34.39111300000002],[-77.625,34.391430000000014],[-77.625,34.39306920000001],[-77.625,34.393428099999994],[-77.625,34.416112999999996],[-77.625,34.42500000000001],[-77.61547089999999,34.42500000000001],[-77.60635200000002,34.42500000000001],[-77.60214730000001,34.42500000000001],[-77.60116779999998,34.42500000000001],[-77.57634239999999,34.42500000000001],[-77.57376579999999,34.42500000000001],[-77.57275729999998,34.42500000000001],[-77.57157489999997,34.42500000000001],[-77.5682478,34.42500000000001],[-77.56770230000001,34.42500000000001],[-77.5642092,34.42500000000001],[-77.56385719999997,34.42500000000001],[-77.56348329999997,34.42500000000001],[-77.56250640000002,34.42500000000001],[-77.56114020000001,34.42500000000001],[-77.56050099999999,34.42500000000001],[-77.55996299999998,34.42500000000001],[-77.55852920000001,34.42500000000001],[-77.5567524,34.42500000000001],[-77.55325340000002,34.42500000000001],[-77.55000000000001,34.42500000000001],[-77.55000000000001,34.424179200000026],[-77.55000000000001,34.422959400000025],[-77.55000000000001,34.4218664],[-77.55000000000001,34.4212895],[-77.55000000000001,34.42104710000001],[-77.55000000000001,34.420331499999975],[-77.55000000000001,34.4192769],[-77.55000000000001,34.41893520000002],[-77.55000000000001,34.41826889999999],[-77.55000000000001,34.41550960000001],[-77.55000000000001,34.40691190000001],[-77.55000000000001,34.3892692],[-77.55000000000001,34.357819800000016],[-77.55000000000001,34.35732860000002],[-77.55000000000001,34.35000000000002],[-77.5596519,34.35000000000002],[-77.5603276,34.35000000000002],[-77.59202420000003,34.35000000000002],[-77.60098570000002,34.35000000000002],[-77.60520739999998,34.35000000000002],[-77.62238339999999,34.35000000000002]]]}},{"type":"Feature","properties":{},"geometry":{"type":"Polygon","coordinates":[[[-77.55000000000001,34.46835490000001],[-77.55000000000001,34.436799699999995],[-77.55000000000001,34.43650050000002],[-77.55000000000001,34.43519279999998],[-77.55000000000001,34.4348799],[-77.55000000000001,34.432695000000024],[-77.55000000000001,34.43172670000001],[-77.55000000000001,34.431336499999986],[-77.55000000000001,34.43111670000002],[-77.55000000000001,34.43093520000002],[-77.55000000000001,34.4308274],[-77.55000000000001,34.43075270000003],[-77.55000000000001,34.429654400000004],[-77.55000000000001,34.42500000000001],[-77.55325340000002,34.42500000000001],[-77.5567524,34.42500000000001],[-77.55852920000001,34.42500000000001],[-77.55996299999998,34.42500000000001],[-77.56050099999999,34.42500000000001],[-77.56114020000001,34.42500000000001],[-77.56250640000002,34.42500000000001],[-77.56348329999997,34.42500000000001],[-77.56385719999997,34.42500000000001],[-77.5642092,34.42500000000001],[-77.56770230000001,34.42500000000001],[-77.5682478,34.42500000000001],[-77.57157489999997,34.42500000000001],[-77.57275729999998,34.42500000000001],[-77.57376579999999,34.42500000000001],[-77.57634239999999,34.42500000000001],[-77.60116779999998,34.42500000000001],[-77.60214730000001,34.42500000000001],[-77.60635200000002,34.42500000000001],[-77.625,34.42500000000001],[-77.625,34.5],[-77.55000000000001,34.5],[-77.55000000000001,34.46940949999998],[-77.55000000000001,34.46835490000001]]]}},{"type":"Feature","properties":{},"geometry":{"type":"Polygon","coordinates":[[[-77.54644300000001,34.42500000000001],[-77.54856469999999,34.42500000000001],[-77.55000000000001,34.42500000000001],[-77.55000000000001,34.429654400000004],[-77.55000000000001,34.43075270000003],[-77.55000000000001,34.4308274],[-77.55000000000001,34.43093520000002],[-77.55000000000001,34.43111670000002],[-77.55000000000001,34.431336499999986],[-77.55000000000001,34.43172670000001],[-77.55000000000001,34.432695000000024],[-77.55000000000001,34.4348799],[-77.55000000000001,34.43519279999998],[-77.55000000000001,34.43650050000002],[-77.55000000000001,34.436799699999995],[-77.55000000000001,34.46835490000001],[-77.55000000000001,34.46940949999998],[-77.55000000000001,34.4860592],[-77.55000000000001,34.5],[-77.53505200000001,34.5],[-77.53452040000002,34.5],[-77.5330194,34.5],[-77.47500000000002,34.5],[-77.47500000000002,34.48666300000002],[-77.47500000000002,34.48298169999998],[-77.47500000000002,34.482842300000016],[-77.47500000000002,34.48270259999998],[-77.47500000000002,34.481870000000015],[-77.47500000000002,34.48019799999997],[-77.47500000000002,34.4797676],[-77.47500000000002,34.47630609999999],[-77.47500000000002,34.473800100000005],[-77.47500000000002,34.469449999999995],[-77.47500000000002,34.46768500000002],[-77.47500000000002,34.46747640000001],[-77.47500000000002,34.465569000000016],[-77.47500000000002,34.4650676],[-77.47500000000002,34.4636653],[-77.47500000000002,34.46280760000002],[-77.47500000000002,34.462121000000025],[-77.47500000000002,34.45953250000002],[-77.47500000000002,34.45524979999999],[-77.47500000000002,34.42500000000001],[-77.49335239999999,34.42500000000001],[-77.5251409,34.42500000000001],[-77.53021530000001,34.42500000000001],[-77.5330194,34.42500000000001],[-77.53897819999997,34.42500000000001],[-77.54010729999999,34.42500000000001],[-77.54048369999998,34.42500000000001],[-77.54219310000002,34.42500000000001],[-77.54344839999999,34.42500000000001],[-77.54375290000002,34.42500000000001],[-77.5445067,34.42500000000001],[-77.54644300000001,34.42500000000001]]]}},{"type":"Feature","properties":{},"geometry":{"type":"Polygon","coordinates":[[[-77.43835150000001,34.42500000000001],[-77.43917099999999,34.42500000000001],[-77.47500000000002,34.42500000000001],[-77.47500000000002,34.45524979999999],[-77.47500000000002,34.45953250000002],[-77.47500000000002,34.462121000000025],[-77.47500000000002,34.46280760000002],[-77.47500000000002,34.4636653],[-77.47500000000002,34.4650676],[-77.47500000000002,34.465569000000016],[-77.47500000000002,34.46747640000001],[-77.47500000000002,34.46768500000002],[-77.47500000000002,34.469449999999995],[-77.47500000000002,34.473800100000005],[-77.47500000000002,34.47630609999999],[-77.47500000000002,34.4797676],[-77.47500000000002,34.48019799999997],[-77.47500000000002,34.481870000000015],[-77.47500000000002,34.48270259999998],[-77.47500000000002,34.482842300000016],[-77.47500000000002,34.48298169999998],[-77.47500000000002,34.48666300000002],[-77.47500000000002,34.5],[-77.46672890000002,34.5],[-77.46618239999998,34.5],[-77.4653118,34.5],[-77.44086149999998,34.5],[-77.43761410000002,34.5],[-77.43747289999999,34.5],[-77.43659280000003,34.5],[-77.43041549999998,34.5],[-77.43005449999998,34.5],[-77.42953899999998,34.5],[-77.4295282,34.5],[-77.42930280000002,34.5],[-77.42910440000003,34.5],[-77.42867960000001,34.5],[-77.4281995,34.5],[-77.42022909999997,34.5],[-77.41346320000002,34.5],[-77.4114793,34.5],[-77.40947160000002,34.5],[-77.40273209999998,34.5],[-77.40125999999998,34.5],[-77.39999999999998,34.5],[-77.39999999999998,34.49940720000001],[-77.39999999999998,34.49823909999998],[-77.39999999999998,34.498033299999975],[-77.39999999999998,34.48980999999998],[-77.39999999999998,34.48709910000002],[-77.39999999999998,34.48669669999998],[-77.39999999999998,34.443557399999975],[-77.39999999999998,34.443148399999984],[-77.39999999999998,34.42500000000001],[-77.43835150000001,34.42500000000001]]]}},{"type":"Feature","properties":{},"geometry":{"type":"Polygon","coordinates":[[[-77.4653118,34.5],[-77.46618239999998,34.5],[-77.46672890000002,34.5],[-77.47500000000002,34.5],[-77.47500000000002,34.57499999999999],[-77.42039160000002,34.57499999999999],[-77.41509669999999,34.57499999999999],[-77.41369780000002,34.57499999999999],[-77.41242290000002,34.57499999999999],[-77.406768,34.57499999999999],[-77.40653409999999,34.57499999999999],[-77.40092770000001,34.57499999999999],[-77.39999999999998,34.57499999999999],[-77.39999999999998,34.52487839999998],[-77.39999999999998,34.51616109999998],[-77.39999999999998,34.513045799999986],[-77.39999999999998,34.50979460000002],[-77.39999999999998,34.5091908],[-77.39999999999998,34.50905899999998],[-77.39999999999998,34.508926900000006],[-77.39999999999998,34.50874379999999],[-77.39999999999998,34.50637590000002],[-77.39999999999998,34.50596949999999],[-77.39999999999998,34.504022099999986],[-77.39999999999998,34.50120659999999],[-77.39999999999998,34.500560699999994],[-77.39999999999998,34.5],[-77.40125999999998,34.5],[-77.40273209999998,34.5],[-77.40947160000002,34.5],[-77.4114793,34.5],[-77.41346320000002,34.5],[-77.42022909999997,34.5],[-77.4281995,34.5],[-77.42867960000001,34.5],[-77.42910440000003,34.5],[-77.42930280000002,34.5],[-77.4295282,34.5],[-77.42953899999998,34.5],[-77.43005449999998,34.5],[-77.43041549999998,34.5],[-77.43659280000003,34.5],[-77.43747289999999,34.5],[-77.43761410000002,34.5],[-77.44086149999998,34.5],[-77.4653118,34.5]]]}},{"type":"Feature","properties":{},"geometry":{"type":"Polygon","coordinates":[[[-77.39870439999999,34.5],[-77.39999999999998,34.5],[-77.39999999999998,34.500560699999994],[-77.39999999999998,34.50120659999999],[-77.39999999999998,34.504022099999986],[-77.39999999999998,34.50596949999999],[-77.39999999999998,34.50637590000002],[-77.39999999999998,34.50874379999999],[-77.39999999999998,34.508926900000006],[-77.39999999999998,34.50905899999998],[-77.39999999999998,34.5091908],[-77.39999999999998,34.50979460000002],[-77.39999999999998,34.513045799999986],[-77.39999999999998,34.51616109999998],[-77.39999999999998,34.52487839999998],[-77.39999999999998,34.57499999999999],[-77.39683689999998,34.57499999999999],[-77.39593789999998,34.57499999999999],[-77.39470879999999,34.57499999999999],[-77.39269189999999,34.57499999999999],[-77.3903661,34.57499999999999],[-77.38574399999999,34.57499999999999],[-77.38527110000001,34.57499999999999],[-77.3846097,34.57499999999999],[-77.3839193,34.57499999999999],[-77.38344599999999,34.57499999999999],[-77.37994379999998,34.57499999999999],[-77.37869799999999,34.57499999999999],[-77.37821179999997,34.57499999999999],[-77.3770548,34.57499999999999],[-77.37311299999999,34.57499999999999],[-77.37283459999998,34.57499999999999],[-77.36143609999999,34.57499999999999],[-77.3608357,34.57499999999999],[-77.36069199999997,34.57499999999999],[-77.35847000000001,34.57499999999999],[-77.35772859999997,34.57499999999999],[-77.33613559999998,34.57499999999999],[-77.335579,34.57499999999999],[-77.334967,34.57499999999999],[-77.32499999999999,34.57499999999999],[-77.32499999999999,34.553978099999995],[-77.32499999999999,34.55378830000001],[-77.32499999999999,34.55064199999998],[-77.32499999999999,34.55015070000002],[-77.32499999999999,34.549861899999996],[-77.32499999999999,34.5478023],[-77.32499999999999,34.5477449],[-77.32499999999999,34.54731709999999],[-77.32499999999999,34.547186599999975],[-77.32499999999999,34.5470565],[-77.32499999999999,34.54689259999998],[-77.32499999999999,34.54671350000001],[-77.32499999999999,34.543002100000024],[-77.32499999999999,34.5425444],[-77.32499999999999,34.5424132],[-77.32499999999999,34.5420618],[-77.32499999999999,34.53943400000003],[-77.32499999999999,34.53900279999999],[-77.32499999999999,34.53710109999997],[-77.32499999999999,34.536429199999986],[-77.32499999999999,34.5358377],[-77.32499999999999,34.5306286],[-77.32499999999999,34.52880950000002],[-77.32499999999999,34.52760569999998],[-77.32499999999999,34.52758669999997],[-77.32499999999999,34.525348199999996],[-77.32499999999999,34.52285760000001],[-77.32499999999999,34.521436800000004],[-77.32499999999999,34.51621540000002],[-77.32499999999999,34.50667900000002],[-77.32499999999999,34.504186800000014],[-77.32499999999999,34.5],[-77.33405269999997,34.5],[-77.35289890000001,34.5],[-77.35488889999999,34.5],[-77.35562929999998,34.5],[-77.3651183,34.5],[-77.38041390000001,34.5],[-77.39548739999998,34.5],[-77.39722210000002,34.5],[-77.39870439999999,34.5]]]}},{"type":"Feature","properties":{},"geometry":{"type":"Polygon","coordinates":[[[-77.27778419999999,34.5],[-77.32499999999999,34.5],[-77.32499999999999,34.504186800000014],[-77.32499999999999,34.50667900000002],[-77.32499999999999,34.51621540000002],[-77.32499999999999,34.521436800000004],[-77.32499999999999,34.52285760000001],[-77.32499999999999,34.525348199999996],[-77.32499999999999,34.52758669999997],[-77.32499999999999,34.52760569999998],[-77.32499999999999,34.52880950000002],[-77.32499999999999,34.5306286],[-77.32499999999999,34.5358377],[-77.32499999999999,34.536429199999986],[-77.32499999999999,34.53710109999997],[-77.32499999999999,34.53900279999999],[-77.32499999999999,34.53943400000003],[-77.32499999999999,34.5420618],[-77.32499999999999,34.5424132],[-77.32499999999999,34.5425444],[-77.32499999999999,34.543002100000024],[-77.32499999999999,34.54671350000001],[-77.32499999999999,34.54689259999998],[-77.32499999999999,34.5470565],[-77.32499999999999,34.547186599999975],[-77.32499999999999,34.54731709999999],[-77.32499999999999,34.5477449],[-77.32499999999999,34.5478023],[-77.32499999999999,34.549861899999996],[-77.32499999999999,34.55015070000002],[-77.32499999999999,34.55064199999998],[-77.32499999999999,34.55378830000001],[-77.32499999999999,34.553978099999995],[-77.32499999999999,34.57499999999999],[-77.27854730000001,34.57499999999999],[-77.27561730000002,34.57499999999999],[-77.27193679999999,34.57499999999999],[-77.27007459999999,34.57499999999999],[-77.26981660000001,34.57499999999999],[-77.26937700000002,34.57499999999999],[-77.26915639999999,34.57499999999999],[-77.26895610000003,34.57499999999999],[-77.26841000000002,34.57499999999999],[-77.2623307,34.57499999999999],[-77.26208170000001,34.57499999999999],[-77.26142190000002,34.57499999999999],[-77.25845279999999,34.57499999999999],[-77.25739850000002,34.57499999999999],[-77.25520490000002,34.57499999999999],[-77.25238109999998,34.57499999999999],[-77.25,34.57499999999999],[-77.25,34.573312199999975],[-77.25,34.5647065],[-77.25,34.517564600000014],[-77.25,34.51712520000001],[-77.25,34.5],[-77.25142240000002,34.5],[-77.27702160000001,34.5],[-77.27778419999999,34.5]]]}},{"type":"Feature","properties":{},"geometry":{"type":"Polygon","coordinates":[[[-77.42039160000002,34.57499999999999],[-77.47500000000002,34.57499999999999],[-77.47500000000002,34.64999999999998],[-77.39999999999998,34.64999999999998],[-77.39999999999998,34.61103939999998],[-77.39999999999998,34.606474400000025],[-77.39999999999998,34.60387650000001],[-77.39999999999998,34.6024304],[-77.39999999999998,34.600605099999996],[-77.39999999999998,34.596930999999984],[-77.39999999999998,34.59648720000001],[-77.39999999999998,34.581138599999974],[-77.39999999999998,34.579657],[-77.39999999999998,34.57907080000001],[-77.39999999999998,34.578972599999986],[-77.39999999999998,34.57826669999997],[-77.39999999999998,34.577898300000015],[-77.39999999999998,34.5766979],[-77.39999999999998,34.57621310000002],[-77.39999999999998,34.57605840000002],[-77.39999999999998,34.57499999999999],[-77.40092770000001,34.57499999999999],[-77.40653409999999,34.57499999999999],[-77.406768,34.57499999999999],[-77.41242290000002,34.57499999999999],[-77.41369780000002,34.57499999999999],[-77.41509669999999,34.57499999999999],[-77.42039160000002,34.57499999999999]]]}},{"type":"Feature","properties":{},"geometry":{"type":"Polygon","coordinates":[[[-77.39683689999998,34.57499999999999],[-77.39999999999998,34.57499999999999],[-77.39999999999998,34.57605840000002],[-77.39999999999998,34.57621310000002],[-77.39999999999998,34.5766979],[-77.39999999999998,34.577898300000015],[-77.39999999999998,34.57826669999997],[-77.39999999999998,34.578972599999986],[-77.39999999999998,34.57907080000001],[-77.39999999999998,34.579657],[-77.39999999999998,34.581138599999974],[-77.39999999999998,34.59648720000001],[-77.39999999999998,34.596930999999984],[-77.39999999999998,34.600605099999996],[-77.39999999999998,34.6024304],[-77.39999999999998,34.60387650000001],[-77.39999999999998,34.606474400000025],[-77.39999999999998,34.61103939999998],[-77.39999999999998,34.64999999999998],[-77.3808343,34.64999999999998],[-77.3780152,34.64999999999998],[-77.3735135,34.64999999999998],[-77.3663517,34.64999999999998],[-77.36505970000002,34.64999999999998],[-77.36335680000002,34.64999999999998],[-77.35988509999999,34.64999999999998],[-77.35795589999998,34.64999999999998],[-77.35365789999997,34.64999999999998],[-77.3437391,34.64999999999998],[-77.3430773,34.64999999999998],[-77.32629170000001,34.64999999999998],[-77.32499999999999,34.64999999999998],[-77.32499999999999,34.57499999999999],[-77.334967,34.57499999999999],[-77.335579,34.57499999999999],[-77.33613559999998,34.57499999999999],[-77.35772859999997,34.57499999999999],[-77.35847000000001,34.57499999999999],[-77.36069199999997,34.57499999999999],[-77.3608357,34.57499999999999],[-77.36143609999999,34.57499999999999],[-77.37283459999998,34.57499999999999],[-77.37311299999999,34.57499999999999],[-77.3770548,34.57499999999999],[-77.37821179999997,34.57499999999999],[-77.37869799999999,34.57499999999999],[-77.37994379999998,34.57499999999999],[-77.38344599999999,34.57499999999999],[-77.3839193,34.57499999999999],[-77.3846097,34.57499999999999],[-77.38527110000001,34.57499999999999],[-77.38574399999999,34.57499999999999],[-77.3903661,34.57499999999999],[-77.39269189999999,34.57499999999999],[-77.39470879999999,34.57499999999999],[-77.39593789999998,34.57499999999999],[-77.39683689999998,34.57499999999999]]]}},{"type":"Feature","properties":{},"geometry":{"type":"Polygon","coordinates":[[[-77.27007459999999,34.57499999999999],[-77.27193679999999,34.57499999999999],[-77.27561730000002,34.57499999999999],[-77.27854730000001,34.57499999999999],[-77.32499999999999,34.57499999999999],[-77.32499999999999,34.64999999999998],[-77.25,34.64999999999998],[-77.25,34.63548050000003],[-77.25,34.596061299999974],[-77.25,34.594614999999976],[-77.25,34.59259420000001],[-77.25,34.592293900000016],[-77.25,34.5919768],[-77.25,34.5911198],[-77.25,34.590934800000014],[-77.25,34.590770099999986],[-77.25,34.59058959999999],[-77.25,34.588919299999986],[-77.25,34.588559799999985],[-77.25,34.58674350000001],[-77.25,34.58625669999998],[-77.25,34.584677899999974],[-77.25,34.583236699999986],[-77.25,34.58297140000002],[-77.25,34.58237939999998],[-77.25,34.581851700000016],[-77.25,34.581251399999985],[-77.25,34.58044239999998],[-77.25,34.579387],[-77.25,34.57499999999999],[-77.25238109999998,34.57499999999999],[-77.25520490000002,34.57499999999999],[-77.25739850000002,34.57499999999999],[-77.25845279999999,34.57499999999999],[-77.26142190000002,34.57499999999999],[-77.26208170000001,34.57499999999999],[-77.2623307,34.57499999999999],[-77.26841000000002,34.57499999999999],[-77.26895610000003,34.57499999999999],[-77.26915639999999,34.57499999999999],[-77.26937700000002,34.57499999999999],[-77.26981660000001,34.57499999999999],[-77.27007459999999,34.57499999999999]]]}},{"type":"Feature","properties":{},"geometry":{"type":"Polygon","coordinates":[[[-77.24613069999998,34.57499999999999],[-77.25,34.57499999999999],[-77.25,34.579387],[-77.25,34.58044239999998],[-77.25,34.581251399999985],[-77.25,34.581851700000016],[-77.25,34.58237939999998],[-77.25,34.58297140000002],[-77.25,34.583236699999986],[-77.25,34.584677899999974],[-77.25,34.58625669999998],[-77.25,34.58674350000001],[-77.25,34.588559799999985],[-77.25,34.588919299999986],[-77.25,34.59058959999999],[-77.25,34.590770099999986],[-77.25,34.590934800000014],[-77.25,34.5911198],[-77.25,34.5919768],[-77.25,34.592293900000016],[-77.25,34.59259420000001],[-77.25,34.594614999999976],[-77.25,34.596061299999974],[-77.25,34.63548050000003],[-77.25,34.64999999999998],[-77.2047478,34.64999999999998],[-77.1825493,34.64999999999998],[-77.18174140000002,34.64999999999998],[-77.17500000000001,34.64999999999998],[-77.17500000000001,34.64966759999999],[-77.17500000000001,34.6474862],[-77.17500000000001,34.64698370000002],[-77.17500000000001,34.64674179999997],[-77.17500000000001,34.6464575],[-77.17500000000001,34.6463038],[-77.17500000000001,34.64615309999999],[-77.17500000000001,34.64579379999998],[-77.17500000000001,34.64341910000002],[-77.17500000000001,34.6412095],[-77.17500000000001,34.640847699999995],[-77.17500000000001,34.640109800000005],[-77.17500000000001,34.639244700000006],[-77.17500000000001,34.63895600000001],[-77.17500000000001,34.638649699999974],[-77.17500000000001,34.635702700000024],[-77.17500000000001,34.63500570000002],[-77.17500000000001,34.62811599999998],[-77.17500000000001,34.6280481],[-77.17500000000001,34.62777440000002],[-77.17500000000001,34.62763960000001],[-77.17500000000001,34.6273137],[-77.17500000000001,34.62705],[-77.17500000000001,34.62609309999999],[-77.17500000000001,34.62340230000001],[-77.17500000000001,34.623111300000005],[-77.17500000000001,34.62176199999999],[-77.17500000000001,34.62164469999999],[-77.17500000000001,34.62140290000002],[-77.17500000000001,34.619776],[-77.17500000000001,34.61968680000001],[-77.17500000000001,34.61955649999999],[-77.17500000000001,34.613340100000016],[-77.17500000000001,34.61248740000002],[-77.17500000000001,34.611286699999994],[-77.17500000000001,34.60760499999998],[-77.17500000000001,34.60029079999998],[-77.17500000000001,34.58864319999998],[-77.17500000000001,34.57499999999999],[-77.20189260000001,34.57499999999999],[-77.23198050000002,34.57499999999999],[-77.23301950000001,34.57499999999999],[-77.2335979,34.57499999999999],[-77.2367117,34.57499999999999],[-77.23922010000001,34.57499999999999],[-77.24179950000001,34.57499999999999],[-77.24613069999998,34.57499999999999]]]}},{"type":"Feature","properties":{},"geometry":{"type":"Polygon","coordinates":[[[-77.17500000000001,34.57499999999999],[-77.17500000000001,34.58864319999998],[-77.17500000000001,34.60029079999998],[-77.17500000000001,34.60760499999998],[-77.17500000000001,34.611286699999994],[-77.17500000000001,34.61248740000002],[-77.17500000000001,34.613340100000016],[-77.17500000000001,34.61955649999999],[-77.17500000000001,34.61968680000001],[-77.17500000000001,34.619776],[-77.17500000000001,34.62140290000002],[-77.17500000000001,34.62164469999999],[-77.17500000000001,34.62176199999999],[-77.17500000000001,34.623111300000005],[-77.17500000000001,34.62340230000001],[-77.17500000000001,34.62609309999999],[-77.17500000000001,34.62705],[-77.17500000000001,34.6273137],[-77.17500000000001,34.62763960000001],[-77.17500000000001,34.62777440000002],[-77.17500000000001,34.6280481],[-77.17500000000001,34.62811599999998],[-77.17500000000001,34.63500570000002],[-77.17500000000001,34.635702700000024],[-77.17500000000001,34.638649699999974],[-77.17500000000001,34.63895600000001],[-77.17500000000001,34.639244700000006],[-77.17500000000001,34.640109800000005],[-77.17500000000001,34.640847699999995],[-77.17500000000001,34.6412095],[-77.17500000000001,34.64341910000002],[-77.17500000000001,34.64579379999998],[-77.17500000000001,34.64615309999999],[-77.17500000000001,34.6463038],[-77.17500000000001,34.6464575],[-77.17500000000001,34.64674179999997],[-77.17500000000001,34.64698370000002],[-77.17500000000001,34.6474862],[-77.17500000000001,34.64966759999999],[-77.17500000000001,34.64999999999998],[-77.173472,34.64999999999998],[-77.16977370000001,34.64999999999998],[-77.1694114,34.64999999999998],[-77.1692701,34.64999999999998],[-77.1690476,34.64999999999998],[-77.16878609999998,34.64999999999998],[-77.16853579999997,34.64999999999998],[-77.16774420000002,34.64999999999998],[-77.16723459999997,34.64999999999998],[-77.16498410000003,34.64999999999998],[-77.16442890000002,34.64999999999998],[-77.16399200000001,34.64999999999998],[-77.1623717,34.64999999999998],[-77.15805110000002,34.64999999999998],[-77.15359719999998,34.64999999999998],[-77.15273819999999,34.64999999999998],[-77.14859799999999,34.64999999999998],[-77.14813659999999,34.64999999999998],[-77.1463756,34.64999999999998],[-77.1450491,34.64999999999998],[-77.14500000000001,34.64999999999998],[-77.14500000000001,34.57499999999999],[-77.17500000000001,34.57499999999999]]]}}]}