{"type":"FeatureCollection","features":[{"type":"Feature","properties":{},"geometry":{"type":"Polygon","coordinates":[[[-80.26304270000003,27.149999999999977],[-80.26075930000002,27.149999999999977],[-80.2606022,27.149999999999977],[-80.26047110000002,27.149999999999977],[-80.26033660000002,27.149999999999977],[-80.2593005,27.149999999999977],[-80.25260220000001,27.149999999999977],[-80.25,27.149999999999977],[-80.25,27.15179949999998],[-80.25,27.152533800000015],[-80.25,27.153819699999985],[-80.25,27.15801670000002],[-80.25,27.158489400000008],[-80.25,27.159948900000018],[-80.25,27.199659199999985],[-80.25,27.20511959999999],[-80.25,27.208634200000006],[-80.25,27.208746500000018],[-80.25,27.208854799999983],[-80.25,27.209554700000012],[-80.25,27.210560600000008],[-80.25,27.21424619999999],[-80.25,27.215340200000014],[-80.25,27.225000000000023],[-80.27365789999999,27.225000000000023],[-80.27440969999998,27.225000000000023],[-80.27550300000001,27.225000000000023],[-80.27607039999998,27.225000000000023],[-80.27793129999998,27.225000000000023],[-80.2788521,27.225000000000023],[-80.27920419999998,27.225000000000023],[-80.2792258,27.225000000000023],[-80.28131919999998,27.225000000000023],[-80.29291719999998,27.225000000000023],[-80.29507000000001,27.225000000000023],[-80.32180740000001,27.225000000000023],[-80.32499999999999,27.225000000000023],[-80.32499999999999,27.149999999999977],[-80.26422439999999,27.149999999999977],[-80.26304270000003,27.149999999999977]]]}},{"type":"Feature","properties":{},"geometry":{"type":"Polygon","coordinates":[[[-80.2004288,27.149999999999977],[-80.20026760000002,27.149999999999977],[-80.19977790000002,27.149999999999977],[-80.1954905,27.149999999999977],[-80.195424,27.149999999999977],[-80.1952827,27.149999999999977],[-80.19499400000001,27.149999999999977],[-80.19369,27.149999999999977],[-80.19361900000001,27.149999999999977],[-80.193464,27.149999999999977],[-80.19290319999999,27.149999999999977],[-80.19212090000002,27.149999999999977],[-80.19198749999998,27.149999999999977],[-80.17703599999999,27.149999999999977],[-80.17500000000001,27.149999999999977],[-80.17500000000001,27.157056300000022],[-80.17500000000001,27.15829050000002],[-80.17500000000001,27.158614199999988],[-80.17500000000001,27.158816600000023],[-80.17500000000001,27.159241399999985],[-80.17500000000001,27.159289600000022],[-80.17500000000001,27.159319200000027],[-80.17500000000001,27.160100100000022],[-80.17500000000001,27.16109110000002],[-80.17500000000001,27.16393929999998],[-80.17500000000001,27.164442099999974],[-80.17500000000001,27.164739800000007],[-80.17500000000001,27.165055199999983],[-80.17500000000001,27.16547700000001],[-80.17500000000001,27.165619100000015],[-80.17500000000001,27.166397899999993],[-80.17500000000001,27.16670720000002],[-80.17500000000001,27.16706049999999],[-80.17500000000001,27.167409299999974],[-80.17500000000001,27.168559800000025],[-80.17500000000001,27.1692046],[-80.17500000000001,27.17202850000001],[-80.17500000000001,27.172669799999994],[-80.17500000000001,27.174354199999982],[-80.17500000000001,27.174626699999976],[-80.17500000000001,27.17677279999998],[-80.17500000000001,27.17767570000001],[-80.17500000000001,27.178610300000003],[-80.17500000000001,27.180355200000008],[-80.17500000000001,27.189016200000026],[-80.17500000000001,27.193477299999984],[-80.17500000000001,27.195420000000013],[-80.17500000000001,27.19823359999998],[-80.17500000000001,27.204649899999993],[-80.17500000000001,27.205480000000023],[-80.17500000000001,27.21670640000002],[-80.17500000000001,27.217095700000016],[-80.17500000000001,27.219211799999982],[-80.17500000000001,27.2217349],[-80.17500000000001,27.223171400000012],[-80.17500000000001,27.225000000000023],[-80.17590760000002,27.225000000000023],[-80.17689059999998,27.225000000000023],[-80.1781317,27.225000000000023],[-80.1792183,27.225000000000023],[-80.17960529999999,27.225000000000023],[-80.1837519,27.225000000000023],[-80.1839607,27.225000000000023],[-80.18426779999999,27.225000000000023],[-80.19975499999998,27.225000000000023],[-80.20000629999998,27.225000000000023],[-80.20218990000001,27.225000000000023],[-80.20235459999998,27.225000000000023],[-80.20263219999998,27.225000000000023],[-80.20525170000002,27.225000000000023],[-80.2060275,27.225000000000023],[-80.21071560000001,27.225000000000023],[-80.21158960000002,27.225000000000023],[-80.21185300000002,27.225000000000023],[-80.25,27.225000000000023],[-80.25,27.215340200000014],[-80.25,27.21424619999999],[-80.25,27.210560600000008],[-80.25,27.209554700000012],[-80.25,27.208854799999983],[-80.25,27.208746500000018],[-80.25,27.208634200000006],[-80.25,27.20511959999999],[-80.25,27.199659199999985],[-80.25,27.159948900000018],[-80.25,27.158489400000008],[-80.25,27.15801670000002],[-80.25,27.153819699999985],[-80.25,27.152533800000015],[-80.25,27.15179949999998],[-80.25,27.149999999999977],[-80.22426919999998,27.149999999999977],[-80.20359380000002,27.149999999999977],[-80.201482,27.149999999999977],[-80.2004288,27.149999999999977]]]}},{"type":"Feature","properties":{},"geometry":{"type":"Polygon","coordinates":[[[-80.17182539999999,27.149999999999977],[-80.1693654,27.149999999999977],[-80.16653330000003,27.149999999999977],[-80.16631039999999,27.149999999999977],[-80.16607479999999,27.149999999999977],[-80.16357479999999,27.149999999999977],[-80.16205739999998,27.149999999999977],[-80.15664980000003,27.149999999999977],[-80.1556511,27.149999999999977],[-80.15272709999999,27.149999999999977],[-80.1524243,27.149999999999977],[-80.15177269999998,27.149999999999977],[-80.148462,27.149999999999977],[-80.14505159999999,27.149999999999977],[-80.14429289999998,27.149999999999977],[-80.1430416,27.149999999999977],[-80.1420703,27.149999999999977],[-80.13981840000002,27.149999999999977],[-80.13973979999997,27.149999999999977],[-80.1377688,27.149999999999977],[-80.134142,27.149999999999977],[-80.13330889999997,27.149999999999977],[-80.11751570000001,27.149999999999977],[-80.10000000000002,27.149999999999977],[-80.10000000000002,27.186832299999992],[-80.10000000000002,27.19087539999998],[-80.10000000000002,27.19168810000002],[-80.10000000000002,27.19207899999998],[-80.10000000000002,27.225000000000023],[-80.10116160000001,27.225000000000023],[-80.11657780000002,27.225000000000023],[-80.11702960000002,27.225000000000023],[-80.15225229999999,27.225000000000023],[-80.15351550000003,27.225000000000023],[-80.15485619999998,27.225000000000023],[-80.1572223,27.225000000000023],[-80.15733649999999,27.225000000000023],[-80.17310359999999,27.225000000000023],[-80.1747967,27.225000000000023],[-80.17500000000001,27.225000000000023],[-80.17500000000001,27.223171400000012],[-80.17500000000001,27.2217349],[-80.17500000000001,27.219211799999982],[-80.17500000000001,27.217095700000016],[-80.17500000000001,27.21670640000002],[-80.17500000000001,27.205480000000023],[-80.17500000000001,27.204649899999993],[-80.17500000000001,27.19823359999998],[-80.17500000000001,27.195420000000013],[-80.17500000000001,27.193477299999984],[-80.17500000000001,27.189016200000026],[-80.17500000000001,27.180355200000008],[-80.17500000000001,27.178610300000003],[-80.17500000000001,27.17767570000001],[-80.17500000000001,27.17677279999998],[-80.17500000000001,27.174626699999976],[-80.17500000000001,27.174354199999982],[-80.17500000000001,27.172669799999994],[-80.17500000000001,27.17202850000001],[-80.17500000000001,27.1692046],[-80.17500000000001,27.168559800000025],[-80.17500000000001,27.167409299999974],[-80.17500000000001,27.16706049999999],[-80.17500000000001,27.16670720000002],[-80.17500000000001,27.166397899999993],[-80.17500000000001,27.165619100000015],[-80.17500000000001,27.16547700000001],[-80.17500000000001,27.165055199999983],[-80.17500000000001,27.164739800000007],[-80.17500000000001,27.164442099999974],[-80.17500000000001,27.16393929999998],[-80.17500000000001,27.16109110000002],[-80.17500000000001,27.160100100000022],[-80.17500000000001,27.159319200000027],[-80.17500000000001,27.159289600000022],[-80.17500000000001,27.159241399999985],[-80.17500000000001,27.158816600000023],[-80.17500000000001,27.158614199999988],[-80.17500000000001,27.15829050000002],[-80.17500000000001,27.157056300000022],[-80.17500000000001,27.149999999999977],[-80.17196969999998,27.149999999999977],[-80.17182539999999,27.149999999999977]]]}},{"type":"Feature","properties":{},"geometry":{"type":"Polygon","coordinates":[[[-80.32499999999999,27.24062550000002],[-80.32499999999999,27.22889029999999],[-80.32499999999999,27.225000000000023],[-80.29507000000001,27.225000000000023],[-80.29291719999998,27.225000000000023],[-80.28131919999998,27.225000000000023],[-80.2792258,27.225000000000023],[-80.27920419999998,27.225000000000023],[-80.2788521,27.225000000000023],[-80.27793129999998,27.225000000000023],[-80.27607039999998,27.225000000000023],[-80.27550300000001,27.225000000000023],[-80.27440969999998,27.225000000000023],[-80.27365789999999,27.225000000000023],[-80.25,27.225000000000023],[-80.25,27.26183020000002],[-80.25,27.263058600000022],[-80.25,27.263999099999978],[-80.25,27.2645172],[-80.25,27.265209099999993],[-80.25,27.26581970000001],[-80.25,27.266105900000014],[-80.25,27.27081099999998],[-80.25,27.27180709999999],[-80.25,27.2770036],[-80.25,27.29128609999998],[-80.25,27.291461500000025],[-80.25,27.291770900000017],[-80.25,27.292010800000014],[-80.25,27.292288999999982],[-80.25,27.292635700000005],[-80.25,27.29452470000001],[-80.25,27.30000000000001],[-80.2530764,27.30000000000001],[-80.25407840000003,27.30000000000001],[-80.25432569999998,27.30000000000001],[-80.26871249999999,27.30000000000001],[-80.32499999999999,27.30000000000001],[-80.32499999999999,27.254437900000028],[-80.32499999999999,27.254384399999992],[-80.32499999999999,27.252243799999974],[-80.32499999999999,27.251491999999985],[-80.32499999999999,27.25094999999999],[-80.32499999999999,27.249182899999994],[-80.32499999999999,27.248796900000002],[-80.32499999999999,27.24637919999998],[-80.32499999999999,27.24062550000002]]]}},{"type":"Feature","properties":{},"geometry":{"type":"Polygon","coordinates":[[[-80.25,27.225000000000023],[-80.21185300000002,27.225000000000023],[-80.21158960000002,27.225000000000023],[-80.21071560000001,27.225000000000023],[-80.2060275,27.225000000000023],[-80.20525170000002,27.225000000000023],[-80.20263219999998,27.225000000000023],[-80.20235459999998,27.225000000000023],[-80.20218990000001,27.225000000000023],[-80.20000629999998,27.225000000000023],[-80.19975499999998,27.225000000000023],[-80.18426779999999,27.225000000000023],[-80.1839607,27.225000000000023],[-80.1837519,27.225000000000023],[-80.17960529999999,27.225000000000023],[-80.1792183,27.225000000000023],[-80.1781317,27.225000000000023],[-80.17689059999998,27.225000000000023],[-80.17590760000002,27.225000000000023],[-80.17500000000001,27.225000000000023],[-80.17500000000001,27.225369600000022],[-80.17500000000001,27.229113400000017],[-80.17500000000001,27.269759799999974],[-80.17500000000001,27.30000000000001],[-80.18951520000002,27.30000000000001],[-80.2035998,27.30000000000001],[-80.21215269999999,27.30000000000001],[-80.2130889,27.30000000000001],[-80.21422580000001,27.30000000000001],[-80.21544110000002,27.30000000000001],[-80.21642809999997,27.30000000000001],[-80.216588,27.30000000000001],[-80.22589950000003,27.30000000000001],[-80.24413279999999,27.30000000000001],[-80.24431570000002,27.30000000000001],[-80.2445768,27.30000000000001],[-80.25,27.30000000000001],[-80.25,27.29452470000001],[-80.25,27.292635700000005],[-80.25,27.292288999999982],[-80.25,27.292010800000014],[-80.25,27.291770900000017],[-80.25,27.291461500000025],[-80.25,27.29128609999998],[-80.25,27.2770036],[-80.25,27.27180709999999],[-80.25,27.27081099999998],[-80.25,27.266105900000014],[-80.25,27.26581970000001],[-80.25,27.265209099999993],[-80.25,27.2645172],[-80.25,27.263999099999978],[-80.25,27.263058600000022],[-80.25,27.26183020000002],[-80.25,27.225000000000023]]]}},{"type":"Feature","properties":{},"geometry":{"type":"Polygon","coordinates":[[[-80.30446699999999,27.375],[-80.3046941,27.375],[-80.32499999999999,27.375],[-80.32499999999999,27.30000000000001],[-80.26871249999999,27.30000000000001],[-80.25432569999998,27.30000000000001],[-80.25407840000003,27.30000000000001],[-80.2530764,27.30000000000001],[-80.25,27.30000000000001],[-80.25,27.309153200000026],[-80.25,27.309989099999996],[-80.25,27.310363699999982],[-80.25,27.310811600000022],[-80.25,27.315345400000012],[-80.25,27.340482199999997],[-80.25,27.347901499999978],[-80.25,27.348493099999985],[-80.25,27.348818400000027],[-80.25,27.351199800000018],[-80.25,27.352110100000004],[-80.25,27.36266569999998],[-80.25,27.363587600000017],[-80.25,27.373096900000007],[-80.25,27.375],[-80.25098839999998,27.375],[-80.25868639999999,27.375],[-80.27024269999998,27.375],[-80.2782757,27.375],[-80.2809145,27.375],[-80.2825982,27.375],[-80.2828313,27.375],[-80.28302680000002,27.375],[-80.28444860000002,27.375],[-80.28830929999998,27.375],[-80.2884795,27.375],[-80.28968809999998,27.375],[-80.2917372,27.375],[-80.29198179999997,27.375],[-80.29867059999998,27.375],[-80.30290059999999,27.375],[-80.30446699999999,27.375]]]}},{"type":"Feature","properties":{},"geometry":{"type":"Polygon","coordinates":[[[-80.25,27.30000000000001],[-80.2445768,27.30000000000001],[-80.24431570000002,27.30000000000001],[-80.24413279999999,27.30000000000001],[-80.22589950000003,27.30000000000001],[-80.216588,27.30000000000001],[-80.21642809999997,27.30000000000001],[-80.21544110000002,27.30000000000001],[-80.21422580000001,27.30000000000001],[-80.2130889,27.30000000000001],[-80.21215269999999,27.30000000000001],[-80.2035998,27.30000000000001],[-80.18951520000002,27.30000000000001],[-80.17500000000001,27.30000000000001],[-80.17500000000001,27.34123649999998],[-80.17500000000001,27.34259159999999],[-80.17500000000001,27.375],[-80.18919110000002,27.375],[-80.1896299,27.375],[-80.19698920000002,27.375],[-80.20789330000002,27.375],[-80.21103090000003,27.375],[-80.2138233,27.375],[-80.22551490000001,27.375],[-80.24254259999998,27.375],[-80.2464377,27.375],[-80.24669979999999,27.375],[-80.24892069999999,27.375],[-80.2493043,27.375],[-80.24978340000001,27.375],[-80.25,27.375],[-80.25,27.373096900000007],[-80.25,27.363587600000017],[-80.25,27.36266569999998],[-80.25,27.352110100000004],[-80.25,27.351199800000018],[-80.25,27.348818400000027],[-80.25,27.348493099999985],[-80.25,27.347901499999978],[-80.25,27.340482199999997],[-80.25,27.315345400000012],[-80.25,27.310811600000022],[-80.25,27.310363699999982],[-80.25,27.309989099999996],[-80.25,27.309153200000026],[-80.25,27.30000000000001]]]}},{"type":"Feature","properties":{},"geometry":{"type":"Polygon","coordinates":[[[-80.30446699999999,27.375],[-80.30290059999999,27.375],[-80.29867059999998,27.375],[-80.29198179999997,27.375],[-80.2917372,27.375],[-80.28968809999998,27.375],[-80.2884795,27.375],[-80.28830929999998,27.375],[-80.28444860000002,27.375],[-80.28302680000002,27.375],[-80.2828313,27.375],[-80.2825982,27.375],[-80.2809145,27.375],[-80.2782757,27.375],[-80.27024269999998,27.375],[-80.25868639999999,27.375],[-80.25098839999998,27.375],[-80.25,27.375],[-80.25,27.375419799999975],[-80.25,27.376348399999983],[-80.25,27.376912500000003],[-80.25,27.380334300000015],[-80.25,27.380668000000014],[-80.25,27.380798099999993],[-80.25,27.381442800000002],[-80.25,27.388303699999994],[-80.25,27.434697900000003],[-80.25,27.445508599999982],[-80.25,27.44999999999999],[-80.25540380000001,27.44999999999999],[-80.26652080000002,27.44999999999999],[-80.2665245,27.44999999999999],[-80.27199380000002,27.44999999999999],[-80.2727903,27.44999999999999],[-80.27728810000002,27.44999999999999],[-80.27858759999998,27.44999999999999],[-80.2792331,27.44999999999999],[-80.28262030000002,27.44999999999999],[-80.28303690000001,27.44999999999999],[-80.28333750000002,27.44999999999999],[-80.28989949999999,27.44999999999999],[-80.29069019999997,27.44999999999999],[-80.2918722,27.44999999999999],[-80.29710640000002,27.44999999999999],[-80.30011139999999,27.44999999999999],[-80.3023349,27.44999999999999],[-80.30280090000002,27.44999999999999],[-80.30485479999999,27.44999999999999],[-80.30988000000002,27.44999999999999],[-80.3124436,27.44999999999999],[-80.31260659999998,27.44999999999999],[-80.31268590000002,27.44999999999999],[-80.3146858,27.44999999999999],[-80.31489470000002,27.44999999999999],[-80.3151019,27.44999999999999],[-80.3159091,27.44999999999999],[-80.31615799999997,27.44999999999999],[-80.31717859999998,27.44999999999999],[-80.3173893,27.44999999999999],[-80.31775160000001,27.44999999999999],[-80.31823509999998,27.44999999999999],[-80.31834329999998,27.44999999999999],[-80.31868859999997,27.44999999999999],[-80.31909639999998,27.44999999999999],[-80.3193268,27.44999999999999],[-80.31978850000002,27.44999999999999],[-80.3198357,27.44999999999999],[-80.32016479999999,27.44999999999999],[-80.32031760000001,27.44999999999999],[-80.32046980000001,27.44999999999999],[-80.32060960000001,27.44999999999999],[-80.32076080000002,27.44999999999999],[-80.32080639999998,27.44999999999999],[-80.3209051,27.44999999999999],[-80.32104720000001,27.44999999999999],[-80.3211963,27.44999999999999],[-80.3216961,27.44999999999999],[-80.32188639999998,27.44999999999999],[-80.32238890000002,27.44999999999999],[-80.32296680000002,27.44999999999999],[-80.32485439999999,27.44999999999999],[-80.32499999999999,27.44999999999999],[-80.32499999999999,27.443474700000024],[-80.32499999999999,27.43184309999998],[-80.32499999999999,27.375],[-80.3046941,27.375],[-80.30446699999999,27.375]]]}},{"type":"Feature","properties":{},"geometry":{"type":"Polygon","coordinates":[[[-80.331412,27.44999999999999],[-80.32810669999998,27.44999999999999],[-80.32600109999998,27.44999999999999],[-80.32591359999998,27.44999999999999],[-80.3258821,27.44999999999999],[-80.32499999999999,27.44999999999999],[-80.32499999999999,27.450205600000004],[-80.32499999999999,27.450711000000013],[-80.32499999999999,27.450808900000027],[-80.32499999999999,27.4572402],[-80.32499999999999,27.457648199999994],[-80.32499999999999,27.458507899999972],[-80.32499999999999,27.458625100000006],[-80.32499999999999,27.466670799999974],[-80.32499999999999,27.466741000000013],[-80.32499999999999,27.466817300000002],[-80.32499999999999,27.466837399999974],[-80.32499999999999,27.466852899999992],[-80.32499999999999,27.467134799999997],[-80.32499999999999,27.46721530000002],[-80.32499999999999,27.468574400000023],[-80.32499999999999,27.470568500000013],[-80.32499999999999,27.47075749999999],[-80.32499999999999,27.47174769999998],[-80.32499999999999,27.471772199999975],[-80.32499999999999,27.471864600000004],[-80.32499999999999,27.472041400000023],[-80.32499999999999,27.472197900000026],[-80.32499999999999,27.472781899999973],[-80.32499999999999,27.4731223],[-80.32499999999999,27.47353270000002],[-80.32499999999999,27.473571300000003],[-80.32499999999999,27.473577299999988],[-80.32499999999999,27.473681499999998],[-80.32499999999999,27.47508540000001],[-80.32499999999999,27.475579200000027],[-80.32499999999999,27.47680839999998],[-80.32499999999999,27.477168800000015],[-80.32499999999999,27.477542900000003],[-80.32499999999999,27.47845769999998],[-80.32499999999999,27.478767300000015],[-80.32499999999999,27.478929499999992],[-80.32499999999999,27.480321800000013],[-80.32499999999999,27.480387000000007],[-80.32499999999999,27.48089520000002],[-80.32499999999999,27.48098520000002],[-80.32499999999999,27.484102000000007],[-80.32499999999999,27.48414120000001],[-80.32499999999999,27.48428100000001],[-80.32499999999999,27.48559929999999],[-80.32499999999999,27.485686999999984],[-80.32499999999999,27.498216500000012],[-80.32499999999999,27.49858519999998],[-80.32499999999999,27.499341300000026],[-80.32499999999999,27.500042099999973],[-80.32499999999999,27.50067009999998],[-80.32499999999999,27.501028799999972],[-80.32499999999999,27.50144180000001],[-80.32499999999999,27.504450799999972],[-80.32499999999999,27.505033200000014],[-80.32499999999999,27.505176800000015],[-80.32499999999999,27.50724070000001],[-80.32499999999999,27.51219329999998],[-80.32499999999999,27.512224300000014],[-80.32499999999999,27.514846200000022],[-80.32499999999999,27.51873310000002],[-80.32499999999999,27.524999999999977],[-80.32780279999997,27.524999999999977],[-80.33470060000002,27.524999999999977],[-80.33922539999998,27.524999999999977],[-80.33941549999997,27.524999999999977],[-80.33962179999997,27.524999999999977],[-80.34643729999999,27.524999999999977],[-80.34733010000002,27.524999999999977],[-80.34913740000002,27.524999999999977],[-80.3579188,27.524999999999977],[-80.39999999999998,27.524999999999977],[-80.39999999999998,27.44999999999999],[-80.35286910000002,27.44999999999999],[-80.331412,27.44999999999999]]]}},{"type":"Feature","properties":{},"geometry":{"type":"Polygon","coordinates":[[[-80.32296680000002,27.44999999999999],[-80.32238890000002,27.44999999999999],[-80.32188639999998,27.44999999999999],[-80.3216961,27.44999999999999],[-80.3211963,27.44999999999999],[-80.32104720000001,27.44999999999999],[-80.3209051,27.44999999999999],[-80.32080639999998,27.44999999999999],[-80.32076080000002,27.44999999999999],[-80.32060960000001,27.44999999999999],[-80.32046980000001,27.44999999999999],[-80.32031760000001,27.44999999999999],[-80.32016479999999,27.44999999999999],[-80.3198357,27.44999999999999],[-80.31978850000002,27.44999999999999],[-80.3193268,27.44999999999999],[-80.31909639999998,27.44999999999999],[-80.31868859999997,27.44999999999999],[-80.31834329999998,27.44999999999999],[-80.31823509999998,27.44999999999999],[-80.31775160000001,27.44999999999999],[-80.3173893,27.44999999999999],[-80.31717859999998,27.44999999999999],[-80.31615799999997,27.44999999999999],[-80.3159091,27.44999999999999],[-80.3151019,27.44999999999999],[-80.31489470000002,27.44999999999999],[-80.3146858,27.44999999999999],[-80.31268590000002,27.44999999999999],[-80.31260659999998,27.44999999999999],[-80.3124436,27.44999999999999],[-80.30988000000002,27.44999999999999],[-80.30485479999999,27.44999999999999],[-80.30280090000002,27.44999999999999],[-80.3023349,27.44999999999999],[-80.30011139999999,27.44999999999999],[-80.29710640000002,27.44999999999999],[-80.2918722,27.44999999999999],[-80.29069019999997,27.44999999999999],[-80.28989949999999,27.44999999999999],[-80.28333750000002,27.44999999999999],[-80.28303690000001,27.44999999999999],[-80.28262030000002,27.44999999999999],[-80.2792331,27.44999999999999],[-80.27858759999998,27.44999999999999],[-80.27728810000002,27.44999999999999],[-80.2727903,27.44999999999999],[-80.27199380000002,27.44999999999999],[-80.2665245,27.44999999999999],[-80.25540380000001,27.44999999999999],[-80.25,27.44999999999999],[-80.25,27.45535799999999],[-80.25,27.46898809999999],[-80.25,27.47895840000001],[-80.25,27.47912980000001],[-80.25,27.484031800000025],[-80.25,27.49792309999998],[-80.25,27.522160600000007],[-80.25,27.52316810000002],[-80.25,27.524999999999977],[-80.25078880000001,27.524999999999977],[-80.25122270000003,27.524999999999977],[-80.25364100000002,27.524999999999977],[-80.2556305,27.524999999999977],[-80.25895580000002,27.524999999999977],[-80.2818972,27.524999999999977],[-80.29781409999998,27.524999999999977],[-80.30184630000002,27.524999999999977],[-80.30289670000002,27.524999999999977],[-80.3049373,27.524999999999977],[-80.31042930000001,27.524999999999977],[-80.31091329999998,27.524999999999977],[-80.3112964,27.524999999999977],[-80.31618029999998,27.524999999999977],[-80.31642950000003,27.524999999999977],[-80.31744989999999,27.524999999999977],[-80.31802290000002,27.524999999999977],[-80.32499999999999,27.524999999999977],[-80.32499999999999,27.51873310000002],[-80.32499999999999,27.514846200000022],[-80.32499999999999,27.512224300000014],[-80.32499999999999,27.51219329999998],[-80.32499999999999,27.50724070000001],[-80.32499999999999,27.505176800000015],[-80.32499999999999,27.505033200000014],[-80.32499999999999,27.504450799999972],[-80.32499999999999,27.50144180000001],[-80.32499999999999,27.501028799999972],[-80.32499999999999,27.50067009999998],[-80.32499999999999,27.500042099999973],[-80.32499999999999,27.499341300000026],[-80.32499999999999,27.49858519999998],[-80.32499999999999,27.498216500000012],[-80.32499999999999,27.485686999999984],[-80.32499999999999,27.48559929999999],[-80.32499999999999,27.48428100000001],[-80.32499999999999,27.48414120000001],[-80.32499999999999,27.484102000000007],[-80.32499999999999,27.48098520000002],[-80.32499999999999,27.48089520000002],[-80.32499999999999,27.480387000000007],[-80.32499999999999,27.480321800000013],[-80.32499999999999,27.478929499999992],[-80.32499999999999,27.478767300000015],[-80.32499999999999,27.47845769999998],[-80.32499999999999,27.477542900000003],[-80.32499999999999,27.477168800000015],[-80.32499999999999,27.47680839999998],[-80.32499999999999,27.475579200000027],[-80.32499999999999,27.47508540000001],[-80.32499999999999,27.473681499999998],[-80.32499999999999,27.473577299999988],[-80.32499999999999,27.473571300000003],[-80.32499999999999,27.47353270000002],[-80.32499999999999,27.4731223],[-80.32499999999999,27.472781899999973],[-80.32499999999999,27.472197900000026],[-80.32499999999999,27.472041400000023],[-80.32499999999999,27.471864600000004],[-80.32499999999999,27.471772199999975],[-80.32499999999999,27.47174769999998],[-80.32499999999999,27.47075749999999],[-80.32499999999999,27.470568500000013],[-80.32499999999999,27.468574400000023],[-80.32499999999999,27.46721530000002],[-80.32499999999999,27.467134799999997],[-80.32499999999999,27.466852899999992],[-80.32499999999999,27.466837399999974],[-80.32499999999999,27.466817300000002],[-80.32499999999999,27.466741000000013],[-80.32499999999999,27.466670799999974],[-80.32499999999999,27.458625100000006],[-80.32499999999999,27.458507899999972],[-80.32499999999999,27.457648199999994],[-80.32499999999999,27.4572402],[-80.32499999999999,27.450808900000027],[-80.32499999999999,27.450711000000013],[-80.32499999999999,27.450205600000004],[-80.32499999999999,27.44999999999999],[-80.32485439999999,27.44999999999999],[-80.32296680000002,27.44999999999999]]]}},{"type":"Feature","properties":{},"geometry":{"type":"Polygon","coordinates":[[[-80.34733010000002,27.524999999999977],[-80.34643729999999,27.524999999999977],[-80.33962179999997,27.524999999999977],[-80.33941549999997,27.524999999999977],[-80.33922539999998,27.524999999999977],[-80.33470060000002,27.524999999999977],[-80.32780279999997,27.524999999999977],[-80.32499999999999,27.524999999999977],[-80.32499999999999,27.529811900000027],[-80.32499999999999,27.530955600000027],[-80.32499999999999,27.531838300000004],[-80.32499999999999,27.534291900000028],[-80.32499999999999,27.536403300000018],[-80.32499999999999,27.5372165],[-80.32499999999999,27.543124999999975],[-80.32499999999999,27.545485999999983],[-80.32499999999999,27.546281599999986],[-80.32499999999999,27.551740499999994],[-80.32499999999999,27.5564306],[-80.32499999999999,27.5699793],[-80.32499999999999,27.57187590000001],[-80.32499999999999,27.57558929999999],[-80.32499999999999,27.600000000000023],[-80.33156589999999,27.600000000000023],[-80.33186380000001,27.600000000000023],[-80.33869420000002,27.600000000000023],[-80.34187550000001,27.600000000000023],[-80.35840239999999,27.600000000000023],[-80.35855179999999,27.600000000000023],[-80.35881130000001,27.600000000000023],[-80.36037219999997,27.600000000000023],[-80.36059110000002,27.600000000000023],[-80.36631410000001,27.600000000000023],[-80.36989,27.600000000000023],[-80.38443439999998,27.600000000000023],[-80.39999999999998,27.600000000000023],[-80.39999999999998,27.524999999999977],[-80.3579188,27.524999999999977],[-80.34913740000002,27.524999999999977],[-80.34733010000002,27.524999999999977]]]}},{"type":"Feature","properties":{},"geometry":{"type":"Polygon","coordinates":[[[-80.36631410000001,27.600000000000023],[-80.36059110000002,27.600000000000023],[-80.36037219999997,27.600000000000023],[-80.35881130000001,27.600000000000023],[-80.35855179999999,27.600000000000023],[-80.35840239999999,27.600000000000023],[-80.34187550000001,27.600000000000023],[-80.33869420000002,27.600000000000023],[-80.33186380000001,27.600000000000023],[-80.33156589999999,27.600000000000023],[-80.32499999999999,27.600000000000023],[-80.32499999999999,27.608331099999987],[-80.32499999999999,27.609514699999977],[-80.32499999999999,27.61551209999999],[-80.32499999999999,27.62581210000002],[-80.32499999999999,27.62707310000002],[-80.32499999999999,27.627194700000018],[-80.32499999999999,27.627668299999982],[-80.32499999999999,27.628747599999997],[-80.32499999999999,27.630767400000025],[-80.32499999999999,27.639702],[-80.32499999999999,27.646885699999984],[-80.32499999999999,27.674508600000024],[-80.32499999999999,27.67500000000001],[-80.33494400000001,27.67500000000001],[-80.35074459999998,27.67500000000001],[-80.35440899999998,27.67500000000001],[-80.35461989999999,27.67500000000001],[-80.35558880000002,27.67500000000001],[-80.35975350000001,27.67500000000001],[-80.36023840000001,27.67500000000001],[-80.36153519999999,27.67500000000001],[-80.36180569999999,27.67500000000001],[-80.36639409999998,27.67500000000001],[-80.3672626,27.67500000000001],[-80.36776789999999,27.67500000000001],[-80.36993369999999,27.67500000000001],[-80.37064989999999,27.67500000000001],[-80.37350550000002,27.67500000000001],[-80.3740717,27.67500000000001],[-80.37556009999997,27.67500000000001],[-80.3782832,27.67500000000001],[-80.37839100000002,27.67500000000001],[-80.37857330000003,27.67500000000001],[-80.37884830000002,27.67500000000001],[-80.38138550000002,27.67500000000001],[-80.38230570000002,27.67500000000001],[-80.38263289999998,27.67500000000001],[-80.382813,27.67500000000001],[-80.38303730000001,27.67500000000001],[-80.3857638,27.67500000000001],[-80.38956109999998,27.67500000000001],[-80.39999999999998,27.67500000000001],[-80.39999999999998,27.649611499999992],[-80.39999999999998,27.64942400000001],[-80.39999999999998,27.64913999999999],[-80.39999999999998,27.64693349999999],[-80.39999999999998,27.64397409999998],[-80.39999999999998,27.630428300000005],[-80.39999999999998,27.600000000000023],[-80.38443439999998,27.600000000000023],[-80.36989,27.600000000000023],[-80.36631410000001,27.600000000000023]]]}},{"type":"Feature","properties":{},"geometry":{"type":"Polygon","coordinates":[[[-80.44129679999998,27.75],[-80.47500000000002,27.75],[-80.47500000000002,27.700282399999992],[-80.47500000000002,27.67500000000001],[-80.43305559999999,27.67500000000001],[-80.41098399999998,27.67500000000001],[-80.39999999999998,27.67500000000001],[-80.39999999999998,27.703328],[-80.39999999999998,27.706061999999974],[-80.39999999999998,27.716736000000026],[-80.39999999999998,27.717766299999994],[-80.39999999999998,27.72287879999999],[-80.39999999999998,27.723476800000014],[-80.39999999999998,27.723567899999978],[-80.39999999999998,27.726206900000022],[-80.39999999999998,27.731687000000022],[-80.39999999999998,27.734987400000023],[-80.39999999999998,27.73630750000001],[-80.39999999999998,27.737057300000004],[-80.39999999999998,27.74122410000001],[-80.39999999999998,27.743248100000017],[-80.39999999999998,27.743606699999987],[-80.39999999999998,27.74381840000001],[-80.39999999999998,27.74533789999998],[-80.39999999999998,27.75],[-80.40111789999997,27.75],[-80.40246309999998,27.75],[-80.40265110000001,27.75],[-80.4028644,27.75],[-80.40416349999998,27.75],[-80.40658450000001,27.75],[-80.40767749999998,27.75],[-80.40980150000001,27.75],[-80.427276,27.75],[-80.4375374,27.75],[-80.44129679999998,27.75]]]}},{"type":"Feature","properties":{},"geometry":{"type":"Polygon","coordinates":[[[-80.3857638,27.67500000000001],[-80.38303730000001,27.67500000000001],[-80.382813,27.67500000000001],[-80.38263289999998,27.67500000000001],[-80.38230570000002,27.67500000000001],[-80.38138550000002,27.67500000000001],[-80.37884830000002,27.67500000000001],[-80.37857330000003,27.67500000000001],[-80.37839100000002,27.67500000000001],[-80.3782832,27.67500000000001],[-80.37556009999997,27.67500000000001],[-80.3740717,27.67500000000001],[-80.37350550000002,27.67500000000001],[-80.37064989999999,27.67500000000001],[-80.36993369999999,27.67500000000001],[-80.36776789999999,27.67500000000001],[-80.3672626,27.67500000000001],[-80.36639409999998,27.67500000000001],[-80.36180569999999,27.67500000000001],[-80.36153519999999,27.67500000000001],[-80.36023840000001,27.67500000000001],[-80.35975350000001,27.67500000000001],[-80.35558880000002,27.67500000000001],[-80.35461989999999,27.67500000000001],[-80.35440899999998,27.67500000000001],[-80.35074459999998,27.67500000000001],[-80.33494400000001,27.67500000000001],[-80.32499999999999,27.67500000000001],[-80.32499999999999,27.742635500000006],[-80.32499999999999,27.74397529999999],[-80.32499999999999,27.75],[-80.32696470000002,27.75],[-80.32705820000001,27.75],[-80.3273873,27.75],[-80.36150730000003,27.75],[-80.3772151,27.75],[-80.37906149999998,27.75],[-80.38426720000001,27.75],[-80.38698490000002,27.75],[-80.38803039999999,27.75],[-80.38852270000001,27.75],[-80.39999999999998,27.75],[-80.39999999999998,27.74533789999998],[-80.39999999999998,27.74381840000001],[-80.39999999999998,27.743606699999987],[-80.39999999999998,27.743248100000017],[-80.39999999999998,27.74122410000001],[-80.39999999999998,27.737057300000004],[-80.39999999999998,27.73630750000001],[-80.39999999999998,27.734987400000023],[-80.39999999999998,27.731687000000022],[-80.39999999999998,27.726206900000022],[-80.39999999999998,27.723567899999978],[-80.39999999999998,27.723476800000014],[-80.39999999999998,27.72287879999999],[-80.39999999999998,27.717766299999994],[-80.39999999999998,27.716736000000026],[-80.39999999999998,27.706061999999974],[-80.39999999999998,27.703328],[-80.39999999999998,27.67500000000001],[-80.38956109999998,27.67500000000001],[-80.3857638,27.67500000000001]]]}},{"type":"Feature","properties":{},"geometry":{"type":"Polygon","coordinates":[[[-80.4375374,27.75],[-80.427276,27.75],[-80.40980150000001,27.75],[-80.40767749999998,27.75],[-80.40658450000001,27.75],[-80.40416349999998,27.75],[-80.4028644,27.75],[-80.40265110000001,27.75],[-80.40246309999998,27.75],[-80.40111789999997,27.75],[-80.39999999999998,27.75],[-80.39999999999998,27.770360700000026],[-80.39999999999998,27.771900300000027],[-80.39999999999998,27.77352079999997],[-80.39999999999998,27.778248899999994],[-80.39999999999998,27.780660300000022],[-80.39999999999998,27.786216799999977],[-80.39999999999998,27.815654199999983],[-80.39999999999998,27.82499999999999],[-80.40460359999997,27.82499999999999],[-80.42264119999999,27.82499999999999],[-80.4243859,27.82499999999999],[-80.42614830000002,27.82499999999999],[-80.42721990000001,27.82499999999999],[-80.4284965,27.82499999999999],[-80.43017070000002,27.82499999999999],[-80.43166029999998,27.82499999999999],[-80.46068129999998,27.82499999999999],[-80.46125489999997,27.82499999999999],[-80.46191850000002,27.82499999999999],[-80.46379669999999,27.82499999999999],[-80.46403140000001,27.82499999999999],[-80.46423600000003,27.82499999999999],[-80.46934979999997,27.82499999999999],[-80.47164220000002,27.82499999999999],[-80.4722147,27.82499999999999],[-80.47500000000002,27.82499999999999],[-80.47500000000002,27.81714679999999],[-80.47500000000002,27.811799399999984],[-80.47500000000002,27.806137999999976],[-80.47500000000002,27.75],[-80.44129679999998,27.75],[-80.4375374,27.75]]]}},{"type":"Feature","properties":{},"geometry":{"type":"Polygon","coordinates":[[[-80.52667789999998,27.899999999999977],[-80.55000000000001,27.899999999999977],[-80.55000000000001,27.82499999999999],[-80.51106720000001,27.82499999999999],[-80.51035000000002,27.82499999999999],[-80.50998349999998,27.82499999999999],[-80.5090912,27.82499999999999],[-80.50836939999999,27.82499999999999],[-80.50796509999998,27.82499999999999],[-80.50716219999998,27.82499999999999],[-80.48428890000002,27.82499999999999],[-80.47500000000002,27.82499999999999],[-80.47500000000002,27.830508099999975],[-80.47500000000002,27.840387299999975],[-80.47500000000002,27.84082330000001],[-80.47500000000002,27.842520400000012],[-80.47500000000002,27.84336380000002],[-80.47500000000002,27.84344779999998],[-80.47500000000002,27.847909399999992],[-80.47500000000002,27.848411699999986],[-80.47500000000002,27.848698599999977],[-80.47500000000002,27.875094900000022],[-80.47500000000002,27.876797399999987],[-80.47500000000002,27.899999999999977],[-80.50169749999998,27.899999999999977],[-80.50213960000002,27.899999999999977],[-80.502637,27.899999999999977],[-80.50562760000003,27.899999999999977],[-80.5079624,27.899999999999977],[-80.50940350000002,27.899999999999977],[-80.50990489999998,27.899999999999977],[-80.5107827,27.899999999999977],[-80.52125849999999,27.899999999999977],[-80.52667789999998,27.899999999999977]]]}},{"type":"Feature","properties":{},"geometry":{"type":"Polygon","coordinates":[[[-80.4722147,27.82499999999999],[-80.47164220000002,27.82499999999999],[-80.46934979999997,27.82499999999999],[-80.46423600000003,27.82499999999999],[-80.46403140000001,27.82499999999999],[-80.46379669999999,27.82499999999999],[-80.46250939999999,27.82499999999999],[-80.46191850000002,27.82499999999999],[-80.46176939999998,27.82499999999999],[-80.46125489999997,27.82499999999999],[-80.46068129999998,27.82499999999999],[-80.43166029999998,27.82499999999999],[-80.43045410000002,27.82499999999999],[-80.43017070000002,27.82499999999999],[-80.4284965,27.82499999999999],[-80.42721990000001,27.82499999999999],[-80.42614830000002,27.82499999999999],[-80.4243859,27.82499999999999],[-80.42264119999999,27.82499999999999],[-80.40460359999997,27.82499999999999],[-80.39999999999998,27.82499999999999],[-80.39999999999998,27.89028780000001],[-80.39999999999998,27.891061999999977],[-80.39999999999998,27.899999999999977],[-80.40468049999998,27.899999999999977],[-80.40514109999998,27.899999999999977],[-80.4415477,27.899999999999977],[-80.46359319999999,27.899999999999977],[-80.46594119999997,27.899999999999977],[-80.4665612,27.899999999999977],[-80.46765499999998,27.899999999999977],[-80.46872280000002,27.899999999999977],[-80.468953,27.899999999999977],[-80.47427979999998,27.899999999999977],[-80.47453960000001,27.899999999999977],[-80.47500000000002,27.899999999999977],[-80.47500000000002,27.876797399999987],[-80.47500000000002,27.875094900000022],[-80.47500000000002,27.848698599999977],[-80.47500000000002,27.848411699999986],[-80.47500000000002,27.847909399999992],[-80.47500000000002,27.84344779999998],[-80.47500000000002,27.84336380000002],[-80.47500000000002,27.842520400000012],[-80.47500000000002,27.84082330000001],[-80.47500000000002,27.840387299999975],[-80.47500000000002,27.830508099999975],[-80.47500000000002,27.82499999999999],[-80.47250969999999,27.82499999999999],[-80.4722147,27.82499999999999]]]}},{"type":"Feature","properties":{},"geometry":{"type":"Polygon","coordinates":[[[-80.52125849999999,27.899999999999977],[-80.5107827,27.899999999999977],[-80.50990489999998,27.899999999999977],[-80.50940350000002,27.899999999999977],[-80.5079624,27.899999999999977],[-80.50562760000003,27.899999999999977],[-80.502637,27.899999999999977],[-80.50213960000002,27.899999999999977],[-80.50169749999998,27.899999999999977],[-80.47500000000002,27.899999999999977],[-80.47500000000002,27.901239900000007],[-80.47500000000002,27.90136339999998],[-80.47500000000002,27.90313229999998],[-80.47500000000002,27.903315099999986],[-80.47500000000002,27.904514800000015],[-80.47500000000002,27.904960800000026],[-80.47500000000002,27.909960300000023],[-80.47500000000002,27.910519000000022],[-80.47500000000002,27.912212899999986],[-80.47500000000002,27.913833599999975],[-80.47500000000002,27.915140699999995],[-80.47500000000002,27.917538700000023],[-80.47500000000002,27.918258999999978],[-80.47500000000002,27.922229800000025],[-80.47500000000002,27.937880800000016],[-80.47500000000002,27.96791159999998],[-80.47500000000002,27.975000000000023],[-80.4784917,27.975000000000023],[-80.50442900000002,27.975000000000023],[-80.50679389999999,27.975000000000023],[-80.51060080000002,27.975000000000023],[-80.51116400000001,27.975000000000023],[-80.51782200000002,27.975000000000023],[-80.51951789999998,27.975000000000023],[-80.53254220000002,27.975000000000023],[-80.532646,27.975000000000023],[-80.53615439999999,27.975000000000023],[-80.53636699999998,27.975000000000023],[-80.53656590000003,27.975000000000023],[-80.54094300000003,27.975000000000023],[-80.54337170000002,27.975000000000023],[-80.5470464,27.975000000000023],[-80.55000000000001,27.975000000000023],[-80.55000000000001,27.965494999999976],[-80.55000000000001,27.964973499999985],[-80.55000000000001,27.958282600000018],[-80.55000000000001,27.899999999999977],[-80.52667789999998,27.899999999999977],[-80.52125849999999,27.899999999999977]]]}},{"type":"Feature","properties":{},"geometry":{"type":"Polygon","coordinates":[[[-80.55000000000001,27.975000000000023],[-80.55000000000001,27.980344000000002],[-80.55000000000001,27.981611999999984],[-80.55000000000001,27.98246260000002],[-80.55000000000001,27.991592400000002],[-80.55000000000001,28.00104779999998],[-80.55000000000001,28.0014142],[-80.55000000000001,28.002146900000014],[-80.55000000000001,28.004761400000007],[-80.55000000000001,28.007781799999975],[-80.55000000000001,28.00830480000002],[-80.55000000000001,28.008562900000015],[-80.55000000000001,28.02645339999998],[-80.55000000000001,28.036762099999976],[-80.55000000000001,28.05000000000001],[-80.5561682,28.05000000000001],[-80.56009820000003,28.05000000000001],[-80.56155150000001,28.05000000000001],[-80.56165470000002,28.05000000000001],[-80.57329420000002,28.05000000000001],[-80.57347019999997,28.05000000000001],[-80.57371439999997,28.05000000000001],[-80.58053100000001,28.05000000000001],[-80.58752270000002,28.05000000000001],[-80.58941859999999,28.05000000000001],[-80.59012890000002,28.05000000000001],[-80.5952312,28.05000000000001],[-80.625,28.05000000000001],[-80.625,27.975000000000023],[-80.558244,27.975000000000023],[-80.55000000000001,27.975000000000023]]]}},{"type":"Feature","properties":{},"geometry":{"type":"Polygon","coordinates":[[[-80.55000000000001,27.975000000000023],[-80.5470464,27.975000000000023],[-80.54337170000002,27.975000000000023],[-80.54094300000003,27.975000000000023],[-80.53656590000003,27.975000000000023],[-80.53636699999998,27.975000000000023],[-80.53615439999999,27.975000000000023],[-80.532646,27.975000000000023],[-80.53254220000002,27.975000000000023],[-80.51951789999998,27.975000000000023],[-80.51782200000002,27.975000000000023],[-80.51116400000001,27.975000000000023],[-80.51060080000002,27.975000000000023],[-80.50679389999999,27.975000000000023],[-80.50442900000002,27.975000000000023],[-80.4784917,27.975000000000023],[-80.47500000000002,27.975000000000023],[-80.47500000000002,28.02645799999999],[-80.47500000000002,28.02730650000001],[-80.47500000000002,28.05000000000001],[-80.48628000000002,28.05000000000001],[-80.4867183,28.05000000000001],[-80.50151519999997,28.05000000000001],[-80.5154794,28.05000000000001],[-80.54021719999997,28.05000000000001],[-80.54395010000002,28.05000000000001],[-80.54466739999998,28.05000000000001],[-80.54778729999998,28.05000000000001],[-80.54819029999999,28.05000000000001],[-80.55000000000001,28.05000000000001],[-80.55000000000001,28.036762099999976],[-80.55000000000001,28.02645339999998],[-80.55000000000001,28.008562900000015],[-80.55000000000001,28.00830480000002],[-80.55000000000001,28.007781799999975],[-80.55000000000001,28.004761400000007],[-80.55000000000001,28.002146900000014],[-80.55000000000001,28.0014142],[-80.55000000000001,28.00104779999998],[-80.55000000000001,27.991592400000002],[-80.55000000000001,27.98246260000002],[-80.55000000000001,27.981611999999984],[-80.55000000000001,27.980344000000002],[-80.55000000000001,27.975000000000023]]]}}]}