{"type":"FeatureCollection","features":[{"type":"Feature","properties":{},"geometry":{"type":"Polygon","coordinates":[[[-96.44979009999997,28.42500000000001],[-96.44999999999999,28.42500000000001],[-96.44999999999999,28.425369999999987],[-96.44999999999999,28.426411400000006],[-96.44999999999999,28.439610000000016],[-96.44999999999999,28.477788599999997],[-96.44999999999999,28.478188400000022],[-96.44999999999999,28.47822309999998],[-96.44999999999999,28.478573100000006],[-96.44999999999999,28.4786335],[-96.44999999999999,28.479027799999983],[-96.44999999999999,28.48893670000001],[-96.44999999999999,28.489457399999992],[-96.44999999999999,28.48950289999999],[-96.44999999999999,28.490554999999972],[-96.44999999999999,28.491665000000012],[-96.44999999999999,28.494746899999996],[-96.44999999999999,28.495631500000002],[-96.44999999999999,28.5],[-96.43951040000002,28.5],[-96.42963850000001,28.5],[-96.4296099,28.5],[-96.42936029999998,28.5],[-96.42886479999999,28.5],[-96.4288611,28.5],[-96.42864049999997,28.5],[-96.42861160000001,28.5],[-96.4243262,28.5],[-96.42086010000003,28.5],[-96.41662050000002,28.5],[-96.40106450000002,28.5],[-96.39937789999999,28.5],[-96.375,28.5],[-96.375,28.49337639999999],[-96.375,28.488161699999978],[-96.375,28.472160499999973],[-96.375,28.471755099999996],[-96.375,28.470944400000008],[-96.375,28.470538999999974],[-96.375,28.46718770000001],[-96.375,28.466028600000016],[-96.375,28.464500299999997],[-96.375,28.463886100000025],[-96.375,28.462200699999983],[-96.375,28.46216659999999],[-96.375,28.462024699999972],[-96.375,28.461898099999985],[-96.375,28.461672599999986],[-96.375,28.461496599999975],[-96.375,28.461462799999993],[-96.375,28.461455],[-96.375,28.458809299999984],[-96.375,28.45584309999998],[-96.375,28.449030800000003],[-96.375,28.446206800000027],[-96.375,28.442902199999992],[-96.375,28.430769499999997],[-96.375,28.42500000000001],[-96.37600429999998,28.42500000000001],[-96.38056790000002,28.42500000000001],[-96.38212929999997,28.42500000000001],[-96.38634780000001,28.42500000000001],[-96.39010810000002,28.42500000000001],[-96.39525550000002,28.42500000000001],[-96.39691470000002,28.42500000000001],[-96.4031319,28.42500000000001],[-96.4057689,28.42500000000001],[-96.40624179999998,28.42500000000001],[-96.4065182,28.42500000000001],[-96.41051110000001,28.42500000000001],[-96.41122489999998,28.42500000000001],[-96.41233629999999,28.42500000000001],[-96.41318510000002,28.42500000000001],[-96.4147398,28.42500000000001],[-96.4151895,28.42500000000001],[-96.41522980000002,28.42500000000001],[-96.41596090000002,28.42500000000001],[-96.41881640000003,28.42500000000001],[-96.42385960000001,28.42500000000001],[-96.4300743,28.42500000000001],[-96.43882960000002,28.42500000000001],[-96.439817,28.42500000000001],[-96.44510980000001,28.42500000000001],[-96.44636919999999,28.42500000000001],[-96.4465798,28.42500000000001],[-96.44700089999998,28.42500000000001],[-96.44721140000001,28.42500000000001],[-96.44861409999999,28.42500000000001],[-96.44908900000001,28.42500000000001],[-96.44979009999997,28.42500000000001]]]}},{"type":"Feature","properties":{},"geometry":{"type":"Polygon","coordinates":[[[-96.36760049999998,28.42500000000001],[-96.375,28.42500000000001],[-96.375,28.430769499999997],[-96.375,28.442902199999992],[-96.375,28.446206800000027],[-96.375,28.449030800000003],[-96.375,28.45584309999998],[-96.375,28.458809299999984],[-96.375,28.461462799999993],[-96.375,28.461496599999975],[-96.375,28.461672599999986],[-96.375,28.461898099999985],[-96.375,28.462024699999972],[-96.375,28.46216659999999],[-96.375,28.462200699999983],[-96.375,28.463886100000025],[-96.375,28.464500299999997],[-96.375,28.466028600000016],[-96.375,28.46718770000001],[-96.375,28.470538999999974],[-96.375,28.470944400000008],[-96.375,28.471755099999996],[-96.375,28.472160499999973],[-96.375,28.488161699999978],[-96.375,28.49337639999999],[-96.375,28.5],[-96.35670979999998,28.5],[-96.33422890000003,28.5],[-96.32881509999999,28.5],[-96.31832120000001,28.5],[-96.30625789999999,28.5],[-96.30608519999998,28.5],[-96.30575299999998,28.5],[-96.30559260000001,28.5],[-96.30558960000002,28.5],[-96.30529969999998,28.5],[-96.30471970000002,28.5],[-96.30442979999998,28.5],[-96.3035572,28.5],[-96.30137239999999,28.5],[-96.30068549999999,28.5],[-96.30025289999998,28.5],[-96.30000000000001,28.5],[-96.30000000000001,28.4993566],[-96.30000000000001,28.498678299999995],[-96.30000000000001,28.49824560000002],[-96.30000000000001,28.49065710000002],[-96.30000000000001,28.489821399999983],[-96.30000000000001,28.489272500000027],[-96.30000000000001,28.487531100000012],[-96.30000000000001,28.46803540000002],[-96.30000000000001,28.463446799999986],[-96.30000000000001,28.46186499999999],[-96.30000000000001,28.459965899999986],[-96.30000000000001,28.459158000000002],[-96.30000000000001,28.440819799999986],[-96.30000000000001,28.44066379999998],[-96.30000000000001,28.440659700000026],[-96.30000000000001,28.440458499999977],[-96.30000000000001,28.437104599999998],[-96.30000000000001,28.43565719999998],[-96.30000000000001,28.432945500000017],[-96.30000000000001,28.42500000000001],[-96.30991110000002,28.42500000000001],[-96.31306119999999,28.42500000000001],[-96.31491690000001,28.42500000000001],[-96.31759449999998,28.42500000000001],[-96.31792259999997,28.42500000000001],[-96.321823,28.42500000000001],[-96.32277699999997,28.42500000000001],[-96.32283710000002,28.42500000000001],[-96.32334650000001,28.42500000000001],[-96.3253621,28.42500000000001],[-96.3253651,28.42500000000001],[-96.32568400000002,28.42500000000001],[-96.3259855,28.42500000000001],[-96.32632560000002,28.42500000000001],[-96.32664649999998,28.42500000000001],[-96.32664840000001,28.42500000000001],[-96.32820759999998,28.42500000000001],[-96.32899259999999,28.42500000000001],[-96.32927189999998,28.42500000000001],[-96.3456749,28.42500000000001],[-96.34608150000003,28.42500000000001],[-96.34658730000001,28.42500000000001],[-96.34769879999999,28.42500000000001],[-96.34904940000001,28.42500000000001],[-96.34948000000003,28.42500000000001],[-96.35010679999999,28.42500000000001],[-96.35109569999997,28.42500000000001],[-96.35164839999999,28.42500000000001],[-96.35239910000001,28.42500000000001],[-96.35712940000002,28.42500000000001],[-96.3578008,28.42500000000001],[-96.3613049,28.42500000000001],[-96.36477180000003,28.42500000000001],[-96.36760049999998,28.42500000000001]]]}},{"type":"Feature","properties":{},"geometry":{"type":"Polygon","coordinates":[[[-96.53446300000002,28.5],[-96.60000000000002,28.5],[-96.60000000000002,28.556975799999975],[-96.60000000000002,28.56207710000001],[-96.60000000000002,28.56410699999998],[-96.60000000000002,28.567573100000004],[-96.60000000000002,28.5682587],[-96.60000000000002,28.568416800000023],[-96.60000000000002,28.57203850000002],[-96.60000000000002,28.572330299999976],[-96.60000000000002,28.57259720000002],[-96.60000000000002,28.57499999999999],[-96.59174739999997,28.57499999999999],[-96.59142880000002,28.57499999999999],[-96.59047550000003,28.57499999999999],[-96.59042920000002,28.57499999999999],[-96.56398810000002,28.57499999999999],[-96.56388320000002,28.57499999999999],[-96.56215800000001,28.57499999999999],[-96.54484359999998,28.57499999999999],[-96.5361011,28.57499999999999],[-96.53610079999999,28.57499999999999],[-96.53585079999999,28.57499999999999],[-96.53557110000003,28.57499999999999],[-96.53535069999998,28.57499999999999],[-96.535101,28.57499999999999],[-96.53510069999999,28.57499999999999],[-96.53412259999999,28.57499999999999],[-96.53189930000002,28.57499999999999],[-96.52581199999997,28.57499999999999],[-96.52499999999998,28.57499999999999],[-96.52499999999998,28.574427000000014],[-96.52499999999998,28.5725597],[-96.52499999999998,28.57233439999999],[-96.52499999999998,28.571533799999997],[-96.52499999999998,28.56934339999998],[-96.52499999999998,28.567897800000026],[-96.52499999999998,28.56789759999998],[-96.52499999999998,28.567722000000003],[-96.52499999999998,28.567574700000023],[-96.52499999999998,28.567370400000016],[-96.52499999999998,28.567194599999993],[-96.52499999999998,28.567194400000005],[-96.52499999999998,28.566739700000028],[-96.52499999999998,28.563810100000012],[-96.52499999999998,28.563020100000017],[-96.52499999999998,28.561435700000004],[-96.52499999999998,28.55709569999999],[-96.52499999999998,28.557050500000003],[-96.52499999999998,28.55703569999997],[-96.52499999999998,28.553836699999977],[-96.52499999999998,28.55258120000002],[-96.52499999999998,28.55147820000002],[-96.52499999999998,28.548022500000002],[-96.52499999999998,28.547790399999997],[-96.52499999999998,28.544930799999975],[-96.52499999999998,28.54491009999998],[-96.52499999999998,28.532401800000002],[-96.52499999999998,28.529120999999975],[-96.52499999999998,28.52872819999999],[-96.52499999999998,28.51704460000002],[-96.52499999999998,28.5],[-96.53446300000002,28.5]]]}},{"type":"Feature","properties":{},"geometry":{"type":"Polygon","coordinates":[[[-96.51888630000002,28.5],[-96.52499999999998,28.5],[-96.52499999999998,28.51704460000002],[-96.52499999999998,28.52872819999999],[-96.52499999999998,28.529120999999975],[-96.52499999999998,28.532401800000002],[-96.52499999999998,28.54491009999998],[-96.52499999999998,28.544930799999975],[-96.52499999999998,28.547790399999997],[-96.52499999999998,28.548022500000002],[-96.52499999999998,28.55147820000002],[-96.52499999999998,28.55258120000002],[-96.52499999999998,28.553836699999977],[-96.52499999999998,28.55703569999997],[-96.52499999999998,28.557050500000003],[-96.52499999999998,28.55709569999999],[-96.52499999999998,28.561435700000004],[-96.52499999999998,28.563020100000017],[-96.52499999999998,28.563810100000012],[-96.52499999999998,28.566739700000028],[-96.52499999999998,28.567194400000005],[-96.52499999999998,28.567194599999993],[-96.52499999999998,28.567370400000016],[-96.52499999999998,28.567574700000023],[-96.52499999999998,28.567722000000003],[-96.52499999999998,28.56789759999998],[-96.52499999999998,28.567897800000026],[-96.52499999999998,28.56934339999998],[-96.52499999999998,28.571533799999997],[-96.52499999999998,28.57233439999999],[-96.52499999999998,28.5725597],[-96.52499999999998,28.574427000000014],[-96.52499999999998,28.57499999999999],[-96.52320329999998,28.57499999999999],[-96.48636390000001,28.57499999999999],[-96.48411270000003,28.57499999999999],[-96.47540620000001,28.57499999999999],[-96.47332790000002,28.57499999999999],[-96.47037039999998,28.57499999999999],[-96.46547700000002,28.57499999999999],[-96.46304300000003,28.57499999999999],[-96.44999999999999,28.57499999999999],[-96.44999999999999,28.554303500000003],[-96.44999999999999,28.524322799999993],[-96.44999999999999,28.522762100000023],[-96.44999999999999,28.52002870000001],[-96.44999999999999,28.518101600000023],[-96.44999999999999,28.515077899999994],[-96.44999999999999,28.515065100000015],[-96.44999999999999,28.514902000000006],[-96.44999999999999,28.514550100000008],[-96.44999999999999,28.514374099999998],[-96.44999999999999,28.514361199999996],[-96.44999999999999,28.50775090000002],[-96.44999999999999,28.5],[-96.45640800000001,28.5],[-96.45801970000002,28.5],[-96.46341180000002,28.5],[-96.46634879999999,28.5],[-96.46642000000003,28.5],[-96.47312629999999,28.5],[-96.47374489999999,28.5],[-96.47375549999998,28.5],[-96.47394159999999,28.5],[-96.47401389999999,28.5],[-96.4745011,28.5],[-96.47454590000001,28.5],[-96.47513670000001,28.5],[-96.48451920000002,28.5],[-96.4845866,28.5],[-96.51888630000002,28.5]]]}},{"type":"Feature","properties":{},"geometry":{"type":"Polygon","coordinates":[[[-96.43951040000002,28.5],[-96.44999999999999,28.5],[-96.44999999999999,28.50775090000002],[-96.44999999999999,28.514361199999996],[-96.44999999999999,28.514374099999998],[-96.44999999999999,28.514550100000008],[-96.44999999999999,28.514902000000006],[-96.44999999999999,28.515065100000015],[-96.44999999999999,28.515077899999994],[-96.44999999999999,28.518101600000023],[-96.44999999999999,28.52002870000001],[-96.44999999999999,28.522762100000023],[-96.44999999999999,28.524322799999993],[-96.44999999999999,28.554303500000003],[-96.44999999999999,28.57499999999999],[-96.42046149999999,28.57499999999999],[-96.38255750000002,28.57499999999999],[-96.375,28.57499999999999],[-96.375,28.574472500000013],[-96.375,28.572583899999984],[-96.375,28.532706700000006],[-96.375,28.532547599999987],[-96.375,28.527712800000018],[-96.375,28.512271199999986],[-96.375,28.510286500000007],[-96.375,28.509177899999997],[-96.375,28.5],[-96.39937789999999,28.5],[-96.40106450000002,28.5],[-96.41662050000002,28.5],[-96.42086010000003,28.5],[-96.42861160000001,28.5],[-96.42864049999997,28.5],[-96.4288611,28.5],[-96.42886479999999,28.5],[-96.42936029999998,28.5],[-96.4296099,28.5],[-96.42963850000001,28.5],[-96.43951040000002,28.5]]]}},{"type":"Feature","properties":{},"geometry":{"type":"Polygon","coordinates":[[[-96.35670979999998,28.5],[-96.375,28.5],[-96.375,28.509177899999997],[-96.375,28.510286500000007],[-96.375,28.512271199999986],[-96.375,28.527712800000018],[-96.375,28.532547599999987],[-96.375,28.532706700000006],[-96.375,28.572583899999984],[-96.375,28.574472500000013],[-96.375,28.57499999999999],[-96.37258689999999,28.57499999999999],[-96.36457539999998,28.57499999999999],[-96.350372,28.57499999999999],[-96.3467258,28.57499999999999],[-96.30000000000001,28.57499999999999],[-96.30000000000001,28.57323889999998],[-96.30000000000001,28.56911409999998],[-96.30000000000001,28.56735520000001],[-96.30000000000001,28.564361899999994],[-96.30000000000001,28.563027299999987],[-96.30000000000001,28.562830899999994],[-96.30000000000001,28.56243810000001],[-96.30000000000001,28.562241700000015],[-96.30000000000001,28.544755199999997],[-96.30000000000001,28.53922449999999],[-96.30000000000001,28.536697100000026],[-96.30000000000001,28.53669689999998],[-96.30000000000001,28.504716400000007],[-96.30000000000001,28.504621900000018],[-96.30000000000001,28.504433600000027],[-96.30000000000001,28.50433989999999],[-96.30000000000001,28.50196169999998],[-96.30000000000001,28.501860099999988],[-96.30000000000001,28.501656700000012],[-96.30000000000001,28.501555199999984],[-96.30000000000001,28.5],[-96.30025289999998,28.5],[-96.30068549999999,28.5],[-96.30137239999999,28.5],[-96.3035572,28.5],[-96.30442979999998,28.5],[-96.30471970000002,28.5],[-96.30529969999998,28.5],[-96.30558960000002,28.5],[-96.30559260000001,28.5],[-96.30575299999998,28.5],[-96.30608519999998,28.5],[-96.30625789999999,28.5],[-96.31832120000001,28.5],[-96.32881509999999,28.5],[-96.33422890000003,28.5],[-96.35670979999998,28.5]]]}},{"type":"Feature","properties":{},"geometry":{"type":"Polygon","coordinates":[[[-96.67231329999998,28.57499999999999],[-96.67500000000001,28.57499999999999],[-96.67500000000001,28.583260600000017],[-96.67500000000001,28.649999999999977],[-96.66947299999998,28.649999999999977],[-96.62743870000003,28.649999999999977],[-96.62658249999998,28.649999999999977],[-96.6263611,28.649999999999977],[-96.62618270000002,28.649999999999977],[-96.61825959999999,28.649999999999977],[-96.60650709999999,28.649999999999977],[-96.60635680000001,28.649999999999977],[-96.60000000000002,28.649999999999977],[-96.60000000000002,28.648938799999996],[-96.60000000000002,28.648718900000006],[-96.60000000000002,28.64870400000001],[-96.60000000000002,28.647494800000004],[-96.60000000000002,28.63465739999998],[-96.60000000000002,28.628504299999975],[-96.60000000000002,28.625747100000012],[-96.60000000000002,28.620858899999973],[-96.60000000000002,28.620720000000006],[-96.60000000000002,28.620420200000012],[-96.60000000000002,28.620281299999988],[-96.60000000000002,28.615358200000003],[-96.60000000000002,28.614442399999973],[-96.60000000000002,28.613875099999973],[-96.60000000000002,28.612416800000005],[-96.60000000000002,28.612141699999995],[-96.60000000000002,28.6121402],[-96.60000000000002,28.612047200000006],[-96.60000000000002,28.61204570000001],[-96.60000000000002,28.611853199999985],[-96.60000000000002,28.611851600000023],[-96.60000000000002,28.611756200000002],[-96.60000000000002,28.611754899999994],[-96.60000000000002,28.6021877],[-96.60000000000002,28.59958560000001],[-96.60000000000002,28.599038399999984],[-96.60000000000002,28.598190199999976],[-96.60000000000002,28.598182099999974],[-96.60000000000002,28.59809230000002],[-96.60000000000002,28.598084200000017],[-96.60000000000002,28.59790240000001],[-96.60000000000002,28.597894300000007],[-96.60000000000002,28.597806600000013],[-96.60000000000002,28.597798300000022],[-96.60000000000002,28.593645200000026],[-96.60000000000002,28.592996200000016],[-96.60000000000002,28.592603399999973],[-96.60000000000002,28.586593900000025],[-96.60000000000002,28.582851300000016],[-96.60000000000002,28.582783199999994],[-96.60000000000002,28.582592499999976],[-96.60000000000002,28.582524200000023],[-96.60000000000002,28.57499999999999],[-96.61668689999999,28.57499999999999],[-96.61728010000002,28.57499999999999],[-96.61767200000003,28.57499999999999],[-96.61838449999999,28.57499999999999],[-96.62525110000001,28.57499999999999],[-96.6404518,28.57499999999999],[-96.640693,28.57499999999999],[-96.64072099999998,28.57499999999999],[-96.6469922,28.57499999999999],[-96.64726230000002,28.57499999999999],[-96.65483010000003,28.57499999999999],[-96.65487089999999,28.57499999999999],[-96.65773050000001,28.57499999999999],[-96.65779950000001,28.57499999999999],[-96.6589965,28.57499999999999],[-96.65905709999998,28.57499999999999],[-96.65930100000003,28.57499999999999],[-96.6594862,28.57499999999999],[-96.6605295,28.57499999999999],[-96.6607022,28.57499999999999],[-96.6621222,28.57499999999999],[-96.6627378,28.57499999999999],[-96.66947299999998,28.57499999999999],[-96.67231329999998,28.57499999999999]]]}},{"type":"Feature","properties":{},"geometry":{"type":"Polygon","coordinates":[[[-96.59174739999997,28.57499999999999],[-96.60000000000002,28.57499999999999],[-96.60000000000002,28.582524200000023],[-96.60000000000002,28.582592499999976],[-96.60000000000002,28.582783199999994],[-96.60000000000002,28.582851300000016],[-96.60000000000002,28.586593900000025],[-96.60000000000002,28.592603399999973],[-96.60000000000002,28.592996200000016],[-96.60000000000002,28.593645200000026],[-96.60000000000002,28.597798300000022],[-96.60000000000002,28.597806600000013],[-96.60000000000002,28.597894300000007],[-96.60000000000002,28.598084200000017],[-96.60000000000002,28.598182099999974],[-96.60000000000002,28.598190199999976],[-96.60000000000002,28.599038399999984],[-96.60000000000002,28.59958560000001],[-96.60000000000002,28.6021877],[-96.60000000000002,28.611754899999994],[-96.60000000000002,28.611756200000002],[-96.60000000000002,28.611851600000023],[-96.60000000000002,28.61204570000001],[-96.60000000000002,28.612140099999976],[-96.60000000000002,28.612141699999995],[-96.60000000000002,28.612416800000005],[-96.60000000000002,28.613875099999973],[-96.60000000000002,28.614442399999973],[-96.60000000000002,28.615358200000003],[-96.60000000000002,28.620281299999988],[-96.60000000000002,28.620420200000012],[-96.60000000000002,28.620720000000006],[-96.60000000000002,28.620858899999973],[-96.60000000000002,28.625747100000012],[-96.60000000000002,28.628504299999975],[-96.60000000000002,28.63465739999998],[-96.60000000000002,28.647494800000004],[-96.60000000000002,28.64870400000001],[-96.60000000000002,28.648718900000006],[-96.60000000000002,28.648938799999996],[-96.60000000000002,28.649999999999977],[-96.59964459999998,28.649999999999977],[-96.59912170000001,28.649999999999977],[-96.59852439999997,28.649999999999977],[-96.59829280000002,28.649999999999977],[-96.59821870000002,28.649999999999977],[-96.5940506,28.649999999999977],[-96.59394300000002,28.649999999999977],[-96.59375290000003,28.649999999999977],[-96.59365009999999,28.649999999999977],[-96.59157649999997,28.649999999999977],[-96.5904289,28.649999999999977],[-96.58540740000001,28.649999999999977],[-96.5784385,28.649999999999977],[-96.57780300000002,28.649999999999977],[-96.57662449999998,28.649999999999977],[-96.57514850000001,28.649999999999977],[-96.5741739,28.649999999999977],[-96.57404200000002,28.649999999999977],[-96.57115820000001,28.649999999999977],[-96.56740159999998,28.649999999999977],[-96.56623389999999,28.649999999999977],[-96.56585360000003,28.649999999999977],[-96.56577579999998,28.649999999999977],[-96.5646231,28.649999999999977],[-96.56375939999998,28.649999999999977],[-96.56225069999999,28.649999999999977],[-96.5621506,28.649999999999977],[-96.55756550000001,28.649999999999977],[-96.55592719999999,28.649999999999977],[-96.55561169999999,28.649999999999977],[-96.5549009,28.649999999999977],[-96.5542254,28.649999999999977],[-96.54750000000001,28.649999999999977],[-96.52499999999998,28.649999999999977],[-96.52499999999998,28.642967],[-96.52499999999998,28.640637700000013],[-96.52499999999998,28.620384300000012],[-96.52499999999998,28.598629200000005],[-96.52499999999998,28.589136800000006],[-96.52499999999998,28.584012799999982],[-96.52499999999998,28.576253800000018],[-96.52499999999998,28.57499999999999],[-96.52581199999997,28.57499999999999],[-96.53189930000002,28.57499999999999],[-96.53412259999999,28.57499999999999],[-96.53510069999999,28.57499999999999],[-96.535101,28.57499999999999],[-96.53535069999998,28.57499999999999],[-96.53557110000003,28.57499999999999],[-96.53585079999999,28.57499999999999],[-96.53610079999999,28.57499999999999],[-96.5361011,28.57499999999999],[-96.54484359999998,28.57499999999999],[-96.56215800000001,28.57499999999999],[-96.56388320000002,28.57499999999999],[-96.56398810000002,28.57499999999999],[-96.59042920000002,28.57499999999999],[-96.59047550000003,28.57499999999999],[-96.59142880000002,28.57499999999999],[-96.59174739999997,28.57499999999999]]]}},{"type":"Feature","properties":{},"geometry":{"type":"Polygon","coordinates":[[[-96.67500000000001,28.68610960000001],[-96.67500000000001,28.707074499999976],[-96.67500000000001,28.725000000000023],[-96.67381619999998,28.725000000000023],[-96.66947299999998,28.725000000000023],[-96.65973969999999,28.725000000000023],[-96.65880019999997,28.725000000000023],[-96.65302969999999,28.725000000000023],[-96.63760300000001,28.725000000000023],[-96.63640650000002,28.725000000000023],[-96.61453399999999,28.725000000000023],[-96.61436950000001,28.725000000000023],[-96.61219990000001,28.725000000000023],[-96.60000000000002,28.725000000000023],[-96.60000000000002,28.723163999999997],[-96.60000000000002,28.72247440000001],[-96.60000000000002,28.71816339999998],[-96.60000000000002,28.700565100000006],[-96.60000000000002,28.695142599999997],[-96.60000000000002,28.667866600000025],[-96.60000000000002,28.666811999999993],[-96.60000000000002,28.66273369999999],[-96.60000000000002,28.662594899999988],[-96.60000000000002,28.662366200000008],[-96.60000000000002,28.662258899999983],[-96.60000000000002,28.657044100000007],[-96.60000000000002,28.656932400000017],[-96.60000000000002,28.656707200000028],[-96.60000000000002,28.656603299999972],[-96.60000000000002,28.653865999999994],[-96.60000000000002,28.653767500000015],[-96.60000000000002,28.6531291],[-96.60000000000002,28.650410799999975],[-96.60000000000002,28.649999999999977],[-96.60635680000001,28.649999999999977],[-96.60650709999999,28.649999999999977],[-96.61825959999999,28.649999999999977],[-96.62618270000002,28.649999999999977],[-96.6263611,28.649999999999977],[-96.62658249999998,28.649999999999977],[-96.62668480000002,28.649999999999977],[-96.62743870000003,28.649999999999977],[-96.66947299999998,28.649999999999977],[-96.67500000000001,28.649999999999977],[-96.67500000000001,28.68610960000001]]]}},{"type":"Feature","properties":{},"geometry":{"type":"Polygon","coordinates":[[[-96.59964459999998,28.649999999999977],[-96.60000000000002,28.649999999999977],[-96.60000000000002,28.650410799999975],[-96.60000000000002,28.6531291],[-96.60000000000002,28.653767500000015],[-96.60000000000002,28.653865999999994],[-96.60000000000002,28.656603299999972],[-96.60000000000002,28.656707200000028],[-96.60000000000002,28.656932400000017],[-96.60000000000002,28.657044100000007],[-96.60000000000002,28.662258899999983],[-96.60000000000002,28.662366200000008],[-96.60000000000002,28.662594899999988],[-96.60000000000002,28.66273369999999],[-96.60000000000002,28.666811999999993],[-96.60000000000002,28.667866600000025],[-96.60000000000002,28.695142599999997],[-96.60000000000002,28.700565100000006],[-96.60000000000002,28.71816339999998],[-96.60000000000002,28.72247440000001],[-96.60000000000002,28.723163999999997],[-96.60000000000002,28.725000000000023],[-96.59524529999999,28.725000000000023],[-96.5944116,28.725000000000023],[-96.59359970000003,28.725000000000023],[-96.59275050000002,28.725000000000023],[-96.59201839999997,28.725000000000023],[-96.59191379999999,28.725000000000023],[-96.58711920000002,28.725000000000023],[-96.58687750000001,28.725000000000023],[-96.58552159999999,28.725000000000023],[-96.57663009999999,28.725000000000023],[-96.57555589999998,28.725000000000023],[-96.57546930000001,28.725000000000023],[-96.57529799999998,28.725000000000023],[-96.57521259999999,28.725000000000023],[-96.57404709999997,28.725000000000023],[-96.569479,28.725000000000023],[-96.56260909999997,28.725000000000023],[-96.56229159999998,28.725000000000023],[-96.52499999999998,28.725000000000023],[-96.52499999999998,28.649999999999977],[-96.54750000000001,28.649999999999977],[-96.5542254,28.649999999999977],[-96.5549009,28.649999999999977],[-96.55561169999999,28.649999999999977],[-96.55592719999999,28.649999999999977],[-96.55756550000001,28.649999999999977],[-96.5621506,28.649999999999977],[-96.56225069999999,28.649999999999977],[-96.56375939999998,28.649999999999977],[-96.5646231,28.649999999999977],[-96.56577579999998,28.649999999999977],[-96.56585360000003,28.649999999999977],[-96.56623389999999,28.649999999999977],[-96.56740159999998,28.649999999999977],[-96.57115820000001,28.649999999999977],[-96.57404200000002,28.649999999999977],[-96.5741739,28.649999999999977],[-96.57514850000001,28.649999999999977],[-96.57662449999998,28.649999999999977],[-96.57780300000002,28.649999999999977],[-96.5784385,28.649999999999977],[-96.58540740000001,28.649999999999977],[-96.5904289,28.649999999999977],[-96.59157649999997,28.649999999999977],[-96.59365009999999,28.649999999999977],[-96.59375290000003,28.649999999999977],[-96.59394300000002,28.649999999999977],[-96.5940506,28.649999999999977],[-96.59821870000002,28.649999999999977],[-96.59829280000002,28.649999999999977],[-96.5983043,28.649999999999977],[-96.59852439999997,28.649999999999977],[-96.59912170000001,28.649999999999977],[-96.59964459999998,28.649999999999977]]]}},{"type":"Feature","properties":{},"geometry":{"type":"Polygon","coordinates":[[[-96.36786369999999,28.350000000000023],[-96.375,28.350000000000023],[-96.375,28.367132000000026],[-96.375,28.374701300000027],[-96.375,28.377225099999976],[-96.375,28.3772419],[-96.375,28.378012800000022],[-96.375,28.387460599999997],[-96.375,28.387709700000016],[-96.375,28.400151199999982],[-96.375,28.401864400000022],[-96.375,28.403474399999993],[-96.375,28.404839700000025],[-96.375,28.410101300000008],[-96.375,28.412127800000007],[-96.375,28.41452800000002],[-96.375,28.417463800000007],[-96.375,28.418351900000005],[-96.375,28.41896270000001],[-96.375,28.421658499999978],[-96.375,28.42500000000001],[-96.36760049999998,28.42500000000001],[-96.36477180000003,28.42500000000001],[-96.3613049,28.42500000000001],[-96.3578008,28.42500000000001],[-96.35712940000002,28.42500000000001],[-96.35239910000001,28.42500000000001],[-96.35164839999999,28.42500000000001],[-96.35109569999997,28.42500000000001],[-96.35010679999999,28.42500000000001],[-96.34948000000003,28.42500000000001],[-96.34904940000001,28.42500000000001],[-96.34769879999999,28.42500000000001],[-96.34658730000001,28.42500000000001],[-96.34608150000003,28.42500000000001],[-96.3456749,28.42500000000001],[-96.32927189999998,28.42500000000001],[-96.32899259999999,28.42500000000001],[-96.32820759999998,28.42500000000001],[-96.32664840000001,28.42500000000001],[-96.32664649999998,28.42500000000001],[-96.32632560000002,28.42500000000001],[-96.3259855,28.42500000000001],[-96.32568400000002,28.42500000000001],[-96.3253651,28.42500000000001],[-96.3253621,28.42500000000001],[-96.32334650000001,28.42500000000001],[-96.32283710000002,28.42500000000001],[-96.32277699999997,28.42500000000001],[-96.321823,28.42500000000001],[-96.31792259999997,28.42500000000001],[-96.31759449999998,28.42500000000001],[-96.31491690000001,28.42500000000001],[-96.31306119999999,28.42500000000001],[-96.30991110000002,28.42500000000001],[-96.30000000000001,28.42500000000001],[-96.30000000000001,28.416383499999995],[-96.30000000000001,28.4073358],[-96.30000000000001,28.401244299999973],[-96.30000000000001,28.401239900000007],[-96.30000000000001,28.400941199999977],[-96.30000000000001,28.400722099999996],[-96.30000000000001,28.400340299999982],[-96.30000000000001,28.400039800000002],[-96.30000000000001,28.400037999999995],[-96.30000000000001,28.396704100000022],[-96.30000000000001,28.396550600000012],[-96.30000000000001,28.396456999999998],[-96.30000000000001,28.392487300000028],[-96.30000000000001,28.385174800000016],[-96.30000000000001,28.380814600000008],[-96.30000000000001,28.378032500000018],[-96.30000000000001,28.36738220000001],[-96.30000000000001,28.366941999999995],[-96.30000000000001,28.366704500000026],[-96.30000000000001,28.36593959999999],[-96.30000000000001,28.350000000000023],[-96.32099849999997,28.350000000000023],[-96.33464620000001,28.350000000000023],[-96.33904740000003,28.350000000000023],[-96.33990870000002,28.350000000000023],[-96.36786369999999,28.350000000000023]]]}},{"type":"Feature","properties":{},"geometry":{"type":"Polygon","coordinates":[[[-96.75,28.320448],[-96.75,28.32151429999999],[-96.75,28.332890899999995],[-96.75,28.333754999999996],[-96.75,28.33572140000001],[-96.75,28.336796100000015],[-96.75,28.350000000000023],[-96.74047180000002,28.350000000000023],[-96.7131885,28.350000000000023],[-96.71039139999999,28.350000000000023],[-96.70973620000001,28.350000000000023],[-96.7071173,28.350000000000023],[-96.70667250000002,28.350000000000023],[-96.70625080000002,28.350000000000023],[-96.70593869999999,28.350000000000023],[-96.6771794,28.350000000000023],[-96.67500000000001,28.350000000000023],[-96.67500000000001,28.3457171],[-96.67500000000001,28.33680129999999],[-96.67500000000001,28.335416599999974],[-96.67500000000001,28.333391199999994],[-96.67500000000001,28.332719800000007],[-96.67500000000001,28.330894],[-96.67500000000001,28.330611999999974],[-96.67500000000001,28.323647199999982],[-96.67500000000001,28.323381900000015],[-96.67500000000001,28.321721700000012],[-96.67500000000001,28.319326100000012],[-96.67500000000001,28.319111299999975],[-96.67500000000001,28.318226200000026],[-96.67500000000001,28.317811600000027],[-96.67500000000001,28.316735199999982],[-96.67500000000001,28.31538979999999],[-96.67500000000001,28.31504339999998],[-96.67500000000001,28.313393599999984],[-96.67500000000001,28.313289499999996],[-96.67500000000001,28.313226299999997],[-96.67500000000001,28.31308039999999],[-96.67500000000001,28.312975400000028],[-96.67500000000001,28.31123580000002],[-96.67500000000001,28.31070060000002],[-96.67500000000001,28.309058800000003],[-96.67500000000001,28.302087299999982],[-96.67500000000001,28.295],[-96.75,28.295],[-96.75,28.320448]]]}},{"type":"Feature","properties":{},"geometry":{"type":"Polygon","coordinates":[[[-96.67500000000001,28.302087299999982],[-96.67500000000001,28.309058800000003],[-96.67500000000001,28.31070060000002],[-96.67500000000001,28.31123580000002],[-96.67500000000001,28.312975400000028],[-96.67500000000001,28.31308039999999],[-96.67500000000001,28.313226299999997],[-96.67500000000001,28.313289499999996],[-96.67500000000001,28.313393599999984],[-96.67500000000001,28.31504339999998],[-96.67500000000001,28.31538979999999],[-96.67500000000001,28.316735199999982],[-96.67500000000001,28.317811600000027],[-96.67500000000001,28.318226200000026],[-96.67500000000001,28.319111299999975],[-96.67500000000001,28.319326100000012],[-96.67500000000001,28.321721700000012],[-96.67500000000001,28.323381900000015],[-96.67500000000001,28.323647199999982],[-96.67500000000001,28.330611999999974],[-96.67500000000001,28.330894],[-96.67500000000001,28.332719800000007],[-96.67500000000001,28.333391199999994],[-96.67500000000001,28.335416599999974],[-96.67500000000001,28.33680129999999],[-96.67500000000001,28.3457171],[-96.67500000000001,28.350000000000023],[-96.66691600000001,28.350000000000023],[-96.65790179999999,28.350000000000023],[-96.65451710000002,28.350000000000023],[-96.6428186,28.350000000000023],[-96.64149850000001,28.350000000000023],[-96.63943599999999,28.350000000000023],[-96.63664820000002,28.350000000000023],[-96.6358616,28.350000000000023],[-96.63544569999999,28.350000000000023],[-96.61937940000001,28.350000000000023],[-96.61767850000001,28.350000000000023],[-96.61722070000002,28.350000000000023],[-96.6169873,28.350000000000023],[-96.61500480000001,28.350000000000023],[-96.614575,28.350000000000023],[-96.6137807,28.350000000000023],[-96.60997370000001,28.350000000000023],[-96.60924,28.350000000000023],[-96.60702400000002,28.350000000000023],[-96.6068371,28.350000000000023],[-96.6068287,28.350000000000023],[-96.60646309999998,28.350000000000023],[-96.60627620000002,28.350000000000023],[-96.60567279999998,28.350000000000023],[-96.60509480000002,28.350000000000023],[-96.60482940000003,28.350000000000023],[-96.6023619,28.350000000000023],[-96.60133730000001,28.350000000000023],[-96.60056689999999,28.350000000000023],[-96.60000000000002,28.350000000000023],[-96.60000000000002,28.349859900000013],[-96.60000000000002,28.346165799999994],[-96.60000000000002,28.346030900000017],[-96.60000000000002,28.338778100000013],[-96.60000000000002,28.338393199999985],[-96.60000000000002,28.336283900000012],[-96.60000000000002,28.335487999999998],[-96.60000000000002,28.335446100000013],[-96.60000000000002,28.334750499999984],[-96.60000000000002,28.334750299999996],[-96.60000000000002,28.334684200000027],[-96.60000000000002,28.311096299999974],[-96.60000000000002,28.305690099999993],[-96.60000000000002,28.2977257],[-96.60000000000002,28.296759500000007],[-96.60000000000002,28.296752000000026],[-96.60000000000002,28.295],[-96.67500000000001,28.295],[-96.67500000000001,28.302087299999982]]]}},{"type":"Feature","properties":{},"geometry":{"type":"Polygon","coordinates":[[[-96.60000000000002,28.359511199999986],[-96.60000000000002,28.358584199999996],[-96.60000000000002,28.354625399999975],[-96.60000000000002,28.353757799999983],[-96.60000000000002,28.353658600000017],[-96.60000000000002,28.353543899999977],[-96.60000000000002,28.353459999999984],[-96.60000000000002,28.35336080000002],[-96.60000000000002,28.352754800000014],[-96.60000000000002,28.350403400000005],[-96.60000000000002,28.350000000000023],[-96.60056689999999,28.350000000000023],[-96.60133730000001,28.350000000000023],[-96.6023619,28.350000000000023],[-96.60482940000003,28.350000000000023],[-96.60509480000002,28.350000000000023],[-96.60567279999998,28.350000000000023],[-96.60627620000002,28.350000000000023],[-96.60646309999998,28.350000000000023],[-96.6068287,28.350000000000023],[-96.6068371,28.350000000000023],[-96.60702400000002,28.350000000000023],[-96.60924,28.350000000000023],[-96.60997370000001,28.350000000000023],[-96.6137807,28.350000000000023],[-96.614575,28.350000000000023],[-96.61500480000001,28.350000000000023],[-96.6169873,28.350000000000023],[-96.61722070000002,28.350000000000023],[-96.61767850000001,28.350000000000023],[-96.61937940000001,28.350000000000023],[-96.63544569999999,28.350000000000023],[-96.6358616,28.350000000000023],[-96.63664820000002,28.350000000000023],[-96.63943599999999,28.350000000000023],[-96.64149850000001,28.350000000000023],[-96.6428186,28.350000000000023],[-96.65451710000002,28.350000000000023],[-96.65790179999999,28.350000000000023],[-96.66691600000001,28.350000000000023],[-96.67500000000001,28.350000000000023],[-96.67500000000001,28.400295900000003],[-96.67500000000001,28.42500000000001],[-96.66691600000001,28.42500000000001],[-96.60000000000002,28.42500000000001],[-96.60000000000002,28.386941999999976],[-96.60000000000002,28.359776899999986],[-96.60000000000002,28.359511199999986]]]}},{"type":"Feature","properties":{},"geometry":{"type":"Polygon","coordinates":[[[-96.59990320000003,28.350000000000023],[-96.60000000000002,28.350000000000023],[-96.60000000000002,28.350403400000005],[-96.60000000000002,28.352754800000014],[-96.60000000000002,28.35336080000002],[-96.60000000000002,28.353459999999984],[-96.60000000000002,28.353543899999977],[-96.60000000000002,28.353658600000017],[-96.60000000000002,28.353757799999983],[-96.60000000000002,28.354625399999975],[-96.60000000000002,28.358584199999996],[-96.60000000000002,28.359511199999986],[-96.60000000000002,28.359776899999986],[-96.60000000000002,28.386941999999976],[-96.60000000000002,28.42500000000001],[-96.54034899999999,28.42500000000001],[-96.52499999999998,28.42500000000001],[-96.52499999999998,28.394366400000024],[-96.52499999999998,28.39085560000001],[-96.52499999999998,28.38991010000001],[-96.52499999999998,28.38981389999998],[-96.52499999999998,28.389686700000027],[-96.52499999999998,28.389621599999998],[-96.52499999999998,28.389525400000025],[-96.52499999999998,28.3891352],[-96.52499999999998,28.388788799999986],[-96.52499999999998,28.387041099999976],[-96.52499999999998,28.386875499999974],[-96.52499999999998,28.386598600000013],[-96.52499999999998,28.381779800000004],[-96.52499999999998,28.3805921],[-96.52499999999998,28.37845900000002],[-96.52499999999998,28.375254799999993],[-96.52499999999998,28.375218099999984],[-96.52499999999998,28.37438309999999],[-96.52499999999998,28.350000000000023],[-96.56307470000002,28.350000000000023],[-96.56660849999997,28.350000000000023],[-96.5809147,28.350000000000023],[-96.5818817,28.350000000000023],[-96.58195949999998,28.350000000000023],[-96.58693149999999,28.350000000000023],[-96.58711749999998,28.350000000000023],[-96.58909560000001,28.350000000000023],[-96.59217159999997,28.350000000000023],[-96.59446680000002,28.350000000000023],[-96.59456490000002,28.350000000000023],[-96.59990320000003,28.350000000000023]]]}},{"type":"Feature","properties":{},"geometry":{"type":"Polygon","coordinates":[[[-96.49070360000002,28.350000000000023],[-96.49252259999997,28.350000000000023],[-96.49411040000001,28.350000000000023],[-96.52499999999998,28.350000000000023],[-96.52499999999998,28.37438309999999],[-96.52499999999998,28.375218099999984],[-96.52499999999998,28.375254799999993],[-96.52499999999998,28.37845900000002],[-96.52499999999998,28.3805921],[-96.52499999999998,28.381779800000004],[-96.52499999999998,28.386598600000013],[-96.52499999999998,28.386875499999974],[-96.52499999999998,28.387041099999976],[-96.52499999999998,28.388788799999986],[-96.52499999999998,28.3891352],[-96.52499999999998,28.389525400000025],[-96.52499999999998,28.389621599999998],[-96.52499999999998,28.389686700000027],[-96.52499999999998,28.38981389999998],[-96.52499999999998,28.38991010000001],[-96.52499999999998,28.39085560000001],[-96.52499999999998,28.394366400000024],[-96.52499999999998,28.42500000000001],[-96.4932086,28.42500000000001],[-96.47255799999999,28.42500000000001],[-96.4725578,28.42500000000001],[-96.44999999999999,28.42500000000001],[-96.44999999999999,28.424529500000006],[-96.44999999999999,28.424372600000027],[-96.44999999999999,28.4237167],[-96.44999999999999,28.423619799999983],[-96.44999999999999,28.423426000000006],[-96.44999999999999,28.42332909999999],[-96.44999999999999,28.422736900000018],[-96.44999999999999,28.420321699999988],[-96.44999999999999,28.419936199999995],[-96.44999999999999,28.41911479999999],[-96.44999999999999,28.41793960000001],[-96.44999999999999,28.41556589999999],[-96.44999999999999,28.41524579999998],[-96.44999999999999,28.414061800000013],[-96.44999999999999,28.413956799999994],[-96.44999999999999,28.413807399999996],[-96.44999999999999,28.413681499999996],[-96.44999999999999,28.4130265],[-96.44999999999999,28.41143599999998],[-96.44999999999999,28.410661300000015],[-96.44999999999999,28.40899139999999],[-96.44999999999999,28.40863969999998],[-96.44999999999999,28.408191799999997],[-96.44999999999999,28.407607900000016],[-96.44999999999999,28.407366200000013],[-96.44999999999999,28.405943400000012],[-96.44999999999999,28.40453659999997],[-96.44999999999999,28.40059359999998],[-96.44999999999999,28.399814900000024],[-96.44999999999999,28.397896899999978],[-96.44999999999999,28.397682299999985],[-96.44999999999999,28.3918099],[-96.44999999999999,28.38872359999999],[-96.44999999999999,28.388343099999986],[-96.44999999999999,28.3870536],[-96.44999999999999,28.386714799999993],[-96.44999999999999,28.385210299999983],[-96.44999999999999,28.38325930000002],[-96.44999999999999,28.382389400000022],[-96.44999999999999,28.381129799999997],[-96.44999999999999,28.377621799999986],[-96.44999999999999,28.365509299999985],[-96.44999999999999,28.364053899999988],[-96.44999999999999,28.3633557],[-96.44999999999999,28.3628827],[-96.44999999999999,28.361668199999997],[-96.44999999999999,28.350000000000023],[-96.45218390000002,28.350000000000023],[-96.45861239999999,28.350000000000023],[-96.4634044,28.350000000000023],[-96.46625269999998,28.350000000000023],[-96.46709179999999,28.350000000000023],[-96.47198700000001,28.350000000000023],[-96.47821420000002,28.350000000000023],[-96.47889559999999,28.350000000000023],[-96.47949069999999,28.350000000000023],[-96.4813062,28.350000000000023],[-96.48298110000002,28.350000000000023],[-96.49070360000002,28.350000000000023]]]}},{"type":"Feature","properties":{},"geometry":{"type":"Polygon","coordinates":[[[-96.44605990000002,28.350000000000023],[-96.44999999999999,28.350000000000023],[-96.44999999999999,28.361668199999997],[-96.44999999999999,28.3628827],[-96.44999999999999,28.3633557],[-96.44999999999999,28.364053899999988],[-96.44999999999999,28.365509299999985],[-96.44999999999999,28.377621799999986],[-96.44999999999999,28.381129799999997],[-96.44999999999999,28.382389400000022],[-96.44999999999999,28.38325930000002],[-96.44999999999999,28.385210299999983],[-96.44999999999999,28.386714799999993],[-96.44999999999999,28.3870536],[-96.44999999999999,28.388343099999986],[-96.44999999999999,28.38872359999999],[-96.44999999999999,28.3918099],[-96.44999999999999,28.397682299999985],[-96.44999999999999,28.397896899999978],[-96.44999999999999,28.399814900000024],[-96.44999999999999,28.40059359999998],[-96.44999999999999,28.40453659999997],[-96.44999999999999,28.405943400000012],[-96.44999999999999,28.407366200000013],[-96.44999999999999,28.407607900000016],[-96.44999999999999,28.408191799999997],[-96.44999999999999,28.40863969999998],[-96.44999999999999,28.40899139999999],[-96.44999999999999,28.410661300000015],[-96.44999999999999,28.41143599999998],[-96.44999999999999,28.4130265],[-96.44999999999999,28.413681499999996],[-96.44999999999999,28.413807399999996],[-96.44999999999999,28.413956799999994],[-96.44999999999999,28.414061800000013],[-96.44999999999999,28.41524579999998],[-96.44999999999999,28.41556589999999],[-96.44999999999999,28.41793960000001],[-96.44999999999999,28.41911479999999],[-96.44999999999999,28.419936199999995],[-96.44999999999999,28.420321699999988],[-96.44999999999999,28.422736900000018],[-96.44999999999999,28.42332909999999],[-96.44999999999999,28.423426000000006],[-96.44999999999999,28.423619799999983],[-96.44999999999999,28.4237167],[-96.44999999999999,28.424372600000027],[-96.44999999999999,28.424529500000006],[-96.44999999999999,28.42500000000001],[-96.44979009999997,28.42500000000001],[-96.44908900000001,28.42500000000001],[-96.44861409999999,28.42500000000001],[-96.44721140000001,28.42500000000001],[-96.44700089999998,28.42500000000001],[-96.4465798,28.42500000000001],[-96.44636919999999,28.42500000000001],[-96.44510980000001,28.42500000000001],[-96.439817,28.42500000000001],[-96.43882960000002,28.42500000000001],[-96.4300743,28.42500000000001],[-96.42385960000001,28.42500000000001],[-96.41881640000003,28.42500000000001],[-96.41596090000002,28.42500000000001],[-96.41522980000002,28.42500000000001],[-96.4151895,28.42500000000001],[-96.4147398,28.42500000000001],[-96.41318510000002,28.42500000000001],[-96.41233629999999,28.42500000000001],[-96.41122489999998,28.42500000000001],[-96.41051110000001,28.42500000000001],[-96.4065182,28.42500000000001],[-96.40624179999998,28.42500000000001],[-96.4057689,28.42500000000001],[-96.4031319,28.42500000000001],[-96.39691470000002,28.42500000000001],[-96.39525550000002,28.42500000000001],[-96.39010810000002,28.42500000000001],[-96.38634780000001,28.42500000000001],[-96.38212929999997,28.42500000000001],[-96.38056790000002,28.42500000000001],[-96.37600429999998,28.42500000000001],[-96.375,28.42500000000001],[-96.375,28.421658499999978],[-96.375,28.41896270000001],[-96.375,28.418351900000005],[-96.375,28.417463800000007],[-96.375,28.41452800000002],[-96.375,28.412127800000007],[-96.375,28.410101300000008],[-96.375,28.404839700000025],[-96.375,28.403474399999993],[-96.375,28.401864400000022],[-96.375,28.400151199999982],[-96.375,28.387709700000016],[-96.375,28.387460599999997],[-96.375,28.378012800000022],[-96.375,28.3772419],[-96.375,28.377225099999976],[-96.375,28.374701300000027],[-96.375,28.367132000000026],[-96.375,28.350000000000023],[-96.37966169999999,28.350000000000023],[-96.3845991,28.350000000000023],[-96.38539370000001,28.350000000000023],[-96.3861526,28.350000000000023],[-96.38641999999999,28.350000000000023],[-96.39152710000002,28.350000000000023],[-96.39912959999998,28.350000000000023],[-96.39915869999999,28.350000000000023],[-96.40623140000002,28.350000000000023],[-96.40683619999999,28.350000000000023],[-96.40742640000002,28.350000000000023],[-96.40831680000002,28.350000000000023],[-96.4233231,28.350000000000023],[-96.4244908,28.350000000000023],[-96.4263838,28.350000000000023],[-96.42686120000002,28.350000000000023],[-96.4276686,28.350000000000023],[-96.4287941,28.350000000000023],[-96.42901619999998,28.350000000000023],[-96.4306689,28.350000000000023],[-96.43185649999998,28.350000000000023],[-96.4337233,28.350000000000023],[-96.4338424,28.350000000000023],[-96.43424590000001,28.350000000000023],[-96.4342696,28.350000000000023],[-96.4358047,28.350000000000023],[-96.43621780000001,28.350000000000023],[-96.43668760000003,28.350000000000023],[-96.43769329999998,28.350000000000023],[-96.43930019999999,28.350000000000023],[-96.4396314,28.350000000000023],[-96.44056339999997,28.350000000000023],[-96.44322890000001,28.350000000000023],[-96.44558699999999,28.350000000000023],[-96.44605990000002,28.350000000000023]]]}},{"type":"Feature","properties":{},"geometry":{"type":"Polygon","coordinates":[[[-96.2715809,28.350000000000023],[-96.30000000000001,28.350000000000023],[-96.30000000000001,28.36593959999999],[-96.30000000000001,28.366704500000026],[-96.30000000000001,28.366941999999995],[-96.30000000000001,28.36738220000001],[-96.30000000000001,28.378032500000018],[-96.30000000000001,28.380814600000008],[-96.30000000000001,28.385174800000016],[-96.30000000000001,28.392487300000028],[-96.30000000000001,28.396456999999998],[-96.30000000000001,28.396550600000012],[-96.30000000000001,28.396704100000022],[-96.30000000000001,28.400037999999995],[-96.30000000000001,28.400039800000002],[-96.30000000000001,28.400340299999982],[-96.30000000000001,28.400722099999996],[-96.30000000000001,28.400941199999977],[-96.30000000000001,28.401239900000007],[-96.30000000000001,28.401244299999973],[-96.30000000000001,28.4073358],[-96.30000000000001,28.416383499999995],[-96.30000000000001,28.42500000000001],[-96.28413690000002,28.42500000000001],[-96.25067769999998,28.42500000000001],[-96.23015800000002,28.42500000000001],[-96.2295815,28.42500000000001],[-96.22867539999999,28.42500000000001],[-96.22537540000002,28.42500000000001],[-96.22500000000002,28.42500000000001],[-96.22500000000002,28.424650299999996],[-96.22500000000002,28.42084970000002],[-96.22500000000002,28.366941999999995],[-96.22500000000002,28.354701799999987],[-96.22500000000002,28.350000000000023],[-96.26644399999998,28.350000000000023],[-96.2715809,28.350000000000023]]]}},{"type":"Feature","properties":{},"geometry":{"type":"Polygon","coordinates":[[[-96.28413690000002,28.42500000000001],[-96.30000000000001,28.42500000000001],[-96.30000000000001,28.432945500000017],[-96.30000000000001,28.43565719999998],[-96.30000000000001,28.437104599999998],[-96.30000000000001,28.440458499999977],[-96.30000000000001,28.440659700000026],[-96.30000000000001,28.44066379999998],[-96.30000000000001,28.440819799999986],[-96.30000000000001,28.459158000000002],[-96.30000000000001,28.459965899999986],[-96.30000000000001,28.46186499999999],[-96.30000000000001,28.463446799999986],[-96.30000000000001,28.46803540000002],[-96.30000000000001,28.487531100000012],[-96.30000000000001,28.489272500000027],[-96.30000000000001,28.489821399999983],[-96.30000000000001,28.49065710000002],[-96.30000000000001,28.49824560000002],[-96.30000000000001,28.498678299999995],[-96.30000000000001,28.4993566],[-96.30000000000001,28.5],[-96.27406680000001,28.5],[-96.2671565,28.5],[-96.26412440000001,28.5],[-96.25105009999999,28.5],[-96.2461007,28.5],[-96.24579189999997,28.5],[-96.24459630000001,28.5],[-96.23958149999999,28.5],[-96.23849310000003,28.5],[-96.22821850000003,28.5],[-96.22805449999998,28.5],[-96.22500000000002,28.5],[-96.22500000000002,28.497165499999994],[-96.22500000000002,28.496277899999995],[-96.22500000000002,28.492109900000003],[-96.22500000000002,28.486984099999972],[-96.22500000000002,28.486698400000023],[-96.22500000000002,28.483228499999996],[-96.22500000000002,28.48180339999999],[-96.22500000000002,28.478036799999984],[-96.22500000000002,28.464307799999972],[-96.22500000000002,28.440667700000006],[-96.22500000000002,28.427899799999977],[-96.22500000000002,28.42705330000001],[-96.22500000000002,28.42500000000001],[-96.22537540000002,28.42500000000001],[-96.22867539999999,28.42500000000001],[-96.2295815,28.42500000000001],[-96.23015800000002,28.42500000000001],[-96.25067769999998,28.42500000000001],[-96.28413690000002,28.42500000000001]]]}},{"type":"Feature","properties":{},"geometry":{"type":"Polygon","coordinates":[[[-96.27406680000001,28.5],[-96.30000000000001,28.5],[-96.30000000000001,28.501555199999984],[-96.30000000000001,28.501656700000012],[-96.30000000000001,28.501860099999988],[-96.30000000000001,28.50196169999998],[-96.30000000000001,28.50433989999999],[-96.30000000000001,28.504433600000027],[-96.30000000000001,28.504621900000018],[-96.30000000000001,28.504716400000007],[-96.30000000000001,28.53669689999998],[-96.30000000000001,28.536697100000026],[-96.30000000000001,28.53922449999999],[-96.30000000000001,28.544755199999997],[-96.30000000000001,28.562241700000015],[-96.30000000000001,28.56243810000001],[-96.30000000000001,28.562830899999994],[-96.30000000000001,28.563027299999987],[-96.30000000000001,28.564361899999994],[-96.30000000000001,28.56735520000001],[-96.30000000000001,28.56911409999998],[-96.30000000000001,28.57323889999998],[-96.30000000000001,28.57499999999999],[-96.29904690000001,28.57499999999999],[-96.29669209999997,28.57499999999999],[-96.29340059999998,28.57499999999999],[-96.29329230000002,28.57499999999999],[-96.2930758,28.57499999999999],[-96.29296749999997,28.57499999999999],[-96.28870490000003,28.57499999999999],[-96.2870883,28.57499999999999],[-96.2807487,28.57499999999999],[-96.2407854,28.57499999999999],[-96.24064809999999,28.57499999999999],[-96.23478970000002,28.57499999999999],[-96.2324744,28.57499999999999],[-96.22500000000002,28.57499999999999],[-96.22500000000002,28.571259499999996],[-96.22500000000002,28.543787899999984],[-96.22500000000002,28.54368629999999],[-96.22500000000002,28.54348299999998],[-96.22500000000002,28.54338130000002],[-96.22500000000002,28.53838719999999],[-96.22500000000002,28.533562500000016],[-96.22500000000002,28.533319699999993],[-96.22500000000002,28.51962500000002],[-96.22500000000002,28.51319030000002],[-96.22500000000002,28.513005700000008],[-96.22500000000002,28.512121400000012],[-96.22500000000002,28.50276839999998],[-96.22500000000002,28.501597600000025],[-96.22500000000002,28.5],[-96.22805449999998,28.5],[-96.22821850000003,28.5],[-96.23849310000003,28.5],[-96.23958149999999,28.5],[-96.24459630000001,28.5],[-96.24579189999997,28.5],[-96.2461007,28.5],[-96.25105009999999,28.5],[-96.26412440000001,28.5],[-96.2671565,28.5],[-96.27406680000001,28.5]]]}},{"type":"Feature","properties":{},"geometry":{"type":"Polygon","coordinates":[[[-96.22396270000002,28.5],[-96.22500000000002,28.5],[-96.22500000000002,28.501597600000025],[-96.22500000000002,28.50276839999998],[-96.22500000000002,28.512121400000012],[-96.22500000000002,28.513005700000008],[-96.22500000000002,28.51319030000002],[-96.22500000000002,28.51962500000002],[-96.22500000000002,28.533319699999993],[-96.22500000000002,28.533562500000016],[-96.22500000000002,28.53838719999999],[-96.22500000000002,28.54338130000002],[-96.22500000000002,28.54348299999998],[-96.22500000000002,28.54368629999999],[-96.22500000000002,28.543787899999984],[-96.22500000000002,28.571259499999996],[-96.22500000000002,28.57499999999999],[-96.2014504,28.57499999999999],[-96.19771480000003,28.57499999999999],[-96.19552950000002,28.57499999999999],[-96.19538929999999,28.57499999999999],[-96.19510880000001,28.57499999999999],[-96.19496850000002,28.57499999999999],[-96.16476979999999,28.57499999999999],[-96.14999999999998,28.57499999999999],[-96.14999999999998,28.55055470000002],[-96.14999999999998,28.549777199999994],[-96.14999999999998,28.542164200000002],[-96.14999999999998,28.5407247],[-96.14999999999998,28.537699299999986],[-96.14999999999998,28.536837699999978],[-96.14999999999998,28.53408109999998],[-96.14999999999998,28.529217899999992],[-96.14999999999998,28.524441299999978],[-96.14999999999998,28.524254299999996],[-96.14999999999998,28.521636399999977],[-96.14999999999998,28.52012880000001],[-96.14999999999998,28.516460499999994],[-96.14999999999998,28.501438300000018],[-96.14999999999998,28.5],[-96.154609,28.5],[-96.18310179999997,28.5],[-96.1906032,28.5],[-96.19382660000002,28.5],[-96.1998355,28.5],[-96.20039530000003,28.5],[-96.21161860000001,28.5],[-96.21777959999997,28.5],[-96.22001210000002,28.5],[-96.22064080000001,28.5],[-96.2217397,28.5],[-96.22298610000001,28.5],[-96.22396270000002,28.5]]]}},{"type":"Feature","properties":{},"geometry":{"type":"Polygon","coordinates":[[[-96.2014504,28.57499999999999],[-96.22500000000002,28.57499999999999],[-96.22500000000002,28.576089000000024],[-96.22500000000002,28.578666699999985],[-96.22500000000002,28.58003309999998],[-96.22500000000002,28.580442300000016],[-96.22500000000002,28.58520850000002],[-96.22500000000002,28.59437170000001],[-96.22500000000002,28.594611699999973],[-96.22500000000002,28.594932500000027],[-96.22500000000002,28.605231300000014],[-96.22500000000002,28.606039099999975],[-96.22500000000002,28.610350600000004],[-96.22500000000002,28.631389300000023],[-96.22500000000002,28.635647500000005],[-96.22500000000002,28.646975999999995],[-96.22500000000002,28.64790640000001],[-96.22500000000002,28.649999999999977],[-96.21941729999998,28.649999999999977],[-96.21782680000001,28.649999999999977],[-96.20524699999999,28.649999999999977],[-96.1929624,28.649999999999977],[-96.17625959999998,28.649999999999977],[-96.1744554,28.649999999999977],[-96.15038900000002,28.649999999999977],[-96.14999999999998,28.649999999999977],[-96.14999999999998,28.633696600000007],[-96.14999999999998,28.624453899999992],[-96.14999999999998,28.61852399999998],[-96.14999999999998,28.6181914],[-96.14999999999998,28.615941899999996],[-96.14999999999998,28.61523840000001],[-96.14999999999998,28.615148499999975],[-96.14999999999998,28.614968599999997],[-96.14999999999998,28.61487870000002],[-96.14999999999998,28.6141753],[-96.14999999999998,28.61407680000002],[-96.14999999999998,28.610197000000028],[-96.14999999999998,28.609648400000026],[-96.14999999999998,28.603430100000026],[-96.14999999999998,28.586106400000006],[-96.14999999999998,28.57499999999999],[-96.16476979999999,28.57499999999999],[-96.19496850000002,28.57499999999999],[-96.19510880000001,28.57499999999999],[-96.19538929999999,28.57499999999999],[-96.19552950000002,28.57499999999999],[-96.19771480000003,28.57499999999999],[-96.2014504,28.57499999999999]]]}},{"type":"Feature","properties":{},"geometry":{"type":"Polygon","coordinates":[[[-96.08250220000002,28.57499999999999],[-96.14999999999998,28.57499999999999],[-96.14999999999998,28.586106400000006],[-96.14999999999998,28.603430100000026],[-96.14999999999998,28.609648400000026],[-96.14999999999998,28.610197000000028],[-96.14999999999998,28.61407680000002],[-96.14999999999998,28.6141753],[-96.14999999999998,28.61487870000002],[-96.14999999999998,28.614968599999997],[-96.14999999999998,28.615148499999975],[-96.14999999999998,28.61523840000001],[-96.14999999999998,28.615941899999996],[-96.14999999999998,28.6181914],[-96.14999999999998,28.61852399999998],[-96.14999999999998,28.624453899999992],[-96.14999999999998,28.633696600000007],[-96.14999999999998,28.649999999999977],[-96.12773620000002,28.649999999999977],[-96.12477630000001,28.649999999999977],[-96.12111620000002,28.649999999999977],[-96.11981250000002,28.649999999999977],[-96.1192615,28.649999999999977],[-96.10089599999998,28.649999999999977],[-96.09944580000001,28.649999999999977],[-96.0984348,28.649999999999977],[-96.09755209999997,28.649999999999977],[-96.07499999999999,28.649999999999977],[-96.07499999999999,28.637663599999996],[-96.07499999999999,28.637137399999972],[-96.07499999999999,28.637043000000006],[-96.07499999999999,28.636855000000025],[-96.07499999999999,28.63676129999999],[-96.07499999999999,28.63620659999998],[-96.07499999999999,28.635922400000027],[-96.07499999999999,28.63489820000001],[-96.07499999999999,28.63445710000002],[-96.07499999999999,28.61021249999999],[-96.07499999999999,28.589713000000017],[-96.07499999999999,28.57867809999999],[-96.07499999999999,28.577468099999976],[-96.07499999999999,28.57499999999999],[-96.07917029999999,28.57499999999999],[-96.08250220000002,28.57499999999999]]]}},{"type":"Feature","properties":{},"geometry":{"type":"Polygon","coordinates":[[[-96.06913179999998,28.57499999999999],[-96.07499999999999,28.57499999999999],[-96.07499999999999,28.577468099999976],[-96.07499999999999,28.57867809999999],[-96.07499999999999,28.589713000000017],[-96.07499999999999,28.61021249999999],[-96.07499999999999,28.63445710000002],[-96.07499999999999,28.63489820000001],[-96.07499999999999,28.635922400000027],[-96.07499999999999,28.63620659999998],[-96.07499999999999,28.63676129999999],[-96.07499999999999,28.636855000000025],[-96.07499999999999,28.637043000000006],[-96.07499999999999,28.637137399999972],[-96.07499999999999,28.637663599999996],[-96.07499999999999,28.649999999999977],[-96.06108849999998,28.649999999999977],[-96.06009790000002,28.649999999999977],[-96.05991820000003,28.649999999999977],[-96.0595586,28.649999999999977],[-96.05937879999999,28.649999999999977],[-96.05877570000001,28.649999999999977],[-96.0572654,28.649999999999977],[-96.05215179999999,28.649999999999977],[-96.0518219,28.649999999999977],[-96.04572969999998,28.649999999999977],[-96.04236229999998,28.649999999999977],[-96.0401382,28.649999999999977],[-96.03879260000002,28.649999999999977],[-96.0384909,28.649999999999977],[-96.02409180000001,28.649999999999977],[-96.02134039999999,28.649999999999977],[-96.01867049999998,28.649999999999977],[-96.01260439999999,28.649999999999977],[-96.01147800000001,28.649999999999977],[-96.01118229999997,28.649999999999977],[-96.00979949999999,28.649999999999977],[-96.00938719999999,28.649999999999977],[-96.00680460000001,28.649999999999977],[-96.00259110000002,28.649999999999977],[-96.0,28.649999999999977],[-96.0,28.648119599999973],[-96.0,28.646385599999974],[-96.0,28.645806800000003],[-96.0,28.640994999999975],[-96.0,28.64088240000001],[-96.0,28.640495799999997],[-96.0,28.638779100000022],[-96.0,28.63850769999999],[-96.0,28.636032899999975],[-96.0,28.635123899999996],[-96.0,28.631089299999985],[-96.0,28.628842299999974],[-96.0,28.62833549999999],[-96.0,28.62780379999998],[-96.0,28.625229400000023],[-96.0,28.621944999999982],[-96.0,28.609922499999982],[-96.0,28.599138100000005],[-96.0,28.595948799999974],[-96.0,28.58931180000002],[-96.0,28.588309200000026],[-96.0,28.585625499999992],[-96.0,28.583765599999992],[-96.0,28.580222100000015],[-96.0,28.57884180000002],[-96.0,28.57499999999999],[-96.00261080000001,28.57499999999999],[-96.01270820000002,28.57499999999999],[-96.02269039999999,28.57499999999999],[-96.02643060000003,28.57499999999999],[-96.0340875,28.57499999999999],[-96.03433009999998,28.57499999999999],[-96.0433822,28.57499999999999],[-96.04400279999999,28.57499999999999],[-96.0482566,28.57499999999999],[-96.04863469999998,28.57499999999999],[-96.05276959999998,28.57499999999999],[-96.05331430000001,28.57499999999999],[-96.05366520000001,28.57499999999999],[-96.0593025,28.57499999999999],[-96.05959739999997,28.57499999999999],[-96.05983830000002,28.57499999999999],[-96.0601977,28.57499999999999],[-96.06262240000001,28.57499999999999],[-96.06296880000002,28.57499999999999],[-96.0636839,28.57499999999999],[-96.06857459999998,28.57499999999999],[-96.06913179999998,28.57499999999999]]]}},{"type":"Feature","properties":{},"geometry":{"type":"Polygon","coordinates":[[[-96.0,28.685948499999995],[-96.0,28.68536260000002],[-96.0,28.6844878],[-96.0,28.67731859999998],[-96.0,28.67586799999998],[-96.0,28.675241500000027],[-96.0,28.67164359999998],[-96.0,28.671109],[-96.0,28.67101200000002],[-96.0,28.670817399999976],[-96.0,28.670720399999993],[-96.0,28.670184000000006],[-96.0,28.666719100000023],[-96.0,28.65507530000002],[-96.0,28.649999999999977],[-96.00259110000002,28.649999999999977],[-96.00680460000001,28.649999999999977],[-96.00938719999999,28.649999999999977],[-96.00979949999999,28.649999999999977],[-96.01118229999997,28.649999999999977],[-96.01147800000001,28.649999999999977],[-96.01260439999999,28.649999999999977],[-96.01867049999998,28.649999999999977],[-96.02134039999999,28.649999999999977],[-96.02409180000001,28.649999999999977],[-96.0384909,28.649999999999977],[-96.03879260000002,28.649999999999977],[-96.0401382,28.649999999999977],[-96.04236229999998,28.649999999999977],[-96.04572969999998,28.649999999999977],[-96.0518219,28.649999999999977],[-96.05215179999999,28.649999999999977],[-96.0572654,28.649999999999977],[-96.05877570000001,28.649999999999977],[-96.05937879999999,28.649999999999977],[-96.0595586,28.649999999999977],[-96.05991820000003,28.649999999999977],[-96.06009790000002,28.649999999999977],[-96.06108849999998,28.649999999999977],[-96.07499999999999,28.649999999999977],[-96.07499999999999,28.694370600000013],[-96.07499999999999,28.725000000000023],[-96.00733489999999,28.725000000000023],[-96.0,28.725000000000023],[-96.0,28.697938000000022],[-96.0,28.687506499999984],[-96.0,28.685948499999995]]]}},{"type":"Feature","properties":{},"geometry":{"type":"Polygon","coordinates":[[[-95.9934164,28.649999999999977],[-96.0,28.649999999999977],[-96.0,28.65507530000002],[-96.0,28.666719100000023],[-96.0,28.670184000000006],[-96.0,28.670720399999993],[-96.0,28.670817399999976],[-96.0,28.67101200000002],[-96.0,28.671109],[-96.0,28.67164359999998],[-96.0,28.675241500000027],[-96.0,28.67586799999998],[-96.0,28.67731859999998],[-96.0,28.6844878],[-96.0,28.68536260000002],[-96.0,28.685948499999995],[-96.0,28.687506499999984],[-96.0,28.697938000000022],[-96.0,28.725000000000023],[-95.99953909999999,28.725000000000023],[-95.9724971,28.725000000000023],[-95.9721035,28.725000000000023],[-95.9720984,28.725000000000023],[-95.9720203,28.725000000000023],[-95.9718641,28.725000000000023],[-95.97178600000001,28.725000000000023],[-95.97178079999998,28.725000000000023],[-95.97136610000001,28.725000000000023],[-95.96372830000001,28.725000000000023],[-95.92830479999998,28.725000000000023],[-95.92500000000001,28.725000000000023],[-95.92500000000001,28.719995700000027],[-95.92500000000001,28.715877499999976],[-95.92500000000001,28.712476600000002],[-95.92500000000001,28.70611980000001],[-95.92500000000001,28.705558999999994],[-95.92500000000001,28.70546489999998],[-95.92500000000001,28.70527679999998],[-95.92500000000001,28.705182700000023],[-95.92500000000001,28.704276100000016],[-95.92500000000001,28.70417470000001],[-95.92500000000001,28.70138589999999],[-95.92500000000001,28.70123239999998],[-95.92500000000001,28.700922300000002],[-95.92500000000001,28.691077800000016],[-95.92500000000001,28.65227870000001],[-95.92500000000001,28.649999999999977],[-95.9283863,28.649999999999977],[-95.94549869999997,28.649999999999977],[-95.95736269999998,28.649999999999977],[-95.9574063,28.649999999999977],[-95.96078699999998,28.649999999999977],[-95.9628361,28.649999999999977],[-95.96392850000001,28.649999999999977],[-95.9643145,28.649999999999977],[-95.96439529999998,28.649999999999977],[-95.9645582,28.649999999999977],[-95.9646381,28.649999999999977],[-95.96492260000002,28.649999999999977],[-95.96597500000001,28.649999999999977],[-95.98118149999999,28.649999999999977],[-95.9854636,28.649999999999977],[-95.98811210000002,28.649999999999977],[-95.99004070000001,28.649999999999977],[-95.99254639999998,28.649999999999977],[-95.99292889999998,28.649999999999977],[-95.9934164,28.649999999999977]]]}},{"type":"Feature","properties":{},"geometry":{"type":"Polygon","coordinates":[[[-95.89876279999999,28.649999999999977],[-95.92500000000001,28.649999999999977],[-95.92500000000001,28.65227870000001],[-95.92500000000001,28.691077800000016],[-95.92500000000001,28.700922300000002],[-95.92500000000001,28.70123239999998],[-95.92500000000001,28.70138589999999],[-95.92500000000001,28.70417470000001],[-95.92500000000001,28.704276100000016],[-95.92500000000001,28.705182700000023],[-95.92500000000001,28.70527679999998],[-95.92500000000001,28.70546489999998],[-95.92500000000001,28.705558999999994],[-95.92500000000001,28.70611980000001],[-95.92500000000001,28.712476600000002],[-95.92500000000001,28.715877499999976],[-95.92500000000001,28.719995700000027],[-95.92500000000001,28.725000000000023],[-95.92129699999998,28.725000000000023],[-95.87892019999998,28.725000000000023],[-95.87867210000002,28.725000000000023],[-95.87496829999998,28.725000000000023],[-95.87131319999997,28.725000000000023],[-95.8679017,28.725000000000023],[-95.86610999999999,28.725000000000023],[-95.86513259999998,28.725000000000023],[-95.86487949999997,28.725000000000023],[-95.86393179999999,28.725000000000023],[-95.86365610000001,28.725000000000023],[-95.86316900000003,28.725000000000023],[-95.86310459999999,28.725000000000023],[-95.86282890000001,28.725000000000023],[-95.86051880000002,28.725000000000023],[-95.8556916,28.725000000000023],[-95.85000000000002,28.725000000000023],[-95.85000000000002,28.718728899999974],[-95.85000000000002,28.67375500000003],[-95.85000000000002,28.671674600000017],[-95.85000000000002,28.66372990000002],[-95.85000000000002,28.663545199999987],[-95.85000000000002,28.653407500000014],[-95.85000000000002,28.649999999999977],[-95.85588480000001,28.649999999999977],[-95.86089049999998,28.649999999999977],[-95.86319220000001,28.649999999999977],[-95.86771249999998,28.649999999999977],[-95.87653640000002,28.649999999999977],[-95.8771228,28.649999999999977],[-95.8812332,28.649999999999977],[-95.88151210000001,28.649999999999977],[-95.8820895,28.649999999999977],[-95.8826876,28.649999999999977],[-95.89876279999999,28.649999999999977]]]}},{"type":"Feature","properties":{},"geometry":{"type":"Polygon","coordinates":[[[-95.92129699999998,28.725000000000023],[-95.92500000000001,28.725000000000023],[-95.92500000000001,28.726496999999995],[-95.92500000000001,28.733606099999975],[-95.92500000000001,28.79302180000002],[-95.92500000000001,28.80000000000001],[-95.85000000000002,28.80000000000001],[-95.85000000000002,28.779393700000014],[-95.85000000000002,28.76046960000002],[-95.85000000000002,28.75712709999999],[-95.85000000000002,28.75566090000001],[-95.85000000000002,28.74750419999998],[-95.85000000000002,28.73438010000001],[-95.85000000000002,28.732093599999985],[-95.85000000000002,28.730190300000004],[-95.85000000000002,28.72940460000001],[-95.85000000000002,28.72931360000001],[-95.85000000000002,28.729131600000017],[-95.85000000000002,28.72904060000002],[-95.85000000000002,28.728511000000026],[-95.85000000000002,28.726767199999983],[-95.85000000000002,28.725000000000023],[-95.8556916,28.725000000000023],[-95.86051880000002,28.725000000000023],[-95.86282890000001,28.725000000000023],[-95.86310459999999,28.725000000000023],[-95.86316900000003,28.725000000000023],[-95.86365610000001,28.725000000000023],[-95.86393179999999,28.725000000000023],[-95.86487949999997,28.725000000000023],[-95.86513259999998,28.725000000000023],[-95.86610999999999,28.725000000000023],[-95.8679017,28.725000000000023],[-95.87131319999997,28.725000000000023],[-95.87496829999998,28.725000000000023],[-95.87867210000002,28.725000000000023],[-95.87892019999998,28.725000000000023],[-95.92129699999998,28.725000000000023]]]}},{"type":"Feature","properties":{},"geometry":{"type":"Polygon","coordinates":[[[-96.74047180000002,28.350000000000023],[-96.75,28.350000000000023],[-96.75,28.380846700000006],[-96.75,28.383244699999977],[-96.75,28.3936195],[-96.75,28.400295900000003],[-96.75,28.40988900000002],[-96.75,28.410138399999994],[-96.75,28.410798899999975],[-96.75,28.412911699999995],[-96.75,28.41612409999999],[-96.75,28.417196400000023],[-96.75,28.418067500000006],[-96.75,28.418774199999973],[-96.75,28.420020299999976],[-96.75,28.42500000000001],[-96.74882209999998,28.42500000000001],[-96.74221010000002,28.42500000000001],[-96.71533190000002,28.42500000000001],[-96.67500000000001,28.42500000000001],[-96.67500000000001,28.400295900000003],[-96.67500000000001,28.350000000000023],[-96.6771794,28.350000000000023],[-96.70593869999999,28.350000000000023],[-96.70625080000002,28.350000000000023],[-96.70667250000002,28.350000000000023],[-96.7071173,28.350000000000023],[-96.70973620000001,28.350000000000023],[-96.71039139999999,28.350000000000023],[-96.7131885,28.350000000000023],[-96.74047180000002,28.350000000000023]]]}}]}