{"type":"FeatureCollection","features":[{"type":"Feature","properties":{},"geometry":{"type":"Polygon","coordinates":[[[-93.8501354,30.0],[-93.84754320000002,30.0],[-93.8472241,30.0],[-93.82499999999999,30.0],[-93.82499999999999,29.987400100000002],[-93.82499999999999,29.980512299999987],[-93.82499999999999,29.979355699999985],[-93.82499999999999,29.979210599999988],[-93.82499999999999,29.979078700000002],[-93.82499999999999,29.9790749],[-93.82499999999999,29.97891820000001],[-93.82499999999999,29.978771600000016],[-93.82499999999999,29.977505199999996],[-93.82499999999999,29.977163800000028],[-93.82499999999999,29.97183000000001],[-93.82499999999999,29.959656999999993],[-93.82499999999999,29.949245500000018],[-93.82499999999999,29.92500000000001],[-93.850413,29.92500000000001],[-93.85499999999999,29.92500000000001],[-93.85499999999999,30.0],[-93.8501354,30.0]]]}},{"type":"Feature","properties":{},"geometry":{"type":"Polygon","coordinates":[[[-93.85113740000003,30.07499999999999],[-93.8504638,30.07499999999999],[-93.84805840000001,30.07499999999999],[-93.84717760000001,30.07499999999999],[-93.84658059999998,30.07499999999999],[-93.84627870000003,30.07499999999999],[-93.845777,30.07499999999999],[-93.82499999999999,30.07499999999999],[-93.82499999999999,30.049381299999993],[-93.82499999999999,30.048970800000006],[-93.82499999999999,30.048835699999984],[-93.82499999999999,30.048785899999984],[-93.82499999999999,30.046289600000023],[-93.82499999999999,30.046274600000004],[-93.82499999999999,30.04623029999999],[-93.82499999999999,30.046135600000014],[-93.82499999999999,30.046007499999973],[-93.82499999999999,30.04593399999999],[-93.82499999999999,30.04578700000002],[-93.82499999999999,30.045713499999977],[-93.82499999999999,30.04548299999999],[-93.82499999999999,30.04494299999999],[-93.82499999999999,30.04483479999999],[-93.82499999999999,30.044825899999978],[-93.82499999999999,30.044819700000005],[-93.82499999999999,30.044619099999977],[-93.82499999999999,30.0445335],[-93.82499999999999,30.044532000000004],[-93.82499999999999,30.04450609999998],[-93.82499999999999,30.044251499999973],[-93.82499999999999,30.044224799999995],[-93.82499999999999,30.04419660000002],[-93.82499999999999,30.04315150000002],[-93.82499999999999,30.043048999999996],[-93.82499999999999,30.0],[-93.8473836,30.0],[-93.8501354,30.0],[-93.85499999999999,30.0],[-93.85499999999999,30.07499999999999],[-93.85113740000003,30.07499999999999]]]}},{"type":"Feature","properties":{},"geometry":{"type":"Polygon","coordinates":[[[-93.0,29.884140600000023],[-93.0,29.886432500000012],[-93.0,29.890369799999974],[-93.0,29.89285080000002],[-93.0,29.92500000000001],[-92.9678887,29.92500000000001],[-92.96770900000001,29.92500000000001],[-92.96735539999997,29.92500000000001],[-92.96292570000003,29.92500000000001],[-92.9593643,29.92500000000001],[-92.9568334,29.92500000000001],[-92.945783,29.92500000000001],[-92.92616939999999,29.92500000000001],[-92.9252449,29.92500000000001],[-92.92500000000001,29.92500000000001],[-92.92500000000001,29.918724199999986],[-92.92500000000001,29.908703800000012],[-92.92500000000001,29.899403199999995],[-92.92500000000001,29.8991082],[-92.92500000000001,29.89478650000001],[-92.92500000000001,29.850000000000023],[-93.0,29.850000000000023],[-93.0,29.884140600000023]]]}},{"type":"Feature","properties":{},"geometry":{"type":"Polygon","coordinates":[[[-93.22500000000002,29.942455600000017],[-93.22500000000002,29.942835899999977],[-93.22500000000002,29.95918690000002],[-93.22500000000002,29.963837000000012],[-93.22500000000002,29.966475899999978],[-93.22500000000002,29.972417199999995],[-93.22500000000002,29.99047589999998],[-93.22500000000002,29.999316799999974],[-93.22500000000002,30.0],[-93.22462259999998,30.0],[-93.22430659999998,30.0],[-93.22383009999999,30.0],[-93.22338239999999,30.0],[-93.22151550000001,30.0],[-93.19729569999998,30.0],[-93.19616159999998,30.0],[-93.19040480000001,30.0],[-93.1857991,30.0],[-93.1841359,30.0],[-93.18334149999998,30.0],[-93.18022000000002,30.0],[-93.14999999999998,30.0],[-93.14999999999998,29.982796500000006],[-93.14999999999998,29.982147199999986],[-93.14999999999998,29.965177400000016],[-93.14999999999998,29.964815199999975],[-93.14999999999998,29.955710099999976],[-93.14999999999998,29.95521439999999],[-93.14999999999998,29.954897300000027],[-93.14999999999998,29.951863300000014],[-93.14999999999998,29.935130700000002],[-93.14999999999998,29.93470960000002],[-93.14999999999998,29.93442379999999],[-93.14999999999998,29.934145899999976],[-93.14999999999998,29.933824700000002],[-93.14999999999998,29.933504099999993],[-93.14999999999998,29.9294304],[-93.14999999999998,29.928128000000015],[-93.14999999999998,29.92500000000001],[-93.1563195,29.92500000000001],[-93.21043809999998,29.92500000000001],[-93.22500000000002,29.92500000000001],[-93.22500000000002,29.942455600000017]]]}},{"type":"Feature","properties":{},"geometry":{"type":"Polygon","coordinates":[[[-93.07755850000001,29.92500000000001],[-93.0804364,29.92500000000001],[-93.08209149999999,29.92500000000001],[-93.0830939,29.92500000000001],[-93.08567110000001,29.92500000000001],[-93.08600059999998,29.92500000000001],[-93.09869680000003,29.92500000000001],[-93.09905409999999,29.92500000000001],[-93.09941679999997,29.92500000000001],[-93.09974160000002,29.92500000000001],[-93.11691719999999,29.92500000000001],[-93.11731150000003,29.92500000000001],[-93.11796220000002,29.92500000000001],[-93.12430410000002,29.92500000000001],[-93.1245758,29.92500000000001],[-93.14999999999998,29.92500000000001],[-93.14999999999998,29.928128000000015],[-93.14999999999998,29.9294304],[-93.14999999999998,29.933504099999993],[-93.14999999999998,29.933824700000002],[-93.14999999999998,29.934145899999976],[-93.14999999999998,29.93442379999999],[-93.14999999999998,29.93470960000002],[-93.14999999999998,29.935130700000002],[-93.14999999999998,29.951863300000014],[-93.14999999999998,29.954897300000027],[-93.14999999999998,29.95521439999999],[-93.14999999999998,29.955710099999976],[-93.14999999999998,29.964815199999975],[-93.14999999999998,29.965177400000016],[-93.14999999999998,29.982147199999986],[-93.14999999999998,29.982796500000006],[-93.14999999999998,30.0],[-93.14564539999998,30.0],[-93.07499999999999,30.0],[-93.07499999999999,29.980658000000005],[-93.07499999999999,29.958904099999984],[-93.07499999999999,29.9579334],[-93.07499999999999,29.955983300000014],[-93.07499999999999,29.9538139],[-93.07499999999999,29.951189100000022],[-93.07499999999999,29.93628000000001],[-93.07499999999999,29.934750000000008],[-93.07499999999999,29.934009899999978],[-93.07499999999999,29.933526299999983],[-93.07499999999999,29.93332700000002],[-93.07499999999999,29.933169700000008],[-93.07499999999999,29.932909300000006],[-93.07499999999999,29.931605400000024],[-93.07499999999999,29.93089279999998],[-93.07499999999999,29.92500000000001],[-93.07755850000001,29.92500000000001]]]}},{"type":"Feature","properties":{},"geometry":{"type":"Polygon","coordinates":[[[-93.01459720000003,29.92500000000001],[-93.0149566,29.92500000000001],[-93.04461309999999,29.92500000000001],[-93.04509009999998,29.92500000000001],[-93.05825720000001,29.92500000000001],[-93.0612936,29.92500000000001],[-93.06175109999998,29.92500000000001],[-93.06933889999999,29.92500000000001],[-93.0706558,29.92500000000001],[-93.07499999999999,29.92500000000001],[-93.07499999999999,29.93089279999998],[-93.07499999999999,29.931605400000024],[-93.07499999999999,29.932909300000006],[-93.07499999999999,29.933169700000008],[-93.07499999999999,29.93332700000002],[-93.07499999999999,29.933526299999983],[-93.07499999999999,29.934009899999978],[-93.07499999999999,29.934750000000008],[-93.07499999999999,29.93628000000001],[-93.07499999999999,29.951189100000022],[-93.07499999999999,29.9538139],[-93.07499999999999,29.955983300000014],[-93.07499999999999,29.9579334],[-93.07499999999999,29.958904099999984],[-93.07499999999999,29.980658000000005],[-93.07499999999999,30.0],[-93.0,30.0],[-93.0,29.99365849999998],[-93.0,29.990905399999974],[-93.0,29.988510299999973],[-93.0,29.98777689999997],[-93.0,29.981661799999983],[-93.0,29.9804661],[-93.0,29.964788399999975],[-93.0,29.949632399999985],[-93.0,29.929444100000012],[-93.0,29.92843720000002],[-93.0,29.92817339999999],[-93.0,29.927880800000025],[-93.0,29.927714200000025],[-93.0,29.927382899999998],[-93.0,29.92500000000001],[-93.01459720000003,29.92500000000001]]]}},{"type":"Feature","properties":{},"geometry":{"type":"Polygon","coordinates":[[[-93.0,29.927382899999998],[-93.0,29.927714200000025],[-93.0,29.927880800000025],[-93.0,29.92817339999999],[-93.0,29.92843720000002],[-93.0,29.929444100000012],[-93.0,29.949632399999985],[-93.0,29.964788399999975],[-93.0,29.9804661],[-93.0,29.981661799999983],[-93.0,29.98777689999997],[-93.0,29.988510299999973],[-93.0,29.990905399999974],[-93.0,29.99365849999998],[-93.0,30.0],[-92.96920139999997,30.0],[-92.9625742,30.0],[-92.92500000000001,30.0],[-92.92500000000001,29.936602400000027],[-92.92500000000001,29.936470999999983],[-92.92500000000001,29.935153000000014],[-92.92500000000001,29.93473019999999],[-92.92500000000001,29.934500300000025],[-92.92500000000001,29.93433349999998],[-92.92500000000001,29.933857999999987],[-92.92500000000001,29.9253741],[-92.92500000000001,29.92508479999998],[-92.92500000000001,29.92500000000001],[-92.9252449,29.92500000000001],[-92.92616939999999,29.92500000000001],[-92.945783,29.92500000000001],[-92.9568334,29.92500000000001],[-92.9593643,29.92500000000001],[-92.96292570000003,29.92500000000001],[-92.96735539999997,29.92500000000001],[-92.96770900000001,29.92500000000001],[-92.9678887,29.92500000000001],[-93.0,29.92500000000001],[-93.0,29.927382899999998]]]}},{"type":"Feature","properties":{},"geometry":{"type":"Polygon","coordinates":[[[-92.92500000000001,29.92508479999998],[-92.92500000000001,29.9253741],[-92.92500000000001,29.933857999999987],[-92.92500000000001,29.93433349999998],[-92.92500000000001,29.934500300000025],[-92.92500000000001,29.93473019999999],[-92.92500000000001,29.935153000000014],[-92.92500000000001,29.936470999999983],[-92.92500000000001,29.936602400000027],[-92.92500000000001,30.0],[-92.90573749999999,30.0],[-92.87779499999999,30.0],[-92.87526209999999,30.0],[-92.87184969999998,30.0],[-92.86669010000003,30.0],[-92.8598427,30.0],[-92.8509444,30.0],[-92.85000000000002,30.0],[-92.85000000000002,29.999708699999985],[-92.85000000000002,29.97024620000002],[-92.85000000000002,29.9695059],[-92.85000000000002,29.963115200000004],[-92.85000000000002,29.96150080000001],[-92.85000000000002,29.960563700000023],[-92.85000000000002,29.960107300000004],[-92.85000000000002,29.959677499999998],[-92.85000000000002,29.958920200000023],[-92.85000000000002,29.958690199999978],[-92.85000000000002,29.958345800000018],[-92.85000000000002,29.95800989999998],[-92.85000000000002,29.957554800000025],[-92.85000000000002,29.957125599999983],[-92.85000000000002,29.951548100000025],[-92.85000000000002,29.94876770000002],[-92.85000000000002,29.943135799999993],[-92.85000000000002,29.942005800000004],[-92.85000000000002,29.941403100000002],[-92.85000000000002,29.92500000000001],[-92.8647813,29.92500000000001],[-92.8652247,29.92500000000001],[-92.92500000000001,29.92500000000001],[-92.92500000000001,29.92508479999998]]]}},{"type":"Feature","properties":{},"geometry":{"type":"Polygon","coordinates":[[[-92.84201990000003,29.92500000000001],[-92.85000000000002,29.92500000000001],[-92.85000000000002,29.941403100000002],[-92.85000000000002,29.942005800000004],[-92.85000000000002,29.943135799999993],[-92.85000000000002,29.94876770000002],[-92.85000000000002,29.951548100000025],[-92.85000000000002,29.957125599999983],[-92.85000000000002,29.957554800000025],[-92.85000000000002,29.95800989999998],[-92.85000000000002,29.958345800000018],[-92.85000000000002,29.958690199999978],[-92.85000000000002,29.958920200000023],[-92.85000000000002,29.959677499999998],[-92.85000000000002,29.960107300000004],[-92.85000000000002,29.960563700000023],[-92.85000000000002,29.96150080000001],[-92.85000000000002,29.963115200000004],[-92.85000000000002,29.9695059],[-92.85000000000002,29.97024620000002],[-92.85000000000002,29.999708699999985],[-92.85000000000002,30.0],[-92.8477259,30.0],[-92.84414199999998,30.0],[-92.84293760000003,30.0],[-92.83809500000001,30.0],[-92.7888982,30.0],[-92.7815587,30.0],[-92.77813020000002,30.0],[-92.77499999999998,30.0],[-92.77499999999998,29.993442800000025],[-92.77499999999998,29.98600620000002],[-92.77499999999998,29.970467699999972],[-92.77499999999998,29.969404499999996],[-92.77499999999998,29.969098900000006],[-92.77499999999998,29.968837800000017],[-92.77499999999998,29.96857060000002],[-92.77499999999998,29.96826090000002],[-92.77499999999998,29.96729590000001],[-92.77499999999998,29.955759100000023],[-92.77499999999998,29.92500000000001],[-92.77972640000002,29.92500000000001],[-92.81754169999999,29.92500000000001],[-92.82252829999999,29.92500000000001],[-92.83268340000001,29.92500000000001],[-92.84201990000003,29.92500000000001]]]}},{"type":"Feature","properties":{},"geometry":{"type":"Polygon","coordinates":[[[-92.7139522,29.92500000000001],[-92.77499999999998,29.92500000000001],[-92.77499999999998,29.955759100000023],[-92.77499999999998,29.96729590000001],[-92.77499999999998,29.96826090000002],[-92.77499999999998,29.96857060000002],[-92.77499999999998,29.968837800000017],[-92.77499999999998,29.969098900000006],[-92.77499999999998,29.969404499999996],[-92.77499999999998,29.970467699999972],[-92.77499999999998,29.98600620000002],[-92.77499999999998,29.993442800000025],[-92.77499999999998,30.0],[-92.77044849999999,30.0],[-92.76074490000002,30.0],[-92.76036420000003,30.0],[-92.75923499999999,30.0],[-92.75586950000002,30.0],[-92.74920630000003,30.0],[-92.724737,30.0],[-92.69999999999999,30.0],[-92.69999999999999,29.99869560000002],[-92.69999999999999,29.990004999999996],[-92.69999999999999,29.987038600000005],[-92.69999999999999,29.970780900000022],[-92.69999999999999,29.969425],[-92.69999999999999,29.962698699999976],[-92.69999999999999,29.95044150000001],[-92.69999999999999,29.9461053],[-92.69999999999999,29.945846300000028],[-92.69999999999999,29.945524200000023],[-92.69999999999999,29.945364700000027],[-92.69999999999999,29.945044900000028],[-92.69999999999999,29.944842199999982],[-92.69999999999999,29.938092700000027],[-92.69999999999999,29.927902300000028],[-92.69999999999999,29.9271832],[-92.69999999999999,29.92500000000001],[-92.70703550000002,29.92500000000001],[-92.71031570000002,29.92500000000001],[-92.7139522,29.92500000000001]]]}},{"type":"Feature","properties":{},"geometry":{"type":"Polygon","coordinates":[[[-93.67500000000001,30.04653860000002],[-93.67500000000001,30.051127899999983],[-93.67500000000001,30.055201399999987],[-93.67500000000001,30.0578759],[-93.67500000000001,30.058057399999996],[-93.67500000000001,30.05820879999999],[-93.67500000000001,30.058458900000005],[-93.67500000000001,30.058695999999998],[-93.67500000000001,30.05889860000002],[-93.67500000000001,30.059034199999985],[-93.67500000000001,30.059183099999984],[-93.67500000000001,30.07499999999999],[-93.6666022,30.07499999999999],[-93.65454369999998,30.07499999999999],[-93.64259759999999,30.07499999999999],[-93.64054820000001,30.07499999999999],[-93.63395229999998,30.07499999999999],[-93.63140979999997,30.07499999999999],[-93.6167567,30.07499999999999],[-93.61592760000002,30.07499999999999],[-93.61493209999998,30.07499999999999],[-93.61222650000002,30.07499999999999],[-93.61080750000002,30.07499999999999],[-93.61061890000002,30.07499999999999],[-93.61034269999999,30.07499999999999],[-93.60000000000002,30.07499999999999],[-93.60000000000002,30.0613434],[-93.60000000000002,30.059602299999995],[-93.60000000000002,30.059213199999988],[-93.60000000000002,30.058866799999976],[-93.60000000000002,30.05840119999999],[-93.60000000000002,30.05795790000002],[-93.60000000000002,30.057769099999973],[-93.60000000000002,30.057756700000027],[-93.60000000000002,30.05689159999997],[-93.60000000000002,30.05661570000001],[-93.60000000000002,30.054446700000028],[-93.60000000000002,30.05402459999999],[-93.60000000000002,30.052051600000027],[-93.60000000000002,30.05056639999998],[-93.60000000000002,30.049650299999996],[-93.60000000000002,30.047923799999978],[-93.60000000000002,30.04653730000001],[-93.60000000000002,30.0],[-93.67500000000001,30.0],[-93.67500000000001,30.000417700000014],[-93.67500000000001,30.04653860000002]]]}},{"type":"Feature","properties":{},"geometry":{"type":"Polygon","coordinates":[[[-93.60000000000002,30.04653730000001],[-93.60000000000002,30.047923799999978],[-93.60000000000002,30.049650299999996],[-93.60000000000002,30.05056639999998],[-93.60000000000002,30.052051600000027],[-93.60000000000002,30.05402459999999],[-93.60000000000002,30.054446700000028],[-93.60000000000002,30.05661570000001],[-93.60000000000002,30.057756700000027],[-93.60000000000002,30.057769099999973],[-93.60000000000002,30.05795790000002],[-93.60000000000002,30.05840119999999],[-93.60000000000002,30.058866799999976],[-93.60000000000002,30.059213199999988],[-93.60000000000002,30.059602299999995],[-93.60000000000002,30.0613434],[-93.60000000000002,30.07499999999999],[-93.58760669999998,30.07499999999999],[-93.58730150000002,30.07499999999999],[-93.58103319999998,30.07499999999999],[-93.57979660000001,30.07499999999999],[-93.57944270000002,30.07499999999999],[-93.5791117,30.07499999999999],[-93.578667,30.07499999999999],[-93.57808569999997,30.07499999999999],[-93.57458889999998,30.07499999999999],[-93.5720035,30.07499999999999],[-93.54162229999997,30.07499999999999],[-93.52499999999998,30.07499999999999],[-93.52499999999998,30.0598923],[-93.52499999999998,30.059444699999972],[-93.52499999999998,30.05897650000003],[-93.52499999999998,30.05858189999998],[-93.52499999999998,30.05797799999999],[-93.52499999999998,30.0],[-93.60000000000002,30.0],[-93.60000000000002,30.04653730000001]]]}},{"type":"Feature","properties":{},"geometry":{"type":"Polygon","coordinates":[[[-93.52499999999998,30.05797799999999],[-93.52499999999998,30.05858189999998],[-93.52499999999998,30.05897650000003],[-93.52499999999998,30.059444699999972],[-93.52499999999998,30.0598923],[-93.52499999999998,30.07499999999999],[-93.48583819999999,30.07499999999999],[-93.48310830000003,30.07499999999999],[-93.4712338,30.07499999999999],[-93.46702929999998,30.07499999999999],[-93.4668158,30.07499999999999],[-93.46656180000002,30.07499999999999],[-93.45858679999998,30.07499999999999],[-93.45522549999998,30.07499999999999],[-93.44999999999999,30.07499999999999],[-93.44999999999999,30.07329010000001],[-93.44999999999999,30.06815130000001],[-93.44999999999999,30.06210249999998],[-93.44999999999999,30.061648900000023],[-93.44999999999999,30.060853899999984],[-93.44999999999999,30.060566400000027],[-93.44999999999999,30.060140199999978],[-93.44999999999999,30.060002499999996],[-93.44999999999999,30.059617800000012],[-93.44999999999999,30.059225200000014],[-93.44999999999999,30.058925999999985],[-93.44999999999999,30.058520799999997],[-93.44999999999999,30.046534500000007],[-93.44999999999999,30.0],[-93.52499999999998,30.0],[-93.52499999999998,30.05797799999999]]]}},{"type":"Feature","properties":{},"geometry":{"type":"Polygon","coordinates":[[[-93.44999999999999,30.046534500000007],[-93.44999999999999,30.058520799999997],[-93.44999999999999,30.058925999999985],[-93.44999999999999,30.059225200000014],[-93.44999999999999,30.059617800000012],[-93.44999999999999,30.060002499999996],[-93.44999999999999,30.060140199999978],[-93.44999999999999,30.060566400000027],[-93.44999999999999,30.060853899999984],[-93.44999999999999,30.061648900000023],[-93.44999999999999,30.06210249999998],[-93.44999999999999,30.06815130000001],[-93.44999999999999,30.07329010000001],[-93.44999999999999,30.07499999999999],[-93.44970790000002,30.07499999999999],[-93.4475658,30.07499999999999],[-93.44493240000003,30.07499999999999],[-93.44332229999998,30.07499999999999],[-93.40973229999997,30.07499999999999],[-93.40485009999998,30.07499999999999],[-93.4045021,30.07499999999999],[-93.375,30.07499999999999],[-93.375,30.06090999999998],[-93.375,30.060691099999985],[-93.375,30.060399500000017],[-93.375,30.060232999999982],[-93.375,30.05986949999999],[-93.375,30.05967670000001],[-93.375,30.059350999999992],[-93.375,30.0589928],[-93.375,30.058812699999976],[-93.375,30.050476800000013],[-93.375,30.04653330000002],[-93.375,30.03287019999999],[-93.375,30.03220779999998],[-93.375,30.027144299999975],[-93.375,30.02662959999998],[-93.375,30.02612190000002],[-93.375,30.025858200000016],[-93.375,30.025709600000027],[-93.375,30.02522019999998],[-93.375,30.024569100000008],[-93.375,30.022680999999977],[-93.375,30.021500899999978],[-93.375,30.020765100000006],[-93.375,30.020242199999984],[-93.375,30.019963500000017],[-93.375,30.01896340000002],[-93.375,30.016869299999996],[-93.375,30.016297399999985],[-93.375,30.013970900000004],[-93.375,30.013326000000006],[-93.375,30.013183000000026],[-93.375,30.01114910000001],[-93.375,30.007655100000022],[-93.375,30.00566120000002],[-93.375,30.0037155],[-93.375,30.00328239999999],[-93.375,30.002437499999985],[-93.375,30.00081080000001],[-93.375,30.0002571],[-93.375,30.0],[-93.37785989999998,30.0],[-93.3808292,30.0],[-93.3817421,30.0],[-93.38180679999999,30.0],[-93.38325170000002,30.0],[-93.38634580000002,30.0],[-93.38850250000002,30.0],[-93.39166669999997,30.0],[-93.39246689999999,30.0],[-93.39271509999998,30.0],[-93.39449960000002,30.0],[-93.39689470000002,30.0],[-93.40438310000002,30.0],[-93.42389409999998,30.0],[-93.42781400000001,30.0],[-93.43003499999998,30.0],[-93.43109299999998,30.0],[-93.4320664,30.0],[-93.4329606,30.0],[-93.4344888,30.0],[-93.43555880000002,30.0],[-93.43656279999999,30.0],[-93.43727489999998,30.0],[-93.43887519999998,30.0],[-93.44999999999999,30.0],[-93.44999999999999,30.046534500000007]]]}},{"type":"Feature","properties":{},"geometry":{"type":"Polygon","coordinates":[[[-93.22500000000002,30.000404300000014],[-93.22500000000002,30.000880699999982],[-93.22500000000002,30.001275700000008],[-93.22500000000002,30.001698499999975],[-93.22500000000002,30.001808600000004],[-93.22500000000002,30.002230300000008],[-93.22500000000002,30.016883099999973],[-93.22500000000002,30.028289700000016],[-93.22500000000002,30.02857080000001],[-93.22500000000002,30.037282100000027],[-93.22500000000002,30.054828199999974],[-93.22500000000002,30.07499999999999],[-93.14999999999998,30.07499999999999],[-93.14999999999998,30.00300870000001],[-93.14999999999998,30.0],[-93.18022000000002,30.0],[-93.18334149999998,30.0],[-93.1841359,30.0],[-93.1857991,30.0],[-93.19040480000001,30.0],[-93.19616159999998,30.0],[-93.19729569999998,30.0],[-93.22151550000001,30.0],[-93.22338239999999,30.0],[-93.22383009999999,30.0],[-93.22430659999998,30.0],[-93.22462259999998,30.0],[-93.22500000000002,30.0],[-93.22500000000002,30.000404300000014]]]}},{"type":"Feature","properties":{},"geometry":{"type":"Polygon","coordinates":[[[-93.2694363,29.32499999999999],[-93.30000000000001,29.32499999999999],[-93.30000000000001,29.345722799999976],[-93.30000000000001,29.3727078],[-93.30000000000001,29.37539079999999],[-93.30000000000001,29.38177380000002],[-93.30000000000001,29.384892700000023],[-93.30000000000001,29.38515890000002],[-93.30000000000001,29.386175999999978],[-93.30000000000001,29.39203900000001],[-93.30000000000001,29.396524],[-93.30000000000001,29.399999999999977],[-93.26194290000001,29.399999999999977],[-93.25152960000003,29.399999999999977],[-93.24899240000002,29.399999999999977],[-93.24376009999997,29.399999999999977],[-93.24344430000002,29.399999999999977],[-93.24157250000002,29.399999999999977],[-93.2251157,29.399999999999977],[-93.22500000000002,29.399999999999977],[-93.22500000000002,29.3963842],[-93.22500000000002,29.393257500000004],[-93.22500000000002,29.391441999999984],[-93.22500000000002,29.386225200000013],[-93.22500000000002,29.373908200000017],[-93.22500000000002,29.357377699999972],[-93.22500000000002,29.349870399999986],[-93.22500000000002,29.327383800000007],[-93.22500000000002,29.326896799999986],[-93.22500000000002,29.32499999999999],[-93.22513880000002,29.32499999999999],[-93.22588960000002,29.32499999999999],[-93.23810600000002,29.32499999999999],[-93.24019859999999,29.32499999999999],[-93.24138149999999,29.32499999999999],[-93.2604308,29.32499999999999],[-93.2694363,29.32499999999999]]]}},{"type":"Feature","properties":{},"geometry":{"type":"Polygon","coordinates":[[[-93.22311939999997,29.32499999999999],[-93.22500000000002,29.32499999999999],[-93.22500000000002,29.326896799999986],[-93.22500000000002,29.327383800000007],[-93.22500000000002,29.349870399999986],[-93.22500000000002,29.357377699999972],[-93.22500000000002,29.373908200000017],[-93.22500000000002,29.386225200000013],[-93.22500000000002,29.391441999999984],[-93.22500000000002,29.393257500000004],[-93.22500000000002,29.3963842],[-93.22500000000002,29.399999999999977],[-93.22415489999997,29.399999999999977],[-93.2235268,29.399999999999977],[-93.22289860000001,29.399999999999977],[-93.22227049999998,29.399999999999977],[-93.22164240000001,29.399999999999977],[-93.2206516,29.399999999999977],[-93.20212500000002,29.399999999999977],[-93.19619310000002,29.399999999999977],[-93.18681509999999,29.399999999999977],[-93.18078059999999,29.399999999999977],[-93.17976709999999,29.399999999999977],[-93.17723050000001,29.399999999999977],[-93.16666670000001,29.399999999999977],[-93.14999999999998,29.399999999999977],[-93.14999999999998,29.3726274],[-93.14999999999998,29.37158390000002],[-93.14999999999998,29.35942540000002],[-93.14999999999998,29.35336410000002],[-93.14999999999998,29.350408700000003],[-93.14999999999998,29.340361200000018],[-93.14999999999998,29.32499999999999],[-93.16666670000001,29.32499999999999],[-93.17788439999998,29.32499999999999],[-93.19170250000002,29.32499999999999],[-93.19893569999999,29.32499999999999],[-93.20077199999997,29.32499999999999],[-93.20465239999999,29.32499999999999],[-93.222149,29.32499999999999],[-93.22311939999997,29.32499999999999]]]}},{"type":"Feature","properties":{},"geometry":{"type":"Polygon","coordinates":[[[-93.26194290000001,29.399999999999977],[-93.30000000000001,29.399999999999977],[-93.30000000000001,29.421210400000007],[-93.30000000000001,29.443274499999973],[-93.30000000000001,29.475000000000023],[-93.26478900000001,29.475000000000023],[-93.26370789999999,29.475000000000023],[-93.26275329999999,29.475000000000023],[-93.24304139999998,29.475000000000023],[-93.22640769999998,29.475000000000023],[-93.2253715,29.475000000000023],[-93.22500000000002,29.475000000000023],[-93.22500000000002,29.47177449999998],[-93.22500000000002,29.469102700000008],[-93.22500000000002,29.468748699999992],[-93.22500000000002,29.452111000000002],[-93.22500000000002,29.44486089999998],[-93.22500000000002,29.43821650000001],[-93.22500000000002,29.422318500000017],[-93.22500000000002,29.399999999999977],[-93.2251157,29.399999999999977],[-93.24157250000002,29.399999999999977],[-93.24344430000002,29.399999999999977],[-93.24376009999997,29.399999999999977],[-93.24899240000002,29.399999999999977],[-93.25152960000003,29.399999999999977],[-93.26194290000001,29.399999999999977]]]}},{"type":"Feature","properties":{},"geometry":{"type":"Polygon","coordinates":[[[-93.22415489999997,29.399999999999977],[-93.22500000000002,29.399999999999977],[-93.22500000000002,29.422318500000017],[-93.22500000000002,29.43821650000001],[-93.22500000000002,29.44486089999998],[-93.22500000000002,29.452111000000002],[-93.22500000000002,29.468748699999992],[-93.22500000000002,29.469102700000008],[-93.22500000000002,29.47177449999998],[-93.22500000000002,29.475000000000023],[-93.22474290000002,29.475000000000023],[-93.2241143,29.475000000000023],[-93.22348570000003,29.475000000000023],[-93.2228571,29.475000000000023],[-93.2218464,29.475000000000023],[-93.20451480000003,29.475000000000023],[-93.20356720000001,29.475000000000023],[-93.1967919,29.475000000000023],[-93.19344530000001,29.475000000000023],[-93.18509139999998,29.475000000000023],[-93.18409630000002,29.475000000000023],[-93.16666670000001,29.475000000000023],[-93.14999999999998,29.475000000000023],[-93.14999999999998,29.457041300000014],[-93.14999999999998,29.456540800000028],[-93.14999999999998,29.439033600000016],[-93.14999999999998,29.425892900000008],[-93.14999999999998,29.399999999999977],[-93.16666670000001,29.399999999999977],[-93.17723050000001,29.399999999999977],[-93.17976709999999,29.399999999999977],[-93.18078059999999,29.399999999999977],[-93.18681509999999,29.399999999999977],[-93.19619310000002,29.399999999999977],[-93.20212500000002,29.399999999999977],[-93.2206516,29.399999999999977],[-93.22164240000001,29.399999999999977],[-93.22227049999998,29.399999999999977],[-93.22289860000001,29.399999999999977],[-93.2235268,29.399999999999977],[-93.22415489999997,29.399999999999977]]]}},{"type":"Feature","properties":{},"geometry":{"type":"Polygon","coordinates":[[[-93.26478900000001,29.475000000000023],[-93.30000000000001,29.475000000000023],[-93.30000000000001,29.532540600000004],[-93.30000000000001,29.541476999999986],[-93.30000000000001,29.54761239999999],[-93.30000000000001,29.548347200000023],[-93.30000000000001,29.55000000000001],[-93.2930043,29.55000000000001],[-93.2909942,29.55000000000001],[-93.28731929999998,29.55000000000001],[-93.27315390000001,29.55000000000001],[-93.2612623,29.55000000000001],[-93.25614309999997,29.55000000000001],[-93.25466779999999,29.55000000000001],[-93.2538657,29.55000000000001],[-93.2530635,29.55000000000001],[-93.25226140000001,29.55000000000001],[-93.25147959999998,29.55000000000001],[-93.25145930000002,29.55000000000001],[-93.25049510000002,29.55000000000001],[-93.24912519999998,29.55000000000001],[-93.2481426,29.55000000000001],[-93.23219010000003,29.55000000000001],[-93.22711049999998,29.55000000000001],[-93.22500000000002,29.55000000000001],[-93.22500000000002,29.547667400000023],[-93.22500000000002,29.542498599999988],[-93.22500000000002,29.541882299999997],[-93.22500000000002,29.532729099999983],[-93.22500000000002,29.5268466],[-93.22500000000002,29.522989600000017],[-93.22500000000002,29.519933100000003],[-93.22500000000002,29.518190100000027],[-93.22500000000002,29.515889700000002],[-93.22500000000002,29.508905000000027],[-93.22500000000002,29.490843199999972],[-93.22500000000002,29.48992770000001],[-93.22500000000002,29.475000000000023],[-93.2253715,29.475000000000023],[-93.22640769999998,29.475000000000023],[-93.24304139999998,29.475000000000023],[-93.26275329999999,29.475000000000023],[-93.26370789999999,29.475000000000023],[-93.26478900000001,29.475000000000023]]]}},{"type":"Feature","properties":{},"geometry":{"type":"Polygon","coordinates":[[[-93.22474290000002,29.475000000000023],[-93.22500000000002,29.475000000000023],[-93.22500000000002,29.48992770000001],[-93.22500000000002,29.490843199999972],[-93.22500000000002,29.508905000000027],[-93.22500000000002,29.515889700000002],[-93.22500000000002,29.518190100000027],[-93.22500000000002,29.519933100000003],[-93.22500000000002,29.522989600000017],[-93.22500000000002,29.5268466],[-93.22500000000002,29.532729099999983],[-93.22500000000002,29.541882299999997],[-93.22500000000002,29.542498599999988],[-93.22500000000002,29.547667400000023],[-93.22500000000002,29.55000000000001],[-93.20493900000002,29.55000000000001],[-93.20078460000002,29.55000000000001],[-93.19862269999999,29.55000000000001],[-93.19357550000001,29.55000000000001],[-93.1752338,29.55000000000001],[-93.17396250000002,29.55000000000001],[-93.16666670000001,29.55000000000001],[-93.15713240000002,29.55000000000001],[-93.1515875,29.55000000000001],[-93.14999999999998,29.55000000000001],[-93.14999999999998,29.54696819999998],[-93.14999999999998,29.546826199999998],[-93.14999999999998,29.54675709999998],[-93.14999999999998,29.54648830000002],[-93.14999999999998,29.475000000000023],[-93.16666670000001,29.475000000000023],[-93.18409630000002,29.475000000000023],[-93.18509139999998,29.475000000000023],[-93.19344530000001,29.475000000000023],[-93.1967919,29.475000000000023],[-93.20356720000001,29.475000000000023],[-93.20451480000003,29.475000000000023],[-93.2218464,29.475000000000023],[-93.2228571,29.475000000000023],[-93.22348570000003,29.475000000000023],[-93.2241143,29.475000000000023],[-93.22474290000002,29.475000000000023]]]}},{"type":"Feature","properties":{},"geometry":{"type":"Polygon","coordinates":[[[-93.37137030000002,29.55000000000001],[-93.375,29.55000000000001],[-93.375,29.556931899999995],[-93.375,29.59891349999998],[-93.375,29.621646999999996],[-93.375,29.625],[-93.36606119999999,29.625],[-93.35940740000001,29.625],[-93.35685949999998,29.625],[-93.34034159999999,29.625],[-93.32618029999998,29.625],[-93.32497660000001,29.625],[-93.32444609999999,29.625],[-93.32381020000003,29.625],[-93.32194859999998,29.625],[-93.32120129999998,29.625],[-93.32050049999998,29.625],[-93.31979480000001,29.625],[-93.3190404,29.625],[-93.31804249999999,29.625],[-93.30418020000002,29.625],[-93.30000000000001,29.625],[-93.30000000000001,29.620638900000017],[-93.30000000000001,29.60490329999999],[-93.30000000000001,29.603603599999985],[-93.30000000000001,29.602717700000028],[-93.30000000000001,29.601831800000014],[-93.30000000000001,29.60094600000002],[-93.30000000000001,29.600060100000007],[-93.30000000000001,29.59820159999998],[-93.30000000000001,29.59509730000002],[-93.30000000000001,29.57967050000002],[-93.30000000000001,29.571589399999993],[-93.30000000000001,29.550591399999973],[-93.30000000000001,29.55000000000001],[-93.30582850000002,29.55000000000001],[-93.33291739999999,29.55000000000001],[-93.37137030000002,29.55000000000001]]]}},{"type":"Feature","properties":{},"geometry":{"type":"Polygon","coordinates":[[[-93.2930043,29.55000000000001],[-93.30000000000001,29.55000000000001],[-93.30000000000001,29.550591399999973],[-93.30000000000001,29.571589399999993],[-93.30000000000001,29.57967050000002],[-93.30000000000001,29.59509730000002],[-93.30000000000001,29.59820159999998],[-93.30000000000001,29.600060100000007],[-93.30000000000001,29.60094600000002],[-93.30000000000001,29.601831800000014],[-93.30000000000001,29.602717700000028],[-93.30000000000001,29.603603599999985],[-93.30000000000001,29.60490329999999],[-93.30000000000001,29.620638900000017],[-93.30000000000001,29.625],[-93.29430939999997,29.625],[-93.22500000000002,29.625],[-93.22500000000002,29.57247910000001],[-93.22500000000002,29.571648100000004],[-93.22500000000002,29.5567858],[-93.22500000000002,29.556662500000016],[-93.22500000000002,29.55000000000001],[-93.22711049999998,29.55000000000001],[-93.23219010000003,29.55000000000001],[-93.2481426,29.55000000000001],[-93.24912519999998,29.55000000000001],[-93.25049510000002,29.55000000000001],[-93.25145930000002,29.55000000000001],[-93.25147959999998,29.55000000000001],[-93.25226140000001,29.55000000000001],[-93.2530635,29.55000000000001],[-93.2538657,29.55000000000001],[-93.25466779999999,29.55000000000001],[-93.25614309999997,29.55000000000001],[-93.2612623,29.55000000000001],[-93.27315390000001,29.55000000000001],[-93.28731929999998,29.55000000000001],[-93.2909942,29.55000000000001],[-93.2930043,29.55000000000001]]]}},{"type":"Feature","properties":{},"geometry":{"type":"Polygon","coordinates":[[[-93.36606119999999,29.625],[-93.375,29.625],[-93.375,29.62552340000002],[-93.375,29.629929500000003],[-93.375,29.63484920000002],[-93.375,29.64114169999999],[-93.375,29.663967300000024],[-93.375,29.67130420000001],[-93.375,29.671827000000008],[-93.375,29.679733699999986],[-93.375,29.69999999999999],[-93.3745821,29.69999999999999],[-93.3687324,29.69999999999999],[-93.36684680000002,29.69999999999999],[-93.36575699999997,29.69999999999999],[-93.35278390000002,29.69999999999999],[-93.34128090000002,29.69999999999999],[-93.33849939999999,29.69999999999999],[-93.3359107,29.69999999999999],[-93.33502190000002,29.69999999999999],[-93.33438539999997,29.69999999999999],[-93.33374900000001,29.69999999999999],[-93.3336885,29.69999999999999],[-93.33311259999999,29.69999999999999],[-93.33247619999997,29.69999999999999],[-93.33245670000002,29.69999999999999],[-93.3314102,29.69999999999999],[-93.32847129999999,29.69999999999999],[-93.32764689999999,29.69999999999999],[-93.31723210000001,29.69999999999999],[-93.31523850000002,29.69999999999999],[-93.31431400000002,29.69999999999999],[-93.31190090000001,29.69999999999999],[-93.30000000000001,29.69999999999999],[-93.30000000000001,29.686655700000017],[-93.30000000000001,29.673011400000007],[-93.30000000000001,29.670670700000016],[-93.30000000000001,29.6692951],[-93.30000000000001,29.667760699999974],[-93.30000000000001,29.660142300000018],[-93.30000000000001,29.658672200000012],[-93.30000000000001,29.625],[-93.30418020000002,29.625],[-93.31804249999999,29.625],[-93.3190404,29.625],[-93.31979480000001,29.625],[-93.32050049999998,29.625],[-93.32120129999998,29.625],[-93.32194859999998,29.625],[-93.32381020000003,29.625],[-93.32444609999999,29.625],[-93.32497660000001,29.625],[-93.32618029999998,29.625],[-93.34034159999999,29.625],[-93.35685949999998,29.625],[-93.35940740000001,29.625],[-93.36606119999999,29.625]]]}},{"type":"Feature","properties":{},"geometry":{"type":"Polygon","coordinates":[[[-93.3687324,29.69999999999999],[-93.3745821,29.69999999999999],[-93.375,29.69999999999999],[-93.375,29.70009090000002],[-93.375,29.70322729999998],[-93.375,29.704087300000026],[-93.375,29.70615429999998],[-93.375,29.7074078],[-93.375,29.7122933],[-93.375,29.712391200000013],[-93.375,29.716608399999984],[-93.375,29.748272299999996],[-93.375,29.758411799999976],[-93.375,29.759728300000006],[-93.375,29.765168899999992],[-93.375,29.766867999999988],[-93.375,29.774999999999977],[-93.35152470000003,29.774999999999977],[-93.34732989999998,29.774999999999977],[-93.3472266,29.774999999999977],[-93.34710919999998,29.774999999999977],[-93.34678609999997,29.774999999999977],[-93.34647710000002,29.774999999999977],[-93.34609119999999,29.774999999999977],[-93.3460776,29.774999999999977],[-93.3460149,29.774999999999977],[-93.3457755,29.774999999999977],[-93.34545989999998,29.774999999999977],[-93.34514430000002,29.774999999999977],[-93.34482860000003,29.774999999999977],[-93.34464789999998,29.774999999999977],[-93.3436868,29.774999999999977],[-93.34268530000003,29.774999999999977],[-93.34070120000001,29.774999999999977],[-93.34020809999998,29.774999999999977],[-93.30773850000003,29.774999999999977],[-93.30505349999999,29.774999999999977],[-93.30000000000001,29.774999999999977],[-93.30000000000001,29.774557300000026],[-93.30000000000001,29.773351400000024],[-93.30000000000001,29.772177],[-93.30000000000001,29.766288900000006],[-93.30000000000001,29.759926399999983],[-93.30000000000001,29.740292099999976],[-93.30000000000001,29.726306599999987],[-93.30000000000001,29.709980299999984],[-93.30000000000001,29.709007299999996],[-93.30000000000001,29.707929200000024],[-93.30000000000001,29.69999999999999],[-93.31190090000001,29.69999999999999],[-93.31431400000002,29.69999999999999],[-93.31523850000002,29.69999999999999],[-93.31723210000001,29.69999999999999],[-93.32764689999999,29.69999999999999],[-93.32847129999999,29.69999999999999],[-93.3314102,29.69999999999999],[-93.33245670000002,29.69999999999999],[-93.33247619999997,29.69999999999999],[-93.33311259999999,29.69999999999999],[-93.3336885,29.69999999999999],[-93.33374900000001,29.69999999999999],[-93.33438539999997,29.69999999999999],[-93.33502190000002,29.69999999999999],[-93.3359107,29.69999999999999],[-93.33849939999999,29.69999999999999],[-93.34128090000002,29.69999999999999],[-93.35278390000002,29.69999999999999],[-93.36575699999997,29.69999999999999],[-93.36684680000002,29.69999999999999],[-93.3687324,29.69999999999999]]]}},{"type":"Feature","properties":{},"geometry":{"type":"Polygon","coordinates":[[[-93.35152470000003,29.774999999999977],[-93.375,29.774999999999977],[-93.375,29.820088],[-93.375,29.820953099999997],[-93.375,29.834822299999985],[-93.375,29.850000000000023],[-93.36731950000001,29.850000000000023],[-93.35406039999998,29.850000000000023],[-93.35253979999999,29.850000000000023],[-93.35250680000001,29.850000000000023],[-93.3512245,29.850000000000023],[-93.34958610000001,29.850000000000023],[-93.3485005,29.850000000000023],[-93.34752400000002,29.850000000000023],[-93.34720750000002,29.850000000000023],[-93.34690330000001,29.850000000000023],[-93.3468911,29.850000000000023],[-93.3465746,29.850000000000023],[-93.34625820000002,29.850000000000023],[-93.3428088,29.850000000000023],[-93.34089289999997,29.850000000000023],[-93.30000000000001,29.850000000000023],[-93.30000000000001,29.836759599999993],[-93.30000000000001,29.835159999999973],[-93.30000000000001,29.823157600000002],[-93.30000000000001,29.80943350000001],[-93.30000000000001,29.806107800000007],[-93.30000000000001,29.803469300000017],[-93.30000000000001,29.775487399999975],[-93.30000000000001,29.774999999999977],[-93.30505349999999,29.774999999999977],[-93.30773850000003,29.774999999999977],[-93.34020809999998,29.774999999999977],[-93.34070120000001,29.774999999999977],[-93.34268530000003,29.774999999999977],[-93.3436868,29.774999999999977],[-93.34464789999998,29.774999999999977],[-93.34482860000003,29.774999999999977],[-93.34514430000002,29.774999999999977],[-93.34545989999998,29.774999999999977],[-93.3457755,29.774999999999977],[-93.3460149,29.774999999999977],[-93.3460776,29.774999999999977],[-93.34609119999999,29.774999999999977],[-93.34647710000002,29.774999999999977],[-93.34678609999997,29.774999999999977],[-93.34710919999998,29.774999999999977],[-93.3472266,29.774999999999977],[-93.34732989999998,29.774999999999977],[-93.35152470000003,29.774999999999977]]]}},{"type":"Feature","properties":{},"geometry":{"type":"Polygon","coordinates":[[[-93.36731950000001,29.850000000000023],[-93.375,29.850000000000023],[-93.375,29.858170299999983],[-93.375,29.862318000000016],[-93.375,29.874287200000026],[-93.375,29.877432999999996],[-93.375,29.8808004],[-93.375,29.905105900000024],[-93.375,29.905410200000006],[-93.375,29.92500000000001],[-93.35638949999998,29.92500000000001],[-93.35591470000003,29.92500000000001],[-93.345508,29.92500000000001],[-93.34069069999998,29.92500000000001],[-93.34037410000002,29.92500000000001],[-93.34005739999998,29.92500000000001],[-93.3397407,29.92500000000001],[-93.33942409999997,29.92500000000001],[-93.33658709999997,29.92500000000001],[-93.3284382,29.92500000000001],[-93.32759220000003,29.92500000000001],[-93.30738869999999,29.92500000000001],[-93.30000000000001,29.92500000000001],[-93.30000000000001,29.922764299999983],[-93.30000000000001,29.90192830000001],[-93.30000000000001,29.898647299999993],[-93.30000000000001,29.893805699999973],[-93.30000000000001,29.889587199999994],[-93.30000000000001,29.850000000000023],[-93.34089289999997,29.850000000000023],[-93.3428088,29.850000000000023],[-93.34625820000002,29.850000000000023],[-93.3465746,29.850000000000023],[-93.3468911,29.850000000000023],[-93.34690330000001,29.850000000000023],[-93.34720750000002,29.850000000000023],[-93.34752400000002,29.850000000000023],[-93.3485005,29.850000000000023],[-93.34958610000001,29.850000000000023],[-93.3512245,29.850000000000023],[-93.35250680000001,29.850000000000023],[-93.35253979999999,29.850000000000023],[-93.35406039999998,29.850000000000023],[-93.36731950000001,29.850000000000023]]]}},{"type":"Feature","properties":{},"geometry":{"type":"Polygon","coordinates":[[[-93.35638949999998,29.92500000000001],[-93.375,29.92500000000001],[-93.375,29.9365641],[-93.375,29.93726129999999],[-93.375,29.9559529],[-93.375,30.0],[-93.37187069999999,30.0],[-93.36406749999998,30.0],[-93.36062520000002,30.0],[-93.35973519999999,30.0],[-93.34918049999999,30.0],[-93.34600030000001,30.0],[-93.34330640000002,30.0],[-93.33860959999998,30.0],[-93.33564360000003,30.0],[-93.33541450000001,30.0],[-93.3338918,30.0],[-93.3335745,30.0],[-93.33325760000002,30.0],[-93.3329407,30.0],[-93.3326199,30.0],[-93.33143719999998,30.0],[-93.32285810000002,30.0],[-93.3211708,30.0],[-93.318535,30.0],[-93.30000000000001,30.0],[-93.30000000000001,29.971045100000026],[-93.30000000000001,29.96698570000001],[-93.30000000000001,29.92500000000001],[-93.30738869999999,29.92500000000001],[-93.32759220000003,29.92500000000001],[-93.3284382,29.92500000000001],[-93.3336117,29.92500000000001],[-93.33658709999997,29.92500000000001],[-93.33942409999997,29.92500000000001],[-93.3397407,29.92500000000001],[-93.34005739999998,29.92500000000001],[-93.34037410000002,29.92500000000001],[-93.34069069999998,29.92500000000001],[-93.345508,29.92500000000001],[-93.35591470000003,29.92500000000001],[-93.35638949999998,29.92500000000001]]]}},{"type":"Feature","properties":{},"geometry":{"type":"Polygon","coordinates":[[[-93.30000000000001,29.96698570000001],[-93.30000000000001,29.971045100000026],[-93.30000000000001,29.9809305],[-93.30000000000001,30.0],[-93.28879890000002,30.0],[-93.28750000000002,30.0],[-93.27305109999998,30.0],[-93.27128210000001,30.0],[-93.2671977,30.0],[-93.26495340000002,30.0],[-93.24952109999998,30.0],[-93.24038890000003,30.0],[-93.22569950000002,30.0],[-93.22500000000002,30.0],[-93.22500000000002,29.999316799999974],[-93.22500000000002,29.99047589999998],[-93.22500000000002,29.972417199999995],[-93.22500000000002,29.966475899999978],[-93.22500000000002,29.963837000000012],[-93.22500000000002,29.95918690000002],[-93.22500000000002,29.942835899999977],[-93.22500000000002,29.942455600000017],[-93.22500000000002,29.92500000000001],[-93.23898209999999,29.92500000000001],[-93.24529969999998,29.92500000000001],[-93.2516096,29.92500000000001],[-93.2520983,29.92500000000001],[-93.2601052,29.92500000000001],[-93.26116439999998,29.92500000000001],[-93.28750000000002,29.92500000000001],[-93.30000000000001,29.92500000000001],[-93.30000000000001,29.96698570000001]]]}},{"type":"Feature","properties":{},"geometry":{"type":"Polygon","coordinates":[[[-93.37187069999999,30.0],[-93.375,30.0],[-93.375,30.0002571],[-93.375,30.00081080000001],[-93.375,30.002437499999985],[-93.375,30.00328239999999],[-93.375,30.0037155],[-93.375,30.00566120000002],[-93.375,30.007655100000022],[-93.375,30.01114910000001],[-93.375,30.013183000000026],[-93.375,30.013326000000006],[-93.375,30.013970900000004],[-93.375,30.016297399999985],[-93.375,30.016869299999996],[-93.375,30.01896340000002],[-93.375,30.019963500000017],[-93.375,30.020242199999984],[-93.375,30.020765100000006],[-93.375,30.021500899999978],[-93.375,30.022680999999977],[-93.375,30.024569100000008],[-93.375,30.02522019999998],[-93.375,30.025709600000027],[-93.375,30.025858200000016],[-93.375,30.02612190000002],[-93.375,30.02662959999998],[-93.375,30.027144299999975],[-93.375,30.03220779999998],[-93.375,30.03287019999999],[-93.375,30.04653330000002],[-93.375,30.050476800000013],[-93.375,30.058812699999976],[-93.375,30.0589928],[-93.375,30.05967670000001],[-93.375,30.05986949999999],[-93.375,30.060232999999982],[-93.375,30.060399500000017],[-93.375,30.060691099999985],[-93.375,30.06090999999998],[-93.375,30.07499999999999],[-93.37294969999999,30.07499999999999],[-93.37281530000001,30.07499999999999],[-93.37262579999998,30.07499999999999],[-93.37196369999998,30.07499999999999],[-93.37174820000001,30.07499999999999],[-93.37163470000002,30.07499999999999],[-93.36951920000001,30.07499999999999],[-93.36717879999998,30.07499999999999],[-93.36576400000001,30.07499999999999],[-93.36422440000001,30.07499999999999],[-93.36299200000002,30.07499999999999],[-93.36248719999998,30.07499999999999],[-93.35970930000002,30.07499999999999],[-93.3595272,30.07499999999999],[-93.35574739999998,30.07499999999999],[-93.3445198,30.07499999999999],[-93.3417847,30.07499999999999],[-93.34083329999999,30.07499999999999],[-93.34075130000002,30.07499999999999],[-93.34013829999998,30.07499999999999],[-93.3398775,30.07499999999999],[-93.3391454,30.07499999999999],[-93.33886960000001,30.07499999999999],[-93.338619,30.07499999999999],[-93.33846849999998,30.07499999999999],[-93.32897109999999,30.07499999999999],[-93.32710509999998,30.07499999999999],[-93.32704760000001,30.07499999999999],[-93.32673089999997,30.07499999999999],[-93.32641369999999,30.07499999999999],[-93.32640040000001,30.07499999999999],[-93.32609660000003,30.07499999999999],[-93.32577939999999,30.07499999999999],[-93.32441130000001,30.07499999999999],[-93.32438359999998,30.07499999999999],[-93.32132360000003,30.07499999999999],[-93.32069159999998,30.07499999999999],[-93.3122065,30.07499999999999],[-93.3117105,30.07499999999999],[-93.30920700000001,30.07499999999999],[-93.305632,30.07499999999999],[-93.30543749999998,30.07499999999999],[-93.30000000000001,30.07499999999999],[-93.30000000000001,30.06587430000002],[-93.30000000000001,30.064406700000006],[-93.30000000000001,30.05673619999999],[-93.30000000000001,30.03855600000003],[-93.30000000000001,30.03223220000001],[-93.30000000000001,30.027777800000024],[-93.30000000000001,30.0],[-93.318535,30.0],[-93.3211708,30.0],[-93.32285810000002,30.0],[-93.33143719999998,30.0],[-93.3326199,30.0],[-93.3329407,30.0],[-93.33325760000002,30.0],[-93.3335745,30.0],[-93.3338918,30.0],[-93.33541450000001,30.0],[-93.33564360000003,30.0],[-93.33860959999998,30.0],[-93.34330640000002,30.0],[-93.34600030000001,30.0],[-93.34918049999999,30.0],[-93.35973519999999,30.0],[-93.36062520000002,30.0],[-93.36406749999998,30.0],[-93.37187069999999,30.0]]]}},{"type":"Feature","properties":{},"geometry":{"type":"Polygon","coordinates":[[[-93.28879890000002,30.0],[-93.30000000000001,30.0],[-93.30000000000001,30.027777800000024],[-93.30000000000001,30.03223220000001],[-93.30000000000001,30.03855600000003],[-93.30000000000001,30.05673619999999],[-93.30000000000001,30.064406700000006],[-93.30000000000001,30.06587430000002],[-93.30000000000001,30.07499999999999],[-93.2992969,30.07499999999999],[-93.2816727,30.07499999999999],[-93.27882399999999,30.07499999999999],[-93.2787174,30.07499999999999],[-93.27728009999998,30.07499999999999],[-93.27593460000003,30.07499999999999],[-93.2756756,30.07499999999999],[-93.27480989999998,30.07499999999999],[-93.27372020000001,30.07499999999999],[-93.27370680000001,30.07499999999999],[-93.27340679999998,30.07499999999999],[-93.26969780000002,30.07499999999999],[-93.2692093,30.07499999999999],[-93.26749999999998,30.07499999999999],[-93.26578819999997,30.07499999999999],[-93.26528409999997,30.07499999999999],[-93.26461160000002,30.07499999999999],[-93.2640045,30.07499999999999],[-93.2567487,30.07499999999999],[-93.2563781,30.07499999999999],[-93.25419540000001,30.07499999999999],[-93.25116220000001,30.07499999999999],[-93.25102199999998,30.07499999999999],[-93.23951770000002,30.07499999999999],[-93.23892740000002,30.07499999999999],[-93.23812859999998,30.07499999999999],[-93.22500000000002,30.07499999999999],[-93.22500000000002,30.063060199999995],[-93.22500000000002,30.055184699999984],[-93.22500000000002,30.054828199999974],[-93.22500000000002,30.037282100000027],[-93.22500000000002,30.02857080000001],[-93.22500000000002,30.028289700000016],[-93.22500000000002,30.016883099999973],[-93.22500000000002,30.002230300000008],[-93.22500000000002,30.001808600000004],[-93.22500000000002,30.001698499999975],[-93.22500000000002,30.001275700000008],[-93.22500000000002,30.000880699999982],[-93.22500000000002,30.000404300000014],[-93.22500000000002,30.0],[-93.22569950000002,30.0],[-93.24038890000003,30.0],[-93.24952109999998,30.0],[-93.26495340000002,30.0],[-93.2671977,30.0],[-93.27128210000001,30.0],[-93.27305109999998,30.0],[-93.28750000000002,30.0],[-93.28879890000002,30.0]]]}},{"type":"Feature","properties":{},"geometry":{"type":"Polygon","coordinates":[[[-93.33411819999998,30.149999999999977],[-93.3340369,30.149999999999977],[-93.333531,30.149999999999977],[-93.33314150000001,30.149999999999977],[-93.3331354,30.149999999999977],[-93.33281540000002,30.149999999999977],[-93.33249640000003,30.149999999999977],[-93.33217730000001,30.149999999999977],[-93.33185909999997,30.149999999999977],[-93.33171290000001,30.149999999999977],[-93.33071389999998,30.149999999999977],[-93.31497949999999,30.149999999999977],[-93.31116850000001,30.149999999999977],[-93.31079829999999,30.149999999999977],[-93.31055800000001,30.149999999999977],[-93.30976720000001,30.149999999999977],[-93.30913299999997,30.149999999999977],[-93.30524480000003,30.149999999999977],[-93.30495660000003,30.149999999999977],[-93.30000000000001,30.149999999999977],[-93.30000000000001,30.1388197],[-93.30000000000001,30.137104299999976],[-93.30000000000001,30.133238500000004],[-93.30000000000001,30.1326105],[-93.30000000000001,30.109698100000003],[-93.30000000000001,30.109217],[-93.30000000000001,30.109205299999985],[-93.30000000000001,30.10903209999998],[-93.30000000000001,30.108753400000012],[-93.30000000000001,30.108474699999988],[-93.30000000000001,30.10819600000002],[-93.30000000000001,30.107917299999997],[-93.30000000000001,30.10772559999998],[-93.30000000000001,30.10767420000002],[-93.30000000000001,30.107475099999988],[-93.30000000000001,30.103094],[-93.30000000000001,30.099689000000012],[-93.30000000000001,30.099520600000005],[-93.30000000000001,30.098332099999993],[-93.30000000000001,30.097970499999974],[-93.30000000000001,30.094994999999983],[-93.30000000000001,30.094810999999993],[-93.30000000000001,30.094089600000018],[-93.30000000000001,30.09407299999998],[-93.30000000000001,30.09342129999999],[-93.30000000000001,30.093337099999985],[-93.30000000000001,30.092986399999972],[-93.30000000000001,30.092229499999974],[-93.30000000000001,30.09192250000001],[-93.30000000000001,30.091731700000025],[-93.30000000000001,30.082226400000025],[-93.30000000000001,30.081326199999978],[-93.30000000000001,30.081113700000003],[-93.30000000000001,30.08079029999999],[-93.30000000000001,30.080610400000012],[-93.30000000000001,30.080076299999973],[-93.30000000000001,30.07935329999998],[-93.30000000000001,30.079155300000025],[-93.30000000000001,30.076260999999988],[-93.30000000000001,30.075502299999982],[-93.30000000000001,30.07499999999999],[-93.30543749999998,30.07499999999999],[-93.305632,30.07499999999999],[-93.30920700000001,30.07499999999999],[-93.3117105,30.07499999999999],[-93.3122065,30.07499999999999],[-93.32069159999998,30.07499999999999],[-93.32132360000003,30.07499999999999],[-93.32438359999998,30.07499999999999],[-93.32441130000001,30.07499999999999],[-93.32577939999999,30.07499999999999],[-93.32609660000003,30.07499999999999],[-93.32640040000001,30.07499999999999],[-93.32641369999999,30.07499999999999],[-93.32673089999997,30.07499999999999],[-93.32704760000001,30.07499999999999],[-93.32710509999998,30.07499999999999],[-93.32897109999999,30.07499999999999],[-93.33846849999998,30.07499999999999],[-93.338619,30.07499999999999],[-93.33886960000001,30.07499999999999],[-93.3391454,30.07499999999999],[-93.34013829999998,30.07499999999999],[-93.34075130000002,30.07499999999999],[-93.34083329999999,30.07499999999999],[-93.3417847,30.07499999999999],[-93.3445198,30.07499999999999],[-93.35574739999998,30.07499999999999],[-93.3595272,30.07499999999999],[-93.35970930000002,30.07499999999999],[-93.36248719999998,30.07499999999999],[-93.36299200000002,30.07499999999999],[-93.36422440000001,30.07499999999999],[-93.36576400000001,30.07499999999999],[-93.36717879999998,30.07499999999999],[-93.36951920000001,30.07499999999999],[-93.37163470000002,30.07499999999999],[-93.37174820000001,30.07499999999999],[-93.37196369999998,30.07499999999999],[-93.37262579999998,30.07499999999999],[-93.37281530000001,30.07499999999999],[-93.37294969999999,30.07499999999999],[-93.375,30.07499999999999],[-93.375,30.11096070000002],[-93.375,30.149999999999977],[-93.33425,30.149999999999977],[-93.33411819999998,30.149999999999977]]]}},{"type":"Feature","properties":{},"geometry":{"type":"Polygon","coordinates":[[[-93.2992969,30.07499999999999],[-93.30000000000001,30.07499999999999],[-93.30000000000001,30.075502299999982],[-93.30000000000001,30.076260999999988],[-93.30000000000001,30.079155300000025],[-93.30000000000001,30.07935329999998],[-93.30000000000001,30.080076299999973],[-93.30000000000001,30.080610400000012],[-93.30000000000001,30.08079029999999],[-93.30000000000001,30.081113700000003],[-93.30000000000001,30.081326199999978],[-93.30000000000001,30.082226400000025],[-93.30000000000001,30.091731700000025],[-93.30000000000001,30.09192250000001],[-93.30000000000001,30.092229499999974],[-93.30000000000001,30.092986399999972],[-93.30000000000001,30.093337099999985],[-93.30000000000001,30.09342129999999],[-93.30000000000001,30.09407299999998],[-93.30000000000001,30.094089600000018],[-93.30000000000001,30.094810999999993],[-93.30000000000001,30.094994999999983],[-93.30000000000001,30.097970499999974],[-93.30000000000001,30.098332099999993],[-93.30000000000001,30.099520600000005],[-93.30000000000001,30.099689000000012],[-93.30000000000001,30.103094],[-93.30000000000001,30.107475099999988],[-93.30000000000001,30.10767420000002],[-93.30000000000001,30.10772559999998],[-93.30000000000001,30.107917299999997],[-93.30000000000001,30.10819600000002],[-93.30000000000001,30.108474699999988],[-93.30000000000001,30.108753400000012],[-93.30000000000001,30.10903209999998],[-93.30000000000001,30.109205299999985],[-93.30000000000001,30.109217],[-93.30000000000001,30.109698100000003],[-93.30000000000001,30.1326105],[-93.30000000000001,30.133238500000004],[-93.30000000000001,30.137104299999976],[-93.30000000000001,30.1388197],[-93.30000000000001,30.149999999999977],[-93.22500000000002,30.149999999999977],[-93.22500000000002,30.100343099999975],[-93.22500000000002,30.099045100000012],[-93.22500000000002,30.087774299999978],[-93.22500000000002,30.083416999999997],[-93.22500000000002,30.07499999999999],[-93.23757,30.07499999999999],[-93.23951770000002,30.07499999999999],[-93.24714139999998,30.07499999999999],[-93.24913079999999,30.07499999999999],[-93.25094869999998,30.07499999999999],[-93.25116220000001,30.07499999999999],[-93.25129989999999,30.07499999999999],[-93.25419540000001,30.07499999999999],[-93.2563781,30.07499999999999],[-93.2567487,30.07499999999999],[-93.2640045,30.07499999999999],[-93.26461160000002,30.07499999999999],[-93.26528409999997,30.07499999999999],[-93.26578819999997,30.07499999999999],[-93.26749999999998,30.07499999999999],[-93.2692093,30.07499999999999],[-93.26969780000002,30.07499999999999],[-93.27340679999998,30.07499999999999],[-93.27370680000001,30.07499999999999],[-93.27372020000001,30.07499999999999],[-93.2756756,30.07499999999999],[-93.27593460000003,30.07499999999999],[-93.27728009999998,30.07499999999999],[-93.2787174,30.07499999999999],[-93.27882399999999,30.07499999999999],[-93.2816727,30.07499999999999],[-93.2992969,30.07499999999999]]]}},{"type":"Feature","properties":{},"geometry":{"type":"Polygon","coordinates":[[[-93.81751980000001,29.92500000000001],[-93.82499999999999,29.92500000000001],[-93.82499999999999,29.949245500000018],[-93.82499999999999,29.959656999999993],[-93.82499999999999,29.97183000000001],[-93.82499999999999,29.977163800000028],[-93.82499999999999,29.977505199999996],[-93.82499999999999,29.978771600000016],[-93.82499999999999,29.97891820000001],[-93.82499999999999,29.979078700000002],[-93.82499999999999,29.979210599999988],[-93.82499999999999,29.979355699999985],[-93.82499999999999,29.980512299999987],[-93.82499999999999,29.987400100000002],[-93.82499999999999,30.0],[-93.80217470000002,30.0],[-93.79155179999998,30.0],[-93.79072660000003,30.0],[-93.79051479999998,30.0],[-93.78988859999998,30.0],[-93.78911620000002,30.0],[-93.7891118,30.0],[-93.78124380000003,30.0],[-93.7811408,30.0],[-93.78073310000002,30.0],[-93.773325,30.0],[-93.7732924,30.0],[-93.77250900000001,30.0],[-93.77197849999999,30.0],[-93.77177560000001,30.0],[-93.77153129999999,30.0],[-93.77136999999999,30.0],[-93.77116719999998,30.0],[-93.76766730000003,30.0],[-93.76714240000001,30.0],[-93.76588809999998,30.0],[-93.75,30.0],[-93.75,29.9996802],[-93.75,29.998864000000026],[-93.75,29.959656999999993],[-93.75,29.954923199999996],[-93.75,29.950236700000005],[-93.75,29.949993500000005],[-93.75,29.938570500000026],[-93.75,29.92500000000001],[-93.7561753,29.92500000000001],[-93.75653419999998,29.92500000000001],[-93.7624017,29.92500000000001],[-93.76835510000001,29.92500000000001],[-93.81751980000001,29.92500000000001]]]}},{"type":"Feature","properties":{},"geometry":{"type":"Polygon","coordinates":[[[-93.82499999999999,30.044224799999995],[-93.82499999999999,30.044532000000004],[-93.82499999999999,30.0445335],[-93.82499999999999,30.044619099999977],[-93.82499999999999,30.044819700000005],[-93.82499999999999,30.044825899999978],[-93.82499999999999,30.04483479999999],[-93.82499999999999,30.04548299999999],[-93.82499999999999,30.045713499999977],[-93.82499999999999,30.04578700000002],[-93.82499999999999,30.04593399999999],[-93.82499999999999,30.046007499999973],[-93.82499999999999,30.046135600000014],[-93.82499999999999,30.046274600000004],[-93.82499999999999,30.046289600000023],[-93.82499999999999,30.048785899999984],[-93.82499999999999,30.048970800000006],[-93.82499999999999,30.049381299999993],[-93.82499999999999,30.049387500000023],[-93.82499999999999,30.049474900000007],[-93.82499999999999,30.049639800000023],[-93.82499999999999,30.07499999999999],[-93.75,30.07499999999999],[-93.75,30.069298100000026],[-93.75,30.069179399999996],[-93.75,30.06884070000001],[-93.75,30.06842119999999],[-93.75,30.066821100000027],[-93.75,30.065311599999973],[-93.75,30.06488680000001],[-93.75,30.0646337],[-93.75,30.06374599999998],[-93.75,30.063574700000004],[-93.75,30.0435253],[-93.75,30.042837799999973],[-93.75,30.0337935],[-93.75,30.026258900000016],[-93.75,30.026155300000028],[-93.75,30.026138899999978],[-93.75,30.025567299999977],[-93.75,30.025498400000004],[-93.75,30.02328510000001],[-93.75,30.01974230000002],[-93.75,30.01958719999999],[-93.75,30.019203800000014],[-93.75,30.018892900000026],[-93.75,30.01847859999998],[-93.75,30.018331199999977],[-93.75,30.018036499999994],[-93.75,30.01788909999999],[-93.75,30.017463399999997],[-93.75,30.016710499999988],[-93.75,30.016710199999977],[-93.75,30.016561000000024],[-93.75,30.01652660000002],[-93.75,30.008849499999997],[-93.75,30.008788299999992],[-93.75,30.008456500000023],[-93.75,30.00838920000001],[-93.75,30.008349099999975],[-93.75,30.008211000000017],[-93.75,30.0009958],[-93.75,30.0],[-93.76588809999998,30.0],[-93.76714240000001,30.0],[-93.76766730000003,30.0],[-93.77116719999998,30.0],[-93.77136999999999,30.0],[-93.77153129999999,30.0],[-93.77177560000001,30.0],[-93.77197849999999,30.0],[-93.77250900000001,30.0],[-93.773325,30.0],[-93.78073310000002,30.0],[-93.7811408,30.0],[-93.78124380000003,30.0],[-93.7891118,30.0],[-93.78911349999998,30.0],[-93.78911620000002,30.0],[-93.78988859999998,30.0],[-93.79051479999998,30.0],[-93.79072660000003,30.0],[-93.79155179999998,30.0],[-93.80217470000002,30.0],[-93.82499999999999,30.0],[-93.82499999999999,30.04419660000002],[-93.82499999999999,30.044224799999995]]]}},{"type":"Feature","properties":{},"geometry":{"type":"Polygon","coordinates":[[[-93.74919790000001,30.0],[-93.75,30.0],[-93.75,30.0009958],[-93.75,30.008211000000017],[-93.75,30.008349099999975],[-93.75,30.00838920000001],[-93.75,30.008456500000023],[-93.75,30.008788299999992],[-93.75,30.008849499999997],[-93.75,30.01652660000002],[-93.75,30.016561000000024],[-93.75,30.016710199999977],[-93.75,30.016710499999988],[-93.75,30.017463399999997],[-93.75,30.01788909999999],[-93.75,30.018036499999994],[-93.75,30.018331199999977],[-93.75,30.01847859999998],[-93.75,30.018892900000026],[-93.75,30.019203800000014],[-93.75,30.01958719999999],[-93.75,30.01974230000002],[-93.75,30.02328510000001],[-93.75,30.025498400000004],[-93.75,30.025567299999977],[-93.75,30.026138899999978],[-93.75,30.026155300000028],[-93.75,30.026258900000016],[-93.75,30.0337935],[-93.75,30.042837799999973],[-93.75,30.0435253],[-93.75,30.063574700000004],[-93.75,30.06374599999998],[-93.75,30.0646337],[-93.75,30.06488680000001],[-93.75,30.065311599999973],[-93.75,30.066821100000027],[-93.75,30.06842119999999],[-93.75,30.06884070000001],[-93.75,30.069179399999996],[-93.75,30.069298100000026],[-93.75,30.07499999999999],[-93.74632689999999,30.07499999999999],[-93.74563030000002,30.07499999999999],[-93.74282149999999,30.07499999999999],[-93.7417625,30.07499999999999],[-93.74111970000001,30.07499999999999],[-93.7407475,30.07499999999999],[-93.73853580000002,30.07499999999999],[-93.7382958,30.07499999999999],[-93.73390920000003,30.07499999999999],[-93.73265789999999,30.07499999999999],[-93.72997129999999,30.07499999999999],[-93.722962,30.07499999999999],[-93.72173550000002,30.07499999999999],[-93.72151000000002,30.07499999999999],[-93.72105720000002,30.07499999999999],[-93.7208326,30.07499999999999],[-93.72042320000003,30.07499999999999],[-93.72029300000003,30.07499999999999],[-93.71989150000002,30.07499999999999],[-93.7148755,30.07499999999999],[-93.69489099999998,30.07499999999999],[-93.69339000000002,30.07499999999999],[-93.69296839999998,30.07499999999999],[-93.6925405,30.07499999999999],[-93.67500000000001,30.07499999999999],[-93.67500000000001,30.059183099999984],[-93.67500000000001,30.059034199999985],[-93.67500000000001,30.05889860000002],[-93.67500000000001,30.058695999999998],[-93.67500000000001,30.058458900000005],[-93.67500000000001,30.05820879999999],[-93.67500000000001,30.058057399999996],[-93.67500000000001,30.0578759],[-93.67500000000001,30.055201399999987],[-93.67500000000001,30.051127899999983],[-93.67500000000001,30.04653860000002],[-93.67500000000001,30.0],[-93.69488810000001,30.0],[-93.72693700000002,30.0],[-93.74744079999999,30.0],[-93.74745100000001,30.0],[-93.74919790000001,30.0]]]}},{"type":"Feature","properties":{},"geometry":{"type":"Polygon","coordinates":[[[-93.72997129999999,30.07499999999999],[-93.73265789999999,30.07499999999999],[-93.73390920000003,30.07499999999999],[-93.7382958,30.07499999999999],[-93.73853580000002,30.07499999999999],[-93.7407475,30.07499999999999],[-93.74111970000001,30.07499999999999],[-93.7417625,30.07499999999999],[-93.74282149999999,30.07499999999999],[-93.74563030000002,30.07499999999999],[-93.74632689999999,30.07499999999999],[-93.75,30.07499999999999],[-93.75,30.078999599999975],[-93.75,30.086117],[-93.75,30.090598100000022],[-93.75,30.09093200000001],[-93.75,30.092809999999986],[-93.75,30.09316899999999],[-93.75,30.093291599999986],[-93.75,30.09512510000002],[-93.75,30.095623499999988],[-93.75,30.101869099999988],[-93.75,30.106604000000004],[-93.75,30.149999999999977],[-93.67500000000001,30.149999999999977],[-93.67500000000001,30.110967300000027],[-93.67500000000001,30.108220300000028],[-93.67500000000001,30.0829387],[-93.67500000000001,30.08095129999998],[-93.67500000000001,30.07499999999999],[-93.6925405,30.07499999999999],[-93.69296839999998,30.07499999999999],[-93.69339000000002,30.07499999999999],[-93.69489099999998,30.07499999999999],[-93.7148755,30.07499999999999],[-93.71989150000002,30.07499999999999],[-93.72029300000003,30.07499999999999],[-93.72042320000003,30.07499999999999],[-93.7208326,30.07499999999999],[-93.72105720000002,30.07499999999999],[-93.72151000000002,30.07499999999999],[-93.72173550000002,30.07499999999999],[-93.722962,30.07499999999999],[-93.72997129999999,30.07499999999999]]]}},{"type":"Feature","properties":{},"geometry":{"type":"Polygon","coordinates":[[[-93.7365029,29.399999999999977],[-93.75,29.399999999999977],[-93.75,29.427832799999976],[-93.75,29.434499700000003],[-93.75,29.450400399999978],[-93.75,29.454304700000023],[-93.75,29.454684999999984],[-93.75,29.455065400000024],[-93.75,29.47055069999999],[-93.75,29.475000000000023],[-93.74887109999997,29.475000000000023],[-93.7278566,29.475000000000023],[-93.72141169999998,29.475000000000023],[-93.71303310000002,29.475000000000023],[-93.70163480000002,29.475000000000023],[-93.7008639,29.475000000000023],[-93.70009549999997,29.475000000000023],[-93.70001000000002,29.475000000000023],[-93.68583719999998,29.475000000000023],[-93.68290940000003,29.475000000000023],[-93.67812809999998,29.475000000000023],[-93.67500000000001,29.475000000000023],[-93.67500000000001,29.472633499999972],[-93.67500000000001,29.468730800000003],[-93.67500000000001,29.399999999999977],[-93.68566529999998,29.399999999999977],[-93.6857756,29.399999999999977],[-93.72472219999997,29.399999999999977],[-93.7365029,29.399999999999977]]]}},{"type":"Feature","properties":{},"geometry":{"type":"Polygon","coordinates":[[[-93.64756640000002,29.399999999999977],[-93.67500000000001,29.399999999999977],[-93.67500000000001,29.468730800000003],[-93.67500000000001,29.472633499999972],[-93.67500000000001,29.475000000000023],[-93.66807219999998,29.475000000000023],[-93.66744360000001,29.475000000000023],[-93.66681499999999,29.475000000000023],[-93.66618640000002,29.475000000000023],[-93.66555779999999,29.475000000000023],[-93.6597625,29.475000000000023],[-93.6508129,29.475000000000023],[-93.64723620000001,29.475000000000023],[-93.6455024,29.475000000000023],[-93.64212079999999,29.475000000000023],[-93.63947139999999,29.475000000000023],[-93.63798939999998,29.475000000000023],[-93.631484,29.475000000000023],[-93.629005,29.475000000000023],[-93.6055723,29.475000000000023],[-93.60000000000002,29.475000000000023],[-93.60000000000002,29.460944499999982],[-93.60000000000002,29.45617629999998],[-93.60000000000002,29.399999999999977],[-93.63071869999999,29.399999999999977],[-93.64756640000002,29.399999999999977]]]}},{"type":"Feature","properties":{},"geometry":{"type":"Polygon","coordinates":[[[-93.81324849999999,29.475000000000023],[-93.82499999999999,29.475000000000023],[-93.82499999999999,29.489821300000017],[-93.82499999999999,29.5004184],[-93.82499999999999,29.52151839999999],[-93.82499999999999,29.524383899999975],[-93.82499999999999,29.526718700000004],[-93.82499999999999,29.5269222],[-93.82499999999999,29.527279299999975],[-93.82499999999999,29.52793200000002],[-93.82499999999999,29.53144579999997],[-93.82499999999999,29.53955480000002],[-93.82499999999999,29.539655900000014],[-93.82499999999999,29.545623499999977],[-93.82499999999999,29.548724600000014],[-93.82499999999999,29.55000000000001],[-93.82430140000002,29.55000000000001],[-93.8171236,29.55000000000001],[-93.8136897,29.55000000000001],[-93.80134470000002,29.55000000000001],[-93.7994549,29.55000000000001],[-93.79911609999999,29.55000000000001],[-93.79881749999998,29.55000000000001],[-93.79777109999998,29.55000000000001],[-93.78213099999999,29.55000000000001],[-93.77940699999999,29.55000000000001],[-93.77534759999998,29.55000000000001],[-93.77389419999997,29.55000000000001],[-93.75,29.55000000000001],[-93.75,29.5284982],[-93.75,29.509500100000025],[-93.75,29.507533299999977],[-93.75,29.50624319999997],[-93.75,29.504090200000007],[-93.75,29.490613699999983],[-93.75,29.4887382],[-93.75,29.488632499999994],[-93.75,29.483766899999978],[-93.75,29.481566199999975],[-93.75,29.4811009],[-93.75,29.47626489999999],[-93.75,29.475000000000023],[-93.76031970000003,29.475000000000023],[-93.7603211,29.475000000000023],[-93.76190630000002,29.475000000000023],[-93.78274970000001,29.475000000000023],[-93.7837366,29.475000000000023],[-93.78795000000002,29.475000000000023],[-93.78952770000001,29.475000000000023],[-93.79552860000001,29.475000000000023],[-93.81107370000001,29.475000000000023],[-93.81204179999997,29.475000000000023],[-93.81324849999999,29.475000000000023]]]}},{"type":"Feature","properties":{},"geometry":{"type":"Polygon","coordinates":[[[-93.74887109999997,29.475000000000023],[-93.75,29.475000000000023],[-93.75,29.47626489999999],[-93.75,29.4811009],[-93.75,29.481566199999975],[-93.75,29.483766899999978],[-93.75,29.488632499999994],[-93.75,29.4887382],[-93.75,29.490613699999983],[-93.75,29.504090200000007],[-93.75,29.50624319999997],[-93.75,29.507533299999977],[-93.75,29.509500100000025],[-93.75,29.5284982],[-93.75,29.55000000000001],[-93.74845959999999,29.55000000000001],[-93.74755720000002,29.55000000000001],[-93.74665479999999,29.55000000000001],[-93.74575240000001,29.55000000000001],[-93.74485229999999,29.55000000000001],[-93.71889220000003,29.55000000000001],[-93.7103727,29.55000000000001],[-93.67500000000001,29.55000000000001],[-93.67500000000001,29.522851100000025],[-93.67500000000001,29.520511699999986],[-93.67500000000001,29.512927100000013],[-93.67500000000001,29.51010009999999],[-93.67500000000001,29.500220800000022],[-93.67500000000001,29.491980099999978],[-93.67500000000001,29.491025400000012],[-93.67500000000001,29.490614800000003],[-93.67500000000001,29.489852100000007],[-93.67500000000001,29.489085199999977],[-93.67500000000001,29.48831819999998],[-93.67500000000001,29.487551300000007],[-93.67500000000001,29.475654200000008],[-93.67500000000001,29.475000000000023],[-93.67812809999998,29.475000000000023],[-93.68290940000003,29.475000000000023],[-93.68583719999998,29.475000000000023],[-93.70001000000002,29.475000000000023],[-93.70009549999997,29.475000000000023],[-93.7008639,29.475000000000023],[-93.70163480000002,29.475000000000023],[-93.71303310000002,29.475000000000023],[-93.72141169999998,29.475000000000023],[-93.7278566,29.475000000000023],[-93.74887109999997,29.475000000000023]]]}},{"type":"Feature","properties":{},"geometry":{"type":"Polygon","coordinates":[[[-93.66807219999998,29.475000000000023],[-93.67500000000001,29.475000000000023],[-93.67500000000001,29.475654200000008],[-93.67500000000001,29.487551300000007],[-93.67500000000001,29.48831819999998],[-93.67500000000001,29.489085199999977],[-93.67500000000001,29.489852100000007],[-93.67500000000001,29.490614800000003],[-93.67500000000001,29.491025400000012],[-93.67500000000001,29.491980099999978],[-93.67500000000001,29.500220800000022],[-93.67500000000001,29.51010009999999],[-93.67500000000001,29.512927100000013],[-93.67500000000001,29.520511699999986],[-93.67500000000001,29.522851100000025],[-93.67500000000001,29.55000000000001],[-93.64236119999998,29.55000000000001],[-93.62113920000002,29.55000000000001],[-93.62019959999998,29.55000000000001],[-93.61580830000003,29.55000000000001],[-93.60000000000002,29.55000000000001],[-93.60000000000002,29.53929679999999],[-93.60000000000002,29.522928700000023],[-93.60000000000002,29.519915400000002],[-93.60000000000002,29.514477100000022],[-93.60000000000002,29.512006600000007],[-93.60000000000002,29.486281399999996],[-93.60000000000002,29.485806799999978],[-93.60000000000002,29.484278500000016],[-93.60000000000002,29.477605200000028],[-93.60000000000002,29.475000000000023],[-93.6055723,29.475000000000023],[-93.629005,29.475000000000023],[-93.631484,29.475000000000023],[-93.63798939999998,29.475000000000023],[-93.63947139999999,29.475000000000023],[-93.64212079999999,29.475000000000023],[-93.6455024,29.475000000000023],[-93.64723620000001,29.475000000000023],[-93.6508129,29.475000000000023],[-93.6597625,29.475000000000023],[-93.66555779999999,29.475000000000023],[-93.66618640000002,29.475000000000023],[-93.66681499999999,29.475000000000023],[-93.66744360000001,29.475000000000023],[-93.66807219999998,29.475000000000023]]]}},{"type":"Feature","properties":{},"geometry":{"type":"Polygon","coordinates":[[[-93.82430140000002,29.55000000000001],[-93.82499999999999,29.55000000000001],[-93.82499999999999,29.554573600000026],[-93.82499999999999,29.558343700000023],[-93.82499999999999,29.559820100000024],[-93.82499999999999,29.571307699999977],[-93.82499999999999,29.590881299999978],[-93.82499999999999,29.592908799999975],[-93.82499999999999,29.593632599999978],[-93.82499999999999,29.595435399999985],[-93.82499999999999,29.600214199999982],[-93.82499999999999,29.60021499999999],[-93.82499999999999,29.60972559999999],[-93.82499999999999,29.62309110000001],[-93.82499999999999,29.624748699999998],[-93.82499999999999,29.625],[-93.82197179999997,29.625],[-93.818128,29.625],[-93.81793299999998,29.625],[-93.81769910000003,29.625],[-93.81768670000002,29.625],[-93.81701709999999,29.625],[-93.8163677,29.625],[-93.81633520000003,29.625],[-93.81565330000001,29.625],[-93.81497130000002,29.625],[-93.81447300000002,29.625],[-93.8001974,29.625],[-93.7995831,29.625],[-93.77055739999997,29.625],[-93.76964550000002,29.625],[-93.7667255,29.625],[-93.75701450000003,29.625],[-93.75051860000002,29.625],[-93.75036949999998,29.625],[-93.75,29.625],[-93.75,29.624975600000027],[-93.75,29.624955699999987],[-93.75,29.62447179999998],[-93.75,29.619276300000024],[-93.75,29.612855500000023],[-93.75,29.600214199999982],[-93.75,29.576731499999994],[-93.75,29.554376400000024],[-93.75,29.553610900000024],[-93.75,29.552843800000005],[-93.75,29.55207660000002],[-93.75,29.551309500000002],[-93.75,29.55000000000001],[-93.77389419999997,29.55000000000001],[-93.77534759999998,29.55000000000001],[-93.77940699999999,29.55000000000001],[-93.78213099999999,29.55000000000001],[-93.79777109999998,29.55000000000001],[-93.79881749999998,29.55000000000001],[-93.79911609999999,29.55000000000001],[-93.7994549,29.55000000000001],[-93.80134470000002,29.55000000000001],[-93.8136897,29.55000000000001],[-93.8171236,29.55000000000001],[-93.82430140000002,29.55000000000001]]]}},{"type":"Feature","properties":{},"geometry":{"type":"Polygon","coordinates":[[[-93.74845959999999,29.55000000000001],[-93.75,29.55000000000001],[-93.75,29.551309500000002],[-93.75,29.55207660000002],[-93.75,29.552843800000005],[-93.75,29.553610900000024],[-93.75,29.554376400000024],[-93.75,29.576731499999994],[-93.75,29.600214199999982],[-93.75,29.612855500000023],[-93.75,29.619276300000024],[-93.75,29.62447179999998],[-93.75,29.624955699999987],[-93.75,29.624975600000027],[-93.75,29.625],[-93.74996370000002,29.625],[-93.7499613,29.625],[-93.74993590000003,29.625],[-93.749056,29.625],[-93.7432096,29.625],[-93.74182300000001,29.625],[-93.7407268,29.625],[-93.74072560000002,29.625],[-93.67500000000001,29.625],[-93.67500000000001,29.557549900000026],[-93.67500000000001,29.55000000000001],[-93.7103727,29.55000000000001],[-93.71889220000003,29.55000000000001],[-93.74485229999999,29.55000000000001],[-93.74575240000001,29.55000000000001],[-93.74665479999999,29.55000000000001],[-93.74755720000002,29.55000000000001],[-93.74845959999999,29.55000000000001]]]}},{"type":"Feature","properties":{},"geometry":{"type":"Polygon","coordinates":[[[-93.64236119999998,29.55000000000001],[-93.67500000000001,29.55000000000001],[-93.67500000000001,29.557549900000026],[-93.67500000000001,29.625],[-93.67309410000001,29.625],[-93.67309169999999,29.625],[-93.67309119999999,29.625],[-93.673089,29.625],[-93.67308600000001,29.625],[-93.61952760000003,29.625],[-93.61579089999998,29.625],[-93.60000000000002,29.625],[-93.60000000000002,29.603631199999995],[-93.60000000000002,29.60021499999999],[-93.60000000000002,29.57350359999998],[-93.60000000000002,29.565673100000026],[-93.60000000000002,29.5538856],[-93.60000000000002,29.553533500000015],[-93.60000000000002,29.553160600000012],[-93.60000000000002,29.55000000000001],[-93.61580830000003,29.55000000000001],[-93.62019959999998,29.55000000000001],[-93.62113920000002,29.55000000000001],[-93.64236119999998,29.55000000000001]]]}},{"type":"Feature","properties":{},"geometry":{"type":"Polygon","coordinates":[[[-93.85474090000002,29.69999999999999],[-93.85390719999998,29.69999999999999],[-93.8501602,29.69999999999999],[-93.85004909999998,29.69999999999999],[-93.84647319999999,29.69999999999999],[-93.845999,29.69999999999999],[-93.84552489999999,29.69999999999999],[-93.84547570000001,29.69999999999999],[-93.84529830000002,29.69999999999999],[-93.84490779999999,29.69999999999999],[-93.8445734,29.69999999999999],[-93.8439477,29.69999999999999],[-93.84269469999998,29.69999999999999],[-93.83958840000003,29.69999999999999],[-93.83942630000001,29.69999999999999],[-93.82766370000002,29.69999999999999],[-93.82499999999999,29.69999999999999],[-93.82499999999999,29.69842970000002],[-93.82499999999999,29.697937500000023],[-93.82499999999999,29.69761299999999],[-93.82499999999999,29.697268500000007],[-93.82499999999999,29.695558500000004],[-93.82499999999999,29.68728900000002],[-93.82499999999999,29.6756211],[-93.82499999999999,29.662308600000017],[-93.82499999999999,29.660000500000024],[-93.82499999999999,29.655629599999997],[-93.82499999999999,29.654962300000022],[-93.82499999999999,29.654561699999988],[-93.82499999999999,29.654535699999997],[-93.82499999999999,29.649933499999975],[-93.82499999999999,29.647309399999983],[-93.82499999999999,29.644885699999975],[-93.82499999999999,29.644405600000027],[-93.82499999999999,29.64415409999998],[-93.82499999999999,29.64403759999999],[-93.82499999999999,29.6440336],[-93.82499999999999,29.643178200000023],[-93.82499999999999,29.6430426],[-93.82499999999999,29.64174730000002],[-93.82499999999999,29.640346599999987],[-93.82499999999999,29.640316499999983],[-93.82499999999999,29.63714010000001],[-93.82499999999999,29.63540979999999],[-93.82499999999999,29.63260680000002],[-93.82499999999999,29.626236000000006],[-93.82499999999999,29.625],[-93.82575329999997,29.625],[-93.8299692,29.625],[-93.83869069999997,29.625],[-93.8501099,29.625],[-93.85499999999999,29.625],[-93.85499999999999,29.69999999999999],[-93.85474090000002,29.69999999999999]]]}},{"type":"Feature","properties":{},"geometry":{"type":"Polygon","coordinates":[[[-93.82474200000001,29.625],[-93.82499999999999,29.625],[-93.82499999999999,29.626236000000006],[-93.82499999999999,29.63260680000002],[-93.82499999999999,29.63540979999999],[-93.82499999999999,29.63714010000001],[-93.82499999999999,29.640316499999983],[-93.82499999999999,29.640346599999987],[-93.82499999999999,29.64174730000002],[-93.82499999999999,29.6430426],[-93.82499999999999,29.643178200000023],[-93.82499999999999,29.6440336],[-93.82499999999999,29.64403759999999],[-93.82499999999999,29.64415409999998],[-93.82499999999999,29.644405600000027],[-93.82499999999999,29.644885699999975],[-93.82499999999999,29.647309399999983],[-93.82499999999999,29.649933499999975],[-93.82499999999999,29.654535699999997],[-93.82499999999999,29.654561699999988],[-93.82499999999999,29.654962300000022],[-93.82499999999999,29.655629599999997],[-93.82499999999999,29.660000500000024],[-93.82499999999999,29.662308600000017],[-93.82499999999999,29.6756211],[-93.82499999999999,29.68728900000002],[-93.82499999999999,29.695558500000004],[-93.82499999999999,29.697268500000007],[-93.82499999999999,29.69761299999999],[-93.82499999999999,29.697937500000023],[-93.82499999999999,29.69842970000002],[-93.82499999999999,29.69999999999999],[-93.82140709999999,29.69999999999999],[-93.82059959999998,29.69999999999999],[-93.81884869999999,29.69999999999999],[-93.8187074,29.69999999999999],[-93.8073776,29.69999999999999],[-93.79666859999998,29.69999999999999],[-93.79500780000001,29.69999999999999],[-93.78063070000002,29.69999999999999],[-93.77445660000001,29.69999999999999],[-93.75,29.69999999999999],[-93.75,29.691694199999972],[-93.75,29.69162319999998],[-93.75,29.678707700000018],[-93.75,29.67793690000002],[-93.75,29.6778142],[-93.75,29.676462700000002],[-93.75,29.675625500000024],[-93.75,29.63361709999998],[-93.75,29.626674100000002],[-93.75,29.626350300000013],[-93.75,29.62587239999999],[-93.75,29.625690899999995],[-93.75,29.625519199999985],[-93.75,29.625],[-93.75036949999998,29.625],[-93.75051860000002,29.625],[-93.75701450000003,29.625],[-93.76672539999998,29.625],[-93.76964550000002,29.625],[-93.77055739999997,29.625],[-93.8001974,29.625],[-93.81447300000002,29.625],[-93.81497130000002,29.625],[-93.81565330000001,29.625],[-93.81633520000003,29.625],[-93.8163677,29.625],[-93.81701709999999,29.625],[-93.81768670000002,29.625],[-93.81769910000003,29.625],[-93.81793299999998,29.625],[-93.818128,29.625],[-93.82197179999997,29.625],[-93.82474200000001,29.625]]]}},{"type":"Feature","properties":{},"geometry":{"type":"Polygon","coordinates":[[[-93.84027709999998,29.774999999999977],[-93.83738410000001,29.774999999999977],[-93.82499999999999,29.774999999999977],[-93.82499999999999,29.708269299999984],[-93.82499999999999,29.704716599999983],[-93.82499999999999,29.701806499999975],[-93.82499999999999,29.69999999999999],[-93.82766370000002,29.69999999999999],[-93.83942630000001,29.69999999999999],[-93.83958840000003,29.69999999999999],[-93.84269469999998,29.69999999999999],[-93.8439477,29.69999999999999],[-93.8445734,29.69999999999999],[-93.84490779999999,29.69999999999999],[-93.84529830000002,29.69999999999999],[-93.84547570000001,29.69999999999999],[-93.84552489999999,29.69999999999999],[-93.845999,29.69999999999999],[-93.84647319999999,29.69999999999999],[-93.85004909999998,29.69999999999999],[-93.8501602,29.69999999999999],[-93.85390719999998,29.69999999999999],[-93.85474090000002,29.69999999999999],[-93.85499999999999,29.69999999999999],[-93.85499999999999,29.774999999999977],[-93.84027709999998,29.774999999999977]]]}},{"type":"Feature","properties":{},"geometry":{"type":"Polygon","coordinates":[[[-93.850413,29.92500000000001],[-93.82499999999999,29.92500000000001],[-93.82499999999999,29.909115199999974],[-93.82499999999999,29.850000000000023],[-93.85499999999999,29.850000000000023],[-93.85499999999999,29.92500000000001],[-93.850413,29.92500000000001]]]}}]}