{"type":"FeatureCollection","features":[{"type":"Feature","properties":{},"geometry":{"type":"Polygon","coordinates":[[[-95.32499999999999,29.761257],[-95.32499999999999,29.760196099999973],[-95.32499999999999,29.759971399999984],[-95.32499999999999,29.759888999999987],[-95.32499999999999,29.759884899999975],[-95.32499999999999,29.759882199999993],[-95.32499999999999,29.75972730000001],[-95.32499999999999,29.759674899999993],[-95.32499999999999,29.75944529999998],[-95.32499999999999,29.759366899999975],[-95.32499999999999,29.759284700000023],[-95.32499999999999,29.69999999999999],[-95.39999999999998,29.69999999999999],[-95.39999999999998,29.774999999999977],[-95.32499999999999,29.774999999999977],[-95.32499999999999,29.7638508],[-95.32499999999999,29.761257]]]}},{"type":"Feature","properties":{},"geometry":{"type":"Polygon","coordinates":[[[-95.2747402,29.69999999999999],[-95.32499999999999,29.69999999999999],[-95.32499999999999,29.759284700000023],[-95.32499999999999,29.759366899999975],[-95.32499999999999,29.75944529999998],[-95.32499999999999,29.759674899999993],[-95.32499999999999,29.75972730000001],[-95.32499999999999,29.759882199999993],[-95.32499999999999,29.759884899999975],[-95.32499999999999,29.759971399999984],[-95.32499999999999,29.760196099999973],[-95.32499999999999,29.761257],[-95.32499999999999,29.7638508],[-95.32499999999999,29.774999999999977],[-95.25,29.774999999999977],[-95.25,29.72353099999998],[-95.25,29.7234689],[-95.25,29.723375499999975],[-95.25,29.7231941],[-95.25,29.72291560000002],[-95.25,29.722585700000025],[-95.25,29.72226790000002],[-95.25,29.7219604],[-95.25,29.721661299999994],[-95.25,29.721613699999978],[-95.25,29.721497399999976],[-95.25,29.72141670000002],[-95.25,29.721368299999995],[-95.25,29.72129510000002],[-95.25,29.721241700000007],[-95.25,29.721224300000017],[-95.25,29.721178699999996],[-95.25,29.72110090000001],[-95.25,29.720992299999978],[-95.25,29.720933899999977],[-95.25,29.720927099999983],[-95.25,29.717722200000026],[-95.25,29.716447000000016],[-95.25,29.713353100000006],[-95.25,29.71320559999998],[-95.25,29.71317640000001],[-95.25,29.7131536],[-95.25,29.713126199999977],[-95.25,29.7131172],[-95.25,29.71309309999998],[-95.25,29.712906599999997],[-95.25,29.71287510000002],[-95.25,29.71283870000002],[-95.25,29.712795500000027],[-95.25,29.712745700000028],[-95.25,29.712691800000016],[-95.25,29.7126576],[-95.25,29.712614400000007],[-95.25,29.69999999999999],[-95.27287239999998,29.69999999999999],[-95.2747402,29.69999999999999]]]}},{"type":"Feature","properties":{},"geometry":{"type":"Polygon","coordinates":[[[-95.25,29.69999999999999],[-95.25,29.712614400000007],[-95.25,29.7126576],[-95.25,29.712691800000016],[-95.25,29.712745700000028],[-95.25,29.712795500000027],[-95.25,29.71283870000002],[-95.25,29.71287510000002],[-95.25,29.712906599999997],[-95.25,29.71309309999998],[-95.25,29.7131172],[-95.25,29.713126199999977],[-95.25,29.7131536],[-95.25,29.71317640000001],[-95.25,29.71320559999998],[-95.25,29.713353100000006],[-95.25,29.716447000000016],[-95.25,29.717722200000026],[-95.25,29.720927099999983],[-95.25,29.720933899999977],[-95.25,29.720992299999978],[-95.25,29.72110090000001],[-95.25,29.721178699999996],[-95.25,29.721224300000017],[-95.25,29.721241700000007],[-95.25,29.72129510000002],[-95.25,29.721368299999995],[-95.25,29.72141670000002],[-95.25,29.721497399999976],[-95.25,29.721613699999978],[-95.25,29.721661299999994],[-95.25,29.7219604],[-95.25,29.72226790000002],[-95.25,29.722585700000025],[-95.25,29.72291560000002],[-95.25,29.7231941],[-95.25,29.723375499999975],[-95.25,29.7234689],[-95.25,29.72353099999998],[-95.25,29.774999999999977],[-95.17500000000001,29.774999999999977],[-95.17500000000001,29.75404070000002],[-95.17500000000001,29.753833999999983],[-95.17500000000001,29.753667899999982],[-95.17500000000001,29.7536566],[-95.17500000000001,29.753477599999997],[-95.17500000000001,29.75336299999998],[-95.17500000000001,29.753321900000003],[-95.17500000000001,29.753246400000023],[-95.17500000000001,29.753096599999992],[-95.17500000000001,29.75302190000002],[-95.17500000000001,29.752943399999992],[-95.17500000000001,29.75280520000001],[-95.17500000000001,29.75277440000002],[-95.17500000000001,29.752700100000027],[-95.17500000000001,29.751865599999974],[-95.17500000000001,29.74951600000003],[-95.17500000000001,29.74939660000001],[-95.17500000000001,29.749362899999994],[-95.17500000000001,29.749242900000013],[-95.17500000000001,29.74919799999998],[-95.17500000000001,29.7490454],[-95.17500000000001,29.747687400000018],[-95.17500000000001,29.747662400000024],[-95.17500000000001,29.74749079999998],[-95.17500000000001,29.747292200000004],[-95.17500000000001,29.74717770000001],[-95.17500000000001,29.746969999999976],[-95.17500000000001,29.746762400000023],[-95.17500000000001,29.746554800000013],[-95.17500000000001,29.74634709999998],[-95.17500000000001,29.74624590000002],[-95.17500000000001,29.745966699999997],[-95.17500000000001,29.745802400000002],[-95.17500000000001,29.739675999999974],[-95.17500000000001,29.69999999999999],[-95.25,29.69999999999999]]]}},{"type":"Feature","properties":{},"geometry":{"type":"Polygon","coordinates":[[[-95.17500000000001,29.69999999999999],[-95.17500000000001,29.739675999999974],[-95.17500000000001,29.745802400000002],[-95.17500000000001,29.745966699999997],[-95.17500000000001,29.74624590000002],[-95.17500000000001,29.74634709999998],[-95.17500000000001,29.746554800000013],[-95.17500000000001,29.746762400000023],[-95.17500000000001,29.746969999999976],[-95.17500000000001,29.74717770000001],[-95.17500000000001,29.747292200000004],[-95.17500000000001,29.74749079999998],[-95.17500000000001,29.747662400000024],[-95.17500000000001,29.747687400000018],[-95.17500000000001,29.7490454],[-95.17500000000001,29.74919799999998],[-95.17500000000001,29.749242900000013],[-95.17500000000001,29.749362899999994],[-95.17500000000001,29.74939660000001],[-95.17500000000001,29.74951600000003],[-95.17500000000001,29.751865599999974],[-95.17500000000001,29.752700100000027],[-95.17500000000001,29.75277440000002],[-95.17500000000001,29.75280520000001],[-95.17500000000001,29.752943399999992],[-95.17500000000001,29.75302190000002],[-95.17500000000001,29.753096599999992],[-95.17500000000001,29.753246400000023],[-95.17500000000001,29.753321900000003],[-95.17500000000001,29.75336299999998],[-95.17500000000001,29.753477599999997],[-95.17500000000001,29.7536566],[-95.17500000000001,29.753667899999982],[-95.17500000000001,29.753833999999983],[-95.17500000000001,29.75404070000002],[-95.17500000000001,29.774999999999977],[-95.14500000000001,29.774999999999977],[-95.14500000000001,29.69999999999999],[-95.17500000000001,29.69999999999999]]]}},{"type":"Feature","properties":{},"geometry":{"type":"Polygon","coordinates":[[[-95.17500000000001,29.774999999999977],[-95.17500000000001,29.850000000000023],[-95.14500000000001,29.850000000000023],[-95.14500000000001,29.774999999999977],[-95.17500000000001,29.774999999999977]]]}}]}