{"type":"FeatureCollection","features":[{"type":"Feature","properties":{},"geometry":{"type":"Polygon","coordinates":[[[-92.02499999999998,29.69999999999999],[-92.02499999999998,29.774999999999977],[-91.995,29.774999999999977],[-91.995,29.69999999999999],[-92.02499999999998,29.69999999999999]]]}},{"type":"Feature","properties":{},"geometry":{"type":"Polygon","coordinates":[[[-92.24994959999998,29.69999999999999],[-92.25,29.69999999999999],[-92.25,29.707242000000008],[-92.25,29.721726999999987],[-92.25,29.721967600000028],[-92.25,29.722386599999993],[-92.25,29.722730899999988],[-92.25,29.737555699999973],[-92.25,29.74841570000001],[-92.25,29.756193999999994],[-92.25,29.756810799999982],[-92.25,29.757611800000006],[-92.25,29.774999999999977],[-92.1988662,29.774999999999977],[-92.19033730000001,29.774999999999977],[-92.1900713,29.774999999999977],[-92.1794534,29.774999999999977],[-92.17684730000002,29.774999999999977],[-92.17648480000003,29.774999999999977],[-92.17500000000001,29.774999999999977],[-92.17500000000001,29.774561100000028],[-92.17500000000001,29.773998300000017],[-92.17500000000001,29.772862599999996],[-92.17500000000001,29.77275709999998],[-92.17500000000001,29.772546299999988],[-92.17500000000001,29.772440899999992],[-92.17500000000001,29.771386600000028],[-92.17500000000001,29.760047600000007],[-92.17500000000001,29.759882000000005],[-92.17500000000001,29.759524499999998],[-92.17500000000001,29.75875050000002],[-92.17500000000001,29.7584377],[-92.17500000000001,29.753032500000018],[-92.17500000000001,29.752906699999983],[-92.17500000000001,29.75038840000002],[-92.17500000000001,29.74586640000001],[-92.17500000000001,29.745152899999994],[-92.17500000000001,29.741503000000023],[-92.17500000000001,29.739484800000014],[-92.17500000000001,29.715161599999988],[-92.17500000000001,29.705817000000025],[-92.17500000000001,29.69999999999999],[-92.20745090000003,29.69999999999999],[-92.20788779999998,29.69999999999999],[-92.2385064,29.69999999999999],[-92.24011009999998,29.69999999999999],[-92.2481421,29.69999999999999],[-92.2487739,29.69999999999999],[-92.24887369999999,29.69999999999999],[-92.24907339999999,29.69999999999999],[-92.2491733,29.69999999999999],[-92.24994959999998,29.69999999999999]]]}},{"type":"Feature","properties":{},"geometry":{"type":"Polygon","coordinates":[[[-92.16806789999998,29.69999999999999],[-92.17500000000001,29.69999999999999],[-92.17500000000001,29.705817000000025],[-92.17500000000001,29.715161599999988],[-92.17500000000001,29.739484800000014],[-92.17500000000001,29.741503000000023],[-92.17500000000001,29.745152899999994],[-92.17500000000001,29.74586640000001],[-92.17500000000001,29.75038840000002],[-92.17500000000001,29.752906699999983],[-92.17500000000001,29.753032500000018],[-92.17500000000001,29.7584377],[-92.17500000000001,29.75875050000002],[-92.17500000000001,29.759524499999998],[-92.17500000000001,29.759882000000005],[-92.17500000000001,29.760047600000007],[-92.17500000000001,29.771386600000028],[-92.17500000000001,29.772440899999992],[-92.17500000000001,29.772546299999988],[-92.17500000000001,29.77275709999998],[-92.17500000000001,29.772862599999996],[-92.17500000000001,29.773998300000017],[-92.17500000000001,29.774561100000028],[-92.17500000000001,29.774999999999977],[-92.17419510000002,29.774999999999977],[-92.17155129999998,29.774999999999977],[-92.17138119999998,29.774999999999977],[-92.171041,29.774999999999977],[-92.17087090000001,29.774999999999977],[-92.17069679999997,29.774999999999977],[-92.16974429999999,29.774999999999977],[-92.16355420000002,29.774999999999977],[-92.16265870000001,29.774999999999977],[-92.13829279999999,29.774999999999977],[-92.13611300000002,29.774999999999977],[-92.13593359999999,29.774999999999977],[-92.1359215,29.774999999999977],[-92.13484570000003,29.774999999999977],[-92.1348347,29.774999999999977],[-92.1347609,29.774999999999977],[-92.1347103,29.774999999999977],[-92.1332491,29.774999999999977],[-92.13128540000002,29.774999999999977],[-92.13087780000001,29.774999999999977],[-92.12544730000002,29.774999999999977],[-92.11403949999999,29.774999999999977],[-92.11373529999997,29.774999999999977],[-92.11121789999999,29.774999999999977],[-92.11078070000002,29.774999999999977],[-92.11045949999999,29.774999999999977],[-92.11023399999999,29.774999999999977],[-92.10575189999997,29.774999999999977],[-92.10546219999998,29.774999999999977],[-92.10000000000002,29.774999999999977],[-92.10000000000002,29.774616700000024],[-92.10000000000002,29.774295600000016],[-92.10000000000002,29.768923200000017],[-92.10000000000002,29.76872709999998],[-92.10000000000002,29.766433099999972],[-92.10000000000002,29.766206899999986],[-92.10000000000002,29.763761199999976],[-92.10000000000002,29.763248499999975],[-92.10000000000002,29.757941200000005],[-92.10000000000002,29.756904599999984],[-92.10000000000002,29.7487261],[-92.10000000000002,29.746166399999993],[-92.10000000000002,29.736296100000004],[-92.10000000000002,29.731426399999975],[-92.10000000000002,29.723767899999984],[-92.10000000000002,29.715954699999998],[-92.10000000000002,29.71503150000001],[-92.10000000000002,29.69999999999999],[-92.13703149999998,29.69999999999999],[-92.16316749999999,29.69999999999999],[-92.1649473,29.69999999999999],[-92.16806789999998,29.69999999999999]]]}},{"type":"Feature","properties":{},"geometry":{"type":"Polygon","coordinates":[[[-92.06521700000002,29.69999999999999],[-92.0668551,29.69999999999999],[-92.06865929999998,29.69999999999999],[-92.0703633,29.69999999999999],[-92.07594769999997,29.69999999999999],[-92.07841680000001,29.69999999999999],[-92.10000000000002,29.69999999999999],[-92.10000000000002,29.71503150000001],[-92.10000000000002,29.715954699999998],[-92.10000000000002,29.723767899999984],[-92.10000000000002,29.731426399999975],[-92.10000000000002,29.736296100000004],[-92.10000000000002,29.746166399999993],[-92.10000000000002,29.7487261],[-92.10000000000002,29.756904599999984],[-92.10000000000002,29.757941200000005],[-92.10000000000002,29.763248499999975],[-92.10000000000002,29.763761199999976],[-92.10000000000002,29.766206899999986],[-92.10000000000002,29.766433099999972],[-92.10000000000002,29.76872709999998],[-92.10000000000002,29.768923200000017],[-92.10000000000002,29.774295600000016],[-92.10000000000002,29.774616700000024],[-92.10000000000002,29.774999999999977],[-92.09549929999997,29.774999999999977],[-92.09296490000003,29.774999999999977],[-92.088348,29.774999999999977],[-92.08775609999998,29.774999999999977],[-92.0804794,29.774999999999977],[-92.08019910000002,29.774999999999977],[-92.07137360000002,29.774999999999977],[-92.07096619999999,29.774999999999977],[-92.06419879999999,29.774999999999977],[-92.05842439999998,29.774999999999977],[-92.05685469999997,29.774999999999977],[-92.0565042,29.774999999999977],[-92.0518032,29.774999999999977],[-92.0497517,29.774999999999977],[-92.04704720000001,29.774999999999977],[-92.0402044,29.774999999999977],[-92.03252149999997,29.774999999999977],[-92.03214329999997,29.774999999999977],[-92.02873690000001,29.774999999999977],[-92.02499999999998,29.774999999999977],[-92.02499999999998,29.76279440000002],[-92.02499999999998,29.76278259999998],[-92.02499999999998,29.69999999999999],[-92.06521700000002,29.69999999999999]]]}},{"type":"Feature","properties":{},"geometry":{"type":"Polygon","coordinates":[[[-92.39999999999998,29.77993859999998],[-92.39999999999998,29.820548400000007],[-92.39999999999998,29.828816399999994],[-92.39999999999998,29.838707899999974],[-92.39999999999998,29.850000000000023],[-92.39573760000002,29.850000000000023],[-92.39487409999998,29.850000000000023],[-92.39446120000002,29.850000000000023],[-92.39427030000002,29.850000000000023],[-92.39387850000003,29.850000000000023],[-92.3931197,29.850000000000023],[-92.380741,29.850000000000023],[-92.37792109999998,29.850000000000023],[-92.36297630000001,29.850000000000023],[-92.36234619999999,29.850000000000023],[-92.36171259999998,29.850000000000023],[-92.3610726,29.850000000000023],[-92.36034469999998,29.850000000000023],[-92.34397239999998,29.850000000000023],[-92.34243700000002,29.850000000000023],[-92.340488,29.850000000000023],[-92.32499999999999,29.850000000000023],[-92.32499999999999,29.841386699999987],[-92.32499999999999,29.841105200000015],[-92.32499999999999,29.840864699999997],[-92.32499999999999,29.840621199999987],[-92.32499999999999,29.840377400000023],[-92.32499999999999,29.830773899999997],[-92.32499999999999,29.82959390000002],[-92.32499999999999,29.802103799999998],[-92.32499999999999,29.786920399999985],[-92.32499999999999,29.786629800000014],[-92.32499999999999,29.774999999999977],[-92.39495979999998,29.774999999999977],[-92.39999999999998,29.774999999999977],[-92.39999999999998,29.77993859999998]]]}},{"type":"Feature","properties":{},"geometry":{"type":"Polygon","coordinates":[[[-92.31126160000002,29.774999999999977],[-92.31350889999999,29.774999999999977],[-92.31601469999998,29.774999999999977],[-92.31716610000001,29.774999999999977],[-92.3176714,29.774999999999977],[-92.32499999999999,29.774999999999977],[-92.32499999999999,29.786629800000014],[-92.32499999999999,29.786920399999985],[-92.32499999999999,29.802103799999998],[-92.32499999999999,29.82959390000002],[-92.32499999999999,29.830773899999997],[-92.32499999999999,29.840377400000023],[-92.32499999999999,29.840621199999987],[-92.32499999999999,29.840864699999997],[-92.32499999999999,29.841105200000015],[-92.32499999999999,29.841386699999987],[-92.32499999999999,29.850000000000023],[-92.30754130000003,29.850000000000023],[-92.30736259999998,29.850000000000023],[-92.290323,29.850000000000023],[-92.28998489999998,29.850000000000023],[-92.28217210000003,29.850000000000023],[-92.256644,29.850000000000023],[-92.25,29.850000000000023],[-92.25,29.849972200000025],[-92.25,29.846895000000018],[-92.25,29.80936220000001],[-92.25,29.80878560000002],[-92.25,29.80847670000003],[-92.25,29.808155399999976],[-92.25,29.803628300000014],[-92.25,29.803370500000028],[-92.25,29.80312329999998],[-92.25,29.802491299999986],[-92.25,29.80221770000003],[-92.25,29.80184270000001],[-92.25,29.80178269999999],[-92.25,29.79514230000001],[-92.25,29.794819700000005],[-92.25,29.79426000000001],[-92.25,29.79404840000001],[-92.25,29.774999999999977],[-92.26207640000001,29.774999999999977],[-92.26230229999999,29.774999999999977],[-92.2628623,29.774999999999977],[-92.30887109999998,29.774999999999977],[-92.3092785,29.774999999999977],[-92.31126160000002,29.774999999999977]]]}},{"type":"Feature","properties":{},"geometry":{"type":"Polygon","coordinates":[[[-92.1988662,29.774999999999977],[-92.25,29.774999999999977],[-92.25,29.79404840000001],[-92.25,29.79426000000001],[-92.25,29.794819700000005],[-92.25,29.79514230000001],[-92.25,29.80178269999999],[-92.25,29.80184270000001],[-92.25,29.80221770000003],[-92.25,29.802491299999986],[-92.25,29.80312329999998],[-92.25,29.803370500000028],[-92.25,29.803628300000014],[-92.25,29.808155399999976],[-92.25,29.80847670000003],[-92.25,29.80878560000002],[-92.25,29.80936220000001],[-92.25,29.846895000000018],[-92.25,29.849972200000025],[-92.25,29.850000000000023],[-92.2482872,29.850000000000023],[-92.17500000000001,29.850000000000023],[-92.17500000000001,29.84996289999998],[-92.17500000000001,29.84969669999998],[-92.17500000000001,29.800733400000013],[-92.17500000000001,29.799743499999977],[-92.17500000000001,29.790613500000006],[-92.17500000000001,29.78632060000001],[-92.17500000000001,29.784549700000014],[-92.17500000000001,29.78096579999999],[-92.17500000000001,29.779664200000013],[-92.17500000000001,29.779256799999985],[-92.17500000000001,29.776641100000006],[-92.17500000000001,29.77651450000002],[-92.17500000000001,29.77533779999999],[-92.17500000000001,29.77524390000002],[-92.17500000000001,29.774999999999977],[-92.17648480000003,29.774999999999977],[-92.17684730000002,29.774999999999977],[-92.1794534,29.774999999999977],[-92.1900713,29.774999999999977],[-92.19033730000001,29.774999999999977],[-92.1988662,29.774999999999977]]]}},{"type":"Feature","properties":{},"geometry":{"type":"Polygon","coordinates":[[[-92.17419510000002,29.774999999999977],[-92.17500000000001,29.774999999999977],[-92.17500000000001,29.77524390000002],[-92.17500000000001,29.77533779999999],[-92.17500000000001,29.77651450000002],[-92.17500000000001,29.776641100000006],[-92.17500000000001,29.779256799999985],[-92.17500000000001,29.779664200000013],[-92.17500000000001,29.78096579999999],[-92.17500000000001,29.784549700000014],[-92.17500000000001,29.78632060000001],[-92.17500000000001,29.790613500000006],[-92.17500000000001,29.799743499999977],[-92.17500000000001,29.800733400000013],[-92.17500000000001,29.84996289999998],[-92.17500000000001,29.850000000000023],[-92.17367630000001,29.850000000000023],[-92.1425562,29.850000000000023],[-92.12817949999999,29.850000000000023],[-92.127321,29.850000000000023],[-92.1267853,29.850000000000023],[-92.11706750000002,29.850000000000023],[-92.11482189999998,29.850000000000023],[-92.10000000000002,29.850000000000023],[-92.10000000000002,29.8487116],[-92.10000000000002,29.814181399999995],[-92.10000000000002,29.80260390000001],[-92.10000000000002,29.802556700000025],[-92.10000000000002,29.797901000000024],[-92.10000000000002,29.7951683],[-92.10000000000002,29.789566100000002],[-92.10000000000002,29.789280200000007],[-92.10000000000002,29.788989700000002],[-92.10000000000002,29.774999999999977],[-92.10546219999998,29.774999999999977],[-92.10575189999997,29.774999999999977],[-92.11023399999999,29.774999999999977],[-92.11045949999999,29.774999999999977],[-92.11078070000002,29.774999999999977],[-92.11121789999999,29.774999999999977],[-92.11373529999997,29.774999999999977],[-92.11403949999999,29.774999999999977],[-92.12544730000002,29.774999999999977],[-92.13087780000001,29.774999999999977],[-92.13128540000002,29.774999999999977],[-92.1332491,29.774999999999977],[-92.1347103,29.774999999999977],[-92.1347609,29.774999999999977],[-92.1348347,29.774999999999977],[-92.13484570000003,29.774999999999977],[-92.1359215,29.774999999999977],[-92.13593359999999,29.774999999999977],[-92.13611300000002,29.774999999999977],[-92.13829279999999,29.774999999999977],[-92.16265870000001,29.774999999999977],[-92.16355420000002,29.774999999999977],[-92.16974429999999,29.774999999999977],[-92.17069679999997,29.774999999999977],[-92.17087090000001,29.774999999999977],[-92.171041,29.774999999999977],[-92.17138119999998,29.774999999999977],[-92.17155129999998,29.774999999999977],[-92.17419510000002,29.774999999999977]]]}},{"type":"Feature","properties":{},"geometry":{"type":"Polygon","coordinates":[[[-92.09549929999997,29.774999999999977],[-92.10000000000002,29.774999999999977],[-92.10000000000002,29.788989700000002],[-92.10000000000002,29.789280200000007],[-92.10000000000002,29.789566100000002],[-92.10000000000002,29.7951683],[-92.10000000000002,29.797901000000024],[-92.10000000000002,29.802556700000025],[-92.10000000000002,29.80260390000001],[-92.10000000000002,29.814181399999995],[-92.10000000000002,29.8487116],[-92.10000000000002,29.850000000000023],[-92.02499999999998,29.850000000000023],[-92.02499999999998,29.847787799999992],[-92.02499999999998,29.84664140000001],[-92.02499999999998,29.84636790000002],[-92.02499999999998,29.84298990000002],[-92.02499999999998,29.842862799999978],[-92.02499999999998,29.83941379999999],[-92.02499999999998,29.83926789999998],[-92.02499999999998,29.835805499999992],[-92.02499999999998,29.835614299999975],[-92.02499999999998,29.828517999999974],[-92.02499999999998,29.828364599999986],[-92.02499999999998,29.822026400000027],[-92.02499999999998,29.819641199999978],[-92.02499999999998,29.81337689999998],[-92.02499999999998,29.813094999999976],[-92.02499999999998,29.809630900000002],[-92.02499999999998,29.808912899999996],[-92.02499999999998,29.795871299999988],[-92.02499999999998,29.795133799999974],[-92.02499999999998,29.79337509999999],[-92.02499999999998,29.790375400000016],[-92.02499999999998,29.784209499999974],[-92.02499999999998,29.780113200000017],[-92.02499999999998,29.77811270000001],[-92.02499999999998,29.774999999999977],[-92.02873690000001,29.774999999999977],[-92.03214329999997,29.774999999999977],[-92.03252149999997,29.774999999999977],[-92.0402044,29.774999999999977],[-92.04704720000001,29.774999999999977],[-92.0497517,29.774999999999977],[-92.0518032,29.774999999999977],[-92.0565042,29.774999999999977],[-92.05685469999997,29.774999999999977],[-92.05842439999998,29.774999999999977],[-92.06419879999999,29.774999999999977],[-92.07096619999999,29.774999999999977],[-92.07137360000002,29.774999999999977],[-92.08019910000002,29.774999999999977],[-92.0804794,29.774999999999977],[-92.08775609999998,29.774999999999977],[-92.088348,29.774999999999977],[-92.09296490000003,29.774999999999977],[-92.09549929999997,29.774999999999977]]]}},{"type":"Feature","properties":{},"geometry":{"type":"Polygon","coordinates":[[[-92.02499999999998,29.774999999999977],[-92.02499999999998,29.77811270000001],[-92.02499999999998,29.780113200000017],[-92.02499999999998,29.784209499999974],[-92.02499999999998,29.790375400000016],[-92.02499999999998,29.79337509999999],[-92.02499999999998,29.795133799999974],[-92.02499999999998,29.795871299999988],[-92.02499999999998,29.808912899999996],[-92.02499999999998,29.809630900000002],[-92.02499999999998,29.813094999999976],[-92.02499999999998,29.81337689999998],[-92.02499999999998,29.819641199999978],[-92.02499999999998,29.822026400000027],[-92.02499999999998,29.828364599999986],[-92.02499999999998,29.828517999999974],[-92.02499999999998,29.835614299999975],[-92.02499999999998,29.835805499999992],[-92.02499999999998,29.83926789999998],[-92.02499999999998,29.83941379999999],[-92.02499999999998,29.842862799999978],[-92.02499999999998,29.84298990000002],[-92.02499999999998,29.84636790000002],[-92.02499999999998,29.84664140000001],[-92.02499999999998,29.847787799999992],[-92.02499999999998,29.850000000000023],[-92.02217990000003,29.850000000000023],[-92.02210100000002,29.850000000000023],[-92.012969,29.850000000000023],[-92.01268520000002,29.850000000000023],[-91.995,29.850000000000023],[-91.995,29.774999999999977],[-92.02499999999998,29.774999999999977]]]}},{"type":"Feature","properties":{},"geometry":{"type":"Polygon","coordinates":[[[-92.67206529999999,29.850000000000023],[-92.69999999999999,29.850000000000023],[-92.69999999999999,29.87827520000002],[-92.69999999999999,29.880143799999985],[-92.69999999999999,29.8998421],[-92.69999999999999,29.908203800000024],[-92.69999999999999,29.908607599999982],[-92.69999999999999,29.912726700000007],[-92.69999999999999,29.913649299999975],[-92.69999999999999,29.915252099999975],[-92.69999999999999,29.92500000000001],[-92.654898,29.92500000000001],[-92.6448489,29.92500000000001],[-92.6444267,29.92500000000001],[-92.64029399999998,29.92500000000001],[-92.6384701,29.92500000000001],[-92.63805280000003,29.92500000000001],[-92.63523629999997,29.92500000000001],[-92.63375559999997,29.92500000000001],[-92.63330489999998,29.92500000000001],[-92.63286090000003,29.92500000000001],[-92.6304652,29.92500000000001],[-92.63037700000001,29.92500000000001],[-92.62998399999998,29.92500000000001],[-92.625,29.92500000000001],[-92.625,29.923158100000023],[-92.625,29.922690499999987],[-92.625,29.922409200000004],[-92.625,29.92233140000002],[-92.625,29.921964600000024],[-92.625,29.91880040000001],[-92.625,29.91520989999998],[-92.625,29.860279100000014],[-92.625,29.850000000000023],[-92.63138400000003,29.850000000000023],[-92.64756979999999,29.850000000000023],[-92.66099070000001,29.850000000000023],[-92.66183380000001,29.850000000000023],[-92.67206529999999,29.850000000000023]]]}},{"type":"Feature","properties":{},"geometry":{"type":"Polygon","coordinates":[[[-92.62304590000002,29.850000000000023],[-92.625,29.850000000000023],[-92.625,29.860279100000014],[-92.625,29.91520989999998],[-92.625,29.91880040000001],[-92.625,29.921964600000024],[-92.625,29.92233140000002],[-92.625,29.922409200000004],[-92.625,29.922690499999987],[-92.625,29.923158100000023],[-92.625,29.92500000000001],[-92.61507879999999,29.92500000000001],[-92.59353800000002,29.92500000000001],[-92.55000000000001,29.92500000000001],[-92.55000000000001,29.919483000000014],[-92.55000000000001,29.91268550000001],[-92.55000000000001,29.907397500000002],[-92.55000000000001,29.907220499999994],[-92.55000000000001,29.906971999999996],[-92.55000000000001,29.906737299999975],[-92.55000000000001,29.906600000000026],[-92.55000000000001,29.904365100000007],[-92.55000000000001,29.896448099999986],[-92.55000000000001,29.850000000000023],[-92.5698696,29.850000000000023],[-92.61410360000002,29.850000000000023],[-92.6143174,29.850000000000023],[-92.62304590000002,29.850000000000023]]]}},{"type":"Feature","properties":{},"geometry":{"type":"Polygon","coordinates":[[[-92.55000000000001,29.904365100000007],[-92.55000000000001,29.906600000000026],[-92.55000000000001,29.906737299999975],[-92.55000000000001,29.906971999999996],[-92.55000000000001,29.907220499999994],[-92.55000000000001,29.907397500000002],[-92.55000000000001,29.91268550000001],[-92.55000000000001,29.919483000000014],[-92.55000000000001,29.92500000000001],[-92.54732719999998,29.92500000000001],[-92.5287806,29.92500000000001],[-92.52568819999999,29.92500000000001],[-92.52407269999998,29.92500000000001],[-92.51414010000002,29.92500000000001],[-92.47500000000002,29.92500000000001],[-92.47500000000002,29.912816399999997],[-92.47500000000002,29.905161099999987],[-92.47500000000002,29.89677899999998],[-92.47500000000002,29.896271899999988],[-92.47500000000002,29.896021899999994],[-92.47500000000002,29.89577029999998],[-92.47500000000002,29.89553749999999],[-92.47500000000002,29.89534309999999],[-92.47500000000002,29.8948355],[-92.47500000000002,29.850000000000023],[-92.55000000000001,29.850000000000023],[-92.55000000000001,29.896448099999986],[-92.55000000000001,29.904365100000007]]]}},{"type":"Feature","properties":{},"geometry":{"type":"Polygon","coordinates":[[[-92.409647,29.850000000000023],[-92.47500000000002,29.850000000000023],[-92.47500000000002,29.8948355],[-92.47500000000002,29.89534309999999],[-92.47500000000002,29.89553749999999],[-92.47500000000002,29.89577029999998],[-92.47500000000002,29.896021899999994],[-92.47500000000002,29.896271899999988],[-92.47500000000002,29.89677899999998],[-92.47500000000002,29.905161099999987],[-92.47500000000002,29.912816399999997],[-92.47500000000002,29.92500000000001],[-92.46185400000002,29.92500000000001],[-92.4613971,29.92500000000001],[-92.44517050000002,29.92500000000001],[-92.42245020000001,29.92500000000001],[-92.42028649999997,29.92500000000001],[-92.4108741,29.92500000000001],[-92.39999999999998,29.92500000000001],[-92.39999999999998,29.91288270000001],[-92.39999999999998,29.911464599999988],[-92.39999999999998,29.90764630000001],[-92.39999999999998,29.9000762],[-92.39999999999998,29.897532000000012],[-92.39999999999998,29.895827300000008],[-92.39999999999998,29.885333000000003],[-92.39999999999998,29.885002900000018],[-92.39999999999998,29.8846906],[-92.39999999999998,29.88450119999999],[-92.39999999999998,29.88406309999999],[-92.39999999999998,29.878028400000005],[-92.39999999999998,29.877716899999996],[-92.39999999999998,29.850000000000023],[-92.40092220000002,29.850000000000023],[-92.409647,29.850000000000023]]]}},{"type":"Feature","properties":{},"geometry":{"type":"Polygon","coordinates":[[[-92.37792109999998,29.850000000000023],[-92.380741,29.850000000000023],[-92.3931197,29.850000000000023],[-92.39387850000003,29.850000000000023],[-92.39427030000002,29.850000000000023],[-92.39446120000002,29.850000000000023],[-92.39487409999998,29.850000000000023],[-92.39573760000002,29.850000000000023],[-92.39999999999998,29.850000000000023],[-92.39999999999998,29.877716899999996],[-92.39999999999998,29.878028400000005],[-92.39999999999998,29.88406309999999],[-92.39999999999998,29.88450119999999],[-92.39999999999998,29.8846906],[-92.39999999999998,29.885002900000018],[-92.39999999999998,29.885333000000003],[-92.39999999999998,29.895827300000008],[-92.39999999999998,29.897532000000012],[-92.39999999999998,29.9000762],[-92.39999999999998,29.90764630000001],[-92.39999999999998,29.911464599999988],[-92.39999999999998,29.91288270000001],[-92.39999999999998,29.92500000000001],[-92.32499999999999,29.92500000000001],[-92.32499999999999,29.878834799999993],[-92.32499999999999,29.850000000000023],[-92.340488,29.850000000000023],[-92.34243700000002,29.850000000000023],[-92.34397239999998,29.850000000000023],[-92.36034469999998,29.850000000000023],[-92.3610726,29.850000000000023],[-92.36171259999998,29.850000000000023],[-92.36234619999999,29.850000000000023],[-92.36297630000001,29.850000000000023],[-92.37792109999998,29.850000000000023]]]}},{"type":"Feature","properties":{},"geometry":{"type":"Polygon","coordinates":[[[-92.7888982,30.0],[-92.7815587,30.0],[-92.77813020000002,30.0],[-92.77499999999998,30.0],[-92.77499999999998,29.993442800000025],[-92.77499999999998,29.98600620000002],[-92.77499999999998,29.970467699999972],[-92.77499999999998,29.969404499999996],[-92.77499999999998,29.969098900000006],[-92.77499999999998,29.968837800000017],[-92.77499999999998,29.96857060000002],[-92.77499999999998,29.96826090000002],[-92.77499999999998,29.96729590000001],[-92.77499999999998,29.955759100000023],[-92.77499999999998,29.92500000000001],[-92.77972640000002,29.92500000000001],[-92.80499999999999,29.92500000000001],[-92.80499999999999,30.0],[-92.7888982,30.0]]]}},{"type":"Feature","properties":{},"geometry":{"type":"Polygon","coordinates":[[[-92.7139522,29.92500000000001],[-92.77499999999998,29.92500000000001],[-92.77499999999998,29.955759100000023],[-92.77499999999998,29.96729590000001],[-92.77499999999998,29.96826090000002],[-92.77499999999998,29.96857060000002],[-92.77499999999998,29.968837800000017],[-92.77499999999998,29.969098900000006],[-92.77499999999998,29.969404499999996],[-92.77499999999998,29.970467699999972],[-92.77499999999998,29.98600620000002],[-92.77499999999998,29.993442800000025],[-92.77499999999998,30.0],[-92.77044849999999,30.0],[-92.76074490000002,30.0],[-92.76036420000003,30.0],[-92.75923499999999,30.0],[-92.75586950000002,30.0],[-92.74920630000003,30.0],[-92.724737,30.0],[-92.69999999999999,30.0],[-92.69999999999999,29.99869560000002],[-92.69999999999999,29.990004999999996],[-92.69999999999999,29.987038600000005],[-92.69999999999999,29.970780900000022],[-92.69999999999999,29.969425],[-92.69999999999999,29.962698699999976],[-92.69999999999999,29.95044150000001],[-92.69999999999999,29.9461053],[-92.69999999999999,29.945846300000028],[-92.69999999999999,29.945524200000023],[-92.69999999999999,29.945364700000027],[-92.69999999999999,29.945044900000028],[-92.69999999999999,29.944842199999982],[-92.69999999999999,29.938092700000027],[-92.69999999999999,29.927902300000028],[-92.69999999999999,29.9271832],[-92.69999999999999,29.92500000000001],[-92.70703550000002,29.92500000000001],[-92.71031570000002,29.92500000000001],[-92.7139522,29.92500000000001]]]}},{"type":"Feature","properties":{},"geometry":{"type":"Polygon","coordinates":[[[-92.654898,29.92500000000001],[-92.69999999999999,29.92500000000001],[-92.69999999999999,29.9271832],[-92.69999999999999,29.927902300000028],[-92.69999999999999,29.938092700000027],[-92.69999999999999,29.944842199999982],[-92.69999999999999,29.945044900000028],[-92.69999999999999,29.945364700000027],[-92.69999999999999,29.945524200000023],[-92.69999999999999,29.945846300000028],[-92.69999999999999,29.9461053],[-92.69999999999999,29.95044150000001],[-92.69999999999999,29.962698699999976],[-92.69999999999999,29.969425],[-92.69999999999999,29.970780900000022],[-92.69999999999999,29.987038600000005],[-92.69999999999999,29.990004999999996],[-92.69999999999999,29.99869560000002],[-92.69999999999999,30.0],[-92.69890570000001,30.0],[-92.69722100000001,30.0],[-92.69377229999998,30.0],[-92.69194879999998,30.0],[-92.68984970000002,30.0],[-92.6771445,30.0],[-92.67560179999998,30.0],[-92.66748869999998,30.0],[-92.6594088,30.0],[-92.6583283,30.0],[-92.625,30.0],[-92.625,29.995053999999982],[-92.625,29.986377300000015],[-92.625,29.983344999999986],[-92.625,29.96540540000001],[-92.625,29.962344499999972],[-92.625,29.959791600000017],[-92.625,29.94679789999998],[-92.625,29.943585999999982],[-92.625,29.943238199999996],[-92.625,29.92641279999998],[-92.625,29.92500000000001],[-92.62998399999998,29.92500000000001],[-92.63037700000001,29.92500000000001],[-92.6304652,29.92500000000001],[-92.63286090000003,29.92500000000001],[-92.63330489999998,29.92500000000001],[-92.63375559999997,29.92500000000001],[-92.63523629999997,29.92500000000001],[-92.63805280000003,29.92500000000001],[-92.6384701,29.92500000000001],[-92.64029399999998,29.92500000000001],[-92.6444267,29.92500000000001],[-92.6448489,29.92500000000001],[-92.654898,29.92500000000001]]]}}]}