{"type":"FeatureCollection","features":[{"type":"Feature","properties":{},"geometry":{"type":"Polygon","coordinates":[[[-97.40812349999999,25.875],[-97.42500000000001,25.875],[-97.42500000000001,25.907070499999975],[-97.42500000000001,25.907915800000012],[-97.42500000000001,25.908202399999993],[-97.42500000000001,25.909017800000015],[-97.42500000000001,25.909877400000028],[-97.42500000000001,25.90995529999998],[-97.42500000000001,25.91067099999998],[-97.42500000000001,25.912121300000024],[-97.42500000000001,25.91266589999998],[-97.42500000000001,25.93648350000001],[-97.42500000000001,25.941404799999987],[-97.42500000000001,25.94293959999999],[-97.42500000000001,25.94999999999999],[-97.41576950000001,25.94999999999999],[-97.41293259999998,25.94999999999999],[-97.40485840000002,25.94999999999999],[-97.40197130000001,25.94999999999999],[-97.40193820000002,25.94999999999999],[-97.40188060000003,25.94999999999999],[-97.40167120000001,25.94999999999999],[-97.40142550000002,25.94999999999999],[-97.40087679999999,25.94999999999999],[-97.39845609999998,25.94999999999999],[-97.3981425,25.94999999999999],[-97.3980497,25.94999999999999],[-97.39799779999998,25.94999999999999],[-97.39390379999998,25.94999999999999],[-97.38755250000003,25.94999999999999],[-97.3785823,25.94999999999999],[-97.3779055,25.94999999999999],[-97.37772690000003,25.94999999999999],[-97.35000000000002,25.94999999999999],[-97.35000000000002,25.933578599999976],[-97.35000000000002,25.892304500000023],[-97.35000000000002,25.875],[-97.36822319999999,25.875],[-97.3916681,25.875],[-97.40812349999999,25.875]]]}},{"type":"Feature","properties":{},"geometry":{"type":"Polygon","coordinates":[[[-97.41576950000001,25.94999999999999],[-97.42500000000001,25.94999999999999],[-97.42500000000001,25.958999300000016],[-97.42500000000001,25.98093799999998],[-97.42500000000001,25.984589299999982],[-97.42500000000001,25.992531100000008],[-97.42500000000001,26.024999999999977],[-97.35000000000002,26.024999999999977],[-97.35000000000002,25.99594159999998],[-97.35000000000002,25.994494400000008],[-97.35000000000002,25.992782599999998],[-97.35000000000002,25.976358000000005],[-97.35000000000002,25.970710999999994],[-97.35000000000002,25.97058420000002],[-97.35000000000002,25.970394199999987],[-97.35000000000002,25.969777299999976],[-97.35000000000002,25.969623599999977],[-97.35000000000002,25.96940219999999],[-97.35000000000002,25.96925440000001],[-97.35000000000002,25.969192399999997],[-97.35000000000002,25.969180800000004],[-97.35000000000002,25.968959499999983],[-97.35000000000002,25.968738099999996],[-97.35000000000002,25.96861339999998],[-97.35000000000002,25.968504800000005],[-97.35000000000002,25.96836730000001],[-97.35000000000002,25.967689099999973],[-97.35000000000002,25.961146199999973],[-97.35000000000002,25.958383400000002],[-97.35000000000002,25.94999999999999],[-97.37772690000003,25.94999999999999],[-97.3779055,25.94999999999999],[-97.3785823,25.94999999999999],[-97.38755250000003,25.94999999999999],[-97.39390379999998,25.94999999999999],[-97.39799779999998,25.94999999999999],[-97.3980497,25.94999999999999],[-97.3981425,25.94999999999999],[-97.39845609999998,25.94999999999999],[-97.40087679999999,25.94999999999999],[-97.40142550000002,25.94999999999999],[-97.40167120000001,25.94999999999999],[-97.40188060000003,25.94999999999999],[-97.40193820000002,25.94999999999999],[-97.40197130000001,25.94999999999999],[-97.40485840000002,25.94999999999999],[-97.41293259999998,25.94999999999999],[-97.41576950000001,25.94999999999999]]]}},{"type":"Feature","properties":{},"geometry":{"type":"Polygon","coordinates":[[[-97.28104330000002,25.94999999999999],[-97.35000000000002,25.94999999999999],[-97.35000000000002,25.958383400000002],[-97.35000000000002,25.961146199999973],[-97.35000000000002,25.967689099999973],[-97.35000000000002,25.96836730000001],[-97.35000000000002,25.968504800000005],[-97.35000000000002,25.96861339999998],[-97.35000000000002,25.968738099999996],[-97.35000000000002,25.968959499999983],[-97.35000000000002,25.969180800000004],[-97.35000000000002,25.969192399999997],[-97.35000000000002,25.96925440000001],[-97.35000000000002,25.96940219999999],[-97.35000000000002,25.969623599999977],[-97.35000000000002,25.969777299999976],[-97.35000000000002,25.970394199999987],[-97.35000000000002,25.97058420000002],[-97.35000000000002,25.970710999999994],[-97.35000000000002,25.976358000000005],[-97.35000000000002,25.992782599999998],[-97.35000000000002,25.994494400000008],[-97.35000000000002,25.99594159999998],[-97.35000000000002,26.024999999999977],[-97.32339430000002,26.024999999999977],[-97.32289420000001,26.024999999999977],[-97.29620640000002,26.024999999999977],[-97.27499999999998,26.024999999999977],[-97.27499999999998,26.01611680000002],[-97.27499999999998,26.015719699999977],[-97.27499999999998,26.014171599999997],[-97.27499999999998,26.014023800000018],[-97.27499999999998,26.009186999999997],[-97.27499999999998,26.008934399999987],[-97.27499999999998,26.007683699999973],[-97.27499999999998,26.0074841],[-97.27499999999998,26.00723049999999],[-97.27499999999998,26.00712709999999],[-97.27499999999998,26.006924700000013],[-97.27499999999998,26.0067224],[-97.27499999999998,26.006703300000027],[-97.27499999999998,26.006520000000023],[-97.27499999999998,26.00631759999999],[-97.27499999999998,26.006120099999976],[-97.27499999999998,26.005961000000013],[-97.27499999999998,26.005843400000003],[-97.27499999999998,26.00566379999998],[-97.27499999999998,26.005232700000022],[-97.27499999999998,26.000921000000005],[-97.27499999999998,25.985139500000002],[-97.27499999999998,25.95666879999999],[-97.27499999999998,25.94999999999999],[-97.28104330000002,25.94999999999999]]]}},{"type":"Feature","properties":{},"geometry":{"type":"Polygon","coordinates":[[[-97.21107330000001,25.94999999999999],[-97.27499999999998,25.94999999999999],[-97.27499999999998,25.95666879999999],[-97.27499999999998,25.985139500000002],[-97.27499999999998,26.000921000000005],[-97.27499999999998,26.005232700000022],[-97.27499999999998,26.00566379999998],[-97.27499999999998,26.005843400000003],[-97.27499999999998,26.005961000000013],[-97.27499999999998,26.006120099999976],[-97.27499999999998,26.006191],[-97.27499999999998,26.00631759999999],[-97.27499999999998,26.006520000000023],[-97.27499999999998,26.0067224],[-97.27499999999998,26.006924700000013],[-97.27499999999998,26.00712709999999],[-97.27499999999998,26.00723049999999],[-97.27499999999998,26.0074841],[-97.27499999999998,26.007683699999973],[-97.27499999999998,26.008934399999987],[-97.27499999999998,26.009186999999997],[-97.27499999999998,26.014023800000018],[-97.27499999999998,26.014171599999997],[-97.27499999999998,26.015719699999977],[-97.27499999999998,26.01611680000002],[-97.27499999999998,26.024999999999977],[-97.27090470000002,26.024999999999977],[-97.25839480000002,26.024999999999977],[-97.25765100000001,26.024999999999977],[-97.25634910000002,26.024999999999977],[-97.24993640000002,26.024999999999977],[-97.24896030000002,26.024999999999977],[-97.2454363,26.024999999999977],[-97.2424014,26.024999999999977],[-97.24198189999998,26.024999999999977],[-97.2419463,26.024999999999977],[-97.24189469999999,26.024999999999977],[-97.24189289999998,26.024999999999977],[-97.24176449999999,26.024999999999977],[-97.2416978,26.024999999999977],[-97.24143450000003,26.024999999999977],[-97.2410486,26.024999999999977],[-97.24094350000001,26.024999999999977],[-97.24092769999999,26.024999999999977],[-97.24050849999998,26.024999999999977],[-97.24009519999998,26.024999999999977],[-97.24008930000002,26.024999999999977],[-97.23967010000001,26.024999999999977],[-97.23925100000002,26.024999999999977],[-97.23917569999998,26.024999999999977],[-97.23890349999999,26.024999999999977],[-97.23881019999999,26.024999999999977],[-97.23856660000001,26.024999999999977],[-97.23842580000002,26.024999999999977],[-97.23839249999997,26.024999999999977],[-97.23828789999999,26.024999999999977],[-97.2352095,26.024999999999977],[-97.2351276,26.024999999999977],[-97.2273621,26.024999999999977],[-97.22345230000002,26.024999999999977],[-97.2229805,26.024999999999977],[-97.2095003,26.024999999999977],[-97.20930449999997,26.024999999999977],[-97.2092667,26.024999999999977],[-97.19999999999999,26.024999999999977],[-97.19999999999999,26.012360699999988],[-97.19999999999999,25.98417699999999],[-97.19999999999999,25.983391700000027],[-97.19999999999999,25.9742708],[-97.19999999999999,25.972361200000023],[-97.19999999999999,25.970329900000024],[-97.19999999999999,25.96746680000001],[-97.19999999999999,25.96715640000002],[-97.19999999999999,25.962239699999998],[-97.19999999999999,25.95459870000002],[-97.19999999999999,25.94999999999999],[-97.21107330000001,25.94999999999999]]]}},{"type":"Feature","properties":{},"geometry":{"type":"Polygon","coordinates":[[[-97.27090470000002,26.024999999999977],[-97.27499999999998,26.024999999999977],[-97.27499999999998,26.02895510000002],[-97.27499999999998,26.04033670000001],[-97.27499999999998,26.04382290000001],[-97.27499999999998,26.048551900000007],[-97.27499999999998,26.054448700000023],[-97.27499999999998,26.059701800000028],[-97.27499999999998,26.08082760000002],[-97.27499999999998,26.089180399999975],[-97.27499999999998,26.09176580000002],[-97.27499999999998,26.09742080000001],[-97.27499999999998,26.100000000000023],[-97.26835390000002,26.100000000000023],[-97.21643189999998,26.100000000000023],[-97.2117366,26.100000000000023],[-97.20875940000002,26.100000000000023],[-97.20868009999998,26.100000000000023],[-97.20857719999998,26.100000000000023],[-97.20843020000001,26.100000000000023],[-97.20826190000002,26.100000000000023],[-97.20815520000002,26.100000000000023],[-97.20794180000001,26.100000000000023],[-97.20783510000001,26.100000000000023],[-97.20770540000001,26.100000000000023],[-97.2075949,26.100000000000023],[-97.19999999999999,26.100000000000023],[-97.19999999999999,26.091030199999977],[-97.19999999999999,26.089270899999974],[-97.19999999999999,26.089182900000026],[-97.19999999999999,26.089160400000026],[-97.19999999999999,26.08899359999998],[-97.19999999999999,26.086202800000024],[-97.19999999999999,26.086147700000026],[-97.19999999999999,26.08591610000002],[-97.19999999999999,26.085256800000025],[-97.19999999999999,26.08478839999998],[-97.19999999999999,26.084220700000003],[-97.19999999999999,26.083549300000016],[-97.19999999999999,26.08337130000001],[-97.19999999999999,26.083144600000026],[-97.19999999999999,26.082920300000012],[-97.19999999999999,26.082218599999976],[-97.19999999999999,26.0821866],[-97.19999999999999,26.08172639999998],[-97.19999999999999,26.081516399999998],[-97.19999999999999,26.081195700000023],[-97.19999999999999,26.0808174],[-97.19999999999999,26.07848100000001],[-97.19999999999999,26.078258800000015],[-97.19999999999999,26.07639039999998],[-97.19999999999999,26.076185199999998],[-97.19999999999999,26.074910699999975],[-97.19999999999999,26.074345199999982],[-97.19999999999999,26.074063299999978],[-97.19999999999999,26.07253129999998],[-97.19999999999999,26.072354800000028],[-97.19999999999999,26.072327200000018],[-97.19999999999999,26.072324900000012],[-97.19999999999999,26.072164799999996],[-97.19999999999999,26.072160699999984],[-97.19999999999999,26.072039599999982],[-97.19999999999999,26.07179309999998],[-97.19999999999999,26.07167149999998],[-97.19999999999999,26.071639300000015],[-97.19999999999999,26.07138040000001],[-97.19999999999999,26.071231899999987],[-97.19999999999999,26.071224700000016],[-97.19999999999999,26.070958099999984],[-97.19999999999999,26.070618200000013],[-97.19999999999999,26.0483064],[-97.19999999999999,26.04795180000002],[-97.19999999999999,26.047507699999983],[-97.19999999999999,26.047441300000003],[-97.19999999999999,26.047296099999983],[-97.19999999999999,26.047066799999982],[-97.19999999999999,26.046926900000017],[-97.19999999999999,26.046786999999995],[-97.19999999999999,26.04656030000001],[-97.19999999999999,26.046350800000027],[-97.19999999999999,26.046144700000013],[-97.19999999999999,26.04614429999998],[-97.19999999999999,26.045937700000025],[-97.19999999999999,26.045731100000012],[-97.19999999999999,26.04553709999999],[-97.19999999999999,26.045370699999978],[-97.19999999999999,26.04528240000002],[-97.19999999999999,26.045225800000026],[-97.19999999999999,26.044185900000002],[-97.19999999999999,26.043448599999977],[-97.19999999999999,26.04315969999999],[-97.19999999999999,26.037933099999975],[-97.19999999999999,26.032906500000024],[-97.19999999999999,26.032283800000016],[-97.19999999999999,26.024999999999977],[-97.2092667,26.024999999999977],[-97.20930449999997,26.024999999999977],[-97.2095003,26.024999999999977],[-97.2229805,26.024999999999977],[-97.22345230000002,26.024999999999977],[-97.2273621,26.024999999999977],[-97.2351276,26.024999999999977],[-97.2352095,26.024999999999977],[-97.23828789999999,26.024999999999977],[-97.23839249999997,26.024999999999977],[-97.23856660000001,26.024999999999977],[-97.23881019999999,26.024999999999977],[-97.23917569999998,26.024999999999977],[-97.23925100000002,26.024999999999977],[-97.23967010000001,26.024999999999977],[-97.24008930000002,26.024999999999977],[-97.24009519999998,26.024999999999977],[-97.24050849999998,26.024999999999977],[-97.24092769999999,26.024999999999977],[-97.24094350000001,26.024999999999977],[-97.2410486,26.024999999999977],[-97.24143450000003,26.024999999999977],[-97.24176449999999,26.024999999999977],[-97.24189469999999,26.024999999999977],[-97.24198189999998,26.024999999999977],[-97.2424014,26.024999999999977],[-97.2454363,26.024999999999977],[-97.24896030000002,26.024999999999977],[-97.24993640000002,26.024999999999977],[-97.25634910000002,26.024999999999977],[-97.25765100000001,26.024999999999977],[-97.25839480000002,26.024999999999977],[-97.27090470000002,26.024999999999977]]]}},{"type":"Feature","properties":{},"geometry":{"type":"Polygon","coordinates":[[[-97.1553467,25.94999999999999],[-97.19999999999999,25.94999999999999],[-97.19999999999999,25.95459870000002],[-97.19999999999999,25.962239699999998],[-97.19999999999999,25.96715640000002],[-97.19999999999999,25.96746680000001],[-97.19999999999999,25.970329900000024],[-97.19999999999999,25.972361200000023],[-97.19999999999999,25.9742708],[-97.19999999999999,25.983391700000027],[-97.19999999999999,25.98417699999999],[-97.19999999999999,26.012360699999988],[-97.19999999999999,26.024999999999977],[-97.1746963,26.024999999999977],[-97.17021169999998,26.024999999999977],[-97.16817459999999,26.024999999999977],[-97.15798289999998,26.024999999999977],[-97.15231779999999,26.024999999999977],[-97.15206710000001,26.024999999999977],[-97.15196500000002,26.024999999999977],[-97.15081040000001,26.024999999999977],[-97.1505846,26.024999999999977],[-97.14778059999998,26.024999999999977],[-97.14775350000002,26.024999999999977],[-97.14684249999999,26.024999999999977],[-97.14429380000001,26.024999999999977],[-97.14301139999998,26.024999999999977],[-97.13708309999998,26.024999999999977],[-97.13696270000003,26.024999999999977],[-97.13692320000001,26.024999999999977],[-97.135219,26.024999999999977],[-97.13256799999999,26.024999999999977],[-97.125,26.024999999999977],[-97.125,25.98573879999998],[-97.125,25.98573620000002],[-97.125,25.958135500000026],[-97.125,25.957774400000005],[-97.125,25.95740189999998],[-97.125,25.955594599999984],[-97.125,25.955000299999995],[-97.125,25.954726499999992],[-97.125,25.954446800000028],[-97.125,25.94999999999999],[-97.1283095,25.94999999999999],[-97.12936000000002,25.94999999999999],[-97.1343852,25.94999999999999],[-97.13536870000001,25.94999999999999],[-97.14131630000003,25.94999999999999],[-97.1439679,25.94999999999999],[-97.144744,25.94999999999999],[-97.14479269999998,25.94999999999999],[-97.14509900000002,25.94999999999999],[-97.15214689999999,25.94999999999999],[-97.1553467,25.94999999999999]]]}},{"type":"Feature","properties":{},"geometry":{"type":"Polygon","coordinates":[[[-97.1746963,26.024999999999977],[-97.19999999999999,26.024999999999977],[-97.19999999999999,26.032283800000016],[-97.19999999999999,26.032906500000024],[-97.19999999999999,26.037933099999975],[-97.19999999999999,26.04315969999999],[-97.19999999999999,26.043448599999977],[-97.19999999999999,26.044185900000002],[-97.19999999999999,26.045225800000026],[-97.19999999999999,26.04528240000002],[-97.19999999999999,26.045370699999978],[-97.19999999999999,26.04553709999999],[-97.19999999999999,26.045731100000012],[-97.19999999999999,26.045937700000025],[-97.19999999999999,26.04614429999998],[-97.19999999999999,26.046144700000013],[-97.19999999999999,26.046350800000027],[-97.19999999999999,26.04656030000001],[-97.19999999999999,26.046786999999995],[-97.19999999999999,26.046926900000017],[-97.19999999999999,26.047066799999982],[-97.19999999999999,26.047296099999983],[-97.19999999999999,26.047441300000003],[-97.19999999999999,26.047507699999983],[-97.19999999999999,26.04795180000002],[-97.19999999999999,26.0483064],[-97.19999999999999,26.070618200000013],[-97.19999999999999,26.070958099999984],[-97.19999999999999,26.071224700000016],[-97.19999999999999,26.071231899999987],[-97.19999999999999,26.07138040000001],[-97.19999999999999,26.071639300000015],[-97.19999999999999,26.07167149999998],[-97.19999999999999,26.07179309999998],[-97.19999999999999,26.072039599999982],[-97.19999999999999,26.072160699999984],[-97.19999999999999,26.072164799999996],[-97.19999999999999,26.072324900000012],[-97.19999999999999,26.072327200000018],[-97.19999999999999,26.072354800000028],[-97.19999999999999,26.07253129999998],[-97.19999999999999,26.074063299999978],[-97.19999999999999,26.074345199999982],[-97.19999999999999,26.074910699999975],[-97.19999999999999,26.076185199999998],[-97.19999999999999,26.07639039999998],[-97.19999999999999,26.078258800000015],[-97.19999999999999,26.07848100000001],[-97.19999999999999,26.0808174],[-97.19999999999999,26.081195700000023],[-97.19999999999999,26.081516399999998],[-97.19999999999999,26.08172639999998],[-97.19999999999999,26.0821866],[-97.19999999999999,26.082218599999976],[-97.19999999999999,26.082920300000012],[-97.19999999999999,26.083144600000026],[-97.19999999999999,26.08337130000001],[-97.19999999999999,26.083549300000016],[-97.19999999999999,26.084220700000003],[-97.19999999999999,26.08478839999998],[-97.19999999999999,26.085256800000025],[-97.19999999999999,26.08591610000002],[-97.19999999999999,26.086147700000026],[-97.19999999999999,26.086202800000024],[-97.19999999999999,26.08899359999998],[-97.19999999999999,26.089160400000026],[-97.19999999999999,26.089182900000026],[-97.19999999999999,26.089270899999974],[-97.19999999999999,26.091030199999977],[-97.19999999999999,26.100000000000023],[-97.19551480000001,26.100000000000023],[-97.19381010000001,26.100000000000023],[-97.1690408,26.100000000000023],[-97.16902099999999,26.100000000000023],[-97.16889629999997,26.100000000000023],[-97.1622281,26.100000000000023],[-97.1617607,26.100000000000023],[-97.16079869999999,26.100000000000023],[-97.16020889999999,26.100000000000023],[-97.15589269999998,26.100000000000023],[-97.15579100000002,26.100000000000023],[-97.1497665,26.100000000000023],[-97.1495256,26.100000000000023],[-97.14788470000002,26.100000000000023],[-97.14563370000002,26.100000000000023],[-97.1301727,26.100000000000023],[-97.125,26.100000000000023],[-97.125,26.08224230000002],[-97.125,26.081610000000012],[-97.125,26.08108120000003],[-97.125,26.077670099999978],[-97.125,26.068474400000014],[-97.125,26.067904],[-97.125,26.067847099999994],[-97.125,26.06675819999998],[-97.125,26.066650299999992],[-97.125,26.066443900000024],[-97.125,26.066237600000022],[-97.125,26.066199600000004],[-97.125,26.066031199999998],[-97.125,26.065824899999996],[-97.125,26.06559679999998],[-97.125,26.06558560000002],[-97.125,26.064684199999988],[-97.125,26.064670200000023],[-97.125,26.064585099999988],[-97.125,26.061500000000024],[-97.125,26.053756799999974],[-97.125,26.051317700000027],[-97.125,26.048437499999977],[-97.125,26.024999999999977],[-97.13256799999999,26.024999999999977],[-97.135219,26.024999999999977],[-97.13696270000003,26.024999999999977],[-97.13708309999998,26.024999999999977],[-97.14301139999998,26.024999999999977],[-97.14429380000001,26.024999999999977],[-97.14684249999999,26.024999999999977],[-97.14778059999998,26.024999999999977],[-97.1505846,26.024999999999977],[-97.15081040000001,26.024999999999977],[-97.15196500000002,26.024999999999977],[-97.15206710000001,26.024999999999977],[-97.15231779999999,26.024999999999977],[-97.15798289999998,26.024999999999977],[-97.16817459999999,26.024999999999977],[-97.17021169999998,26.024999999999977],[-97.1746963,26.024999999999977]]]}},{"type":"Feature","properties":{},"geometry":{"type":"Polygon","coordinates":[[[-97.12059640000001,26.024999999999977],[-97.125,26.024999999999977],[-97.125,26.048437499999977],[-97.125,26.051317700000027],[-97.125,26.053756799999974],[-97.125,26.061500000000024],[-97.125,26.064585099999988],[-97.125,26.064670200000023],[-97.125,26.064684199999988],[-97.125,26.06558560000002],[-97.125,26.06559679999998],[-97.125,26.065824899999996],[-97.125,26.066031199999998],[-97.125,26.066199600000004],[-97.125,26.066237600000022],[-97.125,26.066443900000024],[-97.125,26.066650299999992],[-97.125,26.06675819999998],[-97.125,26.067847099999994],[-97.125,26.067904],[-97.125,26.068474400000014],[-97.125,26.077670099999978],[-97.125,26.08108120000003],[-97.125,26.081610000000012],[-97.125,26.100000000000023],[-97.11833309999997,26.100000000000023],[-97.10313680000002,26.100000000000023],[-97.10210119999999,26.100000000000023],[-97.09539269999999,26.100000000000023],[-97.0748668,26.100000000000023],[-97.05000000000001,26.100000000000023],[-97.05000000000001,26.079188199999976],[-97.05000000000001,26.07608590000001],[-97.05000000000001,26.056603800000005],[-97.05000000000001,26.043540399999983],[-97.05000000000001,26.024999999999977],[-97.07951229999998,26.024999999999977],[-97.0960265,26.024999999999977],[-97.0968287,26.024999999999977],[-97.11546709999999,26.024999999999977],[-97.12059640000001,26.024999999999977]]]}},{"type":"Feature","properties":{},"geometry":{"type":"Polygon","coordinates":[[[-97.2683538,26.100000000000023],[-97.27499999999998,26.100000000000023],[-97.27499999999998,26.100377900000012],[-97.27499999999998,26.100383799999975],[-97.27499999999998,26.118031900000005],[-97.27499999999998,26.124862099999973],[-97.27499999999998,26.12670589999999],[-97.27499999999998,26.141800699999976],[-97.27499999999998,26.14712159999999],[-97.27499999999998,26.147457400000008],[-97.27499999999998,26.17500000000001],[-97.2578426,26.17500000000001],[-97.25761210000002,26.17500000000001],[-97.25236109999997,26.17500000000001],[-97.25041470000002,26.17500000000001],[-97.2502632,26.17500000000001],[-97.2501565,26.17500000000001],[-97.2500369,26.17500000000001],[-97.24994290000001,26.17500000000001],[-97.2498362,26.17500000000001],[-97.24974359999999,26.17500000000001],[-97.22659370000002,26.17500000000001],[-97.19999999999999,26.17500000000001],[-97.19999999999999,26.129246799999976],[-97.19999999999999,26.126344899999992],[-97.19999999999999,26.107740200000023],[-97.19999999999999,26.100000000000023],[-97.2075949,26.100000000000023],[-97.20770540000001,26.100000000000023],[-97.20783510000001,26.100000000000023],[-97.20794180000001,26.100000000000023],[-97.20801119999999,26.100000000000023],[-97.20815520000002,26.100000000000023],[-97.20826190000002,26.100000000000023],[-97.20843020000001,26.100000000000023],[-97.20857719999998,26.100000000000023],[-97.20868009999998,26.100000000000023],[-97.20875940000002,26.100000000000023],[-97.2117366,26.100000000000023],[-97.21643189999998,26.100000000000023],[-97.2683538,26.100000000000023]]]}},{"type":"Feature","properties":{},"geometry":{"type":"Polygon","coordinates":[[[-97.3412366,26.17500000000001],[-97.35000000000002,26.17500000000001],[-97.35000000000002,26.25],[-97.345753,26.25],[-97.34542629999999,26.25],[-97.33034190000001,26.25],[-97.3221886,26.25],[-97.32214379999999,26.25],[-97.32189679999999,26.25],[-97.3215346,26.25],[-97.3143187,26.25],[-97.31422650000002,26.25],[-97.31227109999998,26.25],[-97.31216139999998,26.25],[-97.30921110000003,26.25],[-97.30901390000002,26.25],[-97.3063287,26.25],[-97.3062127,26.25],[-97.3055147,26.25],[-97.28558379999998,26.25],[-97.28273200000001,26.25],[-97.28247850000002,26.25],[-97.28029370000002,26.25],[-97.27956440000003,26.25],[-97.27829700000001,26.25],[-97.27819690000001,26.25],[-97.27806340000001,26.25],[-97.2779966,26.25],[-97.2778965,26.25],[-97.27499999999998,26.25],[-97.27499999999998,26.241860499999973],[-97.27499999999998,26.241579100000024],[-97.27499999999998,26.241330300000016],[-97.27499999999998,26.241016300000013],[-97.27499999999998,26.240734999999972],[-97.27499999999998,26.23754919999999],[-97.27499999999998,26.236581],[-97.27499999999998,26.234906599999988],[-97.27499999999998,26.232706399999984],[-97.27499999999998,26.22991330000002],[-97.27499999999998,26.220921299999986],[-97.27499999999998,26.202446399999985],[-97.27499999999998,26.17500000000001],[-97.3001438,26.17500000000001],[-97.30350349999998,26.17500000000001],[-97.3070179,26.17500000000001],[-97.30732139999998,26.17500000000001],[-97.30759699999999,26.17500000000001],[-97.3081626,26.17500000000001],[-97.30886930000003,26.17500000000001],[-97.30915429999999,26.17500000000001],[-97.30949500000003,26.17500000000001],[-97.3412366,26.17500000000001]]]}},{"type":"Feature","properties":{},"geometry":{"type":"Polygon","coordinates":[[[-97.25761210000002,26.17500000000001],[-97.27499999999998,26.17500000000001],[-97.27499999999998,26.202446399999985],[-97.27499999999998,26.220921299999986],[-97.27499999999998,26.22991330000002],[-97.27499999999998,26.232706399999984],[-97.27499999999998,26.234906599999988],[-97.27499999999998,26.236581],[-97.27499999999998,26.23754919999999],[-97.27499999999998,26.240734999999972],[-97.27499999999998,26.241016300000013],[-97.27499999999998,26.241330300000016],[-97.27499999999998,26.241579100000024],[-97.27499999999998,26.241860499999973],[-97.27499999999998,26.25],[-97.19999999999999,26.25],[-97.19999999999999,26.233554099999992],[-97.19999999999999,26.17500000000001],[-97.2498362,26.17500000000001],[-97.24994290000001,26.17500000000001],[-97.2500369,26.17500000000001],[-97.2501565,26.17500000000001],[-97.2502632,26.17500000000001],[-97.25236109999997,26.17500000000001],[-97.25761210000002,26.17500000000001]]]}},{"type":"Feature","properties":{},"geometry":{"type":"Polygon","coordinates":[[[-97.345753,26.25],[-97.35000000000002,26.25],[-97.35000000000002,26.256733199999985],[-97.35000000000002,26.282556100000022],[-97.35000000000002,26.28280940000002],[-97.35000000000002,26.283377499999972],[-97.35000000000002,26.287843199999998],[-97.35000000000002,26.288912400000015],[-97.35000000000002,26.297637199999997],[-97.35000000000002,26.305085899999995],[-97.35000000000002,26.309403499999974],[-97.35000000000002,26.310872099999983],[-97.35000000000002,26.3114018],[-97.35000000000002,26.31782529999998],[-97.35000000000002,26.31866580000002],[-97.35000000000002,26.3240907],[-97.35000000000002,26.32499999999999],[-97.34971810000002,26.32499999999999],[-97.34912800000001,26.32499999999999],[-97.34478130000002,26.32499999999999],[-97.34146750000002,26.32499999999999],[-97.3405133,26.32499999999999],[-97.33640250000002,26.32499999999999],[-97.33510819999998,26.32499999999999],[-97.33480359999999,26.32499999999999],[-97.3325896,26.32499999999999],[-97.33005589999999,26.32499999999999],[-97.32820889999999,26.32499999999999],[-97.32786499999997,26.32499999999999],[-97.3277918,26.32499999999999],[-97.31681300000002,26.32499999999999],[-97.31401590000002,26.32499999999999],[-97.31320469999997,26.32499999999999],[-97.31193510000003,26.32499999999999],[-97.3115947,26.32499999999999],[-97.31138420000002,26.32499999999999],[-97.30910160000002,26.32499999999999],[-97.3089986,26.32499999999999],[-97.3088889,26.32499999999999],[-97.30879270000003,26.32499999999999],[-97.30868980000002,26.32499999999999],[-97.29300439999997,26.32499999999999],[-97.29246089999998,26.32499999999999],[-97.29225430000002,26.32499999999999],[-97.2922532,26.32499999999999],[-97.27499999999998,26.32499999999999],[-97.27499999999998,26.25],[-97.2778965,26.25],[-97.2779966,26.25],[-97.27806340000001,26.25],[-97.27819690000001,26.25],[-97.27829700000001,26.25],[-97.27956440000003,26.25],[-97.28029370000002,26.25],[-97.28247850000002,26.25],[-97.28273200000001,26.25],[-97.28558379999998,26.25],[-97.3055147,26.25],[-97.3062127,26.25],[-97.3063287,26.25],[-97.30901390000002,26.25],[-97.30921110000003,26.25],[-97.31216139999998,26.25],[-97.31227109999998,26.25],[-97.31422650000002,26.25],[-97.3143187,26.25],[-97.3215346,26.25],[-97.32189679999999,26.25],[-97.32214379999999,26.25],[-97.3221886,26.25],[-97.33034190000001,26.25],[-97.34542629999999,26.25],[-97.345753,26.25]]]}},{"type":"Feature","properties":{},"geometry":{"type":"Polygon","coordinates":[[[-97.27499999999998,26.25],[-97.27499999999998,26.32499999999999],[-97.22807310000002,26.32499999999999],[-97.20921299999998,26.32499999999999],[-97.20141919999998,26.32499999999999],[-97.20098619999999,26.32499999999999],[-97.20043049999998,26.32499999999999],[-97.19999999999999,26.32499999999999],[-97.19999999999999,26.323718699999972],[-97.19999999999999,26.323459000000014],[-97.19999999999999,26.32013790000002],[-97.19999999999999,26.318782399999975],[-97.19999999999999,26.309683199999995],[-97.19999999999999,26.30080939999999],[-97.19999999999999,26.29747420000001],[-97.19999999999999,26.297094300000026],[-97.19999999999999,26.29428630000001],[-97.19999999999999,26.291025900000022],[-97.19999999999999,26.285802400000023],[-97.19999999999999,26.253938800000014],[-97.19999999999999,26.25],[-97.27499999999998,26.25]]]}},{"type":"Feature","properties":{},"geometry":{"type":"Polygon","coordinates":[[[-97.34971810000002,26.32499999999999],[-97.35000000000002,26.32499999999999],[-97.35000000000002,26.353713700000014],[-97.35000000000002,26.353760299999976],[-97.35000000000002,26.356853899999976],[-97.35000000000002,26.35700989999998],[-97.35000000000002,26.357296799999972],[-97.35000000000002,26.35770389999999],[-97.35000000000002,26.357848100000012],[-97.35000000000002,26.358128899999997],[-97.35000000000002,26.358269199999995],[-97.35000000000002,26.358680600000014],[-97.35000000000002,26.361738100000025],[-97.35000000000002,26.361767799999996],[-97.35000000000002,26.36236550000001],[-97.35000000000002,26.36243780000001],[-97.35000000000002,26.366683299999977],[-97.35000000000002,26.3667557],[-97.35000000000002,26.370535800000027],[-97.35000000000002,26.370840499999986],[-97.35000000000002,26.399151599999982],[-97.35000000000002,26.399999999999977],[-97.3466027,26.399999999999977],[-97.34446329999997,26.399999999999977],[-97.34414989999999,26.399999999999977],[-97.343322,26.399999999999977],[-97.34286809999998,26.399999999999977],[-97.34276510000001,26.399999999999977],[-97.34259530000003,26.399999999999977],[-97.342559,26.399999999999977],[-97.34245600000003,26.399999999999977],[-97.3378937,26.399999999999977],[-97.27499999999998,26.399999999999977],[-97.27499999999998,26.37589489999999],[-97.27499999999998,26.375420299999973],[-97.27499999999998,26.32499999999999],[-97.2922532,26.32499999999999],[-97.29225430000002,26.32499999999999],[-97.29246089999998,26.32499999999999],[-97.29300439999997,26.32499999999999],[-97.30868980000002,26.32499999999999],[-97.30879270000003,26.32499999999999],[-97.3088889,26.32499999999999],[-97.3089986,26.32499999999999],[-97.30910160000002,26.32499999999999],[-97.31138420000002,26.32499999999999],[-97.3115947,26.32499999999999],[-97.31193510000003,26.32499999999999],[-97.31320469999997,26.32499999999999],[-97.31401590000002,26.32499999999999],[-97.31681300000002,26.32499999999999],[-97.3277918,26.32499999999999],[-97.32786499999997,26.32499999999999],[-97.32820889999999,26.32499999999999],[-97.33005589999999,26.32499999999999],[-97.3325896,26.32499999999999],[-97.33480359999999,26.32499999999999],[-97.33510819999998,26.32499999999999],[-97.33640250000002,26.32499999999999],[-97.3405133,26.32499999999999],[-97.34146750000002,26.32499999999999],[-97.34478130000002,26.32499999999999],[-97.34912800000001,26.32499999999999],[-97.34971810000002,26.32499999999999]]]}},{"type":"Feature","properties":{},"geometry":{"type":"Polygon","coordinates":[[[-97.22807310000002,26.32499999999999],[-97.27499999999998,26.32499999999999],[-97.27499999999998,26.375420299999973],[-97.27499999999998,26.37589489999999],[-97.27499999999998,26.399999999999977],[-97.24515509999998,26.399999999999977],[-97.2451297,26.399999999999977],[-97.23420850000002,26.399999999999977],[-97.22136119999999,26.399999999999977],[-97.22105040000002,26.399999999999977],[-97.22024060000001,26.399999999999977],[-97.2164798,26.399999999999977],[-97.21394980000002,26.399999999999977],[-97.20636589999998,26.399999999999977],[-97.19999999999999,26.399999999999977],[-97.19999999999999,26.37584659999999],[-97.19999999999999,26.349007200000017],[-97.19999999999999,26.339407900000026],[-97.19999999999999,26.32499999999999],[-97.20043049999998,26.32499999999999],[-97.20098619999999,26.32499999999999],[-97.20141919999998,26.32499999999999],[-97.20921299999998,26.32499999999999],[-97.22807310000002,26.32499999999999]]]}},{"type":"Feature","properties":{},"geometry":{"type":"Polygon","coordinates":[[[-97.4150727,26.399999999999977],[-97.42500000000001,26.399999999999977],[-97.42500000000001,26.412967999999978],[-97.42500000000001,26.41636390000002],[-97.42500000000001,26.4178005],[-97.42500000000001,26.422708999999998],[-97.42500000000001,26.424951599999986],[-97.42500000000001,26.4297105],[-97.42500000000001,26.432374900000013],[-97.42500000000001,26.436393199999998],[-97.42500000000001,26.439142600000025],[-97.42500000000001,26.450280599999985],[-97.42500000000001,26.45136839999998],[-97.42500000000001,26.452194899999995],[-97.42500000000001,26.45322859999999],[-97.42500000000001,26.460149600000022],[-97.42500000000001,26.46192480000002],[-97.42500000000001,26.46660830000002],[-97.42500000000001,26.46812490000002],[-97.42500000000001,26.474858299999994],[-97.42500000000001,26.475000000000023],[-97.4246766,26.475000000000023],[-97.41771699999998,26.475000000000023],[-97.40912179999998,26.475000000000023],[-97.40369129999999,26.475000000000023],[-97.38355410000003,26.475000000000023],[-97.38227160000002,26.475000000000023],[-97.38193369999999,26.475000000000023],[-97.38019450000002,26.475000000000023],[-97.37801869999998,26.475000000000023],[-97.3764281,26.475000000000023],[-97.3763252,26.475000000000023],[-97.37612630000001,26.475000000000023],[-97.3761192,26.475000000000023],[-97.37601619999998,26.475000000000023],[-97.35000000000002,26.475000000000023],[-97.35000000000002,26.416828699999996],[-97.35000000000002,26.416648599999974],[-97.35000000000002,26.416598599999986],[-97.35000000000002,26.416138199999978],[-97.35000000000002,26.415908100000024],[-97.35000000000002,26.41285959999999],[-97.35000000000002,26.411697500000002],[-97.35000000000002,26.411428899999976],[-97.35000000000002,26.409430799999996],[-97.35000000000002,26.409298999999976],[-97.35000000000002,26.403186000000005],[-97.35000000000002,26.40163769999998],[-97.35000000000002,26.399999999999977],[-97.3504954,26.399999999999977],[-97.35210999999998,26.399999999999977],[-97.35262610000001,26.399999999999977],[-97.35390330000001,26.399999999999977],[-97.3542731,26.399999999999977],[-97.3606327,26.399999999999977],[-97.36263179999997,26.399999999999977],[-97.37473699999998,26.399999999999977],[-97.385808,26.399999999999977],[-97.38886339999999,26.399999999999977],[-97.39020959999999,26.399999999999977],[-97.3915677,26.399999999999977],[-97.39329350000003,26.399999999999977],[-97.3942523,26.399999999999977],[-97.39439959999999,26.399999999999977],[-97.39474360000003,26.399999999999977],[-97.3949442,26.399999999999977],[-97.3954377,26.399999999999977],[-97.39579470000001,26.399999999999977],[-97.3959653,26.399999999999977],[-97.3971798,26.399999999999977],[-97.39877480000001,26.399999999999977],[-97.39976719999999,26.399999999999977],[-97.4021626,26.399999999999977],[-97.40336819999999,26.399999999999977],[-97.40360099999998,26.399999999999977],[-97.40503410000002,26.399999999999977],[-97.4150727,26.399999999999977]]]}},{"type":"Feature","properties":{},"geometry":{"type":"Polygon","coordinates":[[[-97.3466027,26.399999999999977],[-97.35000000000002,26.399999999999977],[-97.35000000000002,26.40163769999998],[-97.35000000000002,26.403186000000005],[-97.35000000000002,26.409298999999976],[-97.35000000000002,26.409430799999996],[-97.35000000000002,26.411428899999976],[-97.35000000000002,26.411697500000002],[-97.35000000000002,26.41285959999999],[-97.35000000000002,26.415908100000024],[-97.35000000000002,26.416138199999978],[-97.35000000000002,26.416598599999986],[-97.35000000000002,26.416648599999974],[-97.35000000000002,26.416828699999996],[-97.35000000000002,26.475000000000023],[-97.28382190000002,26.475000000000023],[-97.28380679999998,26.475000000000023],[-97.27499999999998,26.475000000000023],[-97.27499999999998,26.45199309999998],[-97.27499999999998,26.451969200000008],[-97.27499999999998,26.399999999999977],[-97.3378937,26.399999999999977],[-97.34245600000003,26.399999999999977],[-97.342559,26.399999999999977],[-97.34259530000003,26.399999999999977],[-97.34276510000001,26.399999999999977],[-97.34286809999998,26.399999999999977],[-97.343322,26.399999999999977],[-97.34414989999999,26.399999999999977],[-97.34446329999997,26.399999999999977],[-97.3466027,26.399999999999977]]]}},{"type":"Feature","properties":{},"geometry":{"type":"Polygon","coordinates":[[[-97.43358269999999,26.55000000000001],[-97.43259819999997,26.55000000000001],[-97.43203829999999,26.55000000000001],[-97.43167820000002,26.55000000000001],[-97.43147210000001,26.55000000000001],[-97.43131269999998,26.55000000000001],[-97.43122460000001,26.55000000000001],[-97.42500000000001,26.55000000000001],[-97.42500000000001,26.540334200000018],[-97.42500000000001,26.53558220000002],[-97.42500000000001,26.534537699999987],[-97.42500000000001,26.53167350000001],[-97.42500000000001,26.526016099999993],[-97.42500000000001,26.525595699999997],[-97.42500000000001,26.5255712],[-97.42500000000001,26.524899199999993],[-97.42500000000001,26.524470099999974],[-97.42500000000001,26.523980800000004],[-97.42500000000001,26.522805199999993],[-97.42500000000001,26.521608000000015],[-97.42500000000001,26.5213344],[-97.42500000000001,26.51997879999999],[-97.42500000000001,26.515334999999993],[-97.42500000000001,26.514336500000013],[-97.42500000000001,26.511097600000028],[-97.42500000000001,26.509821199999976],[-97.42500000000001,26.509362199999998],[-97.42500000000001,26.508597899999984],[-97.42500000000001,26.505581199999995],[-97.42500000000001,26.503370899999993],[-97.42500000000001,26.493887700000016],[-97.42500000000001,26.49189419999999],[-97.42500000000001,26.49167699999998],[-97.42500000000001,26.490009699999973],[-97.42500000000001,26.48834929999998],[-97.42500000000001,26.483471800000018],[-97.42500000000001,26.4780935],[-97.42500000000001,26.475000000000023],[-97.42952839999998,26.475000000000023],[-97.4313239,26.475000000000023],[-97.43278839999999,26.475000000000023],[-97.43552920000002,26.475000000000023],[-97.45415980000001,26.475000000000023],[-97.45527240000001,26.475000000000023],[-97.45538859999999,26.475000000000023],[-97.46088029999999,26.475000000000023],[-97.5,26.475000000000023],[-97.5,26.533667999999977],[-97.5,26.55000000000001],[-97.44423410000002,26.55000000000001],[-97.43358269999999,26.55000000000001]]]}},{"type":"Feature","properties":{},"geometry":{"type":"Polygon","coordinates":[[[-97.4246766,26.475000000000023],[-97.42500000000001,26.475000000000023],[-97.42500000000001,26.4780935],[-97.42500000000001,26.48251929999998],[-97.42500000000001,26.483471800000018],[-97.42500000000001,26.48834929999998],[-97.42500000000001,26.48894949999999],[-97.42500000000001,26.490009699999973],[-97.42500000000001,26.49167699999998],[-97.42500000000001,26.49189419999999],[-97.42500000000001,26.493887700000016],[-97.42500000000001,26.503370899999993],[-97.42500000000001,26.505581199999995],[-97.42500000000001,26.508597899999984],[-97.42500000000001,26.509362199999998],[-97.42500000000001,26.509821199999976],[-97.42500000000001,26.511097600000028],[-97.42500000000001,26.514336500000013],[-97.42500000000001,26.515334999999993],[-97.42500000000001,26.51997879999999],[-97.42500000000001,26.5213344],[-97.42500000000001,26.521608000000015],[-97.42500000000001,26.522805199999993],[-97.42500000000001,26.523980800000004],[-97.42500000000001,26.524470099999974],[-97.42500000000001,26.524899199999993],[-97.42500000000001,26.5255712],[-97.42500000000001,26.525595699999997],[-97.42500000000001,26.526016099999993],[-97.42500000000001,26.53167350000001],[-97.42500000000001,26.534537699999987],[-97.42500000000001,26.53558220000002],[-97.42500000000001,26.540334200000018],[-97.42500000000001,26.55000000000001],[-97.42228720000003,26.55000000000001],[-97.41830119999997,26.55000000000001],[-97.41718830000002,26.55000000000001],[-97.41596390000001,26.55000000000001],[-97.41467999999998,26.55000000000001],[-97.4138643,26.55000000000001],[-97.40954479999999,26.55000000000001],[-97.40623499999998,26.55000000000001],[-97.4061393,26.55000000000001],[-97.40604159999998,26.55000000000001],[-97.40594779999998,26.55000000000001],[-97.4058521,26.55000000000001],[-97.40371199999998,26.55000000000001],[-97.38684269999999,26.55000000000001],[-97.35000000000002,26.55000000000001],[-97.35000000000002,26.499989000000028],[-97.35000000000002,26.475000000000023],[-97.37601619999998,26.475000000000023],[-97.3761192,26.475000000000023],[-97.37612630000001,26.475000000000023],[-97.3763252,26.475000000000023],[-97.3764281,26.475000000000023],[-97.37801869999998,26.475000000000023],[-97.38019450000002,26.475000000000023],[-97.38193369999999,26.475000000000023],[-97.38227160000002,26.475000000000023],[-97.38355410000003,26.475000000000023],[-97.40369129999999,26.475000000000023],[-97.40912179999998,26.475000000000023],[-97.41771699999998,26.475000000000023],[-97.4246766,26.475000000000023]]]}},{"type":"Feature","properties":{},"geometry":{"type":"Polygon","coordinates":[[[-97.44423410000002,26.55000000000001],[-97.5,26.55000000000001],[-97.5,26.625],[-97.44923699999998,26.625],[-97.44688869999999,26.625],[-97.43988819999998,26.625],[-97.42500000000001,26.625],[-97.42500000000001,26.623109],[-97.42500000000001,26.59231729999999],[-97.42500000000001,26.58692239999999],[-97.42500000000001,26.5837856],[-97.42500000000001,26.56059640000001],[-97.42500000000001,26.559857899999997],[-97.42500000000001,26.559532900000022],[-97.42500000000001,26.558216399999992],[-97.42500000000001,26.557892600000002],[-97.42500000000001,26.557738200000017],[-97.42500000000001,26.55742600000002],[-97.42500000000001,26.557268000000022],[-97.42500000000001,26.557084999999972],[-97.42500000000001,26.55000000000001],[-97.43122460000001,26.55000000000001],[-97.43131269999998,26.55000000000001],[-97.43147210000001,26.55000000000001],[-97.43167820000002,26.55000000000001],[-97.43203829999999,26.55000000000001],[-97.43259819999997,26.55000000000001],[-97.43358269999999,26.55000000000001],[-97.44423410000002,26.55000000000001]]]}},{"type":"Feature","properties":{},"geometry":{"type":"Polygon","coordinates":[[[-97.42228720000003,26.55000000000001],[-97.42500000000001,26.55000000000001],[-97.42500000000001,26.556843200000003],[-97.42500000000001,26.55697889999999],[-97.42500000000001,26.557084999999972],[-97.42500000000001,26.557268000000022],[-97.42500000000001,26.55742600000002],[-97.42500000000001,26.557738200000017],[-97.42500000000001,26.557892600000002],[-97.42500000000001,26.558216399999992],[-97.42500000000001,26.559532900000022],[-97.42500000000001,26.559857899999997],[-97.42500000000001,26.56059640000001],[-97.42500000000001,26.560931600000004],[-97.42500000000001,26.5837856],[-97.42500000000001,26.58692239999999],[-97.42500000000001,26.59231729999999],[-97.42500000000001,26.623109],[-97.42500000000001,26.625],[-97.4235324,26.625],[-97.42014,26.625],[-97.4200396,26.625],[-97.41992090000002,26.625],[-97.41983879999998,26.625],[-97.4197385,26.625],[-97.41972559999999,26.625],[-97.41528929999998,26.625],[-97.4112571,26.625],[-97.40752939999999,26.625],[-97.3995415,26.625],[-97.36706179999999,26.625],[-97.35000000000002,26.625],[-97.35000000000002,26.613208600000007],[-97.35000000000002,26.591261599999996],[-97.35000000000002,26.561138700000015],[-97.35000000000002,26.561069799999984],[-97.35000000000002,26.560932200000025],[-97.35000000000002,26.560863299999994],[-97.35000000000002,26.559022400000003],[-97.35000000000002,26.558898399999975],[-97.35000000000002,26.557563399999992],[-97.35000000000002,26.556619099999978],[-97.35000000000002,26.553824099999986],[-97.35000000000002,26.55000000000001],[-97.38684269999999,26.55000000000001],[-97.40371199999998,26.55000000000001],[-97.4058521,26.55000000000001],[-97.40594779999998,26.55000000000001],[-97.40604159999998,26.55000000000001],[-97.4061393,26.55000000000001],[-97.40623499999998,26.55000000000001],[-97.40954479999999,26.55000000000001],[-97.4138643,26.55000000000001],[-97.41467999999998,26.55000000000001],[-97.41596390000001,26.55000000000001],[-97.41718830000002,26.55000000000001],[-97.41830119999997,26.55000000000001],[-97.42228720000003,26.55000000000001]]]}},{"type":"Feature","properties":{},"geometry":{"type":"Polygon","coordinates":[[[-97.33968720000001,26.55000000000001],[-97.35000000000002,26.55000000000001],[-97.35000000000002,26.553824099999986],[-97.35000000000002,26.556619099999978],[-97.35000000000002,26.557563399999992],[-97.35000000000002,26.558898399999975],[-97.35000000000002,26.559022400000003],[-97.35000000000002,26.560863299999994],[-97.35000000000002,26.560932200000025],[-97.35000000000002,26.561069799999984],[-97.35000000000002,26.561138700000015],[-97.35000000000002,26.591261599999996],[-97.35000000000002,26.613208600000007],[-97.35000000000002,26.625],[-97.33608609999999,26.625],[-97.32009799999997,26.625],[-97.3179677,26.625],[-97.31524530000002,26.625],[-97.31416469999999,26.625],[-97.30675969999999,26.625],[-97.3058388,26.625],[-97.29877879999998,26.625],[-97.29805720000002,26.625],[-97.29704529999998,26.625],[-97.29363139999998,26.625],[-97.29053390000001,26.625],[-97.28337850000003,26.625],[-97.27499999999998,26.625],[-97.27499999999998,26.601139699999976],[-97.27499999999998,26.5944801],[-97.27499999999998,26.577303099999995],[-97.27499999999998,26.571656599999983],[-97.27499999999998,26.570661200000018],[-97.27499999999998,26.56587350000001],[-97.27499999999998,26.56507210000001],[-97.27499999999998,26.564916400000016],[-97.27499999999998,26.564069599999982],[-97.27499999999998,26.56391739999998],[-97.27499999999998,26.563615200000015],[-97.27499999999998,26.56346530000002],[-97.27499999999998,26.563270199999977],[-97.27499999999998,26.56294650000001],[-97.27499999999998,26.562313399999994],[-97.27499999999998,26.55000000000001],[-97.27513809999999,26.55000000000001],[-97.27567800000003,26.55000000000001],[-97.28875679999999,26.55000000000001],[-97.29012649999999,26.55000000000001],[-97.2936555,26.55000000000001],[-97.32261019999999,26.55000000000001],[-97.33331390000001,26.55000000000001],[-97.33481949999998,26.55000000000001],[-97.33968720000001,26.55000000000001]]]}},{"type":"Feature","properties":{},"geometry":{"type":"Polygon","coordinates":[[[-97.2690546,26.55000000000001],[-97.27499999999998,26.55000000000001],[-97.27499999999998,26.562313399999994],[-97.27499999999998,26.56294650000001],[-97.27499999999998,26.563270199999977],[-97.27499999999998,26.56346530000002],[-97.27499999999998,26.563615200000015],[-97.27499999999998,26.56391739999998],[-97.27499999999998,26.564069599999982],[-97.27499999999998,26.564916400000016],[-97.27499999999998,26.56507210000001],[-97.27499999999998,26.56587350000001],[-97.27499999999998,26.570661200000018],[-97.27499999999998,26.571656599999983],[-97.27499999999998,26.577303099999995],[-97.27499999999998,26.5944801],[-97.27499999999998,26.601139699999976],[-97.27499999999998,26.625],[-97.24006229999998,26.625],[-97.23922770000001,26.625],[-97.2023072,26.625],[-97.19999999999999,26.625],[-97.19999999999999,26.615864999999985],[-97.19999999999999,26.608179699999994],[-97.19999999999999,26.605161699999996],[-97.19999999999999,26.603820499999983],[-97.19999999999999,26.55000000000001],[-97.21033460000001,26.55000000000001],[-97.21116740000002,26.55000000000001],[-97.25558319999999,26.55000000000001],[-97.2618971,26.55000000000001],[-97.2651285,26.55000000000001],[-97.265425,26.55000000000001],[-97.26821159999997,26.55000000000001],[-97.26866280000002,26.55000000000001],[-97.2690546,26.55000000000001]]]}},{"type":"Feature","properties":{},"geometry":{"type":"Polygon","coordinates":[[[-97.42500000000001,26.654087199999992],[-97.42500000000001,26.65266919999999],[-97.42500000000001,26.64829689999999],[-97.42500000000001,26.639863699999978],[-97.42500000000001,26.63958009999999],[-97.42500000000001,26.639342399999975],[-97.42500000000001,26.63901290000001],[-97.42500000000001,26.638729300000023],[-97.42500000000001,26.63742769999999],[-97.42500000000001,26.637417700000015],[-97.42500000000001,26.631342599999982],[-97.42500000000001,26.625],[-97.43988819999998,26.625],[-97.44623009999998,26.625],[-97.44688869999999,26.625],[-97.44923699999998,26.625],[-97.46819599999998,26.625],[-97.5,26.625],[-97.5,26.655],[-97.42500000000001,26.655],[-97.42500000000001,26.654087199999992]]]}},{"type":"Feature","properties":{},"geometry":{"type":"Polygon","coordinates":[[[-97.35000000000002,26.654161199999976],[-97.35000000000002,26.625],[-97.36706179999999,26.625],[-97.3995415,26.625],[-97.40752939999999,26.625],[-97.4112571,26.625],[-97.41528929999998,26.625],[-97.41972559999999,26.625],[-97.4197385,26.625],[-97.41983879999998,26.625],[-97.41992090000002,26.625],[-97.4200396,26.625],[-97.42014,26.625],[-97.4235324,26.625],[-97.42500000000001,26.625],[-97.42500000000001,26.631342599999982],[-97.42500000000001,26.637417700000015],[-97.42500000000001,26.63742769999999],[-97.42500000000001,26.638729300000023],[-97.42500000000001,26.63901290000001],[-97.42500000000001,26.639342399999975],[-97.42500000000001,26.63958009999999],[-97.42500000000001,26.639863699999978],[-97.42500000000001,26.64829689999999],[-97.42500000000001,26.65266919999999],[-97.42500000000001,26.654087199999992],[-97.42500000000001,26.655],[-97.35000000000002,26.655],[-97.35000000000002,26.654161199999976]]]}}]}