{"type":"FeatureCollection","features":[{"type":"Feature","properties":{},"geometry":{"type":"Polygon","coordinates":[[[-97.44423410000002,26.55000000000001],[-97.5,26.55000000000001],[-97.5,26.625],[-97.44923699999998,26.625],[-97.44688869999999,26.625],[-97.43988819999998,26.625],[-97.42500000000001,26.625],[-97.42500000000001,26.623109],[-97.42500000000001,26.59231729999999],[-97.42500000000001,26.58692239999999],[-97.42500000000001,26.5837856],[-97.42500000000001,26.56059640000001],[-97.42500000000001,26.559857899999997],[-97.42500000000001,26.559532900000022],[-97.42500000000001,26.558216399999992],[-97.42500000000001,26.557892600000002],[-97.42500000000001,26.557738200000017],[-97.42500000000001,26.55742600000002],[-97.42500000000001,26.557268000000022],[-97.42500000000001,26.557084999999972],[-97.42500000000001,26.55000000000001],[-97.43122460000001,26.55000000000001],[-97.43131269999998,26.55000000000001],[-97.43147210000001,26.55000000000001],[-97.43167820000002,26.55000000000001],[-97.43203829999999,26.55000000000001],[-97.43259819999997,26.55000000000001],[-97.43358269999999,26.55000000000001],[-97.44423410000002,26.55000000000001]]]}},{"type":"Feature","properties":{},"geometry":{"type":"Polygon","coordinates":[[[-97.42228720000003,26.55000000000001],[-97.42500000000001,26.55000000000001],[-97.42500000000001,26.556843200000003],[-97.42500000000001,26.55697889999999],[-97.42500000000001,26.557084999999972],[-97.42500000000001,26.557268000000022],[-97.42500000000001,26.55742600000002],[-97.42500000000001,26.557738200000017],[-97.42500000000001,26.557892600000002],[-97.42500000000001,26.558216399999992],[-97.42500000000001,26.559532900000022],[-97.42500000000001,26.559857899999997],[-97.42500000000001,26.56059640000001],[-97.42500000000001,26.560931600000004],[-97.42500000000001,26.5837856],[-97.42500000000001,26.58692239999999],[-97.42500000000001,26.59231729999999],[-97.42500000000001,26.623109],[-97.42500000000001,26.625],[-97.4235324,26.625],[-97.42014,26.625],[-97.4200396,26.625],[-97.41992090000002,26.625],[-97.41983879999998,26.625],[-97.4197385,26.625],[-97.41972559999999,26.625],[-97.41528929999998,26.625],[-97.4112571,26.625],[-97.40752939999999,26.625],[-97.3995415,26.625],[-97.36706179999999,26.625],[-97.35000000000002,26.625],[-97.35000000000002,26.613208600000007],[-97.35000000000002,26.591261599999996],[-97.35000000000002,26.561138700000015],[-97.35000000000002,26.561069799999984],[-97.35000000000002,26.560932200000025],[-97.35000000000002,26.560863299999994],[-97.35000000000002,26.559022400000003],[-97.35000000000002,26.558898399999975],[-97.35000000000002,26.557563399999992],[-97.35000000000002,26.556619099999978],[-97.35000000000002,26.553824099999986],[-97.35000000000002,26.55000000000001],[-97.38684269999999,26.55000000000001],[-97.40371199999998,26.55000000000001],[-97.4058521,26.55000000000001],[-97.40594779999998,26.55000000000001],[-97.40604159999998,26.55000000000001],[-97.4061393,26.55000000000001],[-97.40623499999998,26.55000000000001],[-97.40954479999999,26.55000000000001],[-97.4138643,26.55000000000001],[-97.41467999999998,26.55000000000001],[-97.41596390000001,26.55000000000001],[-97.41718830000002,26.55000000000001],[-97.41830119999997,26.55000000000001],[-97.42228720000003,26.55000000000001]]]}},{"type":"Feature","properties":{},"geometry":{"type":"Polygon","coordinates":[[[-97.33968720000001,26.55000000000001],[-97.35000000000002,26.55000000000001],[-97.35000000000002,26.553824099999986],[-97.35000000000002,26.556619099999978],[-97.35000000000002,26.557563399999992],[-97.35000000000002,26.558898399999975],[-97.35000000000002,26.559022400000003],[-97.35000000000002,26.560863299999994],[-97.35000000000002,26.560932200000025],[-97.35000000000002,26.561069799999984],[-97.35000000000002,26.561138700000015],[-97.35000000000002,26.591261599999996],[-97.35000000000002,26.613208600000007],[-97.35000000000002,26.625],[-97.33608609999999,26.625],[-97.32009799999997,26.625],[-97.3179677,26.625],[-97.31524530000002,26.625],[-97.31416469999999,26.625],[-97.30675969999999,26.625],[-97.3058388,26.625],[-97.29877879999998,26.625],[-97.29805720000002,26.625],[-97.29704529999998,26.625],[-97.29363139999998,26.625],[-97.29053390000001,26.625],[-97.28337850000003,26.625],[-97.27499999999998,26.625],[-97.27499999999998,26.601139699999976],[-97.27499999999998,26.5944801],[-97.27499999999998,26.577303099999995],[-97.27499999999998,26.571656599999983],[-97.27499999999998,26.570661200000018],[-97.27499999999998,26.56587350000001],[-97.27499999999998,26.56507210000001],[-97.27499999999998,26.564916400000016],[-97.27499999999998,26.564069599999982],[-97.27499999999998,26.56391739999998],[-97.27499999999998,26.563615200000015],[-97.27499999999998,26.56346530000002],[-97.27499999999998,26.563270199999977],[-97.27499999999998,26.56294650000001],[-97.27499999999998,26.562313399999994],[-97.27499999999998,26.55000000000001],[-97.27513809999999,26.55000000000001],[-97.27567800000003,26.55000000000001],[-97.28875679999999,26.55000000000001],[-97.29012649999999,26.55000000000001],[-97.2936555,26.55000000000001],[-97.32261019999999,26.55000000000001],[-97.33331390000001,26.55000000000001],[-97.33481949999998,26.55000000000001],[-97.33968720000001,26.55000000000001]]]}},{"type":"Feature","properties":{},"geometry":{"type":"Polygon","coordinates":[[[-97.2690546,26.55000000000001],[-97.27499999999998,26.55000000000001],[-97.27499999999998,26.562313399999994],[-97.27499999999998,26.56294650000001],[-97.27499999999998,26.563270199999977],[-97.27499999999998,26.56346530000002],[-97.27499999999998,26.563615200000015],[-97.27499999999998,26.56391739999998],[-97.27499999999998,26.564069599999982],[-97.27499999999998,26.564916400000016],[-97.27499999999998,26.56507210000001],[-97.27499999999998,26.56587350000001],[-97.27499999999998,26.570661200000018],[-97.27499999999998,26.571656599999983],[-97.27499999999998,26.577303099999995],[-97.27499999999998,26.5944801],[-97.27499999999998,26.601139699999976],[-97.27499999999998,26.625],[-97.24006229999998,26.625],[-97.23922770000001,26.625],[-97.2023072,26.625],[-97.19999999999999,26.625],[-97.19999999999999,26.615864999999985],[-97.19999999999999,26.608179699999994],[-97.19999999999999,26.605161699999996],[-97.19999999999999,26.603820499999983],[-97.19999999999999,26.55000000000001],[-97.21033460000001,26.55000000000001],[-97.21116740000002,26.55000000000001],[-97.25558319999999,26.55000000000001],[-97.2618971,26.55000000000001],[-97.2651285,26.55000000000001],[-97.265425,26.55000000000001],[-97.26821159999997,26.55000000000001],[-97.26866280000002,26.55000000000001],[-97.2690546,26.55000000000001]]]}},{"type":"Feature","properties":{},"geometry":{"type":"Polygon","coordinates":[[[-97.44923699999998,26.625],[-97.46819599999998,26.625],[-97.5,26.625],[-97.5,26.69999999999999],[-97.49200839999997,26.69999999999999],[-97.46673659999999,26.69999999999999],[-97.46614249999999,26.69999999999999],[-97.4654099,26.69999999999999],[-97.46210079999997,26.69999999999999],[-97.45784559999998,26.69999999999999],[-97.44668919999998,26.69999999999999],[-97.4465887,26.69999999999999],[-97.44647279999998,26.69999999999999],[-97.44638789999999,26.69999999999999],[-97.44628740000002,26.69999999999999],[-97.44346610000002,26.69999999999999],[-97.4416301,26.69999999999999],[-97.4379854,26.69999999999999],[-97.4335941,26.69999999999999],[-97.42981070000002,26.69999999999999],[-97.42500000000001,26.69999999999999],[-97.42500000000001,26.688059899999985],[-97.42500000000001,26.681037600000025],[-97.42500000000001,26.672972000000016],[-97.42500000000001,26.664268100000015],[-97.42500000000001,26.654087199999992],[-97.42500000000001,26.65266919999999],[-97.42500000000001,26.64829689999999],[-97.42500000000001,26.639863699999978],[-97.42500000000001,26.63958009999999],[-97.42500000000001,26.639342399999975],[-97.42500000000001,26.63901290000001],[-97.42500000000001,26.638729300000023],[-97.42500000000001,26.63742769999999],[-97.42500000000001,26.637417700000015],[-97.42500000000001,26.631342599999982],[-97.42500000000001,26.625],[-97.43988819999998,26.625],[-97.44623009999998,26.625],[-97.44688869999999,26.625],[-97.44923699999998,26.625]]]}},{"type":"Feature","properties":{},"geometry":{"type":"Polygon","coordinates":[[[-97.4235324,26.625],[-97.42500000000001,26.625],[-97.42500000000001,26.631342599999982],[-97.42500000000001,26.637417700000015],[-97.42500000000001,26.63742769999999],[-97.42500000000001,26.638729300000023],[-97.42500000000001,26.63901290000001],[-97.42500000000001,26.639342399999975],[-97.42500000000001,26.63958009999999],[-97.42500000000001,26.639863699999978],[-97.42500000000001,26.64829689999999],[-97.42500000000001,26.65266919999999],[-97.42500000000001,26.654087199999992],[-97.42500000000001,26.664268100000015],[-97.42500000000001,26.672972000000016],[-97.42500000000001,26.681037600000025],[-97.42500000000001,26.688059899999985],[-97.42500000000001,26.69999999999999],[-97.40015319999998,26.69999999999999],[-97.38994259999998,26.69999999999999],[-97.37273920000001,26.69999999999999],[-97.3601994,26.69999999999999],[-97.35707439999999,26.69999999999999],[-97.3566255,26.69999999999999],[-97.35000000000002,26.69999999999999],[-97.35000000000002,26.69555969999999],[-97.35000000000002,26.693687300000022],[-97.35000000000002,26.692205100000024],[-97.35000000000002,26.6900124],[-97.35000000000002,26.68924179999999],[-97.35000000000002,26.688983300000018],[-97.35000000000002,26.688367700000015],[-97.35000000000002,26.676880600000004],[-97.35000000000002,26.676604399999974],[-97.35000000000002,26.67418859999998],[-97.35000000000002,26.669155499999988],[-97.35000000000002,26.66754500000002],[-97.35000000000002,26.66433760000001],[-97.35000000000002,26.654161199999976],[-97.35000000000002,26.625],[-97.36706179999999,26.625],[-97.3995415,26.625],[-97.40752939999999,26.625],[-97.4112571,26.625],[-97.41528929999998,26.625],[-97.41972559999999,26.625],[-97.4197385,26.625],[-97.41983879999998,26.625],[-97.41992090000002,26.625],[-97.4200396,26.625],[-97.42014,26.625],[-97.4235324,26.625]]]}},{"type":"Feature","properties":{},"geometry":{"type":"Polygon","coordinates":[[[-97.46673659999999,26.69999999999999],[-97.5,26.69999999999999],[-97.5,26.774999999999977],[-97.49272789999998,26.774999999999977],[-97.4923875,26.774999999999977],[-97.4910241,26.774999999999977],[-97.49078220000001,26.774999999999977],[-97.48732810000001,26.774999999999977],[-97.48641049999998,26.774999999999977],[-97.48600320000003,26.774999999999977],[-97.48583869999999,26.774999999999977],[-97.48524450000002,26.774999999999977],[-97.4825649,26.774999999999977],[-97.47873720000001,26.774999999999977],[-97.47686599999997,26.774999999999977],[-97.47566749999999,26.774999999999977],[-97.47543760000002,26.774999999999977],[-97.47506579999998,26.774999999999977],[-97.47485940000001,26.774999999999977],[-97.46926359999998,26.774999999999977],[-97.465394,26.774999999999977],[-97.46529620000001,26.774999999999977],[-97.46523020000001,26.774999999999977],[-97.46510060000003,26.774999999999977],[-97.46500279999998,26.774999999999977],[-97.46286850000001,26.774999999999977],[-97.4568213,26.774999999999977],[-97.45180299999998,26.774999999999977],[-97.43028029999999,26.774999999999977],[-97.42500000000001,26.774999999999977],[-97.42500000000001,26.771183399999984],[-97.42500000000001,26.748236099999986],[-97.42500000000001,26.74336310000001],[-97.42500000000001,26.74115710000001],[-97.42500000000001,26.720736699999975],[-97.42500000000001,26.719672300000013],[-97.42500000000001,26.69999999999999],[-97.42981070000002,26.69999999999999],[-97.4335941,26.69999999999999],[-97.4379854,26.69999999999999],[-97.4416301,26.69999999999999],[-97.44346610000002,26.69999999999999],[-97.44628740000002,26.69999999999999],[-97.44638789999999,26.69999999999999],[-97.44647279999998,26.69999999999999],[-97.4465887,26.69999999999999],[-97.44668919999998,26.69999999999999],[-97.45784559999998,26.69999999999999],[-97.46210079999997,26.69999999999999],[-97.4654099,26.69999999999999],[-97.46614249999999,26.69999999999999],[-97.46673659999999,26.69999999999999]]]}},{"type":"Feature","properties":{},"geometry":{"type":"Polygon","coordinates":[[[-97.49272789999998,26.774999999999977],[-97.5,26.774999999999977],[-97.5,26.782167500000014],[-97.5,26.783802900000012],[-97.5,26.7848027],[-97.5,26.78509009999999],[-97.5,26.788455],[-97.5,26.789227799999992],[-97.5,26.78993939999998],[-97.5,26.790601200000026],[-97.5,26.7920613],[-97.5,26.796624099999974],[-97.5,26.797050599999977],[-97.5,26.79721169999999],[-97.5,26.79779769999999],[-97.5,26.803168000000028],[-97.5,26.804249700000014],[-97.5,26.8073617],[-97.5,26.818034099999977],[-97.5,26.83926919999999],[-97.5,26.839471899999978],[-97.5,26.84680639999999],[-97.5,26.847637599999985],[-97.5,26.848518599999977],[-97.5,26.849080500000014],[-97.5,26.850000000000023],[-97.49435440000002,26.850000000000023],[-97.49322469999998,26.850000000000023],[-97.49052569999998,26.850000000000023],[-97.48980460000001,26.850000000000023],[-97.48829869999997,26.850000000000023],[-97.4869602,26.850000000000023],[-97.48146600000001,26.850000000000023],[-97.4795393,26.850000000000023],[-97.47522070000002,26.850000000000023],[-97.46804179999998,26.850000000000023],[-97.4677977,26.850000000000023],[-97.4673009,26.850000000000023],[-97.46698450000002,26.850000000000023],[-97.46669609999998,26.850000000000023],[-97.46623340000002,26.850000000000023],[-97.466137,26.850000000000023],[-97.46605019999998,26.850000000000023],[-97.46594440000001,26.850000000000023],[-97.465848,26.850000000000023],[-97.46546849999999,26.850000000000023],[-97.46368539999997,26.850000000000023],[-97.461567,26.850000000000023],[-97.4365947,26.850000000000023],[-97.42500000000001,26.850000000000023],[-97.42500000000001,26.83219650000001],[-97.42500000000001,26.825032299999975],[-97.42500000000001,26.82104370000002],[-97.42500000000001,26.818415700000003],[-97.42500000000001,26.807125400000018],[-97.42500000000001,26.774999999999977],[-97.43028029999999,26.774999999999977],[-97.45180299999998,26.774999999999977],[-97.4568213,26.774999999999977],[-97.46286850000001,26.774999999999977],[-97.46500279999998,26.774999999999977],[-97.46510060000003,26.774999999999977],[-97.46523020000001,26.774999999999977],[-97.46529620000001,26.774999999999977],[-97.465394,26.774999999999977],[-97.46926359999998,26.774999999999977],[-97.47485940000001,26.774999999999977],[-97.47506579999998,26.774999999999977],[-97.47543760000002,26.774999999999977],[-97.47566749999999,26.774999999999977],[-97.47686599999997,26.774999999999977],[-97.47873720000001,26.774999999999977],[-97.4825649,26.774999999999977],[-97.48524450000002,26.774999999999977],[-97.48583869999999,26.774999999999977],[-97.48600320000003,26.774999999999977],[-97.48641049999998,26.774999999999977],[-97.48732810000001,26.774999999999977],[-97.49078220000001,26.774999999999977],[-97.4910241,26.774999999999977],[-97.4923875,26.774999999999977],[-97.49272789999998,26.774999999999977]]]}},{"type":"Feature","properties":{},"geometry":{"type":"Polygon","coordinates":[[[-97.49435440000002,26.850000000000023],[-97.5,26.850000000000023],[-97.5,26.850604799999985],[-97.5,26.851945100000023],[-97.5,26.855007100000023],[-97.5,26.85738759999998],[-97.5,26.8584204],[-97.5,26.858797100000004],[-97.5,26.859511999999995],[-97.5,26.85986889999998],[-97.5,26.860449500000016],[-97.5,26.871642800000018],[-97.5,26.87313690000002],[-97.5,26.874802199999976],[-97.5,26.875149399999998],[-97.5,26.8763323],[-97.5,26.87952949999999],[-97.5,26.88433550000002],[-97.5,26.884556099999998],[-97.5,26.886097699999993],[-97.5,26.88709080000001],[-97.5,26.88764120000002],[-97.5,26.888362700000016],[-97.5,26.891401099999996],[-97.5,26.895319500000028],[-97.5,26.895633999999973],[-97.5,26.9056865],[-97.5,26.905978300000015],[-97.5,26.906121999999982],[-97.5,26.90633220000001],[-97.5,26.90733469999998],[-97.5,26.90806470000001],[-97.5,26.90908680000001],[-97.5,26.90957739999999],[-97.5,26.92500000000001],[-97.4894471,26.92500000000001],[-97.48894419999999,26.92500000000001],[-97.48725519999999,26.92500000000001],[-97.48547259999998,26.92500000000001],[-97.4811861,26.92500000000001],[-97.48105750000002,26.92500000000001],[-97.48032490000003,26.92500000000001],[-97.48021670000003,26.92500000000001],[-97.48003510000001,26.92500000000001],[-97.47938049999999,26.92500000000001],[-97.47194109999998,26.92500000000001],[-97.46984809999998,26.92500000000001],[-97.46930350000002,26.92500000000001],[-97.46889970000001,26.92500000000001],[-97.46888009999998,26.92500000000001],[-97.4583374,26.92500000000001],[-97.45821760000001,26.92500000000001],[-97.45782500000001,26.92500000000001],[-97.4577286,26.92500000000001],[-97.45764459999998,26.92500000000001],[-97.45753580000002,26.92500000000001],[-97.4574394,26.92500000000001],[-97.4571391,26.92500000000001],[-97.45651079999999,26.92500000000001],[-97.45171490000001,26.92500000000001],[-97.43423489999998,26.92500000000001],[-97.42500000000001,26.92500000000001],[-97.42500000000001,26.88497269999999],[-97.42500000000001,26.878627100000017],[-97.42500000000001,26.878188299999977],[-97.42500000000001,26.877589999999998],[-97.42500000000001,26.877254100000016],[-97.42500000000001,26.876715900000022],[-97.42500000000001,26.876390800000024],[-97.42500000000001,26.87542450000001],[-97.42500000000001,26.8750584],[-97.42500000000001,26.874645999999984],[-97.42500000000001,26.87160160000002],[-97.42500000000001,26.862558700000022],[-97.42500000000001,26.850000000000023],[-97.4365947,26.850000000000023],[-97.461567,26.850000000000023],[-97.46368539999997,26.850000000000023],[-97.46546849999999,26.850000000000023],[-97.465848,26.850000000000023],[-97.46594440000001,26.850000000000023],[-97.46605019999998,26.850000000000023],[-97.466137,26.850000000000023],[-97.46623340000002,26.850000000000023],[-97.46669609999998,26.850000000000023],[-97.46698450000002,26.850000000000023],[-97.4673009,26.850000000000023],[-97.4677977,26.850000000000023],[-97.46804179999998,26.850000000000023],[-97.47522070000002,26.850000000000023],[-97.4795393,26.850000000000023],[-97.48146600000001,26.850000000000023],[-97.4869602,26.850000000000023],[-97.48829869999997,26.850000000000023],[-97.48980460000001,26.850000000000023],[-97.49052569999998,26.850000000000023],[-97.49322469999998,26.850000000000023],[-97.49435440000002,26.850000000000023]]]}},{"type":"Feature","properties":{},"geometry":{"type":"Polygon","coordinates":[[[-97.4894471,26.92500000000001],[-97.5,26.92500000000001],[-97.5,26.9799031],[-97.5,26.984631999999976],[-97.5,26.996553300000016],[-97.5,26.997237499999983],[-97.5,26.99999539999999],[-97.5,27.0],[-97.49999489999999,27.0],[-97.49854249999999,27.0],[-97.4975844,27.0],[-97.49694290000002,27.0],[-97.4966364,27.0],[-97.49507549999998,27.0],[-97.4937112,27.0],[-97.49145600000003,27.0],[-97.4899886,27.0],[-97.48672219999997,27.0],[-97.48351609999997,27.0],[-97.48274800000002,27.0],[-97.47434340000001,27.0],[-97.4720395,27.0],[-97.46982700000001,27.0],[-97.46967540000003,27.0],[-97.4678386,27.0],[-97.46168560000001,27.0],[-97.45101160000002,27.0],[-97.45043020000003,27.0],[-97.44940889999998,27.0],[-97.44931250000002,27.0],[-97.44921929999998,27.0],[-97.44911960000002,27.0],[-97.44902309999998,27.0],[-97.4486604,27.0],[-97.44800570000001,27.0],[-97.44318709999999,27.0],[-97.43188789999999,27.0],[-97.43046779999997,27.0],[-97.43041879999998,27.0],[-97.42500000000001,27.0],[-97.42500000000001,26.97390150000001],[-97.42500000000001,26.97385939999998],[-97.42500000000001,26.97220759999999],[-97.42500000000001,26.92500000000001],[-97.43423489999998,26.92500000000001],[-97.45171490000001,26.92500000000001],[-97.45651079999999,26.92500000000001],[-97.4571391,26.92500000000001],[-97.4574394,26.92500000000001],[-97.45753580000002,26.92500000000001],[-97.45764459999998,26.92500000000001],[-97.4577286,26.92500000000001],[-97.45782500000001,26.92500000000001],[-97.45821760000001,26.92500000000001],[-97.4583374,26.92500000000001],[-97.46888009999998,26.92500000000001],[-97.46889970000001,26.92500000000001],[-97.46930350000002,26.92500000000001],[-97.46984809999998,26.92500000000001],[-97.47194109999998,26.92500000000001],[-97.47938049999999,26.92500000000001],[-97.48003510000001,26.92500000000001],[-97.48021670000003,26.92500000000001],[-97.48032490000003,26.92500000000001],[-97.48105750000002,26.92500000000001],[-97.4811861,26.92500000000001],[-97.48547259999998,26.92500000000001],[-97.48725519999999,26.92500000000001],[-97.48894419999999,26.92500000000001],[-97.4894471,26.92500000000001]]]}},{"type":"Feature","properties":{},"geometry":{"type":"Polygon","coordinates":[[[-97.49999489999999,27.0],[-97.5,27.0],[-97.5,27.000687599999992],[-97.5,27.00101699999999],[-97.5,27.051340900000014],[-97.5,27.0521794],[-97.5,27.052278600000022],[-97.5,27.053032599999995],[-97.5,27.053250300000002],[-97.5,27.053560199999993],[-97.5,27.063417700000002],[-97.5,27.063740999999993],[-97.5,27.07499999999999],[-97.4931115,27.07499999999999],[-97.49244520000002,27.07499999999999],[-97.49149110000002,27.07499999999999],[-97.48395369999997,27.07499999999999],[-97.48288079999998,27.07499999999999],[-97.4799147,27.07499999999999],[-97.47885609999997,27.07499999999999],[-97.47793039999999,27.07499999999999],[-97.47743120000001,27.07499999999999],[-97.45422530000002,27.07499999999999],[-97.45062480000001,27.07499999999999],[-97.44480879999998,27.07499999999999],[-97.4444191,27.07499999999999],[-97.44432289999997,27.07499999999999],[-97.44425180000002,27.07499999999999],[-97.44413050000003,27.07499999999999],[-97.4440343,27.07499999999999],[-97.44373259999998,27.07499999999999],[-97.4434728,27.07499999999999],[-97.44331549999998,27.07499999999999],[-97.4411058,27.07499999999999],[-97.4391637,27.07499999999999],[-97.43244900000002,27.07499999999999],[-97.4321756,27.07499999999999],[-97.43214110000002,27.07499999999999],[-97.43151260000002,27.07499999999999],[-97.42611950000003,27.07499999999999],[-97.42500000000001,27.07499999999999],[-97.42500000000001,27.074952800000005],[-97.42500000000001,27.07286929999998],[-97.42500000000001,27.070935099999986],[-97.42500000000001,27.0],[-97.43041879999998,27.0],[-97.43046779999997,27.0],[-97.43188789999999,27.0],[-97.44318709999999,27.0],[-97.44800570000001,27.0],[-97.4486604,27.0],[-97.44902309999998,27.0],[-97.44911960000002,27.0],[-97.44921929999998,27.0],[-97.44931250000002,27.0],[-97.44940889999998,27.0],[-97.45043020000003,27.0],[-97.45101160000002,27.0],[-97.46168560000001,27.0],[-97.4678386,27.0],[-97.46967540000003,27.0],[-97.46982700000001,27.0],[-97.4720395,27.0],[-97.47434340000001,27.0],[-97.48274800000002,27.0],[-97.48351609999997,27.0],[-97.48672219999997,27.0],[-97.4899886,27.0],[-97.49145600000003,27.0],[-97.4937112,27.0],[-97.49507549999998,27.0],[-97.4966364,27.0],[-97.49694290000002,27.0],[-97.4975844,27.0],[-97.49854249999999,27.0],[-97.49999489999999,27.0]]]}},{"type":"Feature","properties":{},"geometry":{"type":"Polygon","coordinates":[[[-97.4931115,27.07499999999999],[-97.5,27.07499999999999],[-97.5,27.082375000000013],[-97.5,27.08320980000002],[-97.5,27.084218399999997],[-97.5,27.08456369999999],[-97.5,27.087279299999977],[-97.5,27.0876978],[-97.5,27.0878644],[-97.5,27.088515400000006],[-97.5,27.08907590000001],[-97.5,27.090279899999985],[-97.5,27.091194799999982],[-97.5,27.092446199999983],[-97.5,27.095362599999987],[-97.5,27.09658969999998],[-97.5,27.097525099999984],[-97.5,27.09855570000002],[-97.5,27.09947920000002],[-97.5,27.099502099999995],[-97.5,27.149999999999977],[-97.45191679999999,27.149999999999977],[-97.44720869999998,27.149999999999977],[-97.44686439999998,27.149999999999977],[-97.4446782,27.149999999999977],[-97.44400289999999,27.149999999999977],[-97.44385799999998,27.149999999999977],[-97.44353100000001,27.149999999999977],[-97.43837200000002,27.149999999999977],[-97.4382741,27.149999999999977],[-97.43819359999998,27.149999999999977],[-97.43807829999997,27.149999999999977],[-97.43798040000001,27.149999999999977],[-97.43757540000001,27.149999999999977],[-97.43653310000002,27.149999999999977],[-97.43334529999998,27.149999999999977],[-97.4332493,27.149999999999977],[-97.43263689999998,27.149999999999977],[-97.42834850000003,27.149999999999977],[-97.42500000000001,27.149999999999977],[-97.42500000000001,27.13650050000001],[-97.42500000000001,27.114905099999987],[-97.42500000000001,27.10449399999999],[-97.42500000000001,27.102779499999997],[-97.42500000000001,27.101906799999995],[-97.42500000000001,27.101619200000016],[-97.42500000000001,27.07550279999998],[-97.42500000000001,27.07499999999999],[-97.42611950000003,27.07499999999999],[-97.43151260000002,27.07499999999999],[-97.43214110000002,27.07499999999999],[-97.4321756,27.07499999999999],[-97.43244900000002,27.07499999999999],[-97.4391637,27.07499999999999],[-97.4411058,27.07499999999999],[-97.44331549999998,27.07499999999999],[-97.4434728,27.07499999999999],[-97.44373259999998,27.07499999999999],[-97.4440343,27.07499999999999],[-97.44413050000003,27.07499999999999],[-97.44425180000002,27.07499999999999],[-97.44432289999997,27.07499999999999],[-97.4444191,27.07499999999999],[-97.44480879999998,27.07499999999999],[-97.45062480000001,27.07499999999999],[-97.45422530000002,27.07499999999999],[-97.47743120000001,27.07499999999999],[-97.47793039999999,27.07499999999999],[-97.47885609999997,27.07499999999999],[-97.4799147,27.07499999999999],[-97.48288079999998,27.07499999999999],[-97.48395369999997,27.07499999999999],[-97.49149110000002,27.07499999999999],[-97.49244520000002,27.07499999999999],[-97.4931115,27.07499999999999]]]}},{"type":"Feature","properties":{},"geometry":{"type":"Polygon","coordinates":[[[-97.44216390000003,27.225000000000023],[-97.44119660000001,27.225000000000023],[-97.44095190000002,27.225000000000023],[-97.43416480000002,27.225000000000023],[-97.43004610000003,27.225000000000023],[-97.42897149999999,27.225000000000023],[-97.42500000000001,27.225000000000023],[-97.42500000000001,27.21157790000001],[-97.42500000000001,27.211173499999973],[-97.42500000000001,27.211126799999988],[-97.42500000000001,27.210224700000026],[-97.42500000000001,27.209773700000028],[-97.42500000000001,27.206195700000023],[-97.42500000000001,27.204678699999988],[-97.42500000000001,27.20210209999999],[-97.42500000000001,27.199497399999984],[-97.42500000000001,27.198720999999978],[-97.42500000000001,27.197279999999978],[-97.42500000000001,27.189608599999985],[-97.42500000000001,27.18414180000002],[-97.42500000000001,27.179913499999998],[-97.42500000000001,27.17933240000002],[-97.42500000000001,27.178526599999998],[-97.42500000000001,27.17671150000001],[-97.42500000000001,27.168634800000007],[-97.42500000000001,27.168609800000013],[-97.42500000000001,27.16765959999998],[-97.42500000000001,27.161746199999982],[-97.42500000000001,27.1600421],[-97.42500000000001,27.149999999999977],[-97.42834850000003,27.149999999999977],[-97.43263689999998,27.149999999999977],[-97.4332493,27.149999999999977],[-97.43334529999998,27.149999999999977],[-97.43653310000002,27.149999999999977],[-97.43757540000001,27.149999999999977],[-97.43798040000001,27.149999999999977],[-97.43807829999997,27.149999999999977],[-97.43819359999998,27.149999999999977],[-97.4382741,27.149999999999977],[-97.43837200000002,27.149999999999977],[-97.44353100000001,27.149999999999977],[-97.44385799999998,27.149999999999977],[-97.44400289999999,27.149999999999977],[-97.4446782,27.149999999999977],[-97.44686439999998,27.149999999999977],[-97.44720869999998,27.149999999999977],[-97.45191679999999,27.149999999999977],[-97.5,27.149999999999977],[-97.5,27.173306700000012],[-97.5,27.176047200000028],[-97.5,27.209315600000025],[-97.5,27.218148600000006],[-97.5,27.225000000000023],[-97.44716519999997,27.225000000000023],[-97.44216390000003,27.225000000000023]]]}},{"type":"Feature","properties":{},"geometry":{"type":"Polygon","coordinates":[[[-97.38837319999999,27.149999999999977],[-97.42500000000001,27.149999999999977],[-97.42500000000001,27.1600421],[-97.42500000000001,27.161746199999982],[-97.42500000000001,27.16765959999998],[-97.42500000000001,27.168609800000013],[-97.42500000000001,27.168634800000007],[-97.42500000000001,27.17671150000001],[-97.42500000000001,27.178526599999998],[-97.42500000000001,27.17933240000002],[-97.42500000000001,27.179913499999998],[-97.42500000000001,27.18414180000002],[-97.42500000000001,27.189608599999985],[-97.42500000000001,27.197279999999978],[-97.42500000000001,27.198720999999978],[-97.42500000000001,27.199497399999984],[-97.42500000000001,27.20210209999999],[-97.42500000000001,27.204678699999988],[-97.42500000000001,27.206195700000023],[-97.42500000000001,27.209773700000028],[-97.42500000000001,27.210224700000026],[-97.42500000000001,27.211126799999988],[-97.42500000000001,27.211173499999973],[-97.42500000000001,27.21157790000001],[-97.42500000000001,27.225000000000023],[-97.42208529999999,27.225000000000023],[-97.4220181,27.225000000000023],[-97.42198730000001,27.225000000000023],[-97.42179140000002,27.225000000000023],[-97.4216935,27.225000000000023],[-97.41887980000001,27.225000000000023],[-97.41711800000002,27.225000000000023],[-97.416201,27.225000000000023],[-97.41073089999998,27.225000000000023],[-97.40846749999997,27.225000000000023],[-97.3931154,27.225000000000023],[-97.38566709999998,27.225000000000023],[-97.3842689,27.225000000000023],[-97.3837939,27.225000000000023],[-97.38155440000003,27.225000000000023],[-97.37878269999999,27.225000000000023],[-97.3601352,27.225000000000023],[-97.35505010000003,27.225000000000023],[-97.3517263,27.225000000000023],[-97.35000000000002,27.225000000000023],[-97.35000000000002,27.19865729999998],[-97.35000000000002,27.198002400000007],[-97.35000000000002,27.15683489999998],[-97.35000000000002,27.149999999999977],[-97.35728719999997,27.149999999999977],[-97.36089240000001,27.149999999999977],[-97.36243960000002,27.149999999999977],[-97.36637130000003,27.149999999999977],[-97.37216419999999,27.149999999999977],[-97.38837319999999,27.149999999999977]]]}},{"type":"Feature","properties":{},"geometry":{"type":"Polygon","coordinates":[[[-97.42208529999999,27.225000000000023],[-97.42500000000001,27.225000000000023],[-97.42500000000001,27.241339100000005],[-97.42500000000001,27.24796120000002],[-97.42500000000001,27.249074699999994],[-97.42500000000001,27.259165800000005],[-97.42500000000001,27.263189099999977],[-97.42500000000001,27.267747199999974],[-97.42500000000001,27.274155300000018],[-97.42500000000001,27.29152670000002],[-97.42500000000001,27.30000000000001],[-97.42042980000002,27.30000000000001],[-97.418361,27.30000000000001],[-97.41790200000003,27.30000000000001],[-97.41610329999997,27.30000000000001],[-97.4153015,27.30000000000001],[-97.41511079999998,27.30000000000001],[-97.41151589999998,27.30000000000001],[-97.40855040000002,27.30000000000001],[-97.40579860000003,27.30000000000001],[-97.40570059999999,27.30000000000001],[-97.4056387,27.30000000000001],[-97.4055045,27.30000000000001],[-97.40540650000003,27.30000000000001],[-97.40339619999997,27.30000000000001],[-97.40246960000002,27.30000000000001],[-97.40186119999998,27.30000000000001],[-97.39953400000002,27.30000000000001],[-97.38611650000001,27.30000000000001],[-97.36686529999997,27.30000000000001],[-97.35000000000002,27.30000000000001],[-97.35000000000002,27.26819740000002],[-97.35000000000002,27.248352899999986],[-97.35000000000002,27.231387799999993],[-97.35000000000002,27.225000000000023],[-97.3517263,27.225000000000023],[-97.35505010000003,27.225000000000023],[-97.3601352,27.225000000000023],[-97.37878269999999,27.225000000000023],[-97.38155440000003,27.225000000000023],[-97.3837939,27.225000000000023],[-97.3842689,27.225000000000023],[-97.38566709999998,27.225000000000023],[-97.3931154,27.225000000000023],[-97.41073089999998,27.225000000000023],[-97.416201,27.225000000000023],[-97.41711800000002,27.225000000000023],[-97.41887980000001,27.225000000000023],[-97.4216935,27.225000000000023],[-97.42179140000002,27.225000000000023],[-97.42198730000001,27.225000000000023],[-97.4220181,27.225000000000023],[-97.42208529999999,27.225000000000023]]]}},{"type":"Feature","properties":{},"geometry":{"type":"Polygon","coordinates":[[[-97.42042980000002,27.30000000000001],[-97.42500000000001,27.30000000000001],[-97.42500000000001,27.302606799999978],[-97.42500000000001,27.30544020000002],[-97.42500000000001,27.3063851],[-97.42500000000001,27.316593599999976],[-97.42500000000001,27.317500199999984],[-97.42500000000001,27.318577800000014],[-97.42500000000001,27.318890099999976],[-97.42500000000001,27.31957940000001],[-97.42500000000001,27.375],[-97.38839009999998,27.375],[-97.38788549999998,27.375],[-97.3878545,27.375],[-97.38737309999999,27.375],[-97.38645430000003,27.375],[-97.38574369999998,27.375],[-97.37669949999997,27.375],[-97.37546659999998,27.375],[-97.37536319999998,27.375],[-97.37531410000003,27.375],[-97.37515639999998,27.375],[-97.37505299999998,27.375],[-97.37434059999998,27.375],[-97.37391300000002,27.375],[-97.37160540000002,27.375],[-97.37084950000002,27.375],[-97.37015689999998,27.375],[-97.36890829999999,27.375],[-97.35799609999998,27.375],[-97.35275910000001,27.375],[-97.35000000000002,27.375],[-97.35000000000002,27.30000000000001],[-97.36686529999997,27.30000000000001],[-97.38611650000001,27.30000000000001],[-97.39953400000002,27.30000000000001],[-97.40186119999998,27.30000000000001],[-97.40246960000002,27.30000000000001],[-97.40339619999997,27.30000000000001],[-97.40540650000003,27.30000000000001],[-97.4055045,27.30000000000001],[-97.4056387,27.30000000000001],[-97.40570059999999,27.30000000000001],[-97.40579860000003,27.30000000000001],[-97.40855040000002,27.30000000000001],[-97.41151589999998,27.30000000000001],[-97.41511079999998,27.30000000000001],[-97.4153015,27.30000000000001],[-97.41610329999997,27.30000000000001],[-97.41790200000003,27.30000000000001],[-97.418361,27.30000000000001],[-97.42042980000002,27.30000000000001]]]}},{"type":"Feature","properties":{},"geometry":{"type":"Polygon","coordinates":[[[-97.36434709999997,27.44999999999999],[-97.35213720000002,27.44999999999999],[-97.35000000000002,27.44999999999999],[-97.35000000000002,27.43920700000001],[-97.35000000000002,27.42524259999999],[-97.35000000000002,27.425039500000025],[-97.35000000000002,27.424763799999994],[-97.35000000000002,27.424633299999982],[-97.35000000000002,27.424430200000018],[-97.35000000000002,27.395175600000016],[-97.35000000000002,27.3899404],[-97.35000000000002,27.3821825],[-97.35000000000002,27.380727400000012],[-97.35000000000002,27.375],[-97.35275910000001,27.375],[-97.35799609999998,27.375],[-97.36890829999999,27.375],[-97.37015689999998,27.375],[-97.37084950000002,27.375],[-97.37160540000002,27.375],[-97.37391300000002,27.375],[-97.37434059999998,27.375],[-97.37505299999998,27.375],[-97.37515639999998,27.375],[-97.37531410000003,27.375],[-97.37536319999998,27.375],[-97.37546659999998,27.375],[-97.37669949999997,27.375],[-97.38574369999998,27.375],[-97.38645430000003,27.375],[-97.38737309999999,27.375],[-97.3878545,27.375],[-97.38788549999998,27.375],[-97.38839009999998,27.375],[-97.42500000000001,27.375],[-97.42500000000001,27.44999999999999],[-97.36530160000001,27.44999999999999],[-97.36434709999997,27.44999999999999]]]}},{"type":"Feature","properties":{},"geometry":{"type":"Polygon","coordinates":[[[-97.31675519999999,27.375],[-97.35000000000002,27.375],[-97.35000000000002,27.380727400000012],[-97.35000000000002,27.3821825],[-97.35000000000002,27.3899404],[-97.35000000000002,27.395175600000016],[-97.35000000000002,27.424430200000018],[-97.35000000000002,27.424633299999982],[-97.35000000000002,27.424763799999994],[-97.35000000000002,27.425039500000025],[-97.35000000000002,27.42524259999999],[-97.35000000000002,27.43920700000001],[-97.35000000000002,27.44999999999999],[-97.3429587,27.44999999999999],[-97.34295709999998,27.44999999999999],[-97.3408971,27.44999999999999],[-97.34048039999999,27.44999999999999],[-97.33958539999998,27.44999999999999],[-97.33907260000001,27.44999999999999],[-97.33703809999997,27.44999999999999],[-97.33693169999998,27.44999999999999],[-97.33682169999997,27.44999999999999],[-97.33671900000002,27.44999999999999],[-97.33661269999999,27.44999999999999],[-97.334655,27.44999999999999],[-97.33156209999999,27.44999999999999],[-97.3311081,27.44999999999999],[-97.3276811,27.44999999999999],[-97.32287639999998,27.44999999999999],[-97.32236230000001,27.44999999999999],[-97.32106629999998,27.44999999999999],[-97.286136,27.44999999999999],[-97.28028870000003,27.44999999999999],[-97.2768178,27.44999999999999],[-97.27499999999998,27.44999999999999],[-97.27499999999998,27.44640049999998],[-97.27499999999998,27.437812500000007],[-97.27499999999998,27.375],[-97.3007493,27.375],[-97.3019529,27.375],[-97.30749270000001,27.375],[-97.31115549999998,27.375],[-97.31675519999999,27.375]]]}},{"type":"Feature","properties":{},"geometry":{"type":"Polygon","coordinates":[[[-97.3429587,27.44999999999999],[-97.35000000000002,27.44999999999999],[-97.35000000000002,27.45550700000001],[-97.35000000000002,27.477214100000026],[-97.35000000000002,27.482700099999988],[-97.35000000000002,27.483011799999986],[-97.35000000000002,27.48513509999998],[-97.35000000000002,27.486095499999976],[-97.35000000000002,27.490357399999994],[-97.35000000000002,27.491633999999976],[-97.35000000000002,27.493058200000007],[-97.35000000000002,27.524999999999977],[-97.34061930000001,27.524999999999977],[-97.34030189999999,27.524999999999977],[-97.33919900000001,27.524999999999977],[-97.33894909999998,27.524999999999977],[-97.33882870000002,27.524999999999977],[-97.3279283,27.524999999999977],[-97.31843959999998,27.524999999999977],[-97.30859679999998,27.524999999999977],[-97.30812650000001,27.524999999999977],[-97.3050993,27.524999999999977],[-97.30428940000002,27.524999999999977],[-97.3039296,27.524999999999977],[-97.3016872,27.524999999999977],[-97.29907200000002,27.524999999999977],[-97.2988651,27.524999999999977],[-97.29870299999999,27.524999999999977],[-97.2977062,27.524999999999977],[-97.2975998,27.524999999999977],[-97.29753779999999,27.524999999999977],[-97.29738689999999,27.524999999999977],[-97.29728039999998,27.524999999999977],[-97.29580379999999,27.524999999999977],[-97.29569240000001,27.524999999999977],[-97.29551559999999,27.524999999999977],[-97.29369250000002,27.524999999999977],[-97.29324689999999,27.524999999999977],[-97.29263429999997,27.524999999999977],[-97.29041480000001,27.524999999999977],[-97.28912330000003,27.524999999999977],[-97.2854269,27.524999999999977],[-97.2840885,27.524999999999977],[-97.28059839999997,27.524999999999977],[-97.28018309999999,27.524999999999977],[-97.27964029999998,27.524999999999977],[-97.2769227,27.524999999999977],[-97.27499999999998,27.524999999999977],[-97.27499999999998,27.474036899999987],[-97.27499999999998,27.461361599999975],[-97.27499999999998,27.453604700000028],[-97.27499999999998,27.44999999999999],[-97.2768178,27.44999999999999],[-97.28028870000003,27.44999999999999],[-97.286136,27.44999999999999],[-97.32106629999998,27.44999999999999],[-97.32236230000001,27.44999999999999],[-97.32287639999998,27.44999999999999],[-97.3276811,27.44999999999999],[-97.3311081,27.44999999999999],[-97.33156209999999,27.44999999999999],[-97.334655,27.44999999999999],[-97.33661269999999,27.44999999999999],[-97.33671900000002,27.44999999999999],[-97.33682169999997,27.44999999999999],[-97.33693169999998,27.44999999999999],[-97.33703809999997,27.44999999999999],[-97.33907260000001,27.44999999999999],[-97.33958539999998,27.44999999999999],[-97.34048039999999,27.44999999999999],[-97.3408971,27.44999999999999],[-97.34295709999998,27.44999999999999],[-97.3429587,27.44999999999999]]]}},{"type":"Feature","properties":{},"geometry":{"type":"Polygon","coordinates":[[[-97.30118499999998,27.600000000000023],[-97.29957639999998,27.600000000000023],[-97.29876669999999,27.600000000000023],[-97.293523,27.600000000000023],[-97.29164020000002,27.600000000000023],[-97.28681060000002,27.600000000000023],[-97.28542629999998,27.600000000000023],[-97.28447240000003,27.600000000000023],[-97.2828404,27.600000000000023],[-97.27499999999998,27.600000000000023],[-97.27499999999998,27.59601170000002],[-97.27499999999998,27.595181000000025],[-97.27499999999998,27.594944499999997],[-97.27499999999998,27.59401969999999],[-97.27499999999998,27.5682592],[-97.27499999999998,27.568080500000008],[-97.27499999999998,27.568056300000023],[-97.27499999999998,27.56765059999998],[-97.27499999999998,27.567447700000002],[-97.27499999999998,27.56445819999999],[-97.27499999999998,27.564038299999993],[-97.27499999999998,27.563154999999995],[-97.27499999999998,27.563071999999977],[-97.27499999999998,27.561912500000005],[-97.27499999999998,27.5616258],[-97.27499999999998,27.561202100000003],[-97.27499999999998,27.559923099999992],[-97.27499999999998,27.559534400000018],[-97.27499999999998,27.559419300000002],[-97.27499999999998,27.55897090000002],[-97.27499999999998,27.5579932],[-97.27499999999998,27.545140600000025],[-97.27499999999998,27.538283999999976],[-97.27499999999998,27.538031100000012],[-97.27499999999998,27.53703710000002],[-97.27499999999998,27.52865350000002],[-97.27499999999998,27.524999999999977],[-97.2769227,27.524999999999977],[-97.27964029999998,27.524999999999977],[-97.28018309999999,27.524999999999977],[-97.28059839999997,27.524999999999977],[-97.2840885,27.524999999999977],[-97.2854269,27.524999999999977],[-97.28912330000003,27.524999999999977],[-97.29041480000001,27.524999999999977],[-97.29263429999997,27.524999999999977],[-97.29324689999999,27.524999999999977],[-97.29369250000002,27.524999999999977],[-97.29551559999999,27.524999999999977],[-97.29569240000001,27.524999999999977],[-97.29580379999999,27.524999999999977],[-97.29728039999998,27.524999999999977],[-97.29738689999999,27.524999999999977],[-97.29753779999999,27.524999999999977],[-97.2975998,27.524999999999977],[-97.2977062,27.524999999999977],[-97.29870299999999,27.524999999999977],[-97.2988651,27.524999999999977],[-97.29907200000002,27.524999999999977],[-97.3016872,27.524999999999977],[-97.3039296,27.524999999999977],[-97.30428940000002,27.524999999999977],[-97.3050993,27.524999999999977],[-97.30812650000001,27.524999999999977],[-97.30859679999998,27.524999999999977],[-97.31843959999998,27.524999999999977],[-97.3279283,27.524999999999977],[-97.33882870000002,27.524999999999977],[-97.33894909999998,27.524999999999977],[-97.33919900000001,27.524999999999977],[-97.34030189999999,27.524999999999977],[-97.34061930000001,27.524999999999977],[-97.35000000000002,27.524999999999977],[-97.35000000000002,27.600000000000023],[-97.30336080000001,27.600000000000023],[-97.30118499999998,27.600000000000023]]]}},{"type":"Feature","properties":{},"geometry":{"type":"Polygon","coordinates":[[[-97.24953099999999,27.524999999999977],[-97.27499999999998,27.524999999999977],[-97.27499999999998,27.52865350000002],[-97.27499999999998,27.53703710000002],[-97.27499999999998,27.538031100000012],[-97.27499999999998,27.538283999999976],[-97.27499999999998,27.545140600000025],[-97.27499999999998,27.5579932],[-97.27499999999998,27.55897090000002],[-97.27499999999998,27.559419300000002],[-97.27499999999998,27.559534400000018],[-97.27499999999998,27.559923099999992],[-97.27499999999998,27.561202100000003],[-97.27499999999998,27.5616258],[-97.27499999999998,27.561912500000005],[-97.27499999999998,27.563071999999977],[-97.27499999999998,27.563154999999995],[-97.27499999999998,27.564038299999993],[-97.27499999999998,27.56445819999999],[-97.27499999999998,27.567447700000002],[-97.27499999999998,27.56765059999998],[-97.27499999999998,27.568056300000023],[-97.27499999999998,27.568080500000008],[-97.27499999999998,27.5682592],[-97.27499999999998,27.59401969999999],[-97.27499999999998,27.594944499999997],[-97.27499999999998,27.595181000000025],[-97.27499999999998,27.59601170000002],[-97.27499999999998,27.600000000000023],[-97.25833970000002,27.600000000000023],[-97.25823309999998,27.600000000000023],[-97.25805150000002,27.600000000000023],[-97.25802010000001,27.600000000000023],[-97.2579136,27.600000000000023],[-97.25472309999998,27.600000000000023],[-97.2540042,27.600000000000023],[-97.25353819999998,27.600000000000023],[-97.25300650000003,27.600000000000023],[-97.2515487,27.600000000000023],[-97.2485744,27.600000000000023],[-97.2483681,27.600000000000023],[-97.24766749999998,27.600000000000023],[-97.24698590000003,27.600000000000023],[-97.24644110000003,27.600000000000023],[-97.24571809999998,27.600000000000023],[-97.2452242,27.600000000000023],[-97.24458190000001,27.600000000000023],[-97.2441379,27.600000000000023],[-97.2435352,27.600000000000023],[-97.24318269999998,27.600000000000023],[-97.2425255,27.600000000000023],[-97.24234510000002,27.600000000000023],[-97.24184789999998,27.600000000000023],[-97.24116889999999,27.600000000000023],[-97.24052640000002,27.600000000000023],[-97.23981789999999,27.600000000000023],[-97.23922470000002,27.600000000000023],[-97.23849569999999,27.600000000000023],[-97.2378377,27.600000000000023],[-97.23727819999999,27.600000000000023],[-97.23653480000002,27.600000000000023],[-97.23588310000002,27.600000000000023],[-97.23522480000003,27.600000000000023],[-97.23438809999999,27.600000000000023],[-97.23110919999999,27.600000000000023],[-97.23044499999997,27.600000000000023],[-97.22557979999999,27.600000000000023],[-97.22533550000003,27.600000000000023],[-97.21190100000001,27.600000000000023],[-97.21166529999999,27.600000000000023],[-97.21038499999997,27.600000000000023],[-97.20945610000001,27.600000000000023],[-97.20480859999998,27.600000000000023],[-97.19999999999999,27.600000000000023],[-97.19999999999999,27.599743199999978],[-97.19999999999999,27.590257399999985],[-97.19999999999999,27.584489099999985],[-97.19999999999999,27.569168699999977],[-97.19999999999999,27.524999999999977],[-97.23157980000002,27.524999999999977],[-97.23402199999998,27.524999999999977],[-97.23963959999998,27.524999999999977],[-97.2435567,27.524999999999977],[-97.24454229999998,27.524999999999977],[-97.24953099999999,27.524999999999977]]]}},{"type":"Feature","properties":{},"geometry":{"type":"Polygon","coordinates":[[[-97.25833970000002,27.600000000000023],[-97.2746219,27.600000000000023],[-97.27499999999998,27.600000000000023],[-97.27499999999998,27.601102000000026],[-97.27499999999998,27.601308200000005],[-97.27499999999998,27.60153919999999],[-97.27499999999998,27.601973699999974],[-97.27499999999998,27.626896199999976],[-97.27499999999998,27.627130299999976],[-97.27499999999998,27.6282061],[-97.27499999999998,27.628655200000026],[-97.27499999999998,27.629831000000024],[-97.27499999999998,27.63024039999999],[-97.27499999999998,27.63363800000002],[-97.27499999999998,27.644461499999977],[-97.27499999999998,27.644987000000015],[-97.27499999999998,27.650498200000015],[-97.27499999999998,27.654307399999993],[-97.27499999999998,27.655056300000012],[-97.27499999999998,27.65534789999998],[-97.27499999999998,27.655440399999975],[-97.27499999999998,27.655788400000006],[-97.27499999999998,27.656659100000013],[-97.27499999999998,27.657106899999974],[-97.27499999999998,27.657663000000014],[-97.27499999999998,27.65789189999998],[-97.27499999999998,27.658213199999977],[-97.27499999999998,27.66011359999999],[-97.27499999999998,27.661979900000006],[-97.27499999999998,27.66217230000001],[-97.27499999999998,27.662860000000023],[-97.27499999999998,27.67500000000001],[-97.27339319999999,27.67500000000001],[-97.26838379999998,27.67500000000001],[-97.26606420000002,27.67500000000001],[-97.2659208,27.67500000000001],[-97.2639608,27.67500000000001],[-97.26295779999998,27.67500000000001],[-97.26102200000003,27.67500000000001],[-97.26038469999997,27.67500000000001],[-97.25814630000002,27.67500000000001],[-97.25632610000002,27.67500000000001],[-97.25523190000001,27.67500000000001],[-97.25451559999999,27.67500000000001],[-97.25373159999998,27.67500000000001],[-97.25113370000003,27.67500000000001],[-97.25086700000003,27.67500000000001],[-97.2496946,27.67500000000001],[-97.24877830000003,27.67500000000001],[-97.24661470000001,27.67500000000001],[-97.2442992,27.67500000000001],[-97.24161149999998,27.67500000000001],[-97.23842159999998,27.67500000000001],[-97.23547150000002,27.67500000000001],[-97.23508090000001,27.67500000000001],[-97.2336833,27.67500000000001],[-97.23044859999999,27.67500000000001],[-97.22824279999998,27.67500000000001],[-97.22814369999998,27.67500000000001],[-97.22794570000002,27.67500000000001],[-97.22784669999999,27.67500000000001],[-97.2253465,27.67500000000001],[-97.22451130000002,27.67500000000001],[-97.22327039999999,27.67500000000001],[-97.22258119999998,27.67500000000001],[-97.21116139999998,27.67500000000001],[-97.20603569999997,27.67500000000001],[-97.20555519999999,27.67500000000001],[-97.20269869999998,27.67500000000001],[-97.19999999999999,27.67500000000001],[-97.19999999999999,27.66615619999999],[-97.19999999999999,27.655683699999997],[-97.19999999999999,27.6529491],[-97.19999999999999,27.65222799999998],[-97.19999999999999,27.652097700000013],[-97.19999999999999,27.649372400000004],[-97.19999999999999,27.644536500000015],[-97.19999999999999,27.643175900000017],[-97.19999999999999,27.63363800000002],[-97.19999999999999,27.618021999999996],[-97.19999999999999,27.61458490000001],[-97.19999999999999,27.61453849999998],[-97.19999999999999,27.614333499999987],[-97.19999999999999,27.614018699999974],[-97.19999999999999,27.61384179999999],[-97.19999999999999,27.61375509999999],[-97.19999999999999,27.61102820000002],[-97.19999999999999,27.60730990000002],[-97.19999999999999,27.600000000000023],[-97.20480859999998,27.600000000000023],[-97.20945610000001,27.600000000000023],[-97.21038499999997,27.600000000000023],[-97.21166529999999,27.600000000000023],[-97.21190100000001,27.600000000000023],[-97.22533550000003,27.600000000000023],[-97.22557979999999,27.600000000000023],[-97.23044499999997,27.600000000000023],[-97.23110919999999,27.600000000000023],[-97.23438809999999,27.600000000000023],[-97.23522480000003,27.600000000000023],[-97.23588310000002,27.600000000000023],[-97.23653480000002,27.600000000000023],[-97.23727819999999,27.600000000000023],[-97.2378377,27.600000000000023],[-97.23849569999999,27.600000000000023],[-97.23922470000002,27.600000000000023],[-97.23981789999999,27.600000000000023],[-97.24052640000002,27.600000000000023],[-97.24116889999999,27.600000000000023],[-97.24184789999998,27.600000000000023],[-97.24234510000002,27.600000000000023],[-97.2425255,27.600000000000023],[-97.24318269999998,27.600000000000023],[-97.2435352,27.600000000000023],[-97.2441379,27.600000000000023],[-97.24458190000001,27.600000000000023],[-97.2452242,27.600000000000023],[-97.24571809999998,27.600000000000023],[-97.24644110000003,27.600000000000023],[-97.24698590000003,27.600000000000023],[-97.24766749999998,27.600000000000023],[-97.2483681,27.600000000000023],[-97.2485744,27.600000000000023],[-97.2515487,27.600000000000023],[-97.25300650000003,27.600000000000023],[-97.25353819999998,27.600000000000023],[-97.2540042,27.600000000000023],[-97.25472309999998,27.600000000000023],[-97.2579136,27.600000000000023],[-97.25802010000001,27.600000000000023],[-97.25805150000002,27.600000000000023],[-97.25823309999998,27.600000000000023],[-97.25833970000002,27.600000000000023]]]}},{"type":"Feature","properties":{},"geometry":{"type":"Polygon","coordinates":[[[-97.19999999999999,27.692978299999993],[-97.19999999999999,27.689834099999985],[-97.19999999999999,27.68872190000002],[-97.19999999999999,27.688437799999974],[-97.19999999999999,27.688281000000018],[-97.19999999999999,27.688244699999984],[-97.19999999999999,27.688229700000022],[-97.19999999999999,27.687872500000026],[-97.19999999999999,27.685025900000028],[-97.19999999999999,27.681695900000022],[-97.19999999999999,27.67500000000001],[-97.20269869999998,27.67500000000001],[-97.20555519999999,27.67500000000001],[-97.20603569999997,27.67500000000001],[-97.21116139999998,27.67500000000001],[-97.22258119999998,27.67500000000001],[-97.22327039999999,27.67500000000001],[-97.22451130000002,27.67500000000001],[-97.2253465,27.67500000000001],[-97.22784669999999,27.67500000000001],[-97.22794570000002,27.67500000000001],[-97.22814369999998,27.67500000000001],[-97.22824279999998,27.67500000000001],[-97.23044859999999,27.67500000000001],[-97.2336833,27.67500000000001],[-97.23508090000001,27.67500000000001],[-97.23547150000002,27.67500000000001],[-97.23842159999998,27.67500000000001],[-97.24161149999998,27.67500000000001],[-97.2442992,27.67500000000001],[-97.24661470000001,27.67500000000001],[-97.24877830000003,27.67500000000001],[-97.2496946,27.67500000000001],[-97.25086700000003,27.67500000000001],[-97.25113370000003,27.67500000000001],[-97.25373159999998,27.67500000000001],[-97.25451559999999,27.67500000000001],[-97.25523190000001,27.67500000000001],[-97.25632610000002,27.67500000000001],[-97.25814630000002,27.67500000000001],[-97.26038469999997,27.67500000000001],[-97.26102200000003,27.67500000000001],[-97.26295779999998,27.67500000000001],[-97.2639608,27.67500000000001],[-97.2659208,27.67500000000001],[-97.26606420000002,27.67500000000001],[-97.26838379999998,27.67500000000001],[-97.27339319999999,27.67500000000001],[-97.27499999999998,27.67500000000001],[-97.27499999999998,27.682539099999985],[-97.27499999999998,27.691431299999977],[-97.27499999999998,27.702837999999986],[-97.27499999999998,27.705],[-97.19999999999999,27.705],[-97.19999999999999,27.692978299999993]]]}}]}